{"type":"FeatureCollection","features":[{"type":"Feature","properties":{"name":"강남구","n":471,"ppy_med":7474,"top":[{"id":"압구정동-한양1차(영동한양)-490","name":"한양1차(영동한양)","ppy":25729,"lat":37.5303153460239,"lng":127.038801247058,"latest":357000,"area":63},{"id":"압구정동-현대14차(203,204,205,206동)-447","name":"현대14차(203,204,205,206동)","ppy":22757,"lat":37.5306250782443,"lng":127.026136755454,"latest":586000,"area":84},{"id":"압구정동-현대5차(71,72동)-455","name":"현대5차(71,72동)","ppy":22111,"lat":37.5319760183273,"lng":127.028563016169,"latest":550000,"area":82}],"center":[127.07719,37.48298]},"geometry":{"type":"Polygon","coordinates":[[[127.11596,37.47801],[127.11504,37.47993],[127.11251,37.48263],[127.11198,37.48449],[127.10537,37.49206],[127.09651,37.49623],[127.08092,37.50089],[127.07202,37.50248],[127.0705,37.5034],[127.06932,37.50594],[127.06659,37.52488],[127.05204,37.53255],[127.02927,37.53943],[127.02391,37.53975],[127.02111,37.53832],[127.00838,37.52588],[127.01318,37.52265],[127.01511,37.52473],[127.01774,37.52177],[127.02053,37.51268],[127.034,37.48441],[127.04149,37.48542],[127.04507,37.47713],[127.05097,37.47143],[127.04878,37.46982],[127.05107,37.46934],[127.05082,37.46687],[127.05552,37.46859],[127.06705,37.46966],[127.06862,37.47078],[127.07274,37.47196],[127.07686,37.47503],[127.08452,37.47538],[127.08466,37.47312],[127.08594,37.47039],[127.08775,37.46981],[127.08961,37.46739],[127.09116,37.467],[127.09209,37.46475],[127.09179,37.46295],[127.09258,37.46173],[127.09613,37.4609],[127.09645,37.45648],[127.0983,37.45655],[127.10169,37.45842],[127.1026,37.45987],[127.10396,37.46008],[127.10453,37.46125],[127.10398,37.46271],[127.11383,37.46104],[127.11562,37.46269],[127.12009,37.46394],[127.1225,37.46642],[127.123,37.46781],[127.12265,37.4688],[127.11596,37.47801]]]}},{"type":"Feature","properties":{"name":"강동구","n":444,"ppy_med":3189,"top":[{"id":"둔촌동-올림픽파크포레온-633","name":"올림픽파크포레온","ppy":12057,"lat":37.5249677176279,"lng":127.140290598327,"latest":179000,"area":39},{"id":"명일동-래미안솔베뉴-359","name":"래미안솔베뉴","ppy":10122,"lat":37.5524804591506,"lng":127.145208524251,"latest":180000,"area":59},{"id":"고덕동-고덕그라시움-693","name":"고덕그라시움","ppy":10039,"lat":37.5580690838901,"lng":127.163465686409,"latest":204500,"area":59}],"center":[127.15497,37.55085]},"geometry":{"type":"Polygon","coordinates":[[[127.10951,37.54403],[127.11146,37.54696],[127.11156,37.5505],[127.11431,37.55437],[127.11565,37.5577],[127.12296,37.56349],[127.12861,37.56616],[127.13427,37.56795],[127.14895,37.56843],[127.16675,37.57898],[127.17387,37.57973],[127.17713,37.5812],[127.17704,37.57953],[127.17541,37.57829],[127.17569,37.5749],[127.17783,37.57206],[127.17922,37.56892],[127.17966,37.56528],[127.182,37.56099],[127.18134,37.55303],[127.18291,37.55182],[127.18271,37.54645],[127.18377,37.54555],[127.18356,37.54517],[127.18119,37.54662],[127.17931,37.54668],[127.17572,37.54521],[127.17414,37.54571],[127.16976,37.5448],[127.16708,37.54521],[127.16633,37.5443],[127.16316,37.545],[127.15402,37.53451],[127.15316,37.52911],[127.14946,37.52575],[127.1478,37.52215],[127.14567,37.52194],[127.14479,37.51962],[127.14511,37.51679],[127.11909,37.52796],[127.12344,37.53865],[127.11895,37.54113],[127.10951,37.54403]]]}},{"type":"Feature","properties":{"name":"강북구","n":114,"ppy_med":2316,"top":[{"id":"미아동-삼성래미안트리베라2단지-812","name":"삼성래미안트리베라2단지","ppy":5288,"lat":37.6173116384026,"lng":127.020401549408,"latest":116000,"area":84},{"id":"미아동-송천센트레빌-461","name":"송천센트레빌","ppy":4872,"lat":37.6127523875236,"lng":127.025814365129,"latest":122500,"area":84},{"id":"미아동-미아동부센트레빌-474","name":"미아동부센트레빌","ppy":4799,"lat":37.613739986561,"lng":127.025698726597,"latest":100000,"area":59}],"center":[127.00734,37.65108]},"geometry":{"type":"Polygon","coordinates":[[[127.00832,37.68484],[127.0081,37.6833],[127.00883,37.6818],[127.0081,37.68023],[127.00878,37.67958],[127.0119,37.67937],[127.01316,37.67758],[127.01393,37.67493],[127.01664,37.67268],[127.01858,37.66961],[127.01547,37.66614],[127.01538,37.6636],[127.01659,37.66167],[127.01445,37.66193],[127.01456,37.66037],[127.01257,37.65232],[127.01324,37.65045],[127.01445,37.65036],[127.01504,37.64943],[127.01716,37.64868],[127.02138,37.64891],[127.02272,37.64782],[127.02482,37.64728],[127.02563,37.64598],[127.03249,37.64191],[127.03459,37.6378],[127.03745,37.63655],[127.03944,37.63285],[127.04764,37.62725],[127.04999,37.62441],[127.04675,37.62247],[127.04411,37.6188],[127.03972,37.61557],[127.03721,37.61286],[127.03031,37.60912],[127.03003,37.61234],[127.02663,37.61264],[127.02221,37.61133],[127.02202,37.61227],[127.02039,37.61259],[127.01736,37.61469],[127.01082,37.61632],[127.00777,37.61968],[127.00809,37.62407],[127.00463,37.62404],[127.00328,37.62528],[126.99996,37.62586],[126.99338,37.63142],[126.99293,37.63249],[126.99178,37.63213],[126.99035,37.63264],[126.98945,37.63403],[126.98859,37.6338],[126.98817,37.63461],[126.98452,37.63654],[126.98594,37.6407],[126.98538,37.64172],[126.98381,37.64225],[126.98338,37.64364],[126.98461,37.64524],[126.98467,37.64766],[126.98379,37.64836],[126.98399,37.64955],[126.98054,37.65323],[126.97971,37.65619],[126.9829,37.65649],[126.98719,37.66262],[126.99272,37.6649],[126.9942,37.66629],[126.9941,37.67273],[126.99354,37.67392],[126.99424,37.67465],[126.9932,37.67592],[126.99281,37.6783],[126.99119,37.67928],[126.99393,37.68025],[126.99596,37.68189],[126.99639,37.68281],[126.99506,37.68422],[126.99521,37.68495],[126.99583,37.68542],[126.99941,37.68396],[127.00102,37.68437],[127.00216,37.68377],[127.00418,37.68515],[127.00832,37.68484]]]}},{"type":"Feature","properties":{"name":"강서구","n":518,"ppy_med":2823,"top":[{"id":"마곡동-마곡엠밸리8단지-741","name":"마곡엠밸리8단지","ppy":8238,"lat":37.5639536123299,"lng":126.819605455478,"latest":171000,"area":84},{"id":"염창동-염창1차한화꿈에그린-281-22","name":"염창1차한화꿈에그린","ppy":7859,"lat":37.5481830295131,"lng":126.873143646461,"latest":143000,"area":59},{"id":"마곡동-마곡13단지힐스테이트마스터-748","name":"마곡13단지힐스테이트마스터","ppy":7391,"lat":37.5577905837789,"lng":126.818287997332,"latest":190000,"area":84}],"center":[126.80449,37.56191]},"geometry":{"type":"Polygon","coordinates":[[[126.81232,37.54076],[126.82205,37.54066],[126.82539,37.54168],[126.82608,37.54297],[126.82574,37.5443],[126.82758,37.54768],[126.82976,37.54773],[126.83046,37.54577],[126.82968,37.54407],[126.82998,37.54166],[126.8331,37.54185],[126.83516,37.53753],[126.83511,37.53673],[126.83441,37.53646],[126.84048,37.52649],[126.86397,37.52979],[126.86344,37.5361],[126.86378,37.54071],[126.86212,37.54436],[126.86421,37.55115],[126.87243,37.54711],[126.87796,37.5471],[126.88026,37.54774],[126.87995,37.54813],[126.88079,37.54809],[126.87803,37.55172],[126.87802,37.55295],[126.87922,37.55296],[126.87923,37.55467],[126.88046,37.55625],[126.86397,37.56438],[126.85488,37.5702],[126.85348,37.57191],[126.84758,37.57619],[126.81934,37.59281],[126.81755,37.59535],[126.80259,37.60504],[126.79995,37.60255],[126.80009,37.60142],[126.79796,37.60024],[126.79699,37.59765],[126.79734,37.595],[126.8002,37.59236],[126.79886,37.59234],[126.79868,37.59128],[126.80105,37.58927],[126.80079,37.58814],[126.80033,37.58772],[126.79874,37.58814],[126.79707,37.58532],[126.79613,37.58483],[126.79695,37.58419],[126.79553,37.58305],[126.79536,37.58513],[126.79479,37.58515],[126.79457,37.58253],[126.79442,37.58351],[126.79332,37.58445],[126.79377,37.58219],[126.79273,37.58016],[126.79309,37.57685],[126.79254,37.5768],[126.79234,37.57935],[126.79122,37.58133],[126.79059,37.58053],[126.79048,37.57772],[126.7892,37.57763],[126.78835,37.57673],[126.78907,37.57555],[126.78786,37.5761],[126.78218,37.57348],[126.78134,37.57147],[126.78252,37.57048],[126.78045,37.57046],[126.78157,37.56914],[126.78011,37.56751],[126.77909,37.56831],[126.77885,37.5672],[126.77649,37.56606],[126.7763,37.56703],[126.77529,37.56727],[126.77542,37.56819],[126.77466,37.56763],[126.77529,37.56529],[126.77702,37.56365],[126.77652,37.5623],[126.7774,37.5622],[126.77778,37.55983],[126.77563,37.56187],[126.77458,37.56129],[126.77411,37.55962],[126.77357,37.55999],[126.77178,37.55856],[126.77313,37.55741],[126.77231,37.55687],[126.76981,37.55716],[126.76728,37.55656],[126.76641,37.55698],[126.7668,37.55635],[126.76443,37.55532],[126.76606,37.55492],[126.76636,37.55377],[126.76757,37.55418],[126.76747,37.55197],[126.77027,37.55109],[126.76989,37.55034],[126.7715,37.54837],[126.77532,37.54897],[126.7768,37.54817],[126.77757,37.54673],[126.78728,37.54608],[126.78941,37.54436],[126.79173,37.54367],[126.79183,37.54179],[126.79509,37.54132],[126.79322,37.53961],[126.7939,37.53948],[126.7945,37.53573],[126.79944,37.53773],[126.79884,37.54023],[126.80071,37.54075],[126.80055,37.54146],[126.7997,37.54137],[126.80219,37.54273],[126.80721,37.54354],[126.81232,37.54076]]]}},{"type":"Feature","properties":{"name":"관악구","n":237,"ppy_med":2913,"top":[{"id":"신림동-힐스테이트뉴포레-1746","name":"힐스테이트뉴포레","ppy":7522,"lat":37.4840017278246,"lng":126.9056068235,"latest":138000,"area":59},{"id":"봉천동-e편한세상서울대입구1단지-1730","name":"e편한세상서울대입구1단지","ppy":6480,"lat":37.4780506351138,"lng":126.943355511979,"latest":166500,"area":84},{"id":"봉천동-관악푸르지오-1717","name":"관악푸르지오","ppy":6314,"lat":37.4873112715491,"lng":126.960864947013,"latest":118500,"area":59}],"center":[126.94286,37.46727]},"geometry":{"type":"Polygon","coordinates":[[[126.90826,37.47271],[126.90969,37.47063],[126.91013,37.46865],[126.91243,37.46582],[126.91384,37.46534],[126.91293,37.46414],[126.9144,37.46162],[126.91406,37.45791],[126.91491,37.45726],[126.92223,37.45657],[126.92323,37.45428],[126.92477,37.45281],[126.92587,37.45271],[126.92735,37.45101],[126.92857,37.45089],[126.93033,37.44916],[126.93166,37.44541],[126.93705,37.44219],[126.93829,37.44054],[126.93797,37.43839],[126.93887,37.43538],[126.93977,37.43607],[126.94132,37.43604],[126.94222,37.43747],[126.94559,37.43769],[126.94767,37.43892],[126.95091,37.43885],[126.95269,37.43955],[126.95584,37.43899],[126.95842,37.43948],[126.95943,37.44079],[126.96367,37.441],[126.96472,37.44214],[126.96398,37.44365],[126.96471,37.44585],[126.97286,37.448],[126.97449,37.44766],[126.97616,37.45066],[126.97771,37.45079],[126.97887,37.45212],[126.98097,37.45314],[126.98242,37.45497],[126.98233,37.45661],[126.98854,37.45795],[126.98742,37.45984],[126.98815,37.46559],[126.98381,37.4705],[126.98199,37.47427],[126.98174,37.47655],[126.97665,37.47657],[126.97085,37.47543],[126.97037,37.47637],[126.96884,37.47665],[126.9679,37.47797],[126.9645,37.47971],[126.96394,37.48102],[126.96108,37.48353],[126.96205,37.48545],[126.96181,37.4885],[126.96041,37.49008],[126.96129,37.49153],[126.96106,37.49345],[126.95977,37.49386],[126.95896,37.49378],[126.95869,37.49259],[126.95388,37.49104],[126.9489,37.49378],[126.94705,37.49407],[126.94209,37.49218],[126.94053,37.4929],[126.93724,37.49186],[126.93464,37.49301],[126.93127,37.49327],[126.92741,37.49504],[126.92537,37.49275],[126.92424,37.48996],[126.91662,37.48949],[126.91179,37.48667],[126.90632,37.48495],[126.90315,37.48497],[126.89977,37.48089],[126.89895,37.47895],[126.90978,37.48095],[126.90998,37.48029],[126.90895,37.4801],[126.90867,37.4791],[126.90949,37.47806],[126.91046,37.4784],[126.91188,37.47776],[126.91181,37.47682],[126.91113,37.47377],[126.90826,37.47271]]]}},{"type":"Feature","properties":{"name":"광진구","n":207,"ppy_med":4355,"top":[{"id":"광장동-광장힐스테이트-582","name":"광장힐스테이트","ppy":12288,"lat":37.5431780182608,"lng":127.099564904065,"latest":273000,"area":84},{"id":"자양동-자양호반써밋-861","name":"자양호반써밋","ppy":9849,"lat":37.5374300374627,"lng":127.068800532801,"latest":120000,"area":40},{"id":"광장동-극동1-218-1","name":"극동1","ppy":9774,"lat":37.5431587122415,"lng":127.104188607133,"latest":270000,"area":84}],"center":[127.09416,37.55175]},"geometry":{"type":"Polygon","coordinates":[[[127.0641,37.52603],[127.0572,37.53012],[127.07376,37.55943],[127.07225,37.56002],[127.07842,37.57183],[127.08819,37.57082],[127.08845,37.57018],[127.09177,37.56955],[127.10096,37.57343],[127.10384,37.5719],[127.10124,37.56091],[127.10279,37.55915],[127.10316,37.55717],[127.10448,37.55564],[127.10538,37.55565],[127.10825,37.55747],[127.10978,37.55981],[127.11312,37.56023],[127.11409,37.55868],[127.11333,37.5569],[127.11517,37.55648],[127.11156,37.5505],[127.11146,37.54696],[127.105,37.5379],[127.09031,37.52678],[127.08717,37.52508],[127.07948,37.52277],[127.07181,37.52343],[127.0641,37.52603]]]}},{"type":"Feature","properties":{"name":"구로구","n":374,"ppy_med":2177,"top":[{"id":"신도림동-동아2-644","name":"동아2","ppy":7460,"lat":37.5085457625955,"lng":126.885892478427,"latest":135700,"area":59},{"id":"신도림동-대림1-642","name":"대림1","ppy":7094,"lat":37.5058449867495,"lng":126.880590578918,"latest":138000,"area":59},{"id":"신도림동-대림2-642","name":"대림2","ppy":6977,"lat":37.5058449867495,"lng":126.880590578918,"latest":134800,"area":59}],"center":[126.85393,37.496]},"geometry":{"type":"Polygon","coordinates":[[[126.86761,37.49465],[126.86834,37.49516],[126.87005,37.49362],[126.86942,37.49289],[126.87003,37.49228],[126.86936,37.49165],[126.8704,37.48954],[126.87141,37.48989],[126.87173,37.49082],[126.87415,37.49132],[126.87466,37.48987],[126.87359,37.49048],[126.87287,37.49003],[126.8724,37.48933],[126.87277,37.48842],[126.87579,37.48902],[126.87681,37.48855],[126.87453,37.48532],[126.87841,37.48628],[126.88136,37.48556],[126.88944,37.47952],[126.89506,37.47848],[126.89895,37.47895],[126.89977,37.48089],[126.90315,37.48497],[126.90043,37.48569],[126.89683,37.48849],[126.89327,37.49933],[126.89354,37.50695],[126.89156,37.5101],[126.88927,37.51227],[126.88232,37.51537],[126.88169,37.5165],[126.87948,37.51778],[126.87852,37.5175],[126.87901,37.51693],[126.87857,37.51641],[126.87732,37.51604],[126.87791,37.51334],[126.87665,37.51368],[126.8761,37.51242],[126.87518,37.51245],[126.87394,37.51117],[126.87468,37.51075],[126.87518,37.51183],[126.87685,37.51084],[126.87552,37.51107],[126.87551,37.50955],[126.8738,37.50906],[126.87503,37.50771],[126.87421,37.50717],[126.87471,37.50667],[126.87357,37.50355],[126.87187,37.50413],[126.87026,37.50585],[126.86901,37.50485],[126.86544,37.50557],[126.86351,37.50501],[126.86258,37.50678],[126.86408,37.50834],[126.86032,37.50662],[126.85833,37.50992],[126.85561,37.50915],[126.85287,37.51069],[126.85009,37.51013],[126.84871,37.50888],[126.84729,37.50948],[126.84623,37.50898],[126.84438,37.50649],[126.84468,37.50574],[126.84243,37.50548],[126.84074,37.50604],[126.83959,37.5045],[126.83849,37.50442],[126.8375,37.50328],[126.83525,37.50287],[126.83201,37.50468],[126.83057,37.50636],[126.83102,37.50803],[126.82811,37.5088],[126.82699,37.5085],[126.82705,37.50922],[126.82642,37.50945],[126.82707,37.51036],[126.82154,37.50995],[126.82258,37.50556],[126.82181,37.50446],[126.82162,37.5021],[126.8198,37.50109],[126.81903,37.499],[126.81632,37.49774],[126.81431,37.49832],[126.81303,37.49643],[126.81456,37.49317],[126.81551,37.4933],[126.81784,37.49156],[126.82269,37.49],[126.82353,37.48784],[126.82218,37.4867],[126.819,37.48571],[126.81997,37.48156],[126.81825,37.4782],[126.8164,37.47753],[126.81497,37.4759],[126.81466,37.47458],[126.81767,37.47311],[126.81864,37.47407],[126.81832,37.47529],[126.81928,37.47516],[126.8195,37.47636],[126.82171,37.47622],[126.82177,37.47521],[126.82393,37.47648],[126.82926,37.47626],[126.83132,37.47761],[126.83388,37.47683],[126.83486,37.47577],[126.83465,37.47442],[126.83831,37.4754],[126.84319,37.47481],[126.84504,37.47425],[126.84523,37.47335],[126.84618,37.48113],[126.84755,37.48203],[126.85245,37.48178],[126.85366,37.4826],[126.85505,37.48508],[126.85768,37.48585],[126.86181,37.49025],[126.86459,37.4912],[126.86752,37.4932],[126.86783,37.49412],[126.86682,37.49429],[126.86761,37.49465]]]}},{"type":"Feature","properties":{"name":"금천구","n":125,"ppy_med":2218,"top":[{"id":"독산동-금천롯데캐슬골드파크3차-1155","name":"금천롯데캐슬골드파크3차","ppy":5782,"lat":37.4599188671036,"lng":126.897250450783,"latest":104500,"area":59},{"id":"독산동-금천롯데캐슬골드파크1차-1147","name":"금천롯데캐슬골드파크1차","ppy":5048,"lat":37.4597520638139,"lng":126.894460446767,"latest":134500,"area":84},{"id":"독산동-e편한세상독산더타워-1007-13","name":"e편한세상독산더타워","ppy":4622,"lat":37.4658151649342,"lng":126.896309478813,"latest":87000,"area":59}],"center":[126.89955,37.46191]},"geometry":{"type":"Polygon","coordinates":[[[126.87184,37.48524],[126.87332,37.48414],[126.87278,37.48249],[126.87338,37.48243],[126.87801,37.47383],[126.88159,37.46942],[126.88163,37.46846],[126.88462,37.46601],[126.88274,37.46439],[126.88434,37.46272],[126.88712,37.4629],[126.88887,37.46095],[126.88613,37.4609],[126.88544,37.46012],[126.88538,37.45947],[126.88634,37.45896],[126.88587,37.45759],[126.88626,37.45636],[126.8892,37.45472],[126.88964,37.45231],[126.89259,37.45195],[126.89398,37.45272],[126.89605,37.44804],[126.895,37.44822],[126.89466,37.44668],[126.89578,37.44563],[126.89727,37.44544],[126.89993,37.43956],[126.8988,37.43935],[126.89898,37.4387],[126.90276,37.43588],[126.90297,37.43405],[126.90877,37.43367],[126.91269,37.43896],[126.91411,37.44],[126.91855,37.44028],[126.91939,37.44084],[126.9231,37.44635],[126.92909,37.4502],[126.92857,37.45089],[126.92735,37.45101],[126.92587,37.45271],[126.92477,37.45281],[126.92323,37.45428],[126.92223,37.45657],[126.91491,37.45726],[126.91406,37.45791],[126.9144,37.46162],[126.91293,37.46414],[126.91384,37.46534],[126.91243,37.46582],[126.91013,37.46865],[126.90969,37.47063],[126.90826,37.47271],[126.91113,37.47377],[126.91181,37.47682],[126.91188,37.47776],[126.91046,37.4784],[126.90949,37.47806],[126.90867,37.4791],[126.90895,37.4801],[126.90998,37.48029],[126.90978,37.48095],[126.89506,37.47848],[126.88854,37.47991],[126.88293,37.48462],[126.8791,37.48629],[126.87418,37.4852],[126.87279,37.48627],[126.87184,37.48524]]]}},{"type":"Feature","properties":{"name":"노원구","n":287,"ppy_med":2911,"top":[{"id":"상계동-상계주공5(저층)-721","name":"상계주공5(저층)","ppy":6719,"lat":37.6527771268646,"lng":127.064646740398,"latest":65000,"area":31},{"id":"월계동-미성-13","name":"미성","ppy":6461,"lat":37.6244655609391,"lng":127.065322271669,"latest":101000,"area":50},{"id":"월계동-미륭-13","name":"미륭","ppy":6277,"lat":37.6244655609391,"lng":127.065322271669,"latest":97000,"area":51}],"center":[127.07938,37.65241]},"geometry":{"type":"Polygon","coordinates":[[[127.11109,37.64256],[127.11007,37.6423],[127.1089,37.64405],[127.1071,37.64494],[127.10074,37.64581],[127.0992,37.64516],[127.0928,37.64564],[127.09203,37.64649],[127.09233,37.64972],[127.09431,37.65374],[127.09147,37.6578],[127.0919,37.66045],[127.09448,37.66346],[127.09482,37.66691],[127.09559,37.66813],[127.09483,37.67514],[127.09173,37.67861],[127.0936,37.68252],[127.09602,37.68484],[127.09637,37.68892],[127.09465,37.6888],[127.09319,37.68975],[127.09036,37.68927],[127.08555,37.69061],[127.0841,37.69403],[127.08107,37.69622],[127.07652,37.69569],[127.07313,37.69384],[127.06909,37.69386],[127.0677,37.69479],[127.06347,37.69487],[127.06248,37.69296],[127.05965,37.69022],[127.05512,37.6893],[127.05176,37.68729],[127.05151,37.68594],[127.05213,37.68436],[127.04914,37.67366],[127.04886,37.66842],[127.05096,37.66479],[127.05149,37.66062],[127.05395,37.65568],[127.05429,37.64998],[127.05591,37.64603],[127.05476,37.64191],[127.05514,37.64077],[127.05334,37.64131],[127.05129,37.64486],[127.0507,37.64491],[127.04922,37.64228],[127.0465,37.64105],[127.04662,37.63914],[127.04527,37.63753],[127.04433,37.63381],[127.04172,37.6312],[127.04764,37.62725],[127.05332,37.62094],[127.06067,37.61577],[127.06086,37.61507],[127.06251,37.61431],[127.07132,37.61609],[127.07137,37.61524],[127.08596,37.6203],[127.08878,37.6202],[127.09391,37.61776],[127.09789,37.61748],[127.09856,37.61821],[127.09981,37.61809],[127.10163,37.61979],[127.10573,37.62087],[127.1038,37.62193],[127.10357,37.62307],[127.10522,37.62517],[127.10531,37.62707],[127.10963,37.62983],[127.11196,37.63253],[127.11239,37.63679],[127.11057,37.63913],[127.11232,37.64019],[127.11109,37.64256]]]}},{"type":"Feature","properties":{"name":"도봉구","n":177,"ppy_med":2237,"top":[{"id":"창동-주공19단지(창동리버타운)-27","name":"주공19단지(창동리버타운)","ppy":4800,"lat":37.6492614170598,"lng":127.0508054847,"latest":106500,"area":68},{"id":"창동-창동주공3단지(해등마을)-347","name":"창동주공3단지(해등마을)","ppy":4686,"lat":37.6500631583751,"lng":127.04420113616,"latest":74000,"area":49},{"id":"창동-동아청솔-808","name":"동아청솔","ppy":4448,"lat":37.6578643872043,"lng":127.048380333971,"latest":89500,"area":59}],"center":[127.03049,37.67172]},"geometry":{"type":"Polygon","coordinates":[[[127.01546,37.70148],[127.01575,37.70055],[127.01457,37.69855],[127.01212,37.69814],[127.00998,37.69666],[127.0103,37.69619],[127.00893,37.69461],[127.00824,37.69211],[127.00815,37.68892],[127.00898,37.68739],[127.0081,37.6833],[127.00883,37.6818],[127.0081,37.68023],[127.00878,37.67958],[127.0119,37.67937],[127.01316,37.67758],[127.01393,37.67493],[127.01664,37.67268],[127.01858,37.66961],[127.01547,37.66614],[127.01538,37.6636],[127.01659,37.66167],[127.01445,37.66193],[127.01456,37.66037],[127.01269,37.65339],[127.01287,37.65124],[127.01545,37.6492],[127.01822,37.64859],[127.02138,37.64891],[127.02272,37.64782],[127.02482,37.64728],[127.02563,37.64598],[127.03249,37.64191],[127.03459,37.6378],[127.03745,37.63655],[127.03854,37.63397],[127.04172,37.6312],[127.04433,37.63381],[127.04527,37.63753],[127.04662,37.63914],[127.0465,37.64105],[127.04922,37.64228],[127.0507,37.64491],[127.05129,37.64486],[127.05334,37.64131],[127.05514,37.64077],[127.05476,37.64191],[127.0559,37.64545],[127.05429,37.64998],[127.05378,37.65634],[127.05149,37.66062],[127.05096,37.66479],[127.04886,37.66842],[127.04914,37.67366],[127.05213,37.68436],[127.05018,37.68783],[127.05006,37.69101],[127.04836,37.69392],[127.04608,37.69245],[127.04492,37.69242],[127.04477,37.69304],[127.04305,37.69364],[127.04349,37.69414],[127.04309,37.69524],[127.04187,37.69533],[127.04008,37.69469],[127.03861,37.69329],[127.03242,37.69185],[127.03226,37.69286],[127.03109,37.69307],[127.02891,37.6999],[127.02732,37.70089],[127.0247,37.69973],[127.0217,37.70007],[127.01981,37.70116],[127.01546,37.70148]]]}},{"type":"Feature","properties":{"name":"동대문구","n":273,"ppy_med":2993,"top":[{"id":"답십리동-힐스테이트청계-1009","name":"힐스테이트청계","ppy":8741,"lat":37.5714539539342,"lng":127.047167730267,"latest":165000,"area":59},{"id":"용두동-이편한세상청계센트럴포레-795","name":"이편한세상청계센트럴포레","ppy":8600,"lat":37.5716477982277,"lng":127.029219765505,"latest":156000,"area":59},{"id":"답십리동-답십리파크자이-1014","name":"답십리파크자이","ppy":8442,"lat":37.5677324870223,"lng":127.059520848719,"latest":147500,"area":59}],"center":[127.05043,37.58775]},"geometry":{"type":"Polygon","coordinates":[[[127.02342,37.57192],[127.02527,37.57085],[127.02621,37.57126],[127.03141,37.56981],[127.03586,37.57205],[127.03817,37.57229],[127.03821,37.57302],[127.04195,37.57297],[127.04848,37.56998],[127.05914,37.56229],[127.07225,37.56002],[127.07806,37.57044],[127.07851,37.57284],[127.07775,37.58006],[127.07117,37.58856],[127.06938,37.5959],[127.0697,37.59745],[127.07238,37.60068],[127.07177,37.60683],[127.06802,37.60683],[127.06631,37.60547],[127.06229,37.60515],[127.06026,37.60309],[127.06005,37.60217],[127.06061,37.60197],[127.05918,37.60103],[127.05512,37.60127],[127.05207,37.60013],[127.05134,37.60129],[127.04729,37.59617],[127.04553,37.59534],[127.04476,37.59639],[127.04369,37.59627],[127.04299,37.59697],[127.04178,37.59647],[127.04024,37.59484],[127.03869,37.59125],[127.03617,37.59121],[127.03629,37.58987],[127.02954,37.58268],[127.02331,37.57843],[127.02342,37.57192]]]}},{"type":"Feature","properties":{"name":"동작구","n":209,"ppy_med":4388,"top":[{"id":"흑석동-아크로리버하임-341","name":"아크로리버하임","ppy":14217,"lat":37.5106657671672,"lng":126.959685506035,"latest":240000,"area":84},{"id":"흑석동-롯데캐슬에듀포레-340","name":"롯데캐슬에듀포레","ppy":11236,"lat":37.5043325032888,"lng":126.95965566148,"latest":213500,"area":59},{"id":"흑석동-한강현대-28","name":"한강현대","ppy":10882,"lat":37.5070082560032,"lng":126.969728846898,"latest":218000,"area":66}],"center":[126.94936,37.49414]},"geometry":{"type":"Polygon","coordinates":[[[126.98081,37.50647],[126.98091,37.50279],[126.98523,37.49977],[126.9829,37.49694],[126.98174,37.47655],[126.97665,37.47657],[126.97085,37.47543],[126.97037,37.47637],[126.96884,37.47665],[126.9679,37.47797],[126.9645,37.47971],[126.96394,37.48102],[126.96108,37.48353],[126.96205,37.48545],[126.96181,37.4885],[126.96041,37.49008],[126.96129,37.49153],[126.96106,37.49345],[126.95977,37.49386],[126.95896,37.49378],[126.95869,37.49259],[126.95388,37.49104],[126.9489,37.49378],[126.94705,37.49407],[126.94209,37.49218],[126.94053,37.4929],[126.93724,37.49186],[126.93464,37.49301],[126.93127,37.49327],[126.92741,37.49504],[126.92537,37.49275],[126.92424,37.48996],[126.91662,37.48949],[126.91179,37.48667],[126.90632,37.48495],[126.90315,37.48497],[126.91226,37.49627],[126.91903,37.4975],[126.92022,37.49824],[126.92028,37.49998],[126.92522,37.51225],[126.92771,37.51567],[126.93164,37.51553],[126.93615,37.51625],[126.94886,37.51967],[126.96513,37.51269],[126.96761,37.51043],[126.97327,37.50712],[126.98081,37.50647]]]}},{"type":"Feature","properties":{"name":"마포구","n":285,"ppy_med":4272,"top":[{"id":"대흥동-마포그랑자이-806","name":"마포그랑자이","ppy":11851,"lat":37.555259297312,"lng":126.944416178426,"latest":223000,"area":59},{"id":"아현동-마포래미안푸르지오1단지-777","name":"마포래미안푸르지오1단지","ppy":11746,"lat":37.5555932310828,"lng":126.953656665391,"latest":218000,"area":59},{"id":"아현동-더클래시-804","name":"더클래시","ppy":11493,"lat":37.555162019119,"lng":126.950560295066,"latest":219000,"area":59}],"center":[126.92172,37.55687]},"geometry":{"type":"Polygon","coordinates":[[[126.90484,37.54142],[126.89894,37.54801],[126.88826,37.55221],[126.86397,37.56438],[126.85488,37.5702],[126.85363,37.57179],[126.85363,37.5738],[126.85835,37.57473],[126.85926,37.57552],[126.86093,37.575],[126.86351,37.57754],[126.86693,37.57717],[126.87587,37.57909],[126.87733,37.58405],[126.87654,37.58444],[126.87768,37.58608],[126.8791,37.58678],[126.8804,37.58963],[126.88203,37.59083],[126.88869,37.58474],[126.90908,37.57123],[126.91844,37.56716],[126.92473,37.56572],[126.9267,37.56467],[126.92828,37.56338],[126.92677,37.56111],[126.92659,37.55885],[126.93686,37.5551],[126.94137,37.55654],[126.95914,37.55724],[126.96163,37.55908],[126.96156,37.55842],[126.9631,37.55822],[126.96343,37.55686],[126.96173,37.55479],[126.96236,37.55148],[126.9639,37.54975],[126.96374,37.54876],[126.96224,37.54862],[126.96005,37.54606],[126.9579,37.54545],[126.95811,37.54442],[126.95742,37.54321],[126.95835,37.54276],[126.95818,37.54231],[126.95699,37.54164],[126.95573,37.53947],[126.95407,37.53891],[126.95337,37.53751],[126.95094,37.53617],[126.94748,37.53582],[126.94738,37.53522],[126.94627,37.53569],[126.9451,37.53497],[126.94458,37.53377],[126.93856,37.53784],[126.93033,37.54136],[126.92711,37.53904],[126.92309,37.54045],[126.92242,37.54143],[126.90484,37.54142]]]}},{"type":"Feature","properties":{"name":"서대문구","n":234,"ppy_med":3189,"top":[{"id":"북아현동-힐스테이트신촌-1017","name":"힐스테이트신촌","ppy":9916,"lat":37.5622057682356,"lng":126.951051271738,"latest":197000,"area":84},{"id":"북아현동-e편한세상신촌2단지-1013","name":"e편한세상신촌2단지","ppy":9821,"lat":37.5582659643517,"lng":126.950153860719,"latest":238000,"area":84},{"id":"북아현동-e편한세상신촌4단지-1013","name":"e편한세상신촌4단지","ppy":8567,"lat":37.5582659643517,"lng":126.950153860719,"latest":223000,"area":84}],"center":[126.94038,37.58639]},"geometry":{"type":"Polygon","coordinates":[[[126.96547,37.56029],[126.96947,37.56197],[126.96867,37.56335],[126.9536,37.57881],[126.95723,37.57988],[126.95824,37.58112],[126.95761,37.58296],[126.95803,37.58422],[126.95737,37.58703],[126.95749,37.59311],[126.95903,37.59507],[126.95804,37.59821],[126.95539,37.59932],[126.95309,37.59883],[126.95339,37.60019],[126.95238,37.6025],[126.95408,37.60511],[126.95275,37.6058],[126.95145,37.60817],[126.95059,37.60851],[126.95041,37.61075],[126.94841,37.60885],[126.94372,37.60623],[126.9437,37.60512],[126.94212,37.60504],[126.94127,37.60322],[126.93998,37.6031],[126.93981,37.60192],[126.94137,37.60073],[126.94088,37.59878],[126.93859,37.59755],[126.93752,37.59789],[126.93351,37.59659],[126.93026,37.59462],[126.92781,37.59166],[126.92776,37.58812],[126.92579,37.58711],[126.92386,37.58721],[126.92358,37.58614],[126.92183,37.58472],[126.92177,37.58344],[126.916,37.58318],[126.91572,37.58462],[126.91645,37.58594],[126.9154,37.58551],[126.91576,37.58607],[126.91317,37.58713],[126.90195,37.57655],[126.90981,37.57083],[126.91844,37.56716],[126.92602,37.56515],[126.92828,37.56338],[126.92677,37.56111],[126.92659,37.55885],[126.93686,37.5551],[126.94137,37.55654],[126.95914,37.55724],[126.96163,37.55908],[126.96547,37.56029]]]}},{"type":"Feature","properties":{"name":"서초구","n":501,"ppy_med":5389,"top":[{"id":"반포동-래미안원베일리-1","name":"래미안원베일리","ppy":24026,"lat":37.5070610418124,"lng":126.99796905841,"latest":563000,"area":84},{"id":"반포동-아크로리버파크-2-12","name":"아크로리버파크","ppy":20970,"lat":37.5054572291322,"lng":126.992771916234,"latest":539000,"area":84},{"id":"잠원동-반포르엘-163","name":"반포르엘","ppy":19399,"lat":37.5076756920378,"lng":127.002785569445,"latest":572000,"area":97}],"center":[127.03947,37.46208]},"geometry":{"type":"Polygon","coordinates":[[[126.98225,37.48536],[126.98173,37.47528],[126.98381,37.4705],[126.98815,37.46559],[126.98742,37.45984],[126.98854,37.45795],[126.99106,37.46074],[126.99209,37.4605],[126.9932,37.46149],[126.99655,37.46221],[126.99715,37.46404],[126.99638,37.46592],[126.99659,37.46687],[126.99775,37.46769],[127.00028,37.46708],[127.00311,37.46731],[127.00414,37.46602],[127.00509,37.46204],[127.00698,37.45928],[127.00865,37.45836],[127.01096,37.4554],[127.01456,37.45482],[127.01772,37.45618],[127.01975,37.45584],[127.0222,37.45654],[127.02291,37.45734],[127.02585,37.45768],[127.02662,37.45967],[127.02849,37.46012],[127.02804,37.46126],[127.02972,37.46387],[127.02959,37.46534],[127.03118,37.46575],[127.03375,37.46469],[127.03472,37.46411],[127.03381,37.46133],[127.03405,37.46019],[127.03477,37.46013],[127.03508,37.45796],[127.03655,37.45682],[127.03736,37.45519],[127.03564,37.45319],[127.03762,37.44902],[127.03697,37.44711],[127.03792,37.44469],[127.03719,37.44272],[127.03526,37.44054],[127.03595,37.43905],[127.04077,37.43837],[127.04502,37.43401],[127.04624,37.43352],[127.04753,37.43059],[127.04912,37.43035],[127.05161,37.42871],[127.06079,37.43021],[127.06588,37.42913],[127.0671,37.43026],[127.07066,37.43018],[127.07117,37.4319],[127.07053,37.43265],[127.07148,37.43435],[127.07096,37.43497],[127.07135,37.43597],[127.07401,37.4372],[127.0741,37.43812],[127.07384,37.43917],[127.07195,37.43992],[127.07161,37.44194],[127.07496,37.44248],[127.08114,37.44078],[127.08234,37.44118],[127.08423,37.44398],[127.08847,37.44517],[127.08817,37.44899],[127.0907,37.4528],[127.09281,37.45386],[127.09298,37.45546],[127.09457,37.45658],[127.09645,37.45648],[127.09613,37.4609],[127.09258,37.46173],[127.09179,37.46295],[127.09209,37.46475],[127.09116,37.467],[127.08961,37.46739],[127.08775,37.46981],[127.08594,37.47039],[127.08466,37.47312],[127.08452,37.47538],[127.07686,37.47503],[127.07274,37.47196],[127.06862,37.47078],[127.06705,37.46966],[127.05552,37.46859],[127.05082,37.46687],[127.05107,37.46934],[127.04878,37.46982],[127.05097,37.47143],[127.04507,37.47713],[127.04149,37.48542],[127.034,37.48441],[127.02053,37.51268],[127.01809,37.52123],[127.01511,37.52473],[127.01318,37.52265],[127.00838,37.52588],[127.00123,37.51922],[126.98815,37.50965],[126.9854,37.50652],[126.98081,37.50647],[126.98091,37.50279],[126.98523,37.49977],[126.9829,37.49694],[126.98225,37.48536]]]}},{"type":"Feature","properties":{"name":"성동구","n":160,"ppy_med":6462,"top":[{"id":"성수동1가-트리마제-718","name":"트리마제","ppy":16760,"lat":37.5388239825147,"lng":127.045045893181,"latest":465000,"area":84},{"id":"성수동1가-서울숲아이파크리버포레1차-721","name":"서울숲아이파크리버포레1차","ppy":15114,"lat":37.5506091645454,"lng":127.043054246362,"latest":274000,"area":59},{"id":"옥수동-옥수파크힐스101동~116동-528","name":"옥수파크힐스101동~116동","ppy":12697,"lat":37.5484774843118,"lng":127.013994845948,"latest":260000,"area":84}],"center":[127.0274,37.5545]},"geometry":{"type":"Polygon","coordinates":[[[127.04195,37.57297],[127.04848,37.56998],[127.05914,37.56229],[127.07073,37.56052],[127.07376,37.55943],[127.0572,37.53012],[127.04613,37.53456],[127.02927,37.53943],[127.02391,37.53975],[127.02111,37.53832],[127.01752,37.53498],[127.01715,37.53744],[127.01562,37.53845],[127.01328,37.53947],[127.01151,37.53899],[127.00961,37.53953],[127.00866,37.54195],[127.00904,37.54436],[127.0083,37.54515],[127.00939,37.54611],[127.00927,37.54721],[127.01159,37.54825],[127.01613,37.55263],[127.01792,37.55666],[127.02089,37.55788],[127.02193,37.55746],[127.02293,37.5579],[127.02245,37.5591],[127.02335,37.56071],[127.02675,37.56392],[127.02676,37.56508],[127.02359,37.56523],[127.02342,37.57192],[127.02527,37.57085],[127.02621,37.57126],[127.03141,37.56981],[127.03586,37.57205],[127.03817,37.57229],[127.03821,37.57302],[127.04195,37.57297]]]}},{"type":"Feature","properties":{"name":"성북구","n":172,"ppy_med":3455,"top":[{"id":"길음동-래미안길음센터피스-1288","name":"래미안길음센터피스","ppy":8191,"lat":37.6108450847147,"lng":127.027018309971,"latest":149000,"area":59},{"id":"보문동1가-보문리슈빌하우트-228","name":"보문리슈빌하우트","ppy":7754,"lat":37.5872459099988,"lng":127.019555501687,"latest":132500,"area":59},{"id":"길음동-롯데캐슬클라시아-1289","name":"롯데캐슬클라시아","ppy":7448,"lat":37.6078469014623,"lng":127.025631352105,"latest":159000,"area":59}],"center":[127.01363,37.60632]},"geometry":{"type":"Polygon","coordinates":[[[126.98452,37.63654],[126.98817,37.63461],[126.98859,37.6338],[126.98945,37.63403],[126.99035,37.63264],[126.99178,37.63213],[126.99293,37.63249],[126.99338,37.63142],[126.99996,37.62586],[127.00328,37.62528],[127.00463,37.62404],[127.00809,37.62407],[127.00777,37.61968],[127.01032,37.61674],[127.01736,37.61469],[127.02039,37.61259],[127.02202,37.61227],[127.02221,37.61133],[127.02663,37.61264],[127.03003,37.61234],[127.0306,37.60921],[127.03721,37.61286],[127.03972,37.61557],[127.04411,37.6188],[127.04675,37.62247],[127.04999,37.62441],[127.05332,37.62094],[127.06201,37.61441],[127.07132,37.61609],[127.07177,37.60683],[127.06802,37.60683],[127.06631,37.60547],[127.06229,37.60515],[127.06026,37.60309],[127.06005,37.60217],[127.06061,37.60197],[127.05918,37.60103],[127.05512,37.60127],[127.05207,37.60013],[127.05134,37.60129],[127.04729,37.59617],[127.04553,37.59534],[127.04476,37.59639],[127.04369,37.59627],[127.04299,37.59697],[127.04178,37.59647],[127.04024,37.59484],[127.03869,37.59125],[127.03617,37.59121],[127.03629,37.58987],[127.02954,37.58268],[127.02318,37.57805],[127.02144,37.57885],[127.01806,37.57766],[127.01772,37.57812],[127.01827,37.5791],[127.01681,37.58157],[127.01468,37.58225],[127.01293,37.58134],[127.01163,37.5815],[127.01051,37.58026],[127.00886,37.58035],[127.00675,37.58231],[127.00728,37.58332],[127.00662,37.58605],[127.00587,37.58695],[127.00424,37.58714],[127.00333,37.58864],[127.00231,37.58901],[127.00092,37.59227],[126.99534,37.59224],[126.99428,37.59141],[126.99213,37.59195],[126.9915,37.59136],[126.98905,37.59136],[126.98668,37.5926],[126.98538,37.59449],[126.98288,37.59478],[126.97674,37.59794],[126.97847,37.60102],[126.98286,37.60218],[126.9868,37.60455],[126.98615,37.60777],[126.98678,37.60893],[126.98577,37.60955],[126.98555,37.61147],[126.98653,37.61399],[126.98498,37.61548],[126.98345,37.61847],[126.98339,37.62171],[126.97975,37.62621],[126.98013,37.62788],[126.97962,37.62869],[126.97824,37.62928],[126.97491,37.62878],[126.97453,37.62976],[126.97526,37.63164],[126.97749,37.63366],[126.98157,37.63474],[126.98452,37.63654]]]}},{"type":"Feature","properties":{"name":"송파구","n":370,"ppy_med":4538,"top":[{"id":"잠실동-주공아파트-5단지-27","name":"주공아파트 5단지","ppy":17515,"lat":37.5143684588228,"lng":127.09298211452,"latest":413700,"area":76},{"id":"신천동-잠실르엘-17-6","name":"잠실르엘","ppy":16491,"lat":37.5175143936743,"lng":127.10703830561,"latest":403200,"area":74},{"id":"잠실동-레이크팰리스-44","name":"레이크팰리스","ppy":14607,"lat":37.5092678396302,"lng":127.094277269984,"latest":300000,"area":84}],"center":[127.12598,37.50156]},"geometry":{"type":"Polygon","coordinates":[[[127.06714,37.52043],[127.06932,37.50594],[127.0705,37.5034],[127.07202,37.50248],[127.08092,37.50089],[127.09651,37.49623],[127.10634,37.49142],[127.11198,37.48449],[127.11312,37.48167],[127.11504,37.47993],[127.12265,37.4688],[127.12281,37.46701],[127.12526,37.46731],[127.12468,37.4697],[127.12932,37.46774],[127.13309,37.46828],[127.132,37.46977],[127.13284,37.47123],[127.13266,37.47478],[127.14698,37.47388],[127.14777,37.48262],[127.15041,37.48524],[127.15852,37.48967],[127.15728,37.48995],[127.15826,37.49064],[127.15865,37.49243],[127.15973,37.49358],[127.15978,37.49682],[127.16149,37.4998],[127.15766,37.50317],[127.1565,37.50191],[127.15213,37.50299],[127.15026,37.50468],[127.14772,37.50323],[127.14553,37.50331],[127.14425,37.50457],[127.14118,37.50541],[127.14081,37.50598],[127.14152,37.50671],[127.13995,37.50852],[127.14035,37.51022],[127.14122,37.51078],[127.14144,37.5124],[127.14354,37.51266],[127.14343,37.51389],[127.14062,37.51558],[127.14461,37.51559],[127.14543,37.51606],[127.14532,37.5166],[127.11909,37.52796],[127.12344,37.53865],[127.11895,37.54113],[127.10951,37.54403],[127.105,37.5379],[127.09031,37.52678],[127.08717,37.52508],[127.07948,37.52277],[127.07181,37.52343],[127.06659,37.52488],[127.06714,37.52043]]]}},{"type":"Feature","properties":{"name":"양천구","n":378,"ppy_med":2898,"top":[{"id":"목동-목동신시가지6-911","name":"목동신시가지6","ppy":15722,"lat":37.5346424311653,"lng":126.884816122965,"latest":228000,"area":47},{"id":"목동-목동신시가지4-904","name":"목동신시가지4","ppy":14265,"lat":37.5319318273523,"lng":126.871591433831,"latest":222000,"area":47},{"id":"목동-목동신시가지7-925","name":"목동신시가지7","ppy":12843,"lat":37.5288232909409,"lng":126.867840519363,"latest":260000,"area":66}],"center":[126.85425,37.52219]},"geometry":{"type":"Polygon","coordinates":[[[126.82433,37.51351],[126.8231,37.51622],[126.82562,37.52008],[126.82514,37.523],[126.82651,37.52493],[126.82884,37.52652],[126.82794,37.528],[126.82821,37.52903],[126.82531,37.52996],[126.82343,37.53262],[126.82355,37.53376],[126.8227,37.53375],[126.82187,37.5349],[126.82243,37.53654],[126.82159,37.53971],[126.82205,37.54066],[126.82539,37.54168],[126.82608,37.54297],[126.82574,37.5443],[126.82758,37.54768],[126.82976,37.54773],[126.83046,37.54577],[126.82968,37.54407],[126.82998,37.54166],[126.8331,37.54185],[126.83516,37.53753],[126.83511,37.53673],[126.83441,37.53646],[126.84049,37.52648],[126.86397,37.52979],[126.86344,37.5361],[126.86378,37.54071],[126.86212,37.54436],[126.86446,37.55124],[126.87264,37.54707],[126.87796,37.5471],[126.88081,37.54808],[126.88409,37.54464],[126.88425,37.54357],[126.88509,37.54331],[126.88653,37.53936],[126.89013,37.53438],[126.88983,37.53343],[126.88853,37.53256],[126.88884,37.53198],[126.89068,37.53166],[126.88954,37.53],[126.88715,37.53018],[126.88418,37.52867],[126.88322,37.52725],[126.88091,37.52771],[126.88094,37.52591],[126.87875,37.52535],[126.87944,37.5206],[126.8782,37.51878],[126.87959,37.51765],[126.87856,37.51754],[126.87898,37.51687],[126.87732,37.51604],[126.87791,37.51334],[126.87665,37.51368],[126.8761,37.51242],[126.87518,37.51245],[126.87394,37.51117],[126.87468,37.51075],[126.87518,37.51183],[126.87685,37.51084],[126.87552,37.51107],[126.87551,37.50955],[126.8738,37.50906],[126.87503,37.50771],[126.87421,37.50717],[126.87471,37.50667],[126.87357,37.50355],[126.87187,37.50413],[126.87026,37.50585],[126.86901,37.50485],[126.86544,37.50557],[126.86351,37.50501],[126.86258,37.50678],[126.86408,37.50834],[126.86032,37.50662],[126.85833,37.50992],[126.85561,37.50915],[126.85287,37.51069],[126.85009,37.51013],[126.84871,37.50888],[126.84729,37.50948],[126.84623,37.50898],[126.84438,37.50649],[126.84468,37.50574],[126.84243,37.50548],[126.84074,37.50604],[126.83959,37.5045],[126.83849,37.50442],[126.8375,37.50328],[126.83525,37.50287],[126.83201,37.50468],[126.83057,37.50636],[126.83102,37.50803],[126.82811,37.5088],[126.82699,37.5085],[126.82705,37.50922],[126.82642,37.50945],[126.82707,37.51036],[126.82406,37.51048],[126.82433,37.51351]]]}},{"type":"Feature","properties":{"name":"영등포구","n":254,"ppy_med":4633,"top":[{"id":"여의도동-시범-50","name":"시범","ppy":11827,"lat":37.5206933527238,"lng":126.937105491683,"latest":301000,"area":79},{"id":"여의도동-목화-30","name":"목화","ppy":11396,"lat":37.5260016646304,"lng":126.932632672415,"latest":295000,"area":89},{"id":"여의도동-삼부-30-2","name":"삼부","ppy":10961,"lat":37.5249360133869,"lng":126.932097633851,"latest":310000,"area":92}],"center":[126.90207,37.52506]},"geometry":{"type":"Polygon","coordinates":[[[126.9494,37.52893],[126.94422,37.53423],[126.9329,37.54053],[126.93033,37.54136],[126.92711,37.53904],[126.92309,37.54045],[126.92242,37.54143],[126.90484,37.54142],[126.89894,37.54801],[126.88826,37.55221],[126.88046,37.55625],[126.87923,37.55467],[126.87922,37.55296],[126.87802,37.55295],[126.87803,37.55172],[126.88409,37.54464],[126.88425,37.54357],[126.88509,37.54331],[126.88653,37.53936],[126.88992,37.53486],[126.89004,37.53371],[126.88869,37.53281],[126.88863,37.53212],[126.89068,37.53166],[126.88954,37.53],[126.88715,37.53018],[126.88418,37.52867],[126.88343,37.52733],[126.88067,37.52755],[126.88094,37.52591],[126.87861,37.52507],[126.87944,37.5206],[126.8782,37.51875],[126.88169,37.5165],[126.88232,37.51537],[126.89003,37.51176],[126.8931,37.50795],[126.89356,37.50633],[126.89298,37.50212],[126.89327,37.49933],[126.89683,37.48849],[126.89796,37.48724],[126.90198,37.48512],[126.90315,37.48497],[126.91226,37.49627],[126.91903,37.4975],[126.92022,37.49824],[126.92028,37.49998],[126.92522,37.51225],[126.92771,37.51567],[126.93164,37.51553],[126.93615,37.51625],[126.94886,37.51967],[126.94993,37.52655],[126.9494,37.52893]]]}},{"type":"Feature","properties":{"name":"용산구","n":183,"ppy_med":5944,"top":[{"id":"한남동-한남더힐-810","name":"한남더힐","ppy":18596,"lat":37.5369726180181,"lng":127.009490412576,"latest":385000,"area":59},{"id":"이촌동-한강맨숀-300-23","name":"한강맨숀","ppy":15593,"lat":37.5193300950348,"lng":126.975026539164,"latest":433940,"area":101},{"id":"이촌동-래미안첼리투스-436","name":"래미안첼리투스","ppy":14127,"lat":37.5171784532934,"lng":126.979990652892,"latest":559000,"area":124}],"center":[126.9774,37.54072]},"geometry":{"type":"Polygon","coordinates":[[[126.97327,37.50712],[126.9854,37.50652],[126.98815,37.50965],[127.0042,37.52168],[127.01752,37.53498],[127.01715,37.53744],[127.01328,37.53947],[127.01151,37.53899],[127.00961,37.53953],[127.00866,37.54195],[127.00901,37.54398],[127.00722,37.54386],[127.00482,37.54644],[127.006,37.54819],[127.00466,37.54872],[127.00414,37.55038],[127.00283,37.54958],[126.99785,37.54985],[126.99628,37.548],[126.99522,37.54764],[126.99069,37.55097],[126.98747,37.55146],[126.98536,37.55373],[126.98402,37.55306],[126.98092,37.55386],[126.9792,37.55282],[126.97877,37.55395],[126.97653,37.55521],[126.97638,37.55311],[126.97431,37.55356],[126.97237,37.55489],[126.96915,37.55489],[126.96916,37.55564],[126.96568,37.55417],[126.96235,37.55151],[126.9639,37.54975],[126.96374,37.54876],[126.96224,37.54862],[126.96005,37.54606],[126.9579,37.54545],[126.95811,37.54442],[126.95742,37.54321],[126.95835,37.54276],[126.95573,37.53947],[126.9541,37.53893],[126.95337,37.53751],[126.95128,37.53628],[126.94748,37.53582],[126.94738,37.53522],[126.94627,37.53569],[126.9451,37.53497],[126.94458,37.53377],[126.9485,37.53026],[126.94987,37.528],[126.94886,37.51967],[126.96513,37.51269],[126.96761,37.51043],[126.97327,37.50712]]]}},{"type":"Feature","properties":{"name":"은평구","n":400,"ppy_med":2756,"top":[{"id":"증산동-dmc센트럴자이(2단지)-258","name":"DMC센트럴자이(2단지)","ppy":8626,"lat":37.579982499336,"lng":126.903633434786,"latest":159500,"area":59},{"id":"녹번동-래미안베라힐즈-283","name":"래미안베라힐즈","ppy":7027,"lat":37.6040543353051,"lng":126.936396889141,"latest":140000,"area":84},{"id":"응암동-녹번역e편한세상캐슬-769","name":"녹번역e편한세상캐슬","ppy":6919,"lat":37.5992189656793,"lng":126.930904468222,"latest":131000,"area":59}],"center":[126.92132,37.61292]},"geometry":{"type":"Polygon","coordinates":[[[126.95041,37.61075],[126.94989,37.61169],[126.95083,37.61373],[126.95074,37.61542],[126.9489,37.62526],[126.95979,37.62974],[126.96338,37.63315],[126.96159,37.638],[126.95916,37.64229],[126.95893,37.64708],[126.95758,37.64901],[126.95721,37.65285],[126.95341,37.65503],[126.95155,37.65501],[126.94972,37.6561],[126.94777,37.65742],[126.94755,37.65921],[126.94181,37.65759],[126.9399,37.65645],[126.93708,37.65224],[126.93537,37.6509],[126.92925,37.65013],[126.92277,37.64609],[126.91372,37.64474],[126.90547,37.64894],[126.90777,37.64639],[126.9123,37.64426],[126.91018,37.63821],[126.91115,37.63593],[126.90614,37.63321],[126.90676,37.63274],[126.90644,37.63191],[126.90728,37.63034],[126.9088,37.6293],[126.90887,37.62604],[126.90634,37.62407],[126.9072,37.62188],[126.90554,37.62116],[126.90488,37.61924],[126.90297,37.61826],[126.90222,37.61642],[126.90252,37.61576],[126.90033,37.61119],[126.90202,37.60381],[126.9002,37.60323],[126.90014,37.60206],[126.90157,37.59917],[126.90112,37.5974],[126.90185,37.59517],[126.899,37.59284],[126.89992,37.58993],[126.89803,37.58958],[126.8969,37.58864],[126.89327,37.58922],[126.89125,37.58851],[126.89001,37.58898],[126.8868,37.58862],[126.88556,37.59117],[126.88779,37.59425],[126.88707,37.59453],[126.88512,37.59388],[126.88203,37.59083],[126.88869,37.58474],[126.90208,37.576],[126.90268,37.57641],[126.90195,37.57655],[126.91317,37.58713],[126.91576,37.58607],[126.9154,37.58551],[126.91645,37.58594],[126.91572,37.58462],[126.916,37.58318],[126.92177,37.58344],[126.92183,37.58472],[126.92358,37.58614],[126.92386,37.58721],[126.92579,37.58711],[126.92776,37.58812],[126.92781,37.59166],[126.93026,37.59462],[126.93351,37.59659],[126.93752,37.59789],[126.93859,37.59755],[126.94088,37.59878],[126.94137,37.60073],[126.93981,37.60192],[126.93998,37.6031],[126.94127,37.60322],[126.94212,37.60504],[126.9437,37.60512],[126.94372,37.60623],[126.94841,37.60885],[126.95041,37.61075]]]}},{"type":"Feature","properties":{"name":"종로구","n":98,"ppy_med":3231,"top":[{"id":"신문로2가-디팰리스-171","name":"디팰리스","ppy":10753,"lat":37.5686709353326,"lng":126.97200207461,"latest":325000,"area":118},{"id":"홍파동-경희궁자이(2단지)-199","name":"경희궁자이(2단지)","ppy":10637,"lat":37.5706961564115,"lng":126.963608594078,"latest":273000,"area":84},{"id":"평동-경희궁자이(3단지)-233","name":"경희궁자이(3단지)","ppy":10131,"lat":37.5684690367064,"lng":126.965891423182,"latest":260000,"area":84}],"center":[126.98189,37.59672]},"geometry":{"type":"Polygon","coordinates":[[[126.97797,37.56925],[126.97304,37.56933],[126.97256,37.56847],[126.97122,37.56878],[126.96904,37.5682],[126.96671,37.5658],[126.9536,37.57881],[126.95723,37.57988],[126.95824,37.58112],[126.95761,37.58296],[126.95803,37.58422],[126.95737,37.58703],[126.95749,37.59311],[126.95903,37.59507],[126.95804,37.59821],[126.95539,37.59932],[126.95309,37.59883],[126.95339,37.60019],[126.95238,37.6025],[126.95408,37.60511],[126.95275,37.6058],[126.95145,37.60817],[126.95059,37.60851],[126.94989,37.61169],[126.95083,37.61373],[126.95074,37.61542],[126.9489,37.62526],[126.95405,37.62696],[126.95744,37.62911],[126.96376,37.62982],[126.96509,37.63073],[126.96751,37.63063],[126.97295,37.63235],[126.97526,37.63164],[126.97453,37.62976],[126.97491,37.62878],[126.97824,37.62928],[126.97962,37.62869],[126.98013,37.62788],[126.97975,37.62621],[126.98339,37.62171],[126.98345,37.61847],[126.98498,37.61548],[126.98653,37.61399],[126.98555,37.61147],[126.98577,37.60955],[126.98678,37.60893],[126.98615,37.60777],[126.98667,37.60403],[126.98397,37.6032],[126.98286,37.60218],[126.97847,37.60102],[126.97674,37.59794],[126.98288,37.59478],[126.98538,37.59449],[126.98668,37.5926],[126.98905,37.59136],[126.9915,37.59136],[126.99213,37.59195],[126.99428,37.59141],[126.99534,37.59224],[127.00092,37.59227],[127.00231,37.58901],[127.00333,37.58864],[127.00424,37.58714],[127.00587,37.58695],[127.00662,37.58605],[127.00728,37.58332],[127.00675,37.58231],[127.00886,37.58035],[127.01051,37.58026],[127.01163,37.5815],[127.01293,37.58134],[127.01468,37.58225],[127.01681,37.58157],[127.01827,37.5791],[127.01772,37.57812],[127.01806,37.57766],[127.02144,37.57885],[127.02318,37.57805],[127.02342,37.57192],[127.02033,37.57172],[127.01637,37.56986],[127.00227,37.56963],[126.98866,37.56811],[126.97797,37.56925]]]}},{"type":"Feature","properties":{"name":"중구","n":106,"ppy_med":3568,"top":[{"id":"만리동2가-서울역센트럴자이-273","name":"서울역센트럴자이","ppy":10747,"lat":37.5537819672024,"lng":126.96402989384,"latest":205000,"area":59},{"id":"신당동-청구e편한세상-852","name":"청구e편한세상","ppy":8055,"lat":37.5604485958729,"lng":127.016730517193,"latest":209300,"area":84},{"id":"입정동-힐스테이트세운센트럴1단지-277","name":"힐스테이트세운센트럴1단지","ppy":7747,"lat":37.5679940708271,"lng":126.99307715654,"latest":117500,"area":49}],"center":[126.99158,37.55678]},"geometry":{"type":"Polygon","coordinates":[[[126.96343,37.55695],[126.96174,37.555],[126.96244,37.55155],[126.96568,37.55417],[126.96916,37.55564],[126.96915,37.55489],[126.97237,37.55489],[126.97431,37.55356],[126.97638,37.55311],[126.97653,37.55521],[126.97877,37.55395],[126.9792,37.55282],[126.98092,37.55386],[126.98402,37.55306],[126.98555,37.55366],[126.98747,37.55146],[126.99069,37.55097],[126.99522,37.54764],[126.99628,37.548],[126.99785,37.54985],[127.00283,37.54958],[127.00414,37.55038],[127.00466,37.54872],[127.006,37.54819],[127.00482,37.54644],[127.00722,37.54386],[127.00901,37.54398],[127.0083,37.54515],[127.00939,37.54611],[127.00927,37.54721],[127.01159,37.54825],[127.01613,37.55263],[127.01792,37.55666],[127.02089,37.55788],[127.02193,37.55746],[127.02293,37.5579],[127.02245,37.5591],[127.02389,37.56133],[127.02624,37.56296],[127.02676,37.56508],[127.02359,37.56523],[127.02342,37.57192],[127.02033,37.57172],[127.01531,37.56972],[127.00227,37.56963],[126.98991,37.56814],[126.98265,37.56906],[126.97304,37.56933],[126.97256,37.56847],[126.97122,37.56878],[126.96904,37.5682],[126.96671,37.5658],[126.96947,37.56197],[126.96691,37.5613],[126.96332,37.55919],[126.96163,37.55908],[126.96156,37.55842],[126.9631,37.55822],[126.96343,37.55695]]]}},{"type":"Feature","properties":{"name":"중랑구","n":232,"ppy_med":2691,"top":[{"id":"면목동-사가정센트럴아이파크-1545","name":"사가정센트럴아이파크","ppy":5842,"lat":37.5823558617405,"lng":127.081720632706,"latest":152000,"area":84},{"id":"중화동-리버센skview롯데캐슬-462","name":"리버센SKVIEW롯데캐슬","ppy":5620,"lat":37.6027640054814,"lng":127.075560229011,"latest":102000,"area":59},{"id":"면목동-한양수자인사가정파크-1543","name":"한양수자인사가정파크","ppy":5210,"lat":37.5794901864405,"lng":127.094032791992,"latest":125000,"area":84}],"center":[127.0989,37.59818]},"geometry":{"type":"Polygon","coordinates":[[[127.07842,37.57183],[127.07775,37.58006],[127.07117,37.58856],[127.06938,37.5959],[127.0697,37.59745],[127.07238,37.60068],[127.07257,37.6021],[127.07137,37.61524],[127.08596,37.6203],[127.08878,37.6202],[127.09302,37.61801],[127.0958,37.61742],[127.09981,37.61809],[127.10163,37.61979],[127.10573,37.62087],[127.10878,37.62048],[127.11078,37.62107],[127.11603,37.61938],[127.11701,37.61773],[127.11684,37.61444],[127.11742,37.6125],[127.11684,37.60869],[127.11836,37.60759],[127.11806,37.60344],[127.11562,37.60194],[127.11394,37.59932],[127.11609,37.5975],[127.11606,37.59441],[127.113,37.59281],[127.11028,37.58888],[127.10945,37.58492],[127.10842,37.58319],[127.10418,37.58122],[127.10259,37.57931],[127.1028,37.5787],[127.10104,37.5754],[127.10096,37.57343],[127.09177,37.56955],[127.08845,37.57018],[127.08819,37.57082],[127.07842,37.57183]]]}}]}