{"type":"FeatureCollection","features":[{"type":"Feature","properties":{"name":"7호선 도봉산옥정선","color":"#6E7E31"},"geometry":{"type":"MultiLineString","coordinates":[[[127.05532,37.70285],[127.0564,37.70456],[127.05847,37.7078],[127.06021,37.70985],[127.06177,37.7123],[127.06264,37.71356],[127.06342,37.7143],[127.06452,37.71505],[127.06555,37.71574],[127.06667,37.71642],[127.06814,37.71734],[127.06992,37.71811],[127.07154,37.71882],[127.07348,37.71961],[127.07663,37.72114],[127.08079,37.72268],[127.08511,37.72459],[127.08813,37.7259],[127.0894,37.72654],[127.09037,37.72726],[127.09069,37.72758],[127.09094,37.728],[127.091,37.72877],[127.09094,37.72934],[127.09073,37.72992],[127.09034,37.73065],[127.08982,37.73134],[127.0893,37.73226],[127.08875,37.73373],[127.08715,37.73735],[127.08644,37.7389],[127.08583,37.74077],[127.08552,37.74216],[127.08432,37.745],[127.084,37.7467],[127.08391,37.74742],[127.08391,37.74904],[127.08376,37.75078],[127.08344,37.75215],[127.08233,37.75515],[127.07944,37.76381],[127.07815,37.76899]],[[127.05205,37.69914],[127.05253,37.69982],[127.05261,37.6999],[127.0529,37.70021],[127.05325,37.70053],[127.05447,37.70165],[127.05485,37.70227]],[[127.05485,37.70227],[127.05466,37.70207],[127.05432,37.70172],[127.05311,37.70064],[127.05275,37.70025],[127.05264,37.70009],[127.05245,37.69979],[127.05219,37.69941]],[[127.05485,37.70227],[127.05532,37.70285]]]}},{"type":"Feature","properties":{"name":"월곶판교선","color":"#0B318F"},"geometry":{"type":"MultiLineString","coordinates":[[[126.8729,37.40989],[126.86854,37.40958],[126.86155,37.409],[126.85731,37.40875],[126.85342,37.40842],[126.8313,37.40837],[126.82841,37.408],[126.82596,37.40761],[126.82209,37.40699],[126.81868,37.40635],[126.81493,37.40562],[126.8133,37.40469],[126.81226,37.40388],[126.81114,37.40279],[126.80987,37.40143],[126.80888,37.39969],[126.80856,37.39721],[126.80807,37.3934],[126.80667,37.39097],[126.80614,37.39037],[126.80572,37.38976],[126.80496,37.38794],[126.8048,37.38656],[126.80502,37.38507],[126.80532,37.38397],[126.80563,37.38288],[126.80695,37.37951],[126.80774,37.37687]],[[126.80746,37.37682],[126.80635,37.37933],[126.80607,37.38048],[126.80594,37.38087],[126.80581,37.38125],[126.80544,37.38282],[126.80442,37.38502],[126.804,37.38614],[126.80394,37.38699],[126.80394,37.38769],[126.80431,37.38875],[126.80492,37.38976],[126.80522,37.39034],[126.80584,37.39097],[126.807,37.39271],[126.80772,37.39367],[126.80818,37.39714],[126.80865,37.39975],[126.80969,37.40147],[126.81095,37.40282],[126.81216,37.40403],[126.81318,37.40481],[126.81485,37.40574],[126.81868,37.40649],[126.82208,37.40706],[126.82594,37.40768],[126.82836,37.40808],[126.83128,37.40846],[126.85306,37.40875],[126.85722,37.40902],[126.86155,37.40927],[126.86857,37.40992],[126.87268,37.41017]],[[127.10549,37.39469],[127.10468,37.39463],[127.10312,37.39459],[127.09944,37.39492],[127.09603,37.39511],[127.09362,37.3948],[127.08565,37.39213],[127.08426,37.3915],[127.08242,37.39121],[127.08059,37.39129],[127.07577,37.39161],[127.07284,37.39157],[127.06572,37.39135],[127.06027,37.39062],[127.05749,37.39017],[127.05468,37.38987],[127.04999,37.38925],[127.04257,37.38864],[127.03589,37.38848],[127.02886,37.38815],[127.02179,37.38794],[127.01794,37.38762],[127.01033,37.38747],[127.00583,37.38772],[127.00251,37.38802],[127.0006,37.38832],[126.99599,37.38925],[126.9932,37.38984],[126.98907,37.39158],[126.9881,37.39205],[126.98725,37.3928],[126.9858,37.39406],[126.98372,37.39597],[126.98004,37.39862],[126.9778,37.40089],[126.97693,37.40175],[126.97546,37.4029],[126.97346,37.40392],[126.97218,37.40453],[126.97148,37.40467],[126.97015,37.40465],[126.96514,37.40428],[126.96023,37.40336],[126.95049,37.4017],[126.95031,37.40167],[126.94878,37.40112],[126.94565,37.39943],[126.94388,37.39872],[126.94053,37.39879],[126.9356,37.39873],[126.93444,37.39872],[126.93326,37.39814],[126.9332,37.39811],[126.92953,37.3962],[126.92867,37.3958],[126.92782,37.39566],[126.92699,37.39562],[126.92582,37.39569],[126.92478,37.39594],[126.92359,37.39659],[126.92219,37.39757],[126.92067,37.3996],[126.91882,37.40175],[126.91369,37.40779],[126.91075,37.41132],[126.90688,37.41613],[126.90591,37.41743],[126.90472,37.41848],[126.90388,37.41926],[126.90301,37.42013],[126.90193,37.42139],[126.90103,37.42248],[126.89925,37.42405],[126.89678,37.42569],[126.89444,37.42642],[126.89234,37.42667],[126.89031,37.42634],[126.88923,37.42615],[126.88796,37.42561],[126.88709,37.42486],[126.88591,37.42262],[126.88508,37.42095],[126.88411,37.41916],[126.88284,37.41693],[126.88075,37.41287],[126.88004,37.41167],[126.87973,37.41123],[126.87921,37.41051],[126.87821,37.41002],[126.87764,37.40996],[126.8729,37.40989]],[[126.87268,37.41017],[126.87773,37.41074],[126.87895,37.41136],[126.87949,37.41183],[126.88038,37.41303],[126.8826,37.41703],[126.88382,37.41927],[126.88468,37.42108],[126.88508,37.42223],[126.88543,37.42378],[126.88628,37.42508],[126.88772,37.42594],[126.88911,37.42644],[126.89029,37.4267],[126.89234,37.42695],[126.89453,37.42682],[126.89687,37.42588],[126.89953,37.42419],[126.9012,37.42265],[126.9022,37.42145],[126.90323,37.42026],[126.90405,37.4194],[126.90487,37.41865],[126.90608,37.41749],[126.907,37.4163],[126.90879,37.41414],[126.9128,37.40942],[126.91555,37.40602],[126.92139,37.39897],[126.92239,37.39762],[126.92371,37.39668],[126.92491,37.39606],[126.92584,37.39582],[126.92702,37.39579],[126.92783,37.39581],[126.92857,37.39594],[126.93312,37.39848],[126.93441,37.39893],[126.9358,37.39898],[126.94377,37.39902],[126.94838,37.40122],[126.95024,37.4019],[126.95956,37.40363],[126.96689,37.40479],[126.97059,37.40495],[126.97226,37.40484],[126.97235,37.40479],[126.975,37.40337],[126.97734,37.40163],[126.98038,37.3987],[126.986,37.39441],[126.98773,37.39267],[126.98935,37.39162],[126.99326,37.38992],[127.00108,37.38834],[127.00577,37.38785],[127.01027,37.38766],[127.01786,37.38786],[127.0218,37.38823],[127.02885,37.38839],[127.03589,37.38874],[127.04241,37.38877],[127.04997,37.3894],[127.05479,37.39004],[127.06383,37.39133],[127.0676,37.39162],[127.07545,37.39184],[127.08036,37.39159],[127.08235,37.39139],[127.08424,37.39164],[127.08561,37.39226],[127.09357,37.39488],[127.09604,37.39522],[127.09939,37.39505],[127.1031,37.39466],[127.10466,37.3947],[127.10546,37.39477]]]}},{"type":"Feature","properties":{"name":"9호선 4단계","color":"#A49D87"},"geometry":{"type":"MultiLineString","coordinates":[[[127.15019,37.53264],[127.15046,37.53336],[127.15223,37.53763],[127.15264,37.5386],[127.15331,37.54017],[127.15452,37.54325],[127.15562,37.54549],[127.15576,37.54589],[127.15586,37.54641],[127.15597,37.54874],[127.15641,37.5552],[127.15667,37.56135],[127.15684,37.56189],[127.15715,37.56228],[127.15761,37.56257],[127.15807,37.56278],[127.15856,37.56292],[127.15921,37.56301],[127.16226,37.56286],[127.16444,37.5627],[127.16738,37.5625],[127.16931,37.56228]],[[127.1693,37.56234],[127.16738,37.56254],[127.16445,37.56274],[127.16226,37.5629],[127.15924,37.56307],[127.15856,37.56298],[127.15803,37.56282],[127.15758,37.56261],[127.1571,37.56231],[127.15678,37.5619],[127.15662,37.56134],[127.15634,37.55519],[127.15591,37.54874],[127.15577,37.54642],[127.15567,37.54589],[127.15553,37.5455],[127.15444,37.54324],[127.15328,37.5402],[127.15257,37.53859],[127.15218,37.53763],[127.15097,37.53492],[127.1501,37.53264]]]}},{"type":"Feature","properties":{"name":"신안산선","color":"#0B7A75"},"geometry":{"type":"MultiLineString","coordinates":[[[126.92617,37.52264],[126.92182,37.52022],[126.92096,37.51969],[126.92037,37.51938],[126.91971,37.51914],[126.91883,37.519],[126.91801,37.5189],[126.91716,37.51893],[126.91611,37.51895],[126.91475,37.51894],[126.91388,37.51876],[126.91314,37.51861],[126.91266,37.51846],[126.91196,37.51821],[126.90911,37.51718],[126.90693,37.51639],[126.90449,37.51561],[126.89997,37.51393],[126.89851,37.5137],[126.89805,37.51361],[126.89772,37.51348],[126.89749,37.51334],[126.89734,37.51305],[126.89721,37.51265],[126.89722,37.51227],[126.89738,37.51194],[126.89763,37.5116],[126.89861,37.51079],[126.89944,37.50998],[126.90132,37.50717],[126.90498,37.50159],[126.90548,37.50097],[126.90587,37.50035],[126.90631,37.49946],[126.90809,37.4965],[126.90885,37.49488],[126.90913,37.49412],[126.90926,37.4938],[126.90936,37.49339],[126.90948,37.49289],[126.90938,37.49236],[126.90936,37.49229],[126.90934,37.49224],[126.90921,37.49196],[126.90866,37.49128],[126.90745,37.48981],[126.9042,37.48582],[126.903,37.48444],[126.90065,37.48154],[126.89982,37.48067],[126.89949,37.47996],[126.89927,37.47938],[126.89902,37.47786],[126.89881,37.47553],[126.89786,37.46628],[126.89768,37.46472],[126.89752,37.46339],[126.89749,37.46289],[126.8978,37.46211],[126.89876,37.45941],[126.89908,37.45866],[126.90101,37.4537],[126.90375,37.44685],[126.90397,37.44601],[126.90405,37.4454],[126.90403,37.44514],[126.90398,37.44454],[126.90396,37.44441],[126.90391,37.44382],[126.90376,37.44261],[126.90361,37.44137],[126.90352,37.44045],[126.90342,37.43943],[126.90338,37.43898],[126.90278,37.43651],[126.90233,37.43582],[126.90128,37.43504],[126.89997,37.4343],[126.89877,37.43358],[126.89591,37.43195],[126.89469,37.4313],[126.89369,37.43074],[126.89294,37.43017],[126.89159,37.42909],[126.8903,37.4281],[126.88943,37.42737],[126.88843,37.42654],[126.88763,37.42571],[126.88698,37.4249],[126.88574,37.42241],[126.88447,37.41995],[126.88275,37.41697],[126.88211,37.41572],[126.88047,37.41268],[126.8791,37.41062],[126.87218,37.39968],[126.86629,37.3914],[126.86613,37.3912],[126.86593,37.39094],[126.86551,37.39033],[126.86433,37.38862],[126.86366,37.38784],[126.86331,37.38748],[126.86297,37.38709],[126.86255,37.38668],[126.86206,37.38609],[126.86157,37.38539],[126.86121,37.38479],[126.86115,37.38469],[126.861,37.38397],[126.86107,37.38324],[126.86152,37.38168],[126.86154,37.38159],[126.86155,37.38156],[126.86155,37.38154],[126.86174,37.38079],[126.86193,37.37995],[126.86198,37.37903],[126.8619,37.37841],[126.86187,37.37777],[126.86186,37.36941],[126.86191,37.36437],[126.86188,37.35905],[126.86181,37.35832],[126.86131,37.35628],[126.86087,37.35398],[126.86004,37.34992],[126.85969,37.34873],[126.85905,37.34688],[126.85808,37.3437],[126.85772,37.34255],[126.85693,37.34062],[126.85652,37.33977],[126.85584,37.33876],[126.85334,37.33618],[126.84839,37.33034],[126.84749,37.32945],[126.84712,37.3291],[126.84677,37.32869],[126.84675,37.32865],[126.84653,37.3282],[126.8464,37.32777],[126.84618,37.32681],[126.8461,37.32626],[126.8459,37.32478],[126.8457,37.32182],[126.84556,37.31971],[126.84548,37.31904],[126.8453,37.31821],[126.84502,37.31753],[126.84462,37.31705],[126.84441,37.31689],[126.84411,37.31666],[126.84367,37.3165],[126.84322,37.31637],[126.84274,37.31629],[126.84213,37.31624],[126.84168,37.31622],[126.8398,37.31634],[126.83833,37.31642],[126.83446,37.31663],[126.83332,37.31662],[126.83281,37.3166],[126.83225,37.31656],[126.83196,37.31647],[126.83167,37.31635],[126.83138,37.31617],[126.83116,37.31601],[126.83087,37.31578],[126.83063,37.31544],[126.8304,37.31487],[126.83024,37.31331],[126.82984,37.30724],[126.82958,37.30568],[126.82927,37.30462],[126.82889,37.30385],[126.82857,37.30324],[126.82798,37.30242],[126.8276,37.30205],[126.82707,37.30155],[126.82663,37.301],[126.82615,37.30044],[126.82586,37.29993],[126.82562,37.29901],[126.82566,37.29816],[126.82597,37.2972],[126.82672,37.29583],[126.82736,37.29339]],[[126.89708,37.51279],[126.89726,37.51328],[126.89772,37.51362],[126.89831,37.51378],[126.89891,37.51388],[126.89912,37.51391],[126.89995,37.514],[126.90124,37.51446],[126.90274,37.51516],[126.90332,37.51536],[126.90692,37.51662],[126.9115,37.51814],[126.91303,37.51869],[126.91397,37.51893],[126.91488,37.51904],[126.91617,37.51907],[126.9172,37.51905],[126.918,37.51905],[126.91886,37.51913],[126.91958,37.51922],[126.92028,37.51945],[126.92084,37.51977],[126.92614,37.52271]],[[126.90377,37.50302],[126.89958,37.50902],[126.89913,37.50987],[126.89851,37.51059],[126.89791,37.51113],[126.89734,37.51162],[126.89716,37.51195],[126.89708,37.51227],[126.89708,37.51279]],[[126.90617,37.48869],[126.90869,37.49163],[126.90899,37.4921],[126.90908,37.49232],[126.90912,37.49244],[126.90917,37.49273],[126.90915,37.49307],[126.90915,37.49332],[126.90904,37.49373],[126.90871,37.49441],[126.90858,37.49479],[126.90785,37.4965],[126.90534,37.50071],[126.90377,37.50302]],[[126.89983,37.48121],[126.90094,37.48243],[126.90299,37.48468],[126.90617,37.48869]],[[126.89782,37.46137],[126.89773,37.46159],[126.89722,37.46287],[126.89718,37.46336],[126.89862,37.47797],[126.89877,37.47926],[126.89901,37.47998],[126.89938,37.48053],[126.89983,37.48121]],[[126.86164,37.37986],[126.86129,37.38161],[126.86098,37.38287],[126.86081,37.38369],[126.86084,37.38417],[126.86087,37.38445],[126.86118,37.38518],[126.86165,37.38589],[126.86258,37.38698],[126.86356,37.38789],[126.86623,37.39152],[126.86657,37.39192],[126.87883,37.41078],[126.8803,37.41277],[126.88194,37.41576],[126.88263,37.417],[126.88431,37.42003],[126.8855,37.42249],[126.88682,37.42504],[126.88746,37.4258],[126.88833,37.42666],[126.88939,37.42761],[126.89029,37.42828],[126.89151,37.42931],[126.89281,37.43035],[126.89366,37.43089],[126.89459,37.43141],[126.89572,37.43192],[126.89859,37.43362],[126.89979,37.43441],[126.90111,37.43522],[126.90209,37.43591],[126.90255,37.43647],[126.90284,37.4375],[126.90292,37.43862],[126.90352,37.44293],[126.90362,37.44378],[126.9037,37.44439],[126.9038,37.44542],[126.90369,37.44611],[126.90157,37.45171],[126.89867,37.45934],[126.89782,37.46137]],[[126.87268,37.41017],[126.87684,37.41088],[126.87737,37.41103],[126.87838,37.41147],[126.879,37.41184],[126.87962,37.41225],[126.8803,37.41277]],[[126.88047,37.41268],[126.88044,37.4116],[126.88016,37.41068],[126.87976,37.41022],[126.87932,37.41],[126.87838,37.40969],[126.87724,37.40975],[126.8729,37.40989]]]}},{"type":"Feature","properties":{"name":"동탄인덕원선","color":"#E4572E"},"geometry":{"type":"MultiLineString","coordinates":[[[127.09861,37.20138],[127.09588,37.20142],[127.09324,37.20142],[127.08837,37.20145],[127.08702,37.20175],[127.08322,37.20235],[127.07725,37.20374],[127.07405,37.2045],[127.07069,37.2055],[127.0662,37.20679],[127.06499,37.20718],[127.05754,37.21085],[127.05628,37.21143],[127.05339,37.21256],[127.05285,37.21288],[127.05234,37.21339],[127.05133,37.21469],[127.05102,37.21523],[127.0509,37.21578],[127.05088,37.21635],[127.0509,37.21663],[127.05096,37.21695],[127.05113,37.21733],[127.05139,37.21766],[127.05171,37.21794],[127.05232,37.21822],[127.05326,37.21853],[127.05389,37.21879],[127.05465,37.21927],[127.05534,37.21971],[127.05603,37.2203],[127.0566,37.22084],[127.05713,37.22136],[127.05751,37.22183],[127.05772,37.22226],[127.05844,37.22358],[127.05911,37.2251],[127.0596,37.22604],[127.05993,37.22634],[127.06035,37.22658],[127.06074,37.22672],[127.06155,37.22688],[127.06497,37.2271],[127.0659,37.22725],[127.06674,37.22768],[127.0673,37.22816],[127.06921,37.23123],[127.06971,37.23232],[127.0699,37.23279],[127.07009,37.23327],[127.07045,37.23469],[127.07075,37.23547],[127.07113,37.23606],[127.0716,37.23664],[127.07232,37.23741],[127.07476,37.24002],[127.07503,37.24051],[127.0752,37.24115],[127.0753,37.24172],[127.07535,37.24233],[127.07581,37.2465],[127.07584,37.2471],[127.07577,37.24757],[127.07562,37.2481],[127.07538,37.24853],[127.07514,37.24887],[127.07468,37.24929],[127.07013,37.25201],[127.06973,37.25237],[127.06949,37.25284],[127.0694,37.25334],[127.06941,37.2537],[127.06948,37.25417],[127.07287,37.26768],[127.07312,37.26835],[127.07344,37.26892],[127.07376,37.2693],[127.07416,37.26964],[127.07455,37.26991],[127.07628,37.27088],[127.07672,37.27125],[127.07709,37.27174],[127.0774,37.27233],[127.07753,37.27285],[127.07756,37.2734],[127.07748,37.27408],[127.07713,37.27476],[127.07667,37.27527],[127.07607,37.27566],[127.07553,37.27592],[127.07497,37.27607],[127.07441,37.2761],[127.07248,37.27612],[127.06862,37.27612],[127.06799,37.2761],[127.06743,37.27595],[127.06702,37.2758],[127.06662,37.27557],[127.06628,37.27525],[127.06603,37.27495],[127.06583,37.27465],[127.06448,37.27175],[127.06423,37.27141],[127.06371,37.27097],[127.06336,37.27076],[127.06283,37.27051],[127.06215,37.2703],[127.06161,37.2702],[127.06128,37.27018],[127.06094,37.27021],[127.06032,37.27036],[127.05957,37.27062],[127.05858,37.27104],[127.0537,37.27285],[127.05292,37.27308],[127.05216,37.27322],[127.05166,37.27331],[127.05119,37.27337],[127.05081,37.27341],[127.04851,37.27344],[127.04788,37.27354],[127.04405,37.27468],[127.04285,37.27507],[127.04039,37.27588],[127.03965,37.27619],[127.039,37.27654],[127.03854,37.27699],[127.03824,37.2775],[127.03784,37.27854],[127.03718,37.28028],[127.03712,37.2806],[127.03702,37.28219],[127.03685,37.28289],[127.0366,37.28354],[127.03628,37.28413],[127.03581,37.28476],[127.03476,37.28603],[127.03306,37.28774],[127.03171,37.28907],[127.0291,37.29152],[127.02872,37.29184],[127.02831,37.29207],[127.02435,37.29422],[127.02385,37.29442],[127.02341,37.29453],[127.02286,37.29459],[127.02218,37.29461],[127.02113,37.29453],[127.01906,37.29435],[127.01831,37.29437],[127.01788,37.29441],[127.01726,37.29456],[127.0166,37.29482],[127.01622,37.2951],[127.01108,37.30004],[127.01049,37.30058],[127.00978,37.3011],[127.00886,37.30173],[127.00631,37.30323],[127.00527,37.30388],[127.00397,37.3047],[127.00241,37.30568],[127.00177,37.30604],[126.99227,37.31017],[126.99156,37.31048],[126.99071,37.311],[126.98971,37.31186],[126.98921,37.31249],[126.98883,37.31312],[126.98856,37.31373],[126.98839,37.31428],[126.98833,37.31471],[126.98814,37.31812],[126.98805,37.31917],[126.98784,37.32038],[126.98743,37.32217],[126.98714,37.32323],[126.98683,37.32419],[126.98651,37.32501],[126.98623,37.32565],[126.98593,37.32626],[126.98536,37.32732],[126.98489,37.32813],[126.9846,37.32861],[126.98406,37.32944],[126.98368,37.3301],[126.98173,37.33355],[126.98119,37.33449],[126.98074,37.33546],[126.97964,37.3392],[126.97946,37.33977],[126.97912,37.34042],[126.97863,37.34106],[126.97785,37.34209],[126.976,37.3447],[126.97561,37.34521],[126.97319,37.34943],[126.97263,37.35043],[126.97194,37.35166],[126.97158,37.3522],[126.9712,37.35275],[126.97096,37.35303],[126.9677,37.35656],[126.96705,37.35718],[126.96548,37.35856],[126.95879,37.36449],[126.95842,37.36491],[126.95818,37.36534],[126.95804,37.36578],[126.95801,37.36622],[126.95798,37.3667],[126.95802,37.36738],[126.95816,37.36805],[126.95842,37.36884],[126.95883,37.3695],[126.95925,37.37002],[126.95979,37.3705],[126.96035,37.37088],[126.96106,37.37124],[126.96479,37.37271],[126.9652,37.37286],[126.96587,37.3732],[126.96616,37.37342],[126.96664,37.37388],[126.96685,37.37414],[126.9672,37.37454],[126.97025,37.37869],[126.97131,37.38025],[126.97178,37.38102],[126.97199,37.38143],[126.97209,37.38176],[126.97216,37.38207],[126.97223,37.38244],[126.97248,37.38533],[126.97271,37.38708],[126.97282,37.38779],[126.97291,37.38822],[126.97305,37.38863],[126.97329,37.38923],[126.97642,37.39658],[126.9767,37.39732],[126.97686,37.39772],[126.97692,37.39804],[126.97693,37.39834],[126.97667,37.40176],[126.9762,37.40317],[126.9761,37.40411],[126.97622,37.40513],[126.97792,37.40946]],[[126.97813,37.4094],[126.97646,37.40463],[126.97639,37.40404],[126.97674,37.40178],[126.97693,37.39968],[126.97701,37.39866],[126.97704,37.39833],[126.97703,37.39811],[126.977,37.39788],[126.97695,37.39767],[126.97656,37.39661],[126.97345,37.38941],[126.9732,37.38878],[126.97305,37.38835],[126.97296,37.388],[126.97291,37.38764],[126.97263,37.3859],[126.97257,37.38531],[126.9723,37.38244],[126.97226,37.38215],[126.97217,37.38175],[126.97204,37.38139],[126.9718,37.38088],[126.97118,37.37987],[126.97002,37.37811],[126.96725,37.37451],[126.96671,37.37385],[126.96608,37.37326],[126.96531,37.37283],[126.96108,37.37118],[126.96043,37.37085],[126.95988,37.37048],[126.95935,37.36998],[126.95886,37.36938],[126.95849,37.36881],[126.95823,37.368],[126.95811,37.36731],[126.95807,37.36671],[126.95809,37.3662],[126.95813,37.36579],[126.95827,37.36536],[126.95852,37.36494],[126.95887,37.36453],[126.95997,37.36356],[126.96728,37.35706],[126.9678,37.35658],[126.96853,37.35579],[126.971,37.3531],[126.97143,37.35255],[126.97179,37.35204],[126.97211,37.35153],[126.97407,37.34793],[126.97568,37.34523],[126.97787,37.3422],[126.97874,37.34111],[126.97918,37.34045],[126.97954,37.33981],[126.97976,37.33919],[126.97992,37.33862],[126.98084,37.33549],[126.98096,37.33517],[126.98109,37.33486],[126.98125,37.33456],[126.98363,37.33036],[126.98397,37.32977],[126.98466,37.32865],[126.98492,37.3282],[126.98543,37.32733],[126.98601,37.32624],[126.98629,37.32565],[126.98655,37.32504],[126.98688,37.32421],[126.98721,37.32325],[126.98749,37.32218],[126.98792,37.32039],[126.98813,37.31918],[126.98821,37.31809],[126.98838,37.31472],[126.98845,37.31428],[126.98861,37.31377],[126.98888,37.31311],[126.98928,37.31251],[126.98981,37.31188],[126.99076,37.31104],[126.99163,37.31052],[126.99448,37.30924],[127.00182,37.30609],[127.00255,37.30567],[127.00404,37.30474]]]}},{"type":"Feature","properties":{"name":"동북선","color":"#C4A000"},"geometry":{"type":"MultiLineString","coordinates":[[[127.03555,37.56069],[127.03587,37.56191],[127.03609,37.56286],[127.03652,37.5659],[127.03726,37.5686],[127.03767,37.57006],[127.03789,37.57094],[127.03803,37.57306],[127.03826,37.57588],[127.03847,37.57848],[127.03864,37.58235],[127.03858,37.58511],[127.03856,37.58588],[127.03852,37.58639],[127.03829,37.58681],[127.03701,37.5886],[127.03669,37.58909],[127.03658,37.58935],[127.03649,37.58977],[127.03641,37.59018],[127.0364,37.59064],[127.03641,37.59118],[127.03641,37.59232],[127.03632,37.59324],[127.03609,37.59412],[127.03556,37.59624],[127.0353,37.59716],[127.03448,37.59927],[127.03395,37.60041],[127.03379,37.60071],[127.03294,37.60206],[127.03271,37.60239],[127.03252,37.60283],[127.03198,37.60412],[127.03111,37.60682],[127.03067,37.60826],[127.03047,37.60885],[127.03046,37.60894],[127.03051,37.60906],[127.03059,37.60913],[127.03069,37.60919],[127.03216,37.61005],[127.03618,37.61218],[127.03739,37.6128],[127.03848,37.61399],[127.04029,37.61591],[127.04397,37.61863],[127.04442,37.61914],[127.04485,37.6197],[127.04534,37.62047],[127.0462,37.62186],[127.0467,37.62242],[127.04693,37.6226],[127.05031,37.6246],[127.05708,37.62889],[127.0608,37.63127],[127.0617,37.63183],[127.06853,37.63609],[127.06907,37.63641],[127.07094,37.63743],[127.0717,37.63774],[127.07203,37.63781],[127.07237,37.63785],[127.07375,37.63801],[127.07452,37.63828],[127.07525,37.63869],[127.07589,37.63931],[127.07604,37.63958],[127.07615,37.63986],[127.07628,37.64042],[127.07649,37.64421],[127.07665,37.64768],[127.0766,37.64932],[127.07663,37.65031],[127.0767,37.65074],[127.07689,37.65124],[127.07704,37.65147],[127.07779,37.65236],[127.07811,37.65275],[127.07817,37.65286],[127.07819,37.65299],[127.07821,37.65313],[127.07822,37.65334],[127.07822,37.6542],[127.07823,37.65618],[127.07817,37.65641],[127.07803,37.65665],[127.07791,37.65678],[127.07776,37.65689],[127.07762,37.65696],[127.07748,37.65702],[127.07533,37.6577],[127.0749,37.65794],[127.07278,37.65968],[127.07203,37.66034],[127.07111,37.66116]],[[127.07108,37.66114],[127.072,37.66033],[127.07271,37.65968],[127.07488,37.65792],[127.07532,37.65767],[127.07746,37.65698],[127.0776,37.65693],[127.07776,37.65684],[127.07788,37.65675],[127.07799,37.65663],[127.07812,37.65639],[127.07818,37.65617],[127.07817,37.6542],[127.07817,37.65334],[127.07816,37.65312],[127.07815,37.65298],[127.07812,37.65287],[127.07807,37.65276],[127.07777,37.65238],[127.07697,37.65148],[127.07684,37.65127],[127.07664,37.65075],[127.07658,37.65033],[127.07655,37.64932],[127.07653,37.6472],[127.07645,37.6442],[127.07623,37.64043],[127.07609,37.63987],[127.07597,37.63958],[127.07582,37.63933],[127.07519,37.63873],[127.07447,37.63832],[127.0737,37.63806],[127.07236,37.63789],[127.07201,37.63785],[127.07168,37.63778],[127.07089,37.63747],[127.06904,37.63643],[127.06663,37.63499],[127.06167,37.63186],[127.06077,37.6313],[127.05743,37.62922],[127.05537,37.62795],[127.05029,37.62466],[127.0469,37.62262],[127.04668,37.62244],[127.04558,37.62127],[127.04482,37.61972],[127.04437,37.61915],[127.04393,37.61866],[127.04024,37.61594],[127.03734,37.61283],[127.03613,37.6122],[127.03212,37.61008],[127.03067,37.60924],[127.03056,37.60917],[127.03047,37.6091],[127.0304,37.60894],[127.03041,37.60882],[127.03062,37.60827],[127.03106,37.60682],[127.03194,37.60411],[127.03249,37.60281],[127.03268,37.60238],[127.0329,37.60205],[127.03375,37.60069],[127.0339,37.60039],[127.03443,37.59926],[127.03525,37.59711],[127.03551,37.59622],[127.03624,37.59322],[127.03631,37.59247],[127.03634,37.5922],[127.03637,37.59106],[127.03635,37.59018],[127.03643,37.58975],[127.03654,37.58934],[127.03665,37.58908],[127.03716,37.58832],[127.0382,37.5868],[127.03841,37.58644],[127.03853,37.58239],[127.03835,37.57828],[127.03811,37.57483],[127.03789,37.57174]],[[127.03788,37.57159],[127.03783,37.57097],[127.03762,37.57006],[127.03647,37.5659],[127.03605,37.56286],[127.0355,37.56069]],[[127.03789,37.57174],[127.03788,37.57159]]]}},{"type":"Feature","properties":{"name":"GTX-A","color":"#AB087D"},"geometry":{"type":"MultiLineString","coordinates":[[[127.10004,37.48784],[127.09757,37.49021],[127.09449,37.4931],[127.09164,37.49537],[127.09031,37.49638],[127.0886,37.49729],[127.07961,37.4998],[127.07562,37.5007],[127.0701,37.50188],[127.06907,37.5022],[127.06828,37.50248],[127.06753,37.50287],[127.06718,37.50315],[127.06671,37.50349],[127.06592,37.50424],[127.06491,37.50572],[127.06379,37.50774],[127.05957,37.5154],[127.05429,37.5249],[127.0538,37.52528],[127.05276,37.52633],[127.05234,37.52674],[127.05127,37.52751],[127.0504,37.52796],[127.04726,37.52946],[127.04415,37.53036],[127.04075,37.53143],[127.03153,37.53377],[127.02952,37.53421],[127.02763,37.53469],[127.02569,37.53518],[127.02187,37.53647],[127.01657,37.53787],[127.01224,37.53882],[127.00297,37.54089],[126.99616,37.54206],[126.98588,37.54446],[126.98405,37.54478],[126.98295,37.54497],[126.97905,37.54582],[126.97706,37.54617],[126.97621,37.54645],[126.97504,37.54706],[126.97385,37.5479],[126.9734,37.54839],[126.973,37.54888]],[[126.97308,37.54897],[126.97343,37.5485],[126.97399,37.54796],[126.97502,37.54723],[126.97623,37.54659],[126.97714,37.54629],[126.97904,37.54593],[126.98283,37.54515],[126.98426,37.54491],[126.98545,37.5447],[126.98613,37.54459],[126.99622,37.54224],[127.00296,37.54104],[127.01236,37.53892],[127.0165,37.53805],[127.02223,37.53669],[127.02754,37.53494],[127.02944,37.53435],[127.03163,37.53387],[127.04073,37.53157],[127.04406,37.53051],[127.04742,37.52949],[127.05051,37.52806],[127.0515,37.52755],[127.052,37.52708],[127.05277,37.52645],[127.05314,37.52605],[127.05391,37.52538],[127.05432,37.52502],[127.05661,37.52107],[127.05731,37.5197],[127.05976,37.51558],[127.06385,37.50785],[127.065,37.50574],[127.06607,37.50435],[127.06631,37.50404],[127.06682,37.5036],[127.06728,37.50326],[127.06778,37.50296],[127.06835,37.50263],[127.06917,37.50231],[127.07033,37.50193],[127.07553,37.50081],[127.07965,37.4999],[127.08685,37.49788],[127.08776,37.49768],[127.08866,37.49738],[127.08938,37.49701],[127.09045,37.49644],[127.09172,37.49546],[127.09283,37.49468],[127.09459,37.49313],[127.09748,37.49041],[127.09798,37.48998],[127.10026,37.48795]]]}},{"type":"Feature","properties":{"name":"GTX-C","color":"#8B6B2E"},"geometry":{"type":"MultiLineString","coordinates":[[[127.04787,37.65282],[127.04764,37.6533],[127.04738,37.65392],[127.04725,37.6542],[127.04682,37.65527],[127.04638,37.65635],[127.04565,37.6579],[127.04516,37.65907],[127.04492,37.65989],[127.04476,37.66056],[127.04445,37.66442],[127.04407,37.66961],[127.0441,37.6712],[127.04513,37.67726],[127.04571,37.68058],[127.04626,37.68386],[127.04631,37.68514],[127.04621,37.68624],[127.04616,37.68704],[127.04607,37.68856],[127.04594,37.69071],[127.04564,37.69436],[127.04553,37.6955],[127.0455,37.69584],[127.04557,37.69673],[127.04574,37.69767],[127.04603,37.6992]],[[127.04614,37.69913],[127.04578,37.69704],[127.04569,37.69609],[127.04567,37.69556],[127.04581,37.69437],[127.04596,37.69277],[127.04607,37.69121],[127.04622,37.6893],[127.04634,37.68848],[127.04646,37.68625],[127.04648,37.68571],[127.04645,37.6848],[127.04629,37.68306],[127.04582,37.68023],[127.04519,37.67676],[127.04459,37.67324],[127.0443,37.6712],[127.04423,37.66958],[127.04453,37.66574],[127.04484,37.66158],[127.04494,37.66049],[127.04514,37.65963],[127.04547,37.65864],[127.04643,37.6564],[127.04698,37.65503],[127.04729,37.65417],[127.04767,37.6533],[127.04789,37.65283]]]}},{"type":"Feature","properties":{"name":"GTX-B","color":"#1C4DA1"},"geometry":{"type":"MultiLineString","coordinates":[[[126.6381,37.3848],[126.64106,37.38751],[126.64299,37.38921],[126.64563,37.39173],[126.65075,37.39664],[126.65418,37.39998],[126.65542,37.40119],[126.65872,37.40616],[126.66225,37.41149],[126.66352,37.41311],[126.66551,37.41627],[126.66731,37.42025],[126.66898,37.42407],[126.66989,37.42547],[126.6714,37.42707],[126.6733,37.42846],[126.67808,37.43012],[126.68368,37.4316],[126.68858,37.43215],[126.69405,37.43255],[126.69601,37.43288],[126.69739,37.43373],[126.69818,37.43464],[126.69897,37.43739],[126.69951,37.43926],[126.69963,37.43996],[126.70009,37.44283],[126.70069,37.44674],[126.70176,37.45425],[126.7022,37.45804],[126.70233,37.45968],[126.70238,37.46152],[126.70237,37.46284],[126.70232,37.46461],[126.70248,37.46579],[126.70268,37.46698],[126.70308,37.46978],[126.70316,37.47173],[126.70326,37.47408],[126.70338,37.47612],[126.70346,37.47752],[126.70363,37.47907],[126.70378,37.47954],[126.70422,37.48032],[126.70492,37.48104],[126.7061,37.48211],[126.70756,37.48323],[126.70888,37.48422],[126.71072,37.48544],[126.71273,37.48672],[126.71489,37.48843],[126.716,37.48915],[126.71637,37.48937],[126.71772,37.48981],[126.71878,37.48991],[126.71988,37.48985],[126.72231,37.48955],[126.7259,37.48932],[126.72956,37.48925],[126.73106,37.48921],[126.73195,37.48926],[126.73274,37.48938],[126.7337,37.48962],[126.73433,37.48987],[126.7351,37.49044],[126.73602,37.4913],[126.73723,37.49273],[126.73915,37.49488],[126.74102,37.49691],[126.74454,37.50091],[126.74685,37.50448],[126.74785,37.50539],[126.74855,37.50574],[126.75004,37.50601],[126.75126,37.50602],[126.75273,37.506],[126.75469,37.5059],[126.76186,37.50507],[126.76987,37.50404],[126.77887,37.50282],[126.78033,37.50264],[126.78145,37.50275],[126.78927,37.5042],[126.79591,37.50538],[126.80131,37.50645],[126.80504,37.5067],[126.80704,37.50666],[126.81064,37.50623],[126.81759,37.50492],[126.82598,37.50287],[126.82897,37.50214],[126.83495,37.50071],[126.85056,37.49644],[126.85513,37.49515],[126.85676,37.49481],[126.86256,37.49412],[126.86328,37.49407],[126.86471,37.49425],[126.86642,37.49494],[126.87037,37.49677],[126.87319,37.49806],[126.87765,37.50016],[126.87874,37.50095],[126.88231,37.50393],[126.8835,37.50486],[126.8871,37.50676],[126.89026,37.50877],[126.89471,37.51058],[126.89766,37.51183],[126.90032,37.51281],[126.90238,37.5138],[126.90838,37.51657],[126.91089,37.51763],[126.91351,37.51921],[126.91409,37.51985],[126.91443,37.52041],[126.91481,37.52155],[126.91511,37.52207],[126.91548,37.52254],[126.91638,37.52337],[126.9174,37.52391],[126.91837,37.52425],[126.91954,37.52435],[126.92072,37.52431],[126.92158,37.52412],[126.92222,37.52374],[126.92339,37.52288],[126.92621,37.51998],[126.92888,37.51706],[126.93206,37.5147],[126.93357,37.5141],[126.935,37.51389],[126.93614,37.51392],[126.93717,37.51402],[126.93891,37.51422],[126.9437,37.51499],[126.94548,37.51542],[126.94742,37.51662],[126.94892,37.51796],[126.95161,37.52055],[126.9554,37.52355],[126.95755,37.52534],[126.96177,37.52873],[126.96365,37.53029],[126.96619,37.53219],[126.96772,37.53325],[126.96876,37.53391],[126.96961,37.53482],[126.97015,37.53553],[126.97059,37.53649],[126.97078,37.53784],[126.97089,37.53986],[126.9709,37.54196],[126.97085,37.54471],[126.97085,37.54539],[126.97086,37.54637],[126.9708,37.54776],[126.97094,37.54951],[126.9712,37.55149],[126.97172,37.55469],[126.972,37.55596],[126.97232,37.55728],[126.97264,37.55815],[126.97511,37.56123],[126.97623,37.56274],[126.97733,37.56422],[126.97817,37.56516],[126.97956,37.5663],[126.98415,37.56769],[126.9863,37.56813],[126.98893,37.56821],[126.99307,37.56858],[126.99643,37.56878],[127.00039,37.56955],[127.0022,37.56976],[127.00737,37.56986],[127.01041,37.56975],[127.0175,37.56876],[127.02652,37.56746],[127.0319,37.5667],[127.03361,37.56647],[127.03477,37.56631],[127.03584,37.56648],[127.0371,37.56686],[127.03757,37.5672],[127.03842,37.56826],[127.03968,37.56997],[127.04028,37.57055],[127.04161,37.57191],[127.04204,37.5724],[127.0425,37.57291],[127.04315,37.57367],[127.04364,37.57427],[127.04445,37.57539],[127.04506,37.57622],[127.04565,37.57688],[127.04633,37.57744],[127.04715,37.57825],[127.04768,37.5789],[127.04833,37.57977],[127.04882,37.58044],[127.04922,37.58099],[127.04966,37.58168],[127.05014,37.58251],[127.05052,37.58329],[127.05075,37.58364],[127.05111,37.58412],[127.05157,37.58469],[127.05237,37.58569],[127.05293,37.5863],[127.05314,37.58649],[127.05385,37.58705],[127.05472,37.58755],[127.05534,37.58792],[127.05636,37.58849],[127.05721,37.58871],[127.05963,37.58943],[127.07251,37.59314],[127.08275,37.59617],[127.08627,37.59752],[127.08821,37.59853],[127.08901,37.59898],[127.09011,37.59947],[127.09081,37.59971],[127.09265,37.60039],[127.09343,37.60064],[127.09493,37.60093],[127.09862,37.6021],[127.10036,37.6028],[127.10225,37.60428],[127.10292,37.60514],[127.10324,37.60609],[127.10329,37.60679],[127.10313,37.61071]],[[127.10338,37.6108],[127.10361,37.60818],[127.10359,37.60671],[127.10347,37.6061],[127.10331,37.60545],[127.10299,37.60486],[127.10242,37.60426],[127.10131,37.60333],[127.10012,37.60256],[127.0967,37.60133],[127.09503,37.60091],[127.09278,37.60029],[127.09074,37.59952],[127.0889,37.59888],[127.08718,37.59783],[127.08304,37.59621],[127.0761,37.59409],[127.0692,37.59201],[127.06422,37.59057],[127.05966,37.58928],[127.05656,37.58838],[127.05471,37.58745],[127.05316,37.58643],[127.05299,37.58624],[127.0528,37.586],[127.05246,37.5856],[127.05186,37.58487],[127.05092,37.58375],[127.05022,37.58254],[127.04934,37.5811],[127.04902,37.58056],[127.04855,37.57995],[127.04706,37.57801],[127.04509,37.57619],[127.04354,37.57397],[127.04235,37.57262],[127.04009,37.57028],[127.03911,37.56915],[127.03816,37.56771],[127.03746,37.56692],[127.03633,37.56644],[127.03553,37.56633],[127.03479,37.56622],[127.03363,37.56626],[127.02826,37.56694],[127.02135,37.5681],[127.00923,37.56967],[127.00483,37.56952],[127.00136,37.56945],[126.99644,37.5686],[126.99212,37.56819],[126.98863,37.56802],[126.98638,37.568],[126.98438,37.5676],[126.98051,37.56649],[126.97907,37.56571],[126.97785,37.56465],[126.97529,37.56122],[126.97299,37.55819],[126.97241,37.55724],[126.97216,37.55616],[126.97192,37.55499],[126.97103,37.5495],[126.97095,37.54765],[126.97091,37.54567],[126.97093,37.54455],[126.97097,37.54214],[126.97093,37.5412],[126.97101,37.53945],[126.97093,37.53802],[126.97073,37.53651],[126.97034,37.53555],[126.96974,37.53464],[126.9688,37.53368],[126.96689,37.53243],[126.96497,37.53116],[126.95974,37.52673],[126.95648,37.5242],[126.95502,37.52288],[126.95194,37.52019],[126.9494,37.51795],[126.94838,37.51725],[126.9476,37.51655],[126.94577,37.51541],[126.94417,37.51489],[126.93902,37.51415],[126.93741,37.51399],[126.93629,37.51386],[126.9349,37.5138],[126.93356,37.51401],[126.93252,37.51412],[126.93014,37.51539],[126.92852,37.51683],[126.92491,37.52065],[126.92227,37.52342],[126.922,37.52366],[126.92132,37.52403],[126.92032,37.52421],[126.91886,37.52415],[126.91778,37.52392],[126.91679,37.52345],[126.91575,37.52257],[126.91532,37.52208],[126.91503,37.52163],[126.9146,37.52029],[126.91451,37.52016],[126.91419,37.5197],[126.91375,37.51921],[126.9133,37.51882],[126.91099,37.51751],[126.90624,37.51556],[126.90255,37.51378],[126.90051,37.51259],[126.89716,37.51106],[126.89421,37.50976],[126.89102,37.50832],[126.8894,37.50759],[126.88699,37.50602],[126.8853,37.50503],[126.88384,37.50397],[126.88292,37.50323],[126.88164,37.50202],[126.88029,37.50075],[126.87814,37.49965],[126.8736,37.49772],[126.87239,37.49725],[126.86575,37.49411],[126.86449,37.49376],[126.86423,37.49369],[126.86331,37.49364],[126.86223,37.49371],[126.85991,37.49412],[126.85453,37.49517],[126.85051,37.49619],[126.83473,37.50055],[126.82026,37.50405],[126.81732,37.50486],[126.81049,37.50617],[126.8061,37.50661],[126.80302,37.50638],[126.79648,37.50518],[126.78859,37.50382],[126.78081,37.5024],[126.77976,37.50242],[126.77369,37.50325],[126.76736,37.5041],[126.76052,37.50498],[126.75478,37.50568],[126.75245,37.50576],[126.75115,37.50571],[126.74945,37.50576],[126.74837,37.50551],[126.74695,37.50425],[126.74485,37.50104],[126.74128,37.49701],[126.7391,37.49464],[126.73747,37.49277],[126.73678,37.49191],[126.73614,37.49127],[126.73551,37.49054],[126.73424,37.48966],[126.73287,37.48928],[126.73132,37.48917],[126.7261,37.48929],[126.71952,37.4897],[126.71845,37.48967],[126.71765,37.4895],[126.71648,37.48905],[126.71404,37.48752],[126.7113,37.48574],[126.70899,37.48424],[126.70609,37.48206],[126.7043,37.48038],[126.70372,37.47932],[126.70363,37.47852],[126.70342,37.47612],[126.70332,37.47369],[126.70323,37.47023],[126.70263,37.46467],[126.70262,37.46428],[126.70249,37.46058],[126.70234,37.45799],[126.70197,37.45518],[126.70133,37.45073],[126.70081,37.44692],[126.7003,37.44326],[126.69975,37.43983],[126.69906,37.43666],[126.69829,37.43439],[126.69745,37.43348],[126.69647,37.43296],[126.69549,37.43258],[126.69355,37.43234],[126.68506,37.43161],[126.68123,37.43082],[126.6755,37.42913],[126.67364,37.42839],[126.67215,37.42744],[126.67116,37.42648],[126.66987,37.42502],[126.66915,37.42356],[126.66785,37.42042],[126.66682,37.41771],[126.66489,37.4145],[126.66371,37.41265],[126.65831,37.40515],[126.65559,37.40109],[126.65482,37.40033],[126.65103,37.39662],[126.6471,37.39296],[126.64114,37.38737],[126.63829,37.38466]]]}},{"type":"Feature","properties":{"name":"삼성","line":"GTX-A","kind":"station"},"geometry":{"type":"Point","coordinates":[127.063282,37.509112]}},{"type":"Feature","properties":{"name":"탑석","line":"7호선 도봉산옥정선","kind":"station"},"geometry":{"type":"Point","coordinates":[127.08879,37.733482]}},{"type":"Feature","properties":{"name":"매화","line":"월곶판교선","kind":"station"},"geometry":{"type":"Point","coordinates":[126.825252,37.40752]}},{"type":"Feature","properties":{"name":"학온","line":"월곶판교선","kind":"station"},"geometry":{"type":"Point","coordinates":[126.862252,37.409205]}},{"type":"Feature","properties":{"name":"만안","line":"월곶판교선","kind":"station"},"geometry":{"type":"Point","coordinates":[126.909115,37.413601]}},{"type":"Feature","properties":{"name":"안양운동장","line":"월곶판교선","kind":"station"},"geometry":{"type":"Point","coordinates":[126.950044,37.40178]}},{"type":"Feature","properties":{"name":"청계","line":"월곶판교선","kind":"station"},"geometry":{"type":"Point","coordinates":[126.997577,37.388974]}},{"type":"Feature","properties":{"name":"서판교","line":"월곶판교선","kind":"station"},"geometry":{"type":"Point","coordinates":[127.075819,37.391747]}},{"type":"Feature","properties":{"name":"왕십리","line":"동북선","kind":"station"},"geometry":{"type":"Point","coordinates":[127.03604,37.562739]}},{"type":"Feature","properties":{"name":"마장시장","line":"동북선","kind":"station"},"geometry":{"type":"Point","coordinates":[127.037569,37.56979]}},{"type":"Feature","properties":{"name":"제기동","line":"동북선","kind":"station"},"geometry":{"type":"Point","coordinates":[127.038353,37.57789]}},{"type":"Feature","properties":{"name":"고려대","line":"동북선","kind":"station"},"geometry":{"type":"Point","coordinates":[127.036614,37.589188]}},{"type":"Feature","properties":{"name":"종암","line":"동북선","kind":"station"},"geometry":{"type":"Point","coordinates":[127.03561,37.595917]}},{"type":"Feature","properties":{"name":"종암경찰서","line":"동북선","kind":"station"},"geometry":{"type":"Point","coordinates":[127.032562,37.602661]}},{"type":"Feature","properties":{"name":"미아사거리","line":"동북선","kind":"station"},"geometry":{"type":"Point","coordinates":[127.030658,37.608215]}},{"type":"Feature","properties":{"name":"북서울꿈의숲","line":"동북선","kind":"station"},"geometry":{"type":"Point","coordinates":[127.044523,37.619295]}},{"type":"Feature","properties":{"name":"월계","line":"동북선","kind":"station"},"geometry":{"type":"Point","coordinates":[127.061086,37.631477]}},{"type":"Feature","properties":{"name":"하계","line":"동북선","kind":"station"},"geometry":{"type":"Point","coordinates":[127.068675,37.636204]}},{"type":"Feature","properties":{"name":"상계","line":"동북선","kind":"station"},"geometry":{"type":"Point","coordinates":[127.072965,37.659498]}},{"type":"Feature","properties":{"name":"원천","line":"동탄인덕원선","kind":"station"},"geometry":{"type":"Point","coordinates":[127.059089,37.270845]}}]}