{"type":"FeatureCollection","features":[{"type":"Feature","properties":{"class":"major","highway":"tertiary","sidewalk":"likely","lanes":0,"name":"중앙로","oneway":false},"geometry":{"type":"LineString","coordinates":[[126.98704,37.41771],[126.98761,37.41827],[126.98774,37.41837],[126.98785,37.41847],[126.98808,37.41868],[126.9882,37.41883],[126.98845,37.41908],[126.9886,37.41937],[126.98867,37.41966],[126.98868,37.41982],[126.98879,37.42093],[126.98883,37.42126],[126.9889,37.42161],[126.98893,37.42194],[126.98898,37.42228],[126.98912,37.42292],[126.9892,37.42393],[126.9892,37.42429],[126.98919,37.42435],[126.9892,37.42451],[126.98925,37.42489],[126.98934,37.42522],[126.9895,37.42562],[126.98954,37.42571],[126.98961,37.42581],[126.9897,37.42593],[126.99027,37.42671],[126.99036,37.42684],[126.9907,37.42721],[126.99121,37.42778],[126.99123,37.4278],[126.99177,37.42843],[126.99208,37.42878],[126.99256,37.42933],[126.99462,37.43159],[126.99506,37.43207],[126.99685,37.43406],[126.99694,37.43415],[126.997,37.43423],[126.99726,37.43451]]}}]}