{"type":"FeatureCollection","features":[{"type":"Feature","properties":{"class":"major","highway":"motorway","sidewalk":"likely","lanes":0,"name":"평택파주고속도로 지선","oneway":true},"geometry":{"type":"LineString","coordinates":[[126.89289,37.43459],[126.89106,37.43275],[126.88946,37.43129],[126.88751,37.42971],[126.88568,37.42836],[126.88103,37.42554],[126.87985,37.42471],[126.87899,37.42401],[126.87407,37.41937],[126.87265,37.41799],[126.87165,37.41724],[126.87072,37.41664],[126.86946,37.41601],[126.86814,37.4155],[126.86721,37.41522],[126.86572,37.41489]]}},{"type":"Feature","properties":{"class":"major","highway":"motorway","sidewalk":"likely","lanes":0,"name":"평택파주고속도로 지선","oneway":true},"geometry":{"type":"LineString","coordinates":[[126.86578,37.4147],[126.86704,37.41494],[126.86891,37.41546],[126.87064,37.41622],[126.87215,37.41716],[126.87308,37.4179],[126.87893,37.42353],[126.88019,37.42459],[126.88116,37.42525],[126.8823,37.42596],[126.88593,37.42819],[126.88744,37.4292],[126.88804,37.42963],[126.88873,37.43022],[126.89166,37.43292],[126.89307,37.4345]]}}]}