{"type":"FeatureCollection","features":[{"type":"Feature","properties":{"class":"alley","highway":"service","sidewalk":"unknown","lanes":0,"name":"","oneway":false},"geometry":{"type":"LineString","coordinates":[[127.01608,37.42872],[127.01644,37.42853],[127.01644,37.42846],[127.01643,37.42839],[127.01629,37.42825],[127.01628,37.42816],[127.01649,37.4278],[127.01651,37.42747],[127.01665,37.42724],[127.01693,37.4271],[127.0174,37.42674],[127.01747,37.42669],[127.01755,37.42663],[127.01789,37.42638],[127.01803,37.4261],[127.01805,37.42607],[127.01809,37.42573],[127.01825,37.42549],[127.0186,37.42522],[127.01898,37.42492],[127.01919,37.42463],[127.01935,37.42427],[127.01945,37.424],[127.01956,37.42375],[127.0196,37.42368],[127.01969,37.42335],[127.01968,37.42326],[127.01967,37.42316],[127.01962,37.42302],[127.01955,37.42274],[127.01954,37.42271],[127.01953,37.42244],[127.01971,37.42203],[127.01989,37.42184],[127.02048,37.42137],[127.02059,37.42104],[127.02082,37.42052],[127.02115,37.42001],[127.02152,37.41956],[127.02169,37.41927],[127.02166,37.41903],[127.02164,37.41897],[127.02161,37.41885],[127.02153,37.41852],[127.02146,37.41789],[127.02145,37.41777],[127.02152,37.41741],[127.02164,37.41732],[127.02177,37.41728],[127.02202,37.41726],[127.02226,37.4173],[127.02249,37.41734],[127.02303,37.4175],[127.02352,37.41764],[127.0237,37.41763],[127.0239,37.41757],[127.02417,37.41765],[127.02427,37.41779],[127.02434,37.41793],[127.02457,37.41841],[127.02486,37.41882],[127.02496,37.41893]]}},{"type":"Feature","properties":{"class":"alley","highway":"service","sidewalk":"unknown","lanes":0,"name":"동물원둘레길","oneway":false},"geometry":{"type":"LineString","coordinates":[[127.02638,37.41889],[127.02627,37.419],[127.02617,37.41908],[127.02536,37.4196],[127.02467,37.42002],[127.02453,37.42012],[127.0244,37.42023],[127.02432,37.42039],[127.02433,37.42048],[127.02436,37.42057],[127.02456,37.42071],[127.02463,37.42085],[127.02463,37.42099],[127.02462,37.42109],[127.0246,37.42122],[127.02458,37.42131],[127.02467,37.42148],[127.02476,37.42162],[127.02495,37.4219],[127.02512,37.4221],[127.02532,37.42225],[127.0257,37.42231],[127.02609,37.42228],[127.02651,37.42228],[127.02659,37.42229],[127.02676,37.42239],[127.02682,37.4225],[127.02683,37.4226],[127.02685,37.42278],[127.02683,37.42293],[127.02681,37.42308],[127.02669,37.42333],[127.02661,37.42347],[127.02651,37.42355],[127.02632,37.42365],[127.02613,37.4237],[127.02518,37.42388],[127.02464,37.42398],[127.02436,37.42411],[127.0241,37.42433],[127.0241,37.42454],[127.02414,37.42481],[127.02416,37.42506],[127.02416,37.4251],[127.02415,37.42518],[127.02411,37.42526],[127.02402,37.42551],[127.02392,37.42578],[127.02381,37.42596],[127.02363,37.42608],[127.02338,37.42614],[127.02305,37.42621],[127.0228,37.42629],[127.0226,37.42644],[127.02245,37.4266],[127.02228,37.42679],[127.02217,37.42737],[127.02214,37.42746],[127.02208,37.42752],[127.02188,37.42756],[127.02119,37.4275],[127.02082,37.42748],[127.02047,37.42757],[127.01974,37.42788],[127.01946,37.428],[127.01933,37.42806],[127.01912,37.4281],[127.01896,37.42808],[127.01875,37.42808],[127.0187,37.42808],[127.01859,37.42814],[127.01844,37.42832],[127.01831,37.42854],[127.01821,37.42886],[127.01822,37.42898],[127.01822,37.42899],[127.01822,37.429]]}},{"type":"Feature","properties":{"class":"alley","highway":"service","sidewalk":"unknown","lanes":0,"name":"동물원둘레길","oneway":false},"geometry":{"type":"LineString","coordinates":[[127.0146,37.42766],[127.0147,37.42763],[127.01506,37.42754],[127.01523,37.42748],[127.01535,37.42743],[127.0155,37.42737],[127.01571,37.42726],[127.01634,37.42692],[127.01662,37.42674],[127.01671,37.42666],[127.01676,37.42654],[127.01675,37.42633],[127.01647,37.42572],[127.01641,37.42556],[127.01648,37.42544],[127.0166,37.42537],[127.01668,37.42533],[127.01669,37.42532],[127.01673,37.4253],[127.01745,37.425],[127.01811,37.42469],[127.01843,37.42449],[127.01856,37.42438],[127.01863,37.42432],[127.01871,37.42415],[127.01877,37.42398],[127.0189,37.42353],[127.0189,37.42316],[127.0188,37.42305],[127.01845,37.42271],[127.01833,37.4226],[127.01821,37.42243],[127.01821,37.42229],[127.01825,37.42215],[127.01841,37.42201],[127.01871,37.42192],[127.01915,37.4218],[127.01991,37.42153],[127.02,37.4214],[127.02003,37.42119],[127.02004,37.42084],[127.02,37.42071],[127.01981,37.42055],[127.01966,37.42042],[127.01968,37.42027],[127.01982,37.42008],[127.02002,37.41985],[127.02046,37.41935],[127.02064,37.41912],[127.0207,37.41894],[127.02072,37.41874],[127.02068,37.41856],[127.0206,37.41838],[127.02044,37.41807],[127.0202,37.41776],[127.01992,37.41761],[127.01973,37.41747],[127.01964,37.41731],[127.0196,37.41698],[127.01971,37.41679],[127.02008,37.41641],[127.02029,37.4163],[127.02053,37.41629],[127.02086,37.41633],[127.02109,37.41629],[127.02146,37.41605],[127.02169,37.41597],[127.02187,37.41594],[127.0219,37.41594],[127.02203,37.41594]]}}]}