{"type":"FeatureCollection","features":[{"type":"Feature","properties":{"class":"alley","highway":"service","sidewalk":"unknown","lanes":0,"name":"동물원둘레길","oneway":false},"geometry":{"type":"LineString","coordinates":[[127.0146,37.42766],[127.0147,37.42763],[127.01506,37.42754],[127.01523,37.42748],[127.01535,37.42743],[127.0155,37.42737],[127.01571,37.42726],[127.01634,37.42692],[127.01662,37.42674],[127.01671,37.42666],[127.01676,37.42654],[127.01675,37.42633],[127.01647,37.42572],[127.01641,37.42556],[127.01648,37.42544],[127.0166,37.42537],[127.01668,37.42533],[127.01669,37.42532],[127.01673,37.4253],[127.01745,37.425],[127.01811,37.42469],[127.01843,37.42449],[127.01856,37.42438],[127.01863,37.42432],[127.01871,37.42415],[127.01877,37.42398],[127.0189,37.42353],[127.0189,37.42316],[127.0188,37.42305],[127.01845,37.42271],[127.01833,37.4226],[127.01821,37.42243],[127.01821,37.42229],[127.01825,37.42215],[127.01841,37.42201],[127.01871,37.42192],[127.01915,37.4218],[127.01991,37.42153],[127.02,37.4214],[127.02003,37.42119],[127.02004,37.42084],[127.02,37.42071],[127.01981,37.42055],[127.01966,37.42042],[127.01968,37.42027],[127.01982,37.42008],[127.02002,37.41985],[127.02046,37.41935],[127.02064,37.41912],[127.0207,37.41894],[127.02072,37.41874],[127.02068,37.41856],[127.0206,37.41838],[127.02044,37.41807],[127.0202,37.41776],[127.01992,37.41761],[127.01973,37.41747],[127.01964,37.41731],[127.0196,37.41698],[127.01971,37.41679],[127.02008,37.41641],[127.02029,37.4163],[127.02053,37.41629],[127.02086,37.41633],[127.02109,37.41629],[127.02146,37.41605],[127.02169,37.41597],[127.02187,37.41594],[127.0219,37.41594],[127.02203,37.41594]]}}]}