{"type":"FeatureCollection","features":[{"type":"Feature","properties":{"class":"major","highway":"tertiary","sidewalk":"likely","lanes":2,"name":"달래내로","oneway":false},"geometry":{"type":"LineString","coordinates":[[127.08388,37.41356],[127.08376,37.41361],[127.08361,37.4137],[127.08325,37.41402],[127.08298,37.41435],[127.08251,37.41506],[127.08185,37.41593],[127.08127,37.41677],[127.08111,37.41698],[127.08102,37.41713],[127.081,37.41719],[127.08096,37.41729],[127.08072,37.41774],[127.08055,37.41801],[127.0804,37.41822],[127.07981,37.41891],[127.07957,37.41923],[127.07943,37.41937],[127.07931,37.41947],[127.07919,37.41954],[127.07904,37.4196],[127.07889,37.41964],[127.07872,37.41966],[127.07817,37.41971],[127.0781,37.41972],[127.07785,37.41974],[127.0777,37.41976],[127.07723,37.41982],[127.07708,37.41983],[127.07705,37.41984],[127.07698,37.41985],[127.07692,37.41987],[127.07688,37.41991],[127.07686,37.41993],[127.07683,37.41997],[127.07681,37.42001],[127.07677,37.42006],[127.07667,37.42027],[127.07658,37.42045],[127.0765,37.42059],[127.07643,37.42069],[127.07632,37.42078],[127.07622,37.42086],[127.07606,37.42098],[127.07593,37.42112],[127.07582,37.42123],[127.07573,37.42133],[127.07567,37.42141],[127.07564,37.42151],[127.07562,37.42163],[127.07562,37.42173],[127.07569,37.42193],[127.07584,37.42203],[127.07602,37.42213],[127.07614,37.42222],[127.07635,37.42239],[127.07651,37.42255],[127.07657,37.42263],[127.07661,37.42273],[127.07662,37.42287],[127.07661,37.42297],[127.07657,37.42306],[127.07651,37.42316],[127.07637,37.42329],[127.07608,37.42353],[127.07589,37.42374],[127.07541,37.42427],[127.07522,37.42448],[127.07487,37.42488],[127.07441,37.42535],[127.07395,37.42579],[127.07338,37.42628],[127.07281,37.42697],[127.07263,37.42712],[127.07247,37.42721],[127.07218,37.4273],[127.07205,37.42735],[127.072,37.42738],[127.07182,37.4275],[127.07169,37.42761],[127.07157,37.42773],[127.07151,37.42782],[127.07141,37.42795],[127.07136,37.42808],[127.07126,37.42837],[127.07125,37.42842]]}}]}