{"type":"FeatureCollection","features":[{"type":"Feature","properties":{"class":"major","highway":"tertiary","sidewalk":"likely","lanes":0,"name":"관악산길","oneway":true},"geometry":{"type":"LineString","coordinates":[[126.99084,37.43448],[126.99083,37.43447],[126.99069,37.43432],[126.99045,37.43422],[126.99022,37.43415],[126.98999,37.43403],[126.98977,37.4339],[126.98956,37.43372],[126.98942,37.43361],[126.98923,37.43359],[126.989,37.43359],[126.98874,37.43357],[126.98859,37.4335],[126.98843,37.43338],[126.98824,37.4332],[126.98822,37.43317],[126.98815,37.43307],[126.98778,37.43242],[126.98761,37.43215],[126.98753,37.43189],[126.98749,37.43144],[126.98749,37.43142],[126.98756,37.43091],[126.9874,37.4301],[126.98739,37.43003],[126.98757,37.42993],[126.98795,37.42971],[126.98834,37.42948],[126.98872,37.42927],[126.98906,37.42907]]}},{"type":"Feature","properties":{"class":"minor","highway":"residential","sidewalk":"unknown","lanes":0,"name":"희망4길","oneway":false},"geometry":{"type":"LineString","coordinates":[[126.99082,37.43331],[126.99017,37.43368],[126.99055,37.43391]]}},{"type":"Feature","properties":{"class":"alley","highway":"pedestrian","sidewalk":"unknown","lanes":0,"name":"","oneway":false},"geometry":{"type":"LineString","coordinates":[[126.98977,37.4339],[126.99017,37.43368]]}},{"type":"Feature","properties":{"class":"alley","highway":"service","sidewalk":"unknown","lanes":0,"name":"","oneway":false},"geometry":{"type":"LineString","coordinates":[[126.99063,37.4331],[126.98981,37.43355],[126.98963,37.43366],[126.98949,37.43351],[126.98924,37.43348],[126.98923,37.43359]]}},{"type":"Feature","properties":{"class":"minor","highway":"unclassified","sidewalk":"unknown","lanes":0,"name":"","oneway":false},"geometry":{"type":"LineString","coordinates":[[126.98789,37.43338],[126.98751,37.43339],[126.98695,37.43334],[126.98692,37.43334],[126.98651,37.43332],[126.98608,37.43344],[126.98572,37.43356],[126.98541,37.43371]]}},{"type":"Feature","properties":{"class":"major","highway":"tertiary","sidewalk":"likely","lanes":4,"name":"중앙로","oneway":false},"geometry":{"type":"LineString","coordinates":[[126.99594,37.43654],[126.99588,37.43664],[126.99501,37.43797],[126.99493,37.43811],[126.99465,37.43852]]}},{"type":"Feature","properties":{"class":"alley","highway":"pedestrian","sidewalk":"unknown","lanes":0,"name":"내점길","oneway":false},"geometry":{"type":"LineString","coordinates":[[126.99494,37.43214],[126.99457,37.43236],[126.99415,37.43258],[126.99382,37.43277],[126.99358,37.4329],[126.99327,37.43308],[126.993,37.43323],[126.99299,37.43324]]}},{"type":"Feature","properties":{"class":"major","highway":"tertiary","sidewalk":"likely","lanes":0,"name":"중앙로","oneway":false},"geometry":{"type":"LineString","coordinates":[[126.98704,37.41771],[126.98761,37.41827],[126.98774,37.41837],[126.98785,37.41847],[126.98808,37.41868],[126.9882,37.41883],[126.98845,37.41908],[126.9886,37.41937],[126.98867,37.41966],[126.98868,37.41982],[126.98879,37.42093],[126.98883,37.42126],[126.9889,37.42161],[126.98893,37.42194],[126.98898,37.42228],[126.98912,37.42292],[126.9892,37.42393],[126.9892,37.42429],[126.98919,37.42435],[126.9892,37.42451],[126.98925,37.42489],[126.98934,37.42522],[126.9895,37.42562],[126.98954,37.42571],[126.98961,37.42581],[126.9897,37.42593],[126.99027,37.42671],[126.99036,37.42684],[126.9907,37.42721],[126.99121,37.42778],[126.99123,37.4278],[126.99177,37.42843],[126.99208,37.42878],[126.99256,37.42933],[126.99462,37.43159],[126.99506,37.43207],[126.99685,37.43406],[126.99694,37.43415],[126.997,37.43423],[126.99726,37.43451]]}},{"type":"Feature","properties":{"class":"major","highway":"trunk","sidewalk":"likely","lanes":0,"name":"과천대로","oneway":true},"geometry":{"type":"LineString","coordinates":[[127.00277,37.43391],[127.00267,37.43428],[127.00251,37.43463],[127.00229,37.43509],[127.00223,37.43519],[127.0015,37.43651],[127.00072,37.4379],[127.00038,37.4385],[127.00026,37.43872],[127.00006,37.43905],[126.99961,37.43986],[126.9989,37.44112],[126.99874,37.44139],[126.99872,37.44144]]}},{"type":"Feature","properties":{"class":"minor","highway":"residential","sidewalk":"unknown","lanes":2,"name":"문원로","oneway":false},"geometry":{"type":"LineString","coordinates":[[126.99876,37.43095],[126.99964,37.4305],[126.99969,37.43048],[126.99982,37.43041],[127.00005,37.4303],[127.0009,37.42987],[127.00118,37.42973]]}},{"type":"Feature","properties":{"class":"major","highway":"trunk","sidewalk":"likely","lanes":0,"name":"과천대로","oneway":true},"geometry":{"type":"LineString","coordinates":[[126.99695,37.4223],[126.9979,37.42351],[126.99856,37.42431],[126.99941,37.42538],[126.99984,37.42603],[127.00033,37.42692],[127.00042,37.42709]]}},{"type":"Feature","properties":{"class":"alley","highway":"living_street","sidewalk":"unknown","lanes":0,"name":"향촌3길","oneway":false},"geometry":{"type":"LineString","coordinates":[[126.99583,37.42495],[126.99629,37.42546],[126.99675,37.42597],[126.99734,37.4266]]}},{"type":"Feature","properties":{"class":"alley","highway":"living_street","sidewalk":"unknown","lanes":0,"name":"향촌길","oneway":false},"geometry":{"type":"LineString","coordinates":[[126.99578,37.42653],[126.99631,37.4272]]}},{"type":"Feature","properties":{"class":"alley","highway":"living_street","sidewalk":"unknown","lanes":0,"name":"향촌길","oneway":false},"geometry":{"type":"LineString","coordinates":[[126.99548,37.4267],[126.99578,37.42653],[126.99609,37.42635],[126.99642,37.42616],[126.99675,37.42597],[126.99708,37.42578],[126.99741,37.4256],[126.99776,37.4254],[126.99813,37.42519]]}},{"type":"Feature","properties":{"class":"minor","highway":"unclassified","sidewalk":"unknown","lanes":2,"name":"아랫배랭이로","oneway":false},"geometry":{"type":"LineString","coordinates":[[126.99634,37.42109],[126.99657,37.42123],[126.99669,37.42126],[126.99682,37.42128],[126.99701,37.42129],[126.9972,37.42128],[126.99761,37.42127],[126.99794,37.42127],[126.99828,37.4213],[126.99855,37.42139],[126.99871,37.42154],[126.99884,37.42172],[126.99892,37.42191],[126.99893,37.42206],[126.99894,37.42223],[126.99891,37.42239],[126.99889,37.42261],[126.99876,37.42305],[126.99859,37.4235],[126.99862,37.4238],[126.99898,37.42427],[126.99949,37.42513],[126.9997,37.42543],[126.99977,37.4255],[126.99984,37.42559],[127.00006,37.4257],[127.00037,37.4258],[127.00062,37.42584],[127.00081,37.4259],[127.001,37.42601],[127.0011,37.4261],[127.00125,37.42622],[127.00143,37.42638],[127.00161,37.42654],[127.00177,37.42668]]}},{"type":"Feature","properties":{"class":"alley","highway":"living_street","sidewalk":"unknown","lanes":0,"name":"향촌1길","oneway":false},"geometry":{"type":"LineString","coordinates":[[126.99515,37.42532],[126.99532,37.4255],[126.99558,37.42578],[126.99562,37.42584],[126.99609,37.42635],[126.99667,37.42699]]}},{"type":"Feature","properties":{"class":"alley","highway":"living_street","sidewalk":"unknown","lanes":0,"name":"향촌2길","oneway":false},"geometry":{"type":"LineString","coordinates":[[126.99549,37.42513],[126.99596,37.42565],[126.99642,37.42616],[126.99701,37.4268]]}},{"type":"Feature","properties":{"class":"major","highway":"tertiary","sidewalk":"likely","lanes":4,"name":"별양로","oneway":false},"geometry":{"type":"LineString","coordinates":[[126.99309,37.42374],[126.99338,37.42409],[126.9938,37.42461],[126.99387,37.4247],[126.99397,37.42482],[126.9946,37.4256],[126.99499,37.4261],[126.99548,37.4267],[126.99593,37.42725]]}},{"type":"Feature","properties":{"class":"major","highway":"tertiary","sidewalk":"likely","lanes":4,"name":"별양로","oneway":false},"geometry":{"type":"LineString","coordinates":[[126.99618,37.42755],[126.99659,37.42807],[126.99775,37.4295],[126.99864,37.43067],[126.99876,37.43095],[126.99878,37.43103],[126.99884,37.43134],[126.99884,37.43168],[126.99877,37.43201],[126.99866,37.43233],[126.99858,37.43247],[126.99825,37.43303],[126.99816,37.43316],[126.99799,37.43342],[126.99778,37.43377],[126.99752,37.43413]]}},{"type":"Feature","properties":{"class":"major","highway":"tertiary","sidewalk":"likely","lanes":0,"name":"관악산길","oneway":false},"geometry":{"type":"LineString","coordinates":[[126.99465,37.43852],[126.99408,37.43779],[126.99406,37.43776],[126.99389,37.43752],[126.99377,37.43734],[126.99319,37.43624]]}},{"type":"Feature","properties":{"class":"major","highway":"trunk","sidewalk":"likely","lanes":4,"name":"과천대로","oneway":true},"geometry":{"type":"LineString","coordinates":[[127.00021,37.42725],[127.0,37.42684],[126.9996,37.42616],[126.99922,37.4256],[126.99879,37.42498],[126.9978,37.4238]]}},{"type":"Feature","properties":{"class":"major","highway":"tertiary","sidewalk":"likely","lanes":0,"name":"관문로","oneway":false},"geometry":{"type":"LineString","coordinates":[[126.98906,37.42907],[126.98924,37.42926],[126.9897,37.42978],[126.99039,37.43055],[126.99092,37.43113],[126.99237,37.43275],[126.99287,37.4333],[126.99295,37.43339],[126.99354,37.43406],[126.99363,37.43415],[126.9945,37.43512]]}},{"type":"Feature","properties":{"class":"major","highway":"tertiary","sidewalk":"likely","lanes":0,"name":"통영로","oneway":false},"geometry":{"type":"LineString","coordinates":[[126.98906,37.42907],[126.98996,37.42857],[126.99123,37.4278]]}},{"type":"Feature","properties":{"class":"minor","highway":"residential","sidewalk":"unknown","lanes":0,"name":"별양상가2로","oneway":true},"geometry":{"type":"LineString","coordinates":[[126.99407,37.42811],[126.99381,37.42783],[126.99345,37.42743],[126.99307,37.427],[126.99255,37.42643],[126.99235,37.4262],[126.99205,37.42587],[126.99193,37.42578]]}},{"type":"Feature","properties":{"class":"minor","highway":"residential","sidewalk":"unknown","lanes":0,"name":"별양상가1로","oneway":true},"geometry":{"type":"LineString","coordinates":[[126.99111,37.42624],[126.99154,37.42677],[126.99169,37.42694],[126.9918,37.42713],[126.99196,37.42735],[126.99252,37.42798],[126.99256,37.42802],[126.99288,37.42834],[126.99292,37.42835],[126.9933,37.42853],[126.99407,37.42811]]}},{"type":"Feature","properties":{"class":"major","highway":"tertiary","sidewalk":"likely","lanes":0,"name":"별양상가로","oneway":false},"geometry":{"type":"LineString","coordinates":[[126.99177,37.42843],[126.99189,37.42836],[126.99252,37.42798],[126.99302,37.42768],[126.99345,37.42743]]}},{"type":"Feature","properties":{"class":"major","highway":"tertiary","sidewalk":"likely","lanes":4,"name":"별양로","oneway":false},"geometry":{"type":"LineString","coordinates":[[126.99593,37.42725],[126.99602,37.42736],[126.99618,37.42755]]}},{"type":"Feature","properties":{"class":"alley","highway":"pedestrian","sidewalk":"unknown","lanes":0,"name":"","oneway":false},"geometry":{"type":"LineString","coordinates":[[126.9907,37.42721],[126.99081,37.42716],[126.99154,37.42677]]}},{"type":"Feature","properties":{"class":"alley","highway":"pedestrian","sidewalk":"unknown","lanes":0,"name":"","oneway":false},"geometry":{"type":"LineString","coordinates":[[126.99154,37.42677],[126.99177,37.42666],[126.99211,37.42666],[126.99214,37.42664],[126.99255,37.42643]]}},{"type":"Feature","properties":{"class":"alley","highway":"pedestrian","sidewalk":"unknown","lanes":0,"name":"","oneway":false},"geometry":{"type":"LineString","coordinates":[[126.99214,37.42664],[126.99265,37.42724],[126.99302,37.42768],[126.99335,37.42807]]}},{"type":"Feature","properties":{"class":"minor","highway":"unclassified","sidewalk":"unknown","lanes":0,"name":"","oneway":false},"geometry":{"type":"LineString","coordinates":[[126.99121,37.42778],[126.99131,37.42772],[126.99196,37.42735],[126.9923,37.42718],[126.99265,37.42724],[126.99307,37.427]]}},{"type":"Feature","properties":{"class":"minor","highway":"unclassified","sidewalk":"unknown","lanes":0,"name":"","oneway":false},"geometry":{"type":"LineString","coordinates":[[126.99288,37.42834],[126.99335,37.42807],[126.99381,37.42783]]}},{"type":"Feature","properties":{"class":"major","highway":"tertiary","sidewalk":"likely","lanes":0,"name":"청사로","oneway":true},"geometry":{"type":"LineString","coordinates":[[126.98954,37.42571],[126.9873,37.42709]]}},{"type":"Feature","properties":{"class":"major","highway":"tertiary","sidewalk":"likely","lanes":0,"name":"청사로","oneway":true},"geometry":{"type":"LineString","coordinates":[[126.9872,37.42699],[126.98893,37.42597],[126.9895,37.42562]]}},{"type":"Feature","properties":{"class":"major","highway":"tertiary","sidewalk":"likely","lanes":0,"name":"관문로","oneway":false},"geometry":{"type":"LineString","coordinates":[[126.98611,37.42577],[126.98675,37.42648],[126.9872,37.42699],[126.98724,37.42703],[126.9873,37.42709],[126.98797,37.42787],[126.9883,37.42825],[126.98866,37.42866],[126.98906,37.42907]]}},{"type":"Feature","properties":{"class":"alley","highway":"service","sidewalk":"unknown","lanes":0,"name":"","oneway":false},"geometry":{"type":"LineString","coordinates":[[126.98724,37.42703],[126.98621,37.42763],[126.98564,37.42796],[126.98555,37.42801]]}},{"type":"Feature","properties":{"class":"alley","highway":"service","sidewalk":"unknown","lanes":0,"name":"","oneway":true},"geometry":{"type":"LineString","coordinates":[[126.98442,37.42642],[126.98439,37.42652],[126.98442,37.42659],[126.98441,37.42665],[126.98433,37.42673],[126.98423,37.42679],[126.98413,37.42682],[126.98404,37.42677],[126.9835,37.42617],[126.98347,37.4261],[126.98351,37.42601],[126.98361,37.42594],[126.98377,37.42595],[126.98403,37.42596]]}},{"type":"Feature","properties":{"class":"alley","highway":"service","sidewalk":"unknown","lanes":0,"name":"","oneway":false},"geometry":{"type":"LineString","coordinates":[[126.98485,37.42619],[126.98621,37.42763]]}},{"type":"Feature","properties":{"class":"alley","highway":"service","sidewalk":"unknown","lanes":0,"name":"","oneway":false},"geometry":{"type":"LineString","coordinates":[[126.98621,37.42763],[126.98666,37.42813],[126.98697,37.42847]]}},{"type":"Feature","properties":{"class":"alley","highway":"service","sidewalk":"unknown","lanes":0,"name":"","oneway":false},"geometry":{"type":"LineString","coordinates":[[126.98666,37.42813],[126.98555,37.42874]]}},{"type":"Feature","properties":{"class":"alley","highway":"service","sidewalk":"unknown","lanes":0,"name":"","oneway":false},"geometry":{"type":"LineString","coordinates":[[126.98797,37.42787],[126.98718,37.42835],[126.98701,37.42845],[126.98697,37.42847]]}},{"type":"Feature","properties":{"class":"alley","highway":"service","sidewalk":"unknown","lanes":0,"name":"","oneway":false},"geometry":{"type":"LineString","coordinates":[[126.98697,37.42847],[126.98585,37.42907]]}},{"type":"Feature","properties":{"class":"alley","highway":"service","sidewalk":"unknown","lanes":0,"name":"","oneway":false},"geometry":{"type":"LineString","coordinates":[[126.98585,37.42907],[126.98555,37.42874],[126.98504,37.42819]]}},{"type":"Feature","properties":{"class":"alley","highway":"service","sidewalk":"unknown","lanes":0,"name":"","oneway":false},"geometry":{"type":"LineString","coordinates":[[126.9883,37.42825],[126.99018,37.42715],[126.99046,37.42746]]}},{"type":"Feature","properties":{"class":"alley","highway":"service","sidewalk":"unknown","lanes":0,"name":"","oneway":true},"geometry":{"type":"LineString","coordinates":[[126.98838,37.42883],[126.98846,37.42892],[126.98817,37.42909],[126.98808,37.42909],[126.98801,37.42904],[126.988,37.42897],[126.98801,37.42891],[126.9883,37.42874],[126.98838,37.42883]]}},{"type":"Feature","properties":{"class":"alley","highway":"service","sidewalk":"unknown","lanes":0,"name":"","oneway":false},"geometry":{"type":"LineString","coordinates":[[126.9883,37.42874],[126.98817,37.42861],[126.98781,37.4288]]}},{"type":"Feature","properties":{"class":"alley","highway":"service","sidewalk":"unknown","lanes":0,"name":"","oneway":false},"geometry":{"type":"LineString","coordinates":[[126.98739,37.43003],[126.98738,37.42979],[126.98738,37.4297],[126.98686,37.42918]]}},{"type":"Feature","properties":{"class":"minor","highway":"residential","sidewalk":"unknown","lanes":0,"name":"향교말길","oneway":false},"geometry":{"type":"LineString","coordinates":[[126.9897,37.42978],[126.98961,37.42983],[126.98935,37.42997],[126.98897,37.43019],[126.98859,37.43041],[126.9882,37.43063],[126.98787,37.43082],[126.98787,37.43127],[126.98788,37.43174]]}},{"type":"Feature","properties":{"class":"minor","highway":"residential","sidewalk":"unknown","lanes":0,"name":"향교말1길","oneway":false},"geometry":{"type":"LineString","coordinates":[[126.98768,37.43005],[126.9882,37.43063],[126.98847,37.43093],[126.98874,37.43123]]}},{"type":"Feature","properties":{"class":"minor","highway":"residential","sidewalk":"unknown","lanes":0,"name":"향교말1길","oneway":false},"geometry":{"type":"LineString","coordinates":[[126.98847,37.43093],[126.98787,37.43127]]}},{"type":"Feature","properties":{"class":"minor","highway":"residential","sidewalk":"unknown","lanes":0,"name":"향교말1길","oneway":false},"geometry":{"type":"LineString","coordinates":[[126.98874,37.43123],[126.98788,37.43174]]}},{"type":"Feature","properties":{"class":"minor","highway":"residential","sidewalk":"unknown","lanes":0,"name":"향교말길","oneway":false},"geometry":{"type":"LineString","coordinates":[[126.98859,37.43041],[126.98803,37.4298]]}},{"type":"Feature","properties":{"class":"minor","highway":"residential","sidewalk":"unknown","lanes":0,"name":"향교말길","oneway":false},"geometry":{"type":"LineString","coordinates":[[126.98897,37.43019],[126.98843,37.42958]]}},{"type":"Feature","properties":{"class":"minor","highway":"residential","sidewalk":"unknown","lanes":0,"name":"향교말길","oneway":false},"geometry":{"type":"LineString","coordinates":[[126.98935,37.42997],[126.98881,37.42937]]}},{"type":"Feature","properties":{"class":"minor","highway":"residential","sidewalk":"unknown","lanes":0,"name":"희망길","oneway":false},"geometry":{"type":"LineString","coordinates":[[126.99092,37.43113],[126.99082,37.43119],[126.9906,37.43133],[126.99027,37.43152],[126.98992,37.43172],[126.98956,37.43193],[126.98928,37.43208]]}},{"type":"Feature","properties":{"class":"minor","highway":"residential","sidewalk":"unknown","lanes":0,"name":"희망4길","oneway":false},"geometry":{"type":"LineString","coordinates":[[126.99133,37.4339],[126.99094,37.43414],[126.99055,37.43391]]}},{"type":"Feature","properties":{"class":"minor","highway":"residential","sidewalk":"unknown","lanes":0,"name":"희망4길","oneway":false},"geometry":{"type":"LineString","coordinates":[[126.99107,37.4336],[126.99055,37.43391]]}},{"type":"Feature","properties":{"class":"minor","highway":"residential","sidewalk":"unknown","lanes":0,"name":"","oneway":false},"geometry":{"type":"LineString","coordinates":[[126.99237,37.43275],[126.99228,37.4328],[126.99205,37.43293],[126.99168,37.43315],[126.99137,37.43334],[126.99101,37.43354]]}},{"type":"Feature","properties":{"class":"alley","highway":"pedestrian","sidewalk":"unknown","lanes":0,"name":"대공원나들길","oneway":false},"geometry":{"type":"LineString","coordinates":[[126.99816,37.43316],[126.99839,37.43317],[126.99893,37.43317],[126.99934,37.43317],[126.99965,37.43317],[126.99997,37.43317],[127.00011,37.43319],[127.00036,37.4332],[127.00059,37.43317],[127.00097,37.43318],[127.00099,37.43318],[127.00129,37.43318],[127.00246,37.43318]]}},{"type":"Feature","properties":{"class":"minor","highway":"residential","sidewalk":"unknown","lanes":0,"name":"새술막길","oneway":true},"geometry":{"type":"LineString","coordinates":[[126.98996,37.42857],[126.99,37.42861],[126.99023,37.42887],[126.99058,37.42924],[126.99105,37.42935],[126.99115,37.4293],[126.9917,37.429],[126.99195,37.42885],[126.99208,37.42878]]}},{"type":"Feature","properties":{"class":"minor","highway":"residential","sidewalk":"unknown","lanes":0,"name":"새술막길","oneway":true},"geometry":{"type":"LineString","coordinates":[[126.99023,37.42887],[126.99089,37.42851],[126.99111,37.42855],[126.99134,37.42858],[126.9917,37.429]]}},{"type":"Feature","properties":{"class":"major","highway":"tertiary","sidewalk":"likely","lanes":0,"name":"온온사로","oneway":false},"geometry":{"type":"LineString","coordinates":[[126.99485,37.43551],[126.99475,37.43556],[126.99457,37.43565],[126.99434,37.43577],[126.99386,37.43601],[126.99353,37.43618],[126.99319,37.43624]]}},{"type":"Feature","properties":{"class":"minor","highway":"residential","sidewalk":"unknown","lanes":0,"name":"도서관길","oneway":false},"geometry":{"type":"LineString","coordinates":[[126.99799,37.43342],[126.99786,37.4333],[126.99667,37.43205]]}},{"type":"Feature","properties":{"class":"minor","highway":"residential","sidewalk":"unknown","lanes":0,"name":"","oneway":false},"geometry":{"type":"LineString","coordinates":[[126.99778,37.43377],[126.99789,37.43381],[126.99842,37.43401]]}},{"type":"Feature","properties":{"class":"minor","highway":"residential","sidewalk":"unknown","lanes":0,"name":"부림로","oneway":false},"geometry":{"type":"LineString","coordinates":[[126.99588,37.43664],[126.99591,37.43666],[126.99602,37.4367]]}},{"type":"Feature","properties":{"class":"minor","highway":"residential","sidewalk":"unknown","lanes":0,"name":"부림로","oneway":false},"geometry":{"type":"LineString","coordinates":[[126.99857,37.43802],[126.99913,37.43714]]}},{"type":"Feature","properties":{"class":"minor","highway":"residential","sidewalk":"unknown","lanes":0,"name":"부림로","oneway":false},"geometry":{"type":"LineString","coordinates":[[126.999,37.43822],[126.99956,37.43732]]}},{"type":"Feature","properties":{"class":"minor","highway":"residential","sidewalk":"unknown","lanes":0,"name":"부림로","oneway":false},"geometry":{"type":"LineString","coordinates":[[126.99936,37.43838],[126.99997,37.43749]]}},{"type":"Feature","properties":{"class":"minor","highway":"residential","sidewalk":"unknown","lanes":0,"name":"부림1교","oneway":false},"geometry":{"type":"LineString","coordinates":[[126.99602,37.4367],[126.99639,37.43684]]}},{"type":"Feature","properties":{"class":"minor","highway":"residential","sidewalk":"unknown","lanes":0,"name":"부림로","oneway":false},"geometry":{"type":"LineString","coordinates":[[126.99639,37.43684],[126.99646,37.43686],[126.99651,37.43689],[126.99708,37.43712],[126.99715,37.43715],[126.99719,37.43719],[126.99728,37.4375],[126.9973,37.43752],[126.99754,37.43762],[126.99764,37.43766],[126.9983,37.43792],[126.99857,37.43802],[126.99879,37.43813],[126.999,37.43822],[126.99936,37.43838],[126.99959,37.43848]]}},{"type":"Feature","properties":{"class":"minor","highway":"residential","sidewalk":"unknown","lanes":0,"name":"부림1길","oneway":false},"geometry":{"type":"LineString","coordinates":[[126.99651,37.43689],[126.99634,37.43708],[126.99558,37.43821],[126.99535,37.43857],[126.99512,37.43892],[126.99477,37.43947]]}},{"type":"Feature","properties":{"class":"minor","highway":"residential","sidewalk":"unknown","lanes":0,"name":"부림2길","oneway":false},"geometry":{"type":"LineString","coordinates":[[126.99634,37.43708],[126.99655,37.43716],[126.99693,37.43732],[126.99694,37.43736],[126.99709,37.4378],[126.99657,37.43863],[126.99635,37.43897],[126.99614,37.43931],[126.99599,37.43925],[126.99557,37.43909],[126.99512,37.43892]]}},{"type":"Feature","properties":{"class":"minor","highway":"residential","sidewalk":"unknown","lanes":0,"name":"부림4길","oneway":false},"geometry":{"type":"LineString","coordinates":[[126.99553,37.43819],[126.99558,37.43821],[126.9958,37.4383],[126.99619,37.43847],[126.99657,37.43863],[126.9968,37.43871],[126.99687,37.43895],[126.99724,37.4391],[126.99738,37.43916],[126.99759,37.43924],[126.99762,37.43925],[126.9982,37.43899],[126.99866,37.43832],[126.99879,37.43813]]}},{"type":"Feature","properties":{"class":"minor","highway":"residential","sidewalk":"unknown","lanes":0,"name":"부림3길","oneway":false},"geometry":{"type":"LineString","coordinates":[[126.99754,37.43762],[126.99741,37.43784],[126.99689,37.43856],[126.9968,37.43871]]}},{"type":"Feature","properties":{"class":"minor","highway":"residential","sidewalk":"unknown","lanes":0,"name":"부림2길","oneway":false},"geometry":{"type":"LineString","coordinates":[[126.99655,37.43716],[126.9958,37.4383]]}},{"type":"Feature","properties":{"class":"minor","highway":"residential","sidewalk":"unknown","lanes":0,"name":"부림2길","oneway":false},"geometry":{"type":"LineString","coordinates":[[126.99694,37.43736],[126.99619,37.43847]]}},{"type":"Feature","properties":{"class":"minor","highway":"residential","sidewalk":"unknown","lanes":0,"name":"부림1길","oneway":false},"geometry":{"type":"LineString","coordinates":[[126.99535,37.43857],[126.99635,37.43897]]}},{"type":"Feature","properties":{"class":"minor","highway":"residential","sidewalk":"unknown","lanes":0,"name":"부림3길","oneway":false},"geometry":{"type":"LineString","coordinates":[[126.99741,37.43784],[126.99777,37.43797],[126.99788,37.438],[126.99798,37.43802],[126.99826,37.43814],[126.99866,37.43832]]}},{"type":"Feature","properties":{"class":"minor","highway":"residential","sidewalk":"unknown","lanes":0,"name":"부림4길","oneway":false},"geometry":{"type":"LineString","coordinates":[[126.99826,37.43814],[126.99798,37.43858],[126.9979,37.43865],[126.99776,37.43869],[126.99769,37.43871],[126.99759,37.43885],[126.99738,37.43916]]}},{"type":"Feature","properties":{"class":"minor","highway":"residential","sidewalk":"unknown","lanes":0,"name":"부림3길","oneway":false},"geometry":{"type":"LineString","coordinates":[[126.99689,37.43856],[126.99759,37.43885]]}},{"type":"Feature","properties":{"class":"minor","highway":"residential","sidewalk":"unknown","lanes":0,"name":"부림4길","oneway":false},"geometry":{"type":"LineString","coordinates":[[126.99776,37.43869],[126.99762,37.43842],[126.99788,37.438]]}},{"type":"Feature","properties":{"class":"minor","highway":"residential","sidewalk":"unknown","lanes":0,"name":"","oneway":false},"geometry":{"type":"LineString","coordinates":[[126.99536,37.44062],[126.99538,37.4406],[126.99569,37.44043],[126.99589,37.44032],[126.99622,37.44013],[126.9963,37.44006],[126.99639,37.44001],[126.99644,37.43999],[126.99664,37.43983],[126.99675,37.43976],[126.99691,37.43971],[126.99763,37.43971],[126.99808,37.43972],[126.99874,37.43996],[126.99917,37.44012]]}},{"type":"Feature","properties":{"class":"minor","highway":"residential","sidewalk":"unknown","lanes":0,"name":"산마을길","oneway":false},"geometry":{"type":"LineString","coordinates":[[126.99405,37.43955],[126.99386,37.43955],[126.99355,37.43971],[126.9932,37.43995],[126.99297,37.44014],[126.99286,37.44033],[126.99291,37.44078],[126.99218,37.44087],[126.99212,37.44043],[126.99286,37.44033]]}},{"type":"Feature","properties":{"class":"major","highway":"trunk_link","sidewalk":"likely","lanes":0,"name":"","oneway":true},"geometry":{"type":"LineString","coordinates":[[127.00006,37.43905],[126.99992,37.43956],[126.99991,37.43962],[126.99989,37.43968],[126.99988,37.43978],[126.99999,37.43998],[127.00011,37.44007],[127.00025,37.44013],[127.00041,37.44014],[127.00057,37.44012],[127.00069,37.44009],[127.00082,37.44],[127.00091,37.43988],[127.00093,37.43981],[127.00091,37.43942]]}},{"type":"Feature","properties":{"class":"alley","highway":"pedestrian","sidewalk":"unknown","lanes":0,"name":"","oneway":false},"geometry":{"type":"LineString","coordinates":[[126.99413,37.4397],[126.99431,37.4397]]}},{"type":"Feature","properties":{"class":"alley","highway":"pedestrian","sidewalk":"unknown","lanes":0,"name":"관문보도2교","oneway":false},"geometry":{"type":"LineString","coordinates":[[126.99431,37.4397],[126.99441,37.43971],[126.99458,37.43971]]}},{"type":"Feature","properties":{"class":"alley","highway":"pedestrian","sidewalk":"unknown","lanes":0,"name":"","oneway":false},"geometry":{"type":"LineString","coordinates":[[126.99458,37.43971],[126.99469,37.43971],[126.9953,37.43971],[126.99605,37.43972],[126.99622,37.43986],[126.99639,37.44001]]}},{"type":"Feature","properties":{"class":"alley","highway":"pedestrian","sidewalk":"unknown","lanes":0,"name":"","oneway":false},"geometry":{"type":"LineString","coordinates":[[126.99644,37.43999],[126.99642,37.44051],[126.99611,37.44059],[126.9961,37.44171],[126.99633,37.44221],[126.99639,37.44223],[126.99649,37.44228],[126.99671,37.44235],[126.99704,37.44241],[126.99713,37.44258],[126.99761,37.44276]]}},{"type":"Feature","properties":{"class":"minor","highway":"residential","sidewalk":"unknown","lanes":0,"name":"","oneway":false},"geometry":{"type":"LineString","coordinates":[[126.99192,37.4353],[126.99209,37.43519],[126.9922,37.43515],[126.99226,37.4351],[126.99227,37.43496]]}},{"type":"Feature","properties":{"class":"minor","highway":"residential","sidewalk":"unknown","lanes":0,"name":"","oneway":false},"geometry":{"type":"LineString","coordinates":[[126.99227,37.43496],[126.9923,37.4347]]}},{"type":"Feature","properties":{"class":"minor","highway":"residential","sidewalk":"unknown","lanes":0,"name":"","oneway":false},"geometry":{"type":"LineString","coordinates":[[126.99223,37.4342],[126.99171,37.43452],[126.99179,37.43458],[126.99231,37.43466],[126.9923,37.4347]]}},{"type":"Feature","properties":{"class":"minor","highway":"residential","sidewalk":"unknown","lanes":0,"name":"","oneway":false},"geometry":{"type":"LineString","coordinates":[[126.99218,37.4339],[126.99227,37.43399],[126.99246,37.43405],[126.99263,37.43421],[126.99282,37.43445],[126.99295,37.43462],[126.99307,37.43479],[126.99316,37.43484],[126.99328,37.43484],[126.99367,37.43462]]}},{"type":"Feature","properties":{"class":"alley","highway":"pedestrian","sidewalk":"unknown","lanes":0,"name":"희망4길","oneway":false},"geometry":{"type":"LineString","coordinates":[[126.99094,37.43414],[126.99069,37.43432]]}},{"type":"Feature","properties":{"class":"minor","highway":"residential","sidewalk":"unknown","lanes":0,"name":"희망3길","oneway":false},"geometry":{"type":"LineString","coordinates":[[126.99137,37.43334],[126.99076,37.43267]]}},{"type":"Feature","properties":{"class":"minor","highway":"residential","sidewalk":"unknown","lanes":0,"name":"희망3길","oneway":false},"geometry":{"type":"LineString","coordinates":[[126.99062,37.43251],[126.98992,37.43172]]}},{"type":"Feature","properties":{"class":"minor","highway":"residential","sidewalk":"unknown","lanes":0,"name":"희망2길","oneway":false},"geometry":{"type":"LineString","coordinates":[[126.99168,37.43315],[126.99112,37.4325]]}},{"type":"Feature","properties":{"class":"minor","highway":"residential","sidewalk":"unknown","lanes":0,"name":"희망2길","oneway":false},"geometry":{"type":"LineString","coordinates":[[126.99084,37.43219],[126.99027,37.43152]]}},{"type":"Feature","properties":{"class":"minor","highway":"residential","sidewalk":"unknown","lanes":0,"name":"희망1길","oneway":false},"geometry":{"type":"LineString","coordinates":[[126.99205,37.43293],[126.99145,37.43226]]}},{"type":"Feature","properties":{"class":"minor","highway":"residential","sidewalk":"unknown","lanes":0,"name":"희망1길","oneway":false},"geometry":{"type":"LineString","coordinates":[[126.99123,37.43204],[126.9906,37.43133]]}},{"type":"Feature","properties":{"class":"minor","highway":"residential","sidewalk":"unknown","lanes":0,"name":"","oneway":false},"geometry":{"type":"LineString","coordinates":[[127.00022,37.43438],[126.99998,37.43429],[126.99982,37.43423],[126.99964,37.43415],[126.99963,37.43412],[126.99955,37.43409],[126.99864,37.4337],[126.99842,37.43401],[126.99834,37.43414],[126.99804,37.43457],[126.99774,37.43501],[126.99743,37.43546],[126.99717,37.43582],[126.99696,37.43606],[126.99679,37.43632],[126.99665,37.43655],[126.99649,37.43681],[126.99646,37.43686]]}},{"type":"Feature","properties":{"class":"minor","highway":"residential","sidewalk":"unknown","lanes":0,"name":"","oneway":false},"geometry":{"type":"LineString","coordinates":[[126.99916,37.43652],[126.99886,37.4364],[126.99854,37.43627],[126.9983,37.43618]]}},{"type":"Feature","properties":{"class":"minor","highway":"residential","sidewalk":"unknown","lanes":0,"name":"","oneway":false},"geometry":{"type":"LineString","coordinates":[[126.99854,37.43627],[126.99827,37.4367],[126.9982,37.43672],[126.99817,37.43673],[126.99813,37.43673],[126.99806,37.43671],[126.9979,37.43665],[126.99802,37.43641]]}},{"type":"Feature","properties":{"class":"minor","highway":"residential","sidewalk":"unknown","lanes":0,"name":"","oneway":false},"geometry":{"type":"LineString","coordinates":[[126.99717,37.43582],[126.99791,37.43612]]}},{"type":"Feature","properties":{"class":"minor","highway":"residential","sidewalk":"unknown","lanes":0,"name":"","oneway":false},"geometry":{"type":"LineString","coordinates":[[126.99696,37.43606],[126.99774,37.43637]]}},{"type":"Feature","properties":{"class":"minor","highway":"residential","sidewalk":"unknown","lanes":0,"name":"","oneway":false},"geometry":{"type":"LineString","coordinates":[[126.99679,37.43632],[126.9976,37.43662]]}},{"type":"Feature","properties":{"class":"minor","highway":"residential","sidewalk":"unknown","lanes":0,"name":"","oneway":false},"geometry":{"type":"LineString","coordinates":[[126.99665,37.43655],[126.99748,37.43686]]}},{"type":"Feature","properties":{"class":"minor","highway":"residential","sidewalk":"unknown","lanes":0,"name":"","oneway":false},"geometry":{"type":"LineString","coordinates":[[126.99886,37.4364],[126.99854,37.43693]]}},{"type":"Feature","properties":{"class":"minor","highway":"residential","sidewalk":"unknown","lanes":0,"name":"","oneway":false},"geometry":{"type":"LineString","coordinates":[[126.99852,37.43754],[126.99821,37.43741],[126.99811,37.43737]]}},{"type":"Feature","properties":{"class":"minor","highway":"residential","sidewalk":"unknown","lanes":0,"name":"","oneway":false},"geometry":{"type":"LineString","coordinates":[[126.99821,37.43741],[126.9984,37.43711]]}},{"type":"Feature","properties":{"class":"minor","highway":"residential","sidewalk":"unknown","lanes":0,"name":"","oneway":false},"geometry":{"type":"LineString","coordinates":[[126.99885,37.43703],[126.99913,37.43714]]}},{"type":"Feature","properties":{"class":"minor","highway":"residential","sidewalk":"unknown","lanes":0,"name":"","oneway":false},"geometry":{"type":"LineString","coordinates":[[126.99743,37.43546],[126.9982,37.43577]]}},{"type":"Feature","properties":{"class":"minor","highway":"residential","sidewalk":"unknown","lanes":0,"name":"","oneway":false},"geometry":{"type":"LineString","coordinates":[[126.99386,37.43601],[126.99375,37.43588],[126.9936,37.43573],[126.99355,37.43569],[126.99344,37.43558],[126.99333,37.43549],[126.99304,37.43536],[126.9926,37.43526],[126.99248,37.43521],[126.99234,37.43517],[126.99226,37.43516],[126.9922,37.43515]]}},{"type":"Feature","properties":{"class":"minor","highway":"residential","sidewalk":"unknown","lanes":0,"name":"","oneway":false},"geometry":{"type":"LineString","coordinates":[[126.99355,37.43569],[126.99372,37.43557],[126.99415,37.43531],[126.9942,37.43531],[126.99424,37.43531],[126.99427,37.43533],[126.9943,37.43538]]}},{"type":"Feature","properties":{"class":"minor","highway":"residential","sidewalk":"unknown","lanes":0,"name":"","oneway":false},"geometry":{"type":"LineString","coordinates":[[126.99952,37.43622],[126.99839,37.43576]]}},{"type":"Feature","properties":{"class":"minor","highway":"residential","sidewalk":"unknown","lanes":0,"name":"","oneway":false},"geometry":{"type":"LineString","coordinates":[[126.9923,37.4347],[126.99282,37.43445],[126.99345,37.43411],[126.99354,37.43406]]}},{"type":"Feature","properties":{"class":"minor","highway":"residential","sidewalk":"unknown","lanes":0,"name":"","oneway":false},"geometry":{"type":"LineString","coordinates":[[126.99516,37.43534],[126.99545,37.4352],[126.99553,37.43515],[126.99591,37.43493],[126.99596,37.4349],[126.99598,37.43486],[126.99598,37.43483],[126.99598,37.43479],[126.99593,37.4347],[126.99582,37.43451],[126.99568,37.43425],[126.99538,37.43369],[126.99531,37.43359],[126.99512,37.4334],[126.99507,37.43337],[126.99502,37.43335],[126.99498,37.43333],[126.99493,37.43332],[126.99487,37.43332],[126.99482,37.43333],[126.99476,37.43336],[126.99459,37.43346],[126.99456,37.43348],[126.99402,37.43379],[126.99361,37.43403],[126.99354,37.43406]]}},{"type":"Feature","properties":{"class":"major","highway":"tertiary","sidewalk":"likely","lanes":4,"name":"중앙로","oneway":true},"geometry":{"type":"LineString","coordinates":[[126.99447,37.4388],[126.99436,37.43906],[126.99416,37.43955],[126.99413,37.4397],[126.99409,37.44003],[126.99406,37.44093],[126.99406,37.44119],[126.99412,37.44186],[126.99424,37.44234],[126.99441,37.44282],[126.99448,37.44299],[126.99508,37.44443]]}},{"type":"Feature","properties":{"class":"minor","highway":"residential","sidewalk":"unknown","lanes":0,"name":"희망4길","oneway":false},"geometry":{"type":"LineString","coordinates":[[126.98956,37.43193],[126.99033,37.43278],[126.99059,37.43307],[126.99063,37.4331],[126.99082,37.43331],[126.99101,37.43354],[126.99107,37.4336],[126.99133,37.4339]]}},{"type":"Feature","properties":{"class":"major","highway":"trunk_link","sidewalk":"likely","lanes":0,"name":"","oneway":true},"geometry":{"type":"LineString","coordinates":[[127.00198,37.43776],[127.00134,37.43811],[127.00096,37.43837],[127.00055,37.43875],[127.00011,37.43923],[126.99992,37.43956]]}},{"type":"Feature","properties":{"class":"major","highway":"tertiary","sidewalk":"likely","lanes":3,"name":"중앙로","oneway":true},"geometry":{"type":"LineString","coordinates":[[126.99457,37.44358],[126.99428,37.44285],[126.99416,37.44253],[126.99398,37.44187],[126.99397,37.44169],[126.99393,37.4412],[126.99394,37.44083],[126.99398,37.44003],[126.99401,37.43969],[126.99405,37.43955],[126.99428,37.43903],[126.99447,37.4388]]}},{"type":"Feature","properties":{"class":"major","highway":"tertiary","sidewalk":"likely","lanes":4,"name":"중앙로","oneway":false},"geometry":{"type":"LineString","coordinates":[[126.99465,37.43852],[126.99455,37.43868],[126.99447,37.4388]]}},{"type":"Feature","properties":{"class":"major","highway":"tertiary","sidewalk":"likely","lanes":4,"name":"중앙로","oneway":false},"geometry":{"type":"LineString","coordinates":[[126.99601,37.43642],[126.99594,37.43654]]}},{"type":"Feature","properties":{"class":"major","highway":"tertiary","sidewalk":"likely","lanes":4,"name":"중앙로","oneway":false},"geometry":{"type":"LineString","coordinates":[[126.99726,37.43451],[126.99698,37.43496],[126.99683,37.43518],[126.99601,37.43642]]}},{"type":"Feature","properties":{"class":"minor","highway":"residential","sidewalk":"unknown","lanes":0,"name":"부림2교","oneway":false},"geometry":{"type":"LineString","coordinates":[[126.99512,37.43802],[126.99553,37.43819]]}},{"type":"Feature","properties":{"class":"minor","highway":"residential","sidewalk":"unknown","lanes":0,"name":"부림4길","oneway":false},"geometry":{"type":"LineString","coordinates":[[126.99501,37.43797],[126.99512,37.43802]]}},{"type":"Feature","properties":{"class":"major","highway":"tertiary","sidewalk":"likely","lanes":4,"name":"별양로","oneway":false},"geometry":{"type":"LineString","coordinates":[[126.99736,37.43438],[126.99726,37.43451]]}},{"type":"Feature","properties":{"class":"major","highway":"tertiary","sidewalk":"likely","lanes":4,"name":"별양교","oneway":false},"geometry":{"type":"LineString","coordinates":[[126.99752,37.43413],[126.99736,37.43438]]}},{"type":"Feature","properties":{"class":"major","highway":"tertiary","sidewalk":"likely","lanes":0,"name":"","oneway":true},"geometry":{"type":"LineString","coordinates":[[126.99096,37.43462],[126.99084,37.43448]]}},{"type":"Feature","properties":{"class":"major","highway":"tertiary","sidewalk":"likely","lanes":0,"name":"관악산길","oneway":true},"geometry":{"type":"LineString","coordinates":[[126.99319,37.43624],[126.99291,37.43591],[126.99275,37.43582],[126.9924,37.43578],[126.99202,37.43565],[126.99177,37.43552],[126.99166,37.4354],[126.99145,37.43517],[126.9912,37.43488],[126.99101,37.43467],[126.99096,37.43462]]}},{"type":"Feature","properties":{"class":"major","highway":"tertiary","sidewalk":"likely","lanes":0,"name":"관문로","oneway":false},"geometry":{"type":"LineString","coordinates":[[126.99467,37.43531],[126.99485,37.43551],[126.99577,37.43654],[126.99588,37.43664]]}},{"type":"Feature","properties":{"class":"major","highway":"tertiary","sidewalk":"likely","lanes":0,"name":"과천교","oneway":false},"geometry":{"type":"LineString","coordinates":[[126.9945,37.43512],[126.99467,37.43531]]}},{"type":"Feature","properties":{"class":"minor","highway":"residential","sidewalk":"unknown","lanes":0,"name":"","oneway":false},"geometry":{"type":"LineString","coordinates":[[126.99497,37.43545],[126.99516,37.43534]]}},{"type":"Feature","properties":{"class":"minor","highway":"residential","sidewalk":"unknown","lanes":0,"name":"","oneway":false},"geometry":{"type":"LineString","coordinates":[[126.99485,37.43551],[126.99497,37.43545]]}},{"type":"Feature","properties":{"class":"minor","highway":"residential","sidewalk":"unknown","lanes":0,"name":"","oneway":false},"geometry":{"type":"LineString","coordinates":[[126.99408,37.43779],[126.99441,37.43761],[126.99457,37.43752],[126.99468,37.43755],[126.99482,37.43762],[126.99494,37.43764],[126.99503,37.43755],[126.99514,37.4374],[126.99525,37.43725],[126.99532,37.43715],[126.99536,37.43707],[126.99534,37.43699],[126.99529,37.43691],[126.99528,37.43683],[126.9953,37.43674],[126.99525,37.43668],[126.99515,37.43658],[126.99508,37.43651],[126.99504,37.43649],[126.99498,37.43645],[126.99486,37.43633],[126.99477,37.43623],[126.99461,37.43608],[126.99449,37.43595],[126.99437,37.43581],[126.99434,37.43577]]}},{"type":"Feature","properties":{"class":"minor","highway":"residential","sidewalk":"unknown","lanes":0,"name":"부림4길","oneway":false},"geometry":{"type":"LineString","coordinates":[[126.99759,37.43924],[126.99749,37.43941]]}},{"type":"Feature","properties":{"class":"minor","highway":"residential","sidewalk":"unknown","lanes":0,"name":"부림로","oneway":false},"geometry":{"type":"LineString","coordinates":[[126.99913,37.43714],[126.99956,37.43732],[126.99975,37.4374],[126.99997,37.43749]]}},{"type":"Feature","properties":{"class":"minor","highway":"residential","sidewalk":"unknown","lanes":0,"name":"부림4길","oneway":false},"geometry":{"type":"LineString","coordinates":[[126.99724,37.4391],[126.99704,37.43946]]}},{"type":"Feature","properties":{"class":"minor","highway":"residential","sidewalk":"unknown","lanes":0,"name":"부림4길","oneway":false},"geometry":{"type":"LineString","coordinates":[[126.99687,37.43895],[126.99653,37.43945]]}},{"type":"Feature","properties":{"class":"minor","highway":"residential","sidewalk":"unknown","lanes":0,"name":"부림2길","oneway":false},"geometry":{"type":"LineString","coordinates":[[126.99599,37.43925],[126.99589,37.4394]]}},{"type":"Feature","properties":{"class":"minor","highway":"residential","sidewalk":"unknown","lanes":0,"name":"부림2길","oneway":false},"geometry":{"type":"LineString","coordinates":[[126.99557,37.43909],[126.99535,37.43945]]}},{"type":"Feature","properties":{"class":"alley","highway":"pedestrian","sidewalk":"unknown","lanes":0,"name":"","oneway":false},"geometry":{"type":"LineString","coordinates":[[126.99205,37.43377],[126.99218,37.4339]]}},{"type":"Feature","properties":{"class":"minor","highway":"residential","sidewalk":"unknown","lanes":0,"name":"","oneway":false},"geometry":{"type":"LineString","coordinates":[[126.99246,37.43405],[126.99279,37.43385]]}},{"type":"Feature","properties":{"class":"alley","highway":"pedestrian","sidewalk":"unknown","lanes":0,"name":"내점길","oneway":false},"geometry":{"type":"LineString","coordinates":[[126.99274,37.43338],[126.99273,37.43338],[126.99253,37.4335],[126.99215,37.43372],[126.99205,37.43377],[126.99171,37.43397],[126.99151,37.43409],[126.9909,37.43443],[126.99083,37.43447]]}},{"type":"Feature","properties":{"class":"alley","highway":"pedestrian","sidewalk":"unknown","lanes":0,"name":"내점길","oneway":false},"geometry":{"type":"LineString","coordinates":[[126.99299,37.43324],[126.99287,37.4333],[126.99274,37.43338]]}},{"type":"Feature","properties":{"class":"alley","highway":"service","sidewalk":"unknown","lanes":0,"name":"","oneway":false},"geometry":{"type":"LineString","coordinates":[[126.99456,37.43348],[126.99453,37.43345],[126.99434,37.43327],[126.99431,37.43326],[126.99428,37.43325],[126.99426,37.43326],[126.99423,37.43327],[126.99421,37.43328],[126.99352,37.43368]]}},{"type":"Feature","properties":{"class":"alley","highway":"service","sidewalk":"unknown","lanes":0,"name":"","oneway":false},"geometry":{"type":"LineString","coordinates":[[126.99419,37.43267],[126.9947,37.43323],[126.99468,37.43324],[126.99468,37.43325],[126.99468,37.43327],[126.99474,37.43333],[126.99476,37.43336]]}},{"type":"Feature","properties":{"class":"alley","highway":"service","sidewalk":"unknown","lanes":0,"name":"","oneway":false},"geometry":{"type":"LineString","coordinates":[[126.99479,37.43255],[126.99517,37.43298],[126.9952,37.43296],[126.99521,37.43296],[126.99523,37.43297],[126.99532,37.43307],[126.99514,37.43337],[126.99512,37.4334]]}},{"type":"Feature","properties":{"class":"alley","highway":"service","sidewalk":"unknown","lanes":0,"name":"","oneway":false},"geometry":{"type":"LineString","coordinates":[[126.9961,37.43376],[126.99553,37.43363],[126.99555,37.43359],[126.99553,37.43358],[126.9955,37.43357],[126.99546,37.43357],[126.99542,37.43356],[126.99538,37.43357],[126.99535,37.43358],[126.99531,37.43359]]}},{"type":"Feature","properties":{"class":"alley","highway":"service","sidewalk":"unknown","lanes":0,"name":"","oneway":false},"geometry":{"type":"LineString","coordinates":[[126.99568,37.43425],[126.99572,37.43425],[126.9958,37.43425],[126.99588,37.43427],[126.99592,37.43428],[126.99591,37.43432],[126.99675,37.43451]]}},{"type":"Feature","properties":{"class":"alley","highway":"service","sidewalk":"unknown","lanes":0,"name":"","oneway":false},"geometry":{"type":"LineString","coordinates":[[126.99593,37.4347],[126.99597,37.4347],[126.99609,37.43471],[126.99613,37.43471],[126.99615,37.43469],[126.99673,37.43483]]}},{"type":"Feature","properties":{"class":"alley","highway":"service","sidewalk":"unknown","lanes":0,"name":"","oneway":false},"geometry":{"type":"LineString","coordinates":[[126.99553,37.43515],[126.99556,37.43518],[126.99562,37.43525],[126.99563,37.43528],[126.99563,37.43531],[126.99601,37.43573]]}},{"type":"Feature","properties":{"class":"alley","highway":"service","sidewalk":"unknown","lanes":0,"name":"","oneway":false},"geometry":{"type":"LineString","coordinates":[[126.99478,37.43455],[126.9953,37.43513],[126.99533,37.43511],[126.99535,37.43511],[126.99537,37.43512],[126.99542,37.43517],[126.99545,37.4352]]}},{"type":"Feature","properties":{"class":"alley","highway":"service","sidewalk":"unknown","lanes":0,"name":"","oneway":false},"geometry":{"type":"LineString","coordinates":[[126.99459,37.43346],[126.99461,37.43348],[126.99466,37.43354],[126.99466,37.43356],[126.99465,37.43358],[126.99463,37.43359],[126.9951,37.43413]]}},{"type":"Feature","properties":{"class":"minor","highway":"residential","sidewalk":"unknown","lanes":0,"name":"꿈보람길","oneway":false},"geometry":{"type":"LineString","coordinates":[[126.99775,37.4295],[126.99765,37.42956],[126.99632,37.43031],[126.99616,37.43039],[126.99565,37.43067]]}},{"type":"Feature","properties":{"class":"minor","highway":"residential","sidewalk":"unknown","lanes":0,"name":"","oneway":false},"geometry":{"type":"LineString","coordinates":[[126.99582,37.43451],[126.99579,37.43453],[126.99565,37.4346]]}},{"type":"Feature","properties":{"class":"alley","highway":"pedestrian","sidewalk":"unknown","lanes":0,"name":"","oneway":false},"geometry":{"type":"LineString","coordinates":[[126.99436,37.42974],[126.99438,37.42973]]}},{"type":"Feature","properties":{"class":"major","highway":"tertiary_link","sidewalk":"likely","lanes":0,"name":"","oneway":true},"geometry":{"type":"LineString","coordinates":[[126.99698,37.43496],[126.997,37.43484],[126.99703,37.43469],[126.99704,37.43459],[126.99702,37.43448],[126.99697,37.43434],[126.99695,37.43426],[126.9969,37.43416],[126.99685,37.43406]]}},{"type":"Feature","properties":{"class":"alley","highway":"pedestrian","sidewalk":"unknown","lanes":0,"name":"","oneway":false},"geometry":{"type":"LineString","coordinates":[[126.98955,37.43327],[126.98952,37.43328]]}},{"type":"Feature","properties":{"class":"alley","highway":"pedestrian","sidewalk":"unknown","lanes":0,"name":"","oneway":false},"geometry":{"type":"LineString","coordinates":[[126.98924,37.43293],[126.98922,37.43294]]}},{"type":"Feature","properties":{"class":"alley","highway":"service","sidewalk":"unknown","lanes":0,"name":"","oneway":false},"geometry":{"type":"LineString","coordinates":[[126.99237,37.43275],[126.99244,37.43271],[126.99251,37.4327],[126.99261,37.4327],[126.99264,37.43273],[126.99278,37.43288]]}},{"type":"Feature","properties":{"class":"alley","highway":"service","sidewalk":"unknown","lanes":0,"name":"","oneway":false},"geometry":{"type":"LineString","coordinates":[[126.99261,37.4327],[126.99301,37.43246],[126.99313,37.43248]]}},{"type":"Feature","properties":{"class":"alley","highway":"service","sidewalk":"unknown","lanes":0,"name":"","oneway":false},"geometry":{"type":"LineString","coordinates":[[126.99376,37.43637],[126.99391,37.43632],[126.99396,37.43628],[126.99397,37.43626],[126.99397,37.43619],[126.99393,37.43613],[126.99389,37.43607],[126.99386,37.43601]]}},{"type":"Feature","properties":{"class":"alley","highway":"service","sidewalk":"unknown","lanes":0,"name":"","oneway":false},"geometry":{"type":"LineString","coordinates":[[126.99435,37.43599],[126.99404,37.43607],[126.99393,37.43613]]}},{"type":"Feature","properties":{"class":"alley","highway":"service","sidewalk":"unknown","lanes":0,"name":"","oneway":false},"geometry":{"type":"LineString","coordinates":[[126.99466,37.42952],[126.99512,37.42926],[126.9952,37.42922],[126.99564,37.42898],[126.99579,37.42889],[126.99617,37.42868],[126.99621,37.42862],[126.99629,37.4283],[126.99637,37.42822],[126.99659,37.42807]]}},{"type":"Feature","properties":{"class":"alley","highway":"service","sidewalk":"unknown","lanes":0,"name":"","oneway":false},"geometry":{"type":"LineString","coordinates":[[126.99394,37.42877],[126.99466,37.42952],[126.99543,37.43033]]}},{"type":"Feature","properties":{"class":"alley","highway":"service","sidewalk":"unknown","lanes":0,"name":"","oneway":false},"geometry":{"type":"LineString","coordinates":[[126.99449,37.42845],[126.9952,37.42922]]}},{"type":"Feature","properties":{"class":"alley","highway":"service","sidewalk":"unknown","lanes":0,"name":"","oneway":false},"geometry":{"type":"LineString","coordinates":[[126.99512,37.42926],[126.99605,37.43027]]}},{"type":"Feature","properties":{"class":"alley","highway":"service","sidewalk":"unknown","lanes":0,"name":"","oneway":false},"geometry":{"type":"LineString","coordinates":[[126.99564,37.42898],[126.99657,37.42998]]}},{"type":"Feature","properties":{"class":"alley","highway":"service","sidewalk":"unknown","lanes":0,"name":"","oneway":false},"geometry":{"type":"LineString","coordinates":[[126.99605,37.43027],[126.99657,37.42998],[126.99707,37.42971],[126.99739,37.42954]]}},{"type":"Feature","properties":{"class":"alley","highway":"service","sidewalk":"unknown","lanes":0,"name":"","oneway":false},"geometry":{"type":"LineString","coordinates":[[126.99605,37.43027],[126.99613,37.43036],[126.99616,37.43039]]}},{"type":"Feature","properties":{"class":"alley","highway":"service","sidewalk":"unknown","lanes":0,"name":"","oneway":false},"geometry":{"type":"LineString","coordinates":[[126.99617,37.42868],[126.99707,37.42971]]}},{"type":"Feature","properties":{"class":"alley","highway":"service","sidewalk":"unknown","lanes":0,"name":"","oneway":false},"geometry":{"type":"LineString","coordinates":[[126.99506,37.4281],[126.99579,37.42889]]}},{"type":"Feature","properties":{"class":"alley","highway":"service","sidewalk":"unknown","lanes":0,"name":"","oneway":false},"geometry":{"type":"LineString","coordinates":[[126.99454,37.43445],[126.99406,37.43392],[126.99408,37.43391],[126.99409,37.43388],[126.99409,37.43386],[126.99404,37.43381],[126.99402,37.43379]]}},{"type":"Feature","properties":{"class":"minor","highway":"unclassified","sidewalk":"unknown","lanes":0,"name":"","oneway":false},"geometry":{"type":"LineString","coordinates":[[126.98822,37.43317],[126.98802,37.43323]]}},{"type":"Feature","properties":{"class":"alley","highway":"pedestrian","sidewalk":"unknown","lanes":0,"name":"","oneway":false},"geometry":{"type":"LineString","coordinates":[[126.99334,37.43152],[126.99321,37.43163]]}},{"type":"Feature","properties":{"class":"alley","highway":"service","sidewalk":"unknown","lanes":0,"name":"","oneway":false},"geometry":{"type":"LineString","coordinates":[[126.99989,37.43528],[126.99911,37.43495]]}},{"type":"Feature","properties":{"class":"alley","highway":"service","sidewalk":"unknown","lanes":0,"name":"","oneway":false},"geometry":{"type":"LineString","coordinates":[[126.99979,37.43573],[126.99967,37.43571],[126.99955,37.4357],[126.99884,37.4354]]}},{"type":"Feature","properties":{"class":"alley","highway":"service","sidewalk":"unknown","lanes":0,"name":"","oneway":false},"geometry":{"type":"LineString","coordinates":[[126.99774,37.43501],[126.99844,37.43531],[126.99847,37.43528]]}},{"type":"Feature","properties":{"class":"alley","highway":"service","sidewalk":"unknown","lanes":0,"name":"","oneway":false},"geometry":{"type":"LineString","coordinates":[[126.99804,37.43457],[126.99883,37.4349],[126.99887,37.43484]]}},{"type":"Feature","properties":{"class":"alley","highway":"service","sidewalk":"unknown","lanes":0,"name":"","oneway":false},"geometry":{"type":"LineString","coordinates":[[126.99982,37.43423],[126.99966,37.43448],[126.99971,37.43449]]}},{"type":"Feature","properties":{"class":"alley","highway":"service","sidewalk":"unknown","lanes":0,"name":"","oneway":false},"geometry":{"type":"LineString","coordinates":[[126.99964,37.43415],[126.99948,37.43444]]}},{"type":"Feature","properties":{"class":"alley","highway":"service","sidewalk":"unknown","lanes":0,"name":"","oneway":false},"geometry":{"type":"LineString","coordinates":[[126.99998,37.43429],[126.99992,37.43439],[126.99986,37.43448]]}},{"type":"Feature","properties":{"class":"alley","highway":"service","sidewalk":"unknown","lanes":0,"name":"","oneway":false},"geometry":{"type":"LineString","coordinates":[[127.00092,37.4357],[127.00077,37.43595],[126.99989,37.43558],[126.99982,37.43557]]}},{"type":"Feature","properties":{"class":"alley","highway":"service","sidewalk":"unknown","lanes":0,"name":"","oneway":false},"geometry":{"type":"LineString","coordinates":[[126.99834,37.43414],[126.99914,37.43448],[126.99918,37.43442]]}},{"type":"Feature","properties":{"class":"alley","highway":"pedestrian","sidewalk":"unknown","lanes":0,"name":"","oneway":false},"geometry":{"type":"LineString","coordinates":[[126.98564,37.42796],[126.98433,37.42673]]}},{"type":"Feature","properties":{"class":"alley","highway":"pedestrian","sidewalk":"unknown","lanes":0,"name":"향교말1길","oneway":false},"geometry":{"type":"LineString","coordinates":[[126.98874,37.43123],[126.98889,37.4314]]}},{"type":"Feature","properties":{"class":"minor","highway":"residential","sidewalk":"unknown","lanes":0,"name":"별양상가3로","oneway":false},"geometry":{"type":"LineString","coordinates":[[126.99027,37.42671],[126.99111,37.42624],[126.99119,37.42619],[126.9919,37.42579],[126.99193,37.42578]]}},{"type":"Feature","properties":{"class":"alley","highway":"service","sidewalk":"unknown","lanes":0,"name":"","oneway":false},"geometry":{"type":"LineString","coordinates":[[126.98686,37.42918],[126.98772,37.4287],[126.98781,37.4288]]}},{"type":"Feature","properties":{"class":"alley","highway":"service","sidewalk":"unknown","lanes":0,"name":"","oneway":false},"geometry":{"type":"LineString","coordinates":[[126.988,37.42897],[126.98781,37.4288]]}},{"type":"Feature","properties":{"class":"alley","highway":"service","sidewalk":"unknown","lanes":0,"name":"","oneway":false},"geometry":{"type":"LineString","coordinates":[[126.98866,37.42866],[126.98838,37.42883]]}},{"type":"Feature","properties":{"class":"alley","highway":"service","sidewalk":"unknown","lanes":0,"name":"","oneway":false},"geometry":{"type":"LineString","coordinates":[[126.99763,37.43971],[126.99761,37.4399],[126.9976,37.44004],[126.99755,37.44022],[126.99752,37.44034]]}},{"type":"Feature","properties":{"class":"alley","highway":"service","sidewalk":"unknown","lanes":0,"name":"","oneway":false},"geometry":{"type":"LineString","coordinates":[[126.99761,37.4399],[126.99781,37.43996],[126.99809,37.44012],[126.99832,37.44033],[126.99841,37.44051],[126.99844,37.44058],[126.99835,37.44075],[126.99823,37.44093],[126.99819,37.44093],[126.99799,37.44093],[126.99795,37.44078],[126.99785,37.4406],[126.99769,37.44045],[126.99752,37.44034]]}},{"type":"Feature","properties":{"class":"alley","highway":"service","sidewalk":"unknown","lanes":0,"name":"","oneway":false},"geometry":{"type":"LineString","coordinates":[[126.99879,37.42926],[126.99892,37.42917],[126.99892,37.42913],[126.99893,37.42909],[126.9989,37.42898],[126.9989,37.42891],[126.99907,37.4288],[126.99936,37.42863],[126.99963,37.42867]]}},{"type":"Feature","properties":{"class":"alley","highway":"service","sidewalk":"unknown","lanes":0,"name":"","oneway":false},"geometry":{"type":"LineString","coordinates":[[127.00005,37.4303],[126.99989,37.43006],[126.99981,37.42985],[126.99971,37.42963],[126.99976,37.4295],[126.99978,37.42939],[126.9998,37.4291],[126.99975,37.42895],[126.99963,37.42867],[126.99931,37.42804],[126.9992,37.4278]]}},{"type":"Feature","properties":{"class":"alley","highway":"service","sidewalk":"unknown","lanes":0,"name":"","oneway":false},"geometry":{"type":"LineString","coordinates":[[126.99963,37.42867],[126.99985,37.4285],[126.99995,37.42843],[127.00001,37.42841]]}},{"type":"Feature","properties":{"class":"alley","highway":"service","sidewalk":"unknown","lanes":0,"name":"","oneway":false},"geometry":{"type":"LineString","coordinates":[[127.00001,37.42841],[127.00017,37.42845],[127.00019,37.42849],[127.00032,37.42872],[127.00043,37.42891],[127.00058,37.42924],[127.00057,37.42933],[127.00046,37.42943],[126.99999,37.42976],[126.99981,37.42985]]}},{"type":"Feature","properties":{"class":"alley","highway":"service","sidewalk":"unknown","lanes":0,"name":"","oneway":false},"geometry":{"type":"LineString","coordinates":[[127.00071,37.42961],[127.00046,37.42943],[127.0003,37.42931],[127.0002,37.42928],[127.00002,37.4294],[126.99978,37.42939],[126.99964,37.42937],[126.99949,37.42925],[126.99942,37.42923],[126.99932,37.42925],[126.99917,37.42938],[126.99906,37.42945],[126.99896,37.42959]]}},{"type":"Feature","properties":{"class":"alley","highway":"service","sidewalk":"unknown","lanes":0,"name":"","oneway":false},"geometry":{"type":"LineString","coordinates":[[126.99871,37.43007],[126.99907,37.42991],[126.99917,37.42979],[126.9993,37.42971],[126.99943,37.42966],[126.99961,37.42963],[126.99971,37.42963]]}},{"type":"Feature","properties":{"class":"alley","highway":"service","sidewalk":"unknown","lanes":0,"name":"","oneway":false},"geometry":{"type":"LineString","coordinates":[[126.99968,37.43],[126.99955,37.4299],[126.99943,37.42966]]}},{"type":"Feature","properties":{"class":"alley","highway":"service","sidewalk":"unknown","lanes":0,"name":"","oneway":false},"geometry":{"type":"LineString","coordinates":[[126.99847,37.4287],[126.99855,37.42861],[126.9986,37.4285],[126.99864,37.42825],[126.99856,37.42806],[126.99839,37.42789],[126.99828,37.4278],[126.99803,37.42764],[126.99773,37.42751]]}},{"type":"Feature","properties":{"class":"alley","highway":"service","sidewalk":"unknown","lanes":0,"name":"","oneway":false},"geometry":{"type":"LineString","coordinates":[[126.99987,37.42756],[126.99972,37.42742],[126.99953,37.42712],[126.99947,37.42694],[126.99936,37.42688],[126.99937,37.42678],[126.99918,37.42658],[126.99914,37.42653],[126.99912,37.42633],[126.99912,37.42628],[126.99901,37.42611],[126.99884,37.42595],[126.99867,37.4261],[126.99845,37.4262],[126.99829,37.42624],[126.99816,37.42624],[126.998,37.42624]]}},{"type":"Feature","properties":{"class":"alley","highway":"service","sidewalk":"unknown","lanes":0,"name":"","oneway":false},"geometry":{"type":"LineString","coordinates":[[126.99964,37.42763],[126.99968,37.42774],[126.99968,37.42785],[126.99931,37.42804]]}},{"type":"Feature","properties":{"class":"alley","highway":"service","sidewalk":"unknown","lanes":0,"name":"","oneway":false},"geometry":{"type":"LineString","coordinates":[[126.9992,37.4278],[126.999,37.42788],[126.99878,37.42804],[126.99863,37.42782],[126.9986,37.42781],[126.99814,37.42752],[126.99794,37.4275],[126.99773,37.42751]]}},{"type":"Feature","properties":{"class":"alley","highway":"service","sidewalk":"unknown","lanes":0,"name":"","oneway":false},"geometry":{"type":"LineString","coordinates":[[126.99733,37.42731],[126.9972,37.42735],[126.99712,37.42746],[126.99679,37.42759]]}},{"type":"Feature","properties":{"class":"alley","highway":"service","sidewalk":"unknown","lanes":0,"name":"","oneway":false},"geometry":{"type":"LineString","coordinates":[[126.997,37.42784],[126.99713,37.42777]]}},{"type":"Feature","properties":{"class":"alley","highway":"service","sidewalk":"unknown","lanes":0,"name":"","oneway":false},"geometry":{"type":"LineString","coordinates":[[126.99747,37.42753],[126.99748,37.42748],[126.99744,37.42741],[126.99735,37.42734],[126.99733,37.42731],[126.99731,37.42728]]}},{"type":"Feature","properties":{"class":"alley","highway":"service","sidewalk":"unknown","lanes":0,"name":"","oneway":false},"geometry":{"type":"LineString","coordinates":[[126.99864,37.42825],[126.99867,37.42833],[126.99871,37.42836],[126.99897,37.42844],[126.99922,37.42847],[126.99936,37.42863]]}},{"type":"Feature","properties":{"class":"alley","highway":"service","sidewalk":"unknown","lanes":0,"name":"","oneway":false},"geometry":{"type":"LineString","coordinates":[[126.99769,37.42868],[126.99761,37.42858],[126.99742,37.42833],[126.99736,37.42826],[126.9974,37.42817],[126.99787,37.42795],[126.99799,37.42797]]}},{"type":"Feature","properties":{"class":"alley","highway":"service","sidewalk":"unknown","lanes":0,"name":"","oneway":false},"geometry":{"type":"LineString","coordinates":[[126.9975,37.42864],[126.99761,37.42858],[126.99822,37.42834],[126.9986,37.4285]]}},{"type":"Feature","properties":{"class":"alley","highway":"service","sidewalk":"unknown","lanes":0,"name":"","oneway":false},"geometry":{"type":"LineString","coordinates":[[126.99822,37.42834],[126.99806,37.4281],[126.99801,37.42801],[126.99799,37.42797]]}},{"type":"Feature","properties":{"class":"alley","highway":"service","sidewalk":"unknown","lanes":0,"name":"","oneway":false},"geometry":{"type":"LineString","coordinates":[[126.99784,37.42885],[126.99823,37.42871],[126.99847,37.4287]]}},{"type":"Feature","properties":{"class":"alley","highway":"service","sidewalk":"unknown","lanes":0,"name":"","oneway":false},"geometry":{"type":"LineString","coordinates":[[126.99878,37.42804],[126.99874,37.42806],[126.9987,37.42809]]}},{"type":"Feature","properties":{"class":"alley","highway":"service","sidewalk":"unknown","lanes":0,"name":"","oneway":false},"geometry":{"type":"LineString","coordinates":[[126.99898,37.42741],[126.99941,37.42715],[126.99953,37.42712]]}},{"type":"Feature","properties":{"class":"alley","highway":"service","sidewalk":"unknown","lanes":0,"name":"","oneway":false},"geometry":{"type":"LineString","coordinates":[[126.99786,37.42704],[126.99842,37.42665],[126.99877,37.42646],[126.99887,37.42648]]}},{"type":"Feature","properties":{"class":"alley","highway":"service","sidewalk":"unknown","lanes":0,"name":"","oneway":false},"geometry":{"type":"LineString","coordinates":[[126.99887,37.42648],[126.99897,37.42657],[126.99887,37.42668],[126.99834,37.42705],[126.99833,37.42721]]}},{"type":"Feature","properties":{"class":"alley","highway":"service","sidewalk":"unknown","lanes":0,"name":"","oneway":false},"geometry":{"type":"LineString","coordinates":[[126.99975,37.42895],[127.00004,37.42878],[127.00032,37.42872]]}},{"type":"Feature","properties":{"class":"alley","highway":"service","sidewalk":"unknown","lanes":0,"name":"","oneway":false},"geometry":{"type":"LineString","coordinates":[[126.9998,37.4291],[127.00003,37.42907],[127.00043,37.42891]]}},{"type":"Feature","properties":{"class":"alley","highway":"service","sidewalk":"unknown","lanes":0,"name":"","oneway":false},"geometry":{"type":"LineString","coordinates":[[126.99985,37.4285],[126.99976,37.42845],[126.99963,37.42834],[126.99962,37.42827],[126.99967,37.42818],[126.99981,37.42815],[126.99996,37.42813],[127.00005,37.42807]]}},{"type":"Feature","properties":{"class":"alley","highway":"service","sidewalk":"unknown","lanes":0,"name":"","oneway":false},"geometry":{"type":"LineString","coordinates":[[127.00005,37.42807],[127.00004,37.428],[126.99991,37.42775],[126.99987,37.42756]]}},{"type":"Feature","properties":{"class":"alley","highway":"service","sidewalk":"unknown","lanes":0,"name":"","oneway":false},"geometry":{"type":"LineString","coordinates":[[126.99955,37.43409],[126.99985,37.43363]]}},{"type":"Feature","properties":{"class":"minor","highway":"residential","sidewalk":"unknown","lanes":0,"name":"","oneway":false},"geometry":{"type":"LineString","coordinates":[[126.9983,37.43792],[126.99852,37.43754],[126.99876,37.43716],[126.99885,37.43703],[126.99916,37.43652],[126.99939,37.43632],[126.99952,37.43622],[126.99967,37.43599],[126.99976,37.43585],[126.99979,37.43573],[126.99982,37.43557],[126.99984,37.43542],[126.99986,37.43535],[126.99989,37.43528],[127.00004,37.43508],[127.00031,37.43464],[127.00034,37.43459],[127.00034,37.43452],[127.00032,37.43447],[127.00029,37.43443],[127.00022,37.43438]]}},{"type":"Feature","properties":{"class":"alley","highway":"service","sidewalk":"unknown","lanes":0,"name":"","oneway":false},"geometry":{"type":"LineString","coordinates":[[126.99959,37.43352],[126.99985,37.43363],[127.00055,37.43391],[127.00022,37.43438]]}},{"type":"Feature","properties":{"class":"alley","highway":"service","sidewalk":"unknown","lanes":0,"name":"","oneway":false},"geometry":{"type":"LineString","coordinates":[[126.99967,37.43599],[127.00039,37.43629],[127.00025,37.43654],[126.99988,37.43717],[126.99975,37.4374]]}},{"type":"Feature","properties":{"class":"alley","highway":"service","sidewalk":"unknown","lanes":0,"name":"","oneway":false},"geometry":{"type":"LineString","coordinates":[[126.99952,37.43622],[127.00025,37.43654]]}},{"type":"Feature","properties":{"class":"alley","highway":"service","sidewalk":"unknown","lanes":0,"name":"","oneway":false},"geometry":{"type":"LineString","coordinates":[[126.99913,37.43714],[126.99928,37.43693],[126.99958,37.43653],[127.00004,37.43672]]}},{"type":"Feature","properties":{"class":"alley","highway":"service","sidewalk":"unknown","lanes":0,"name":"","oneway":false},"geometry":{"type":"LineString","coordinates":[[126.99928,37.43693],[126.99988,37.43717]]}},{"type":"Feature","properties":{"class":"minor","highway":"unclassified","sidewalk":"unknown","lanes":0,"name":"","oneway":false},"geometry":{"type":"LineString","coordinates":[[126.98802,37.43323],[126.98742,37.43315],[126.987,37.4331],[126.98678,37.43308],[126.98664,37.43307]]}},{"type":"Feature","properties":{"class":"alley","highway":"pedestrian","sidewalk":"unknown","lanes":0,"name":"","oneway":false},"geometry":{"type":"LineString","coordinates":[[126.99622,37.43986],[126.99653,37.43945]]}},{"type":"Feature","properties":{"class":"alley","highway":"pedestrian","sidewalk":"unknown","lanes":0,"name":"","oneway":false},"geometry":{"type":"LineString","coordinates":[[126.99535,37.43945],[126.99531,37.4395],[126.9953,37.43971]]}},{"type":"Feature","properties":{"class":"alley","highway":"pedestrian","sidewalk":"unknown","lanes":0,"name":"","oneway":false},"geometry":{"type":"LineString","coordinates":[[126.99477,37.43947],[126.99474,37.43951],[126.99469,37.43971]]}},{"type":"Feature","properties":{"class":"alley","highway":"pedestrian","sidewalk":"unknown","lanes":0,"name":"","oneway":false},"geometry":{"type":"LineString","coordinates":[[126.99471,37.43875],[126.99455,37.43868]]}},{"type":"Feature","properties":{"class":"alley","highway":"pedestrian","sidewalk":"unknown","lanes":0,"name":"부림2보도교","oneway":false},"geometry":{"type":"LineString","coordinates":[[126.9951,37.43891],[126.99471,37.43875]]}},{"type":"Feature","properties":{"class":"alley","highway":"pedestrian","sidewalk":"unknown","lanes":0,"name":"","oneway":false},"geometry":{"type":"LineString","coordinates":[[126.99512,37.43892],[126.9951,37.43891]]}},{"type":"Feature","properties":{"class":"alley","highway":"service","sidewalk":"unknown","lanes":0,"name":"","oneway":false},"geometry":{"type":"LineString","coordinates":[[126.99872,37.42725],[126.99879,37.42708],[126.99904,37.42689],[126.99928,37.42688],[126.99936,37.42688]]}},{"type":"Feature","properties":{"class":"alley","highway":"service","sidewalk":"unknown","lanes":0,"name":"","oneway":false},"geometry":{"type":"LineString","coordinates":[[126.99897,37.42657],[126.99914,37.42653]]}},{"type":"Feature","properties":{"class":"alley","highway":"service","sidewalk":"unknown","lanes":0,"name":"","oneway":false},"geometry":{"type":"LineString","coordinates":[[126.99859,37.42726],[126.99835,37.42744]]}},{"type":"Feature","properties":{"class":"alley","highway":"service","sidewalk":"unknown","lanes":0,"name":"","oneway":false},"geometry":{"type":"LineString","coordinates":[[126.997,37.42784],[126.99659,37.42807]]}},{"type":"Feature","properties":{"class":"alley","highway":"service","sidewalk":"unknown","lanes":0,"name":"","oneway":false},"geometry":{"type":"LineString","coordinates":[[126.99766,37.42701],[126.99753,37.42711]]}},{"type":"Feature","properties":{"class":"alley","highway":"service","sidewalk":"unknown","lanes":0,"name":"","oneway":false},"geometry":{"type":"LineString","coordinates":[[126.99689,37.42772],[126.99679,37.42759],[126.99675,37.42754]]}},{"type":"Feature","properties":{"class":"alley","highway":"service","sidewalk":"unknown","lanes":0,"name":"","oneway":false},"geometry":{"type":"LineString","coordinates":[[126.99773,37.42751],[126.99747,37.42753],[126.99741,37.42753],[126.99716,37.4276],[126.99689,37.42772],[126.997,37.42784]]}},{"type":"Feature","properties":{"class":"alley","highway":"service","sidewalk":"unknown","lanes":0,"name":"","oneway":false},"geometry":{"type":"LineString","coordinates":[[126.99747,37.42753],[126.99754,37.42759],[126.99755,37.42769],[126.99748,37.42775],[126.99725,37.42785],[126.99717,37.42788],[126.997,37.42784]]}},{"type":"Feature","properties":{"class":"alley","highway":"service","sidewalk":"unknown","lanes":0,"name":"","oneway":false},"geometry":{"type":"LineString","coordinates":[[126.99801,37.42801],[126.99818,37.42789],[126.99822,37.42784],[126.99828,37.4278]]}},{"type":"Feature","properties":{"class":"alley","highway":"service","sidewalk":"unknown","lanes":0,"name":"","oneway":false},"geometry":{"type":"LineString","coordinates":[[126.99821,37.42925],[126.99784,37.42885],[126.99776,37.42876]]}},{"type":"Feature","properties":{"class":"alley","highway":"service","sidewalk":"unknown","lanes":0,"name":"","oneway":false},"geometry":{"type":"LineString","coordinates":[[126.99776,37.42876],[126.99769,37.42868]]}},{"type":"Feature","properties":{"class":"alley","highway":"service","sidewalk":"unknown","lanes":0,"name":"","oneway":false},"geometry":{"type":"LineString","coordinates":[[126.99793,37.42941],[126.99821,37.42925]]}},{"type":"Feature","properties":{"class":"alley","highway":"service","sidewalk":"unknown","lanes":0,"name":"","oneway":false},"geometry":{"type":"LineString","coordinates":[[126.99844,37.42989],[126.99854,37.42984],[126.99889,37.42969],[126.99896,37.42959],[126.99879,37.42926],[126.99869,37.42918],[126.99861,37.42914],[126.99851,37.42912],[126.99821,37.42925]]}},{"type":"Feature","properties":{"class":"alley","highway":"service","sidewalk":"unknown","lanes":0,"name":"","oneway":false},"geometry":{"type":"LineString","coordinates":[[126.9992,37.4278],[126.99912,37.42763],[126.99904,37.42747],[126.99898,37.42741],[126.99872,37.42725],[126.99859,37.42726],[126.99853,37.42725],[126.99833,37.42721],[126.99819,37.42721],[126.99786,37.42704],[126.99766,37.42701],[126.99744,37.42676],[126.99745,37.42666],[126.99734,37.4266]]}},{"type":"Feature","properties":{"class":"alley","highway":"service","sidewalk":"unknown","lanes":0,"name":"","oneway":false},"geometry":{"type":"LineString","coordinates":[[126.99964,37.42763],[126.99951,37.4275],[126.99944,37.42751],[126.99922,37.42764],[126.99912,37.42763]]}},{"type":"Feature","properties":{"class":"alley","highway":"service","sidewalk":"unknown","lanes":0,"name":"","oneway":false},"geometry":{"type":"LineString","coordinates":[[126.999,37.42788],[126.99916,37.42803]]}},{"type":"Feature","properties":{"class":"alley","highway":"service","sidewalk":"unknown","lanes":0,"name":"","oneway":false},"geometry":{"type":"LineString","coordinates":[[126.99912,37.42763],[126.99895,37.42767],[126.99882,37.42769],[126.99877,37.42769],[126.99874,37.42768],[126.9986,37.42757]]}},{"type":"Feature","properties":{"class":"alley","highway":"service","sidewalk":"unknown","lanes":0,"name":"","oneway":false},"geometry":{"type":"LineString","coordinates":[[126.99877,37.42769],[126.9986,37.42781]]}},{"type":"Feature","properties":{"class":"alley","highway":"service","sidewalk":"unknown","lanes":0,"name":"","oneway":false},"geometry":{"type":"LineString","coordinates":[[126.99854,37.42984],[126.99832,37.42952],[126.99838,37.42949],[126.99858,37.4294]]}},{"type":"Feature","properties":{"class":"alley","highway":"service","sidewalk":"unknown","lanes":0,"name":"","oneway":false},"geometry":{"type":"LineString","coordinates":[[126.99889,37.42969],[126.99907,37.42991]]}},{"type":"Feature","properties":{"class":"alley","highway":"service","sidewalk":"unknown","lanes":0,"name":"","oneway":false},"geometry":{"type":"LineString","coordinates":[[126.99975,37.42895],[126.99951,37.42897],[126.99941,37.429],[126.99925,37.42911],[126.99918,37.42915],[126.99912,37.42916],[126.99904,37.42915],[126.99892,37.42913]]}},{"type":"Feature","properties":{"class":"alley","highway":"service","sidewalk":"unknown","lanes":0,"name":"","oneway":false},"geometry":{"type":"LineString","coordinates":[[126.99964,37.4305],[126.99953,37.43032]]}},{"type":"Feature","properties":{"class":"alley","highway":"service","sidewalk":"unknown","lanes":0,"name":"","oneway":false},"geometry":{"type":"LineString","coordinates":[[126.99953,37.43032],[126.99947,37.43025],[126.99941,37.4302]]}},{"type":"Feature","properties":{"class":"alley","highway":"service","sidewalk":"unknown","lanes":0,"name":"","oneway":false},"geometry":{"type":"LineString","coordinates":[[126.99953,37.43032],[126.99974,37.43019],[126.99989,37.43006]]}},{"type":"Feature","properties":{"class":"alley","highway":"service","sidewalk":"unknown","lanes":0,"name":"","oneway":false},"geometry":{"type":"LineString","coordinates":[[126.9956,37.44036],[126.9956,37.44022],[126.9956,37.44006],[126.9956,37.43992]]}},{"type":"Feature","properties":{"class":"alley","highway":"service","sidewalk":"unknown","lanes":0,"name":"","oneway":false},"geometry":{"type":"LineString","coordinates":[[126.99622,37.44013],[126.9961,37.44],[126.99602,37.43992],[126.9956,37.43992],[126.99499,37.43991],[126.99497,37.43993],[126.99506,37.44005],[126.99518,37.44022],[126.99528,37.44036],[126.9956,37.44036],[126.99562,37.44036],[126.99602,37.44007],[126.9961,37.44]]}},{"type":"Feature","properties":{"class":"alley","highway":"pedestrian","sidewalk":"unknown","lanes":0,"name":"","oneway":false},"geometry":{"type":"LineString","coordinates":[[126.99864,37.4337],[126.99884,37.43333],[126.99893,37.43317]]}},{"type":"Feature","properties":{"class":"alley","highway":"pedestrian","sidewalk":"unknown","lanes":0,"name":"","oneway":false},"geometry":{"type":"LineString","coordinates":[[126.99959,37.43352],[126.99884,37.43333]]}},{"type":"Feature","properties":{"class":"alley","highway":"pedestrian","sidewalk":"unknown","lanes":0,"name":"","oneway":false},"geometry":{"type":"LineString","coordinates":[[126.99546,37.43078],[126.99533,37.43068],[126.99516,37.43064]]}},{"type":"Feature","properties":{"class":"alley","highway":"service","sidewalk":"unknown","lanes":0,"name":"","oneway":false},"geometry":{"type":"LineString","coordinates":[[126.99151,37.43082],[126.99098,37.4311],[126.99092,37.43113]]}},{"type":"Feature","properties":{"class":"alley","highway":"pedestrian","sidewalk":"unknown","lanes":0,"name":"희망4길","oneway":false},"geometry":{"type":"LineString","coordinates":[[126.99133,37.4339],[126.99151,37.43409]]}}]}