{"type":"FeatureCollection","features":[{"type":"Feature","properties":{"class":"major","highway":"secondary","sidewalk":"likely","lanes":0,"name":"기아로","oneway":false},"geometry":{"type":"LineString","coordinates":[[126.87963,37.43663],[126.88017,37.43659],[126.88034,37.43658],[126.88122,37.43651],[126.88144,37.4365],[126.88272,37.43641],[126.88399,37.43632],[126.88432,37.43629],[126.88466,37.43627]]}},{"type":"Feature","properties":{"class":"major","highway":"motorway","sidewalk":"likely","lanes":3,"name":"제2경인고속도로","oneway":true},"geometry":{"type":"LineString","coordinates":[[126.86371,37.43469],[126.87264,37.43088]]}},{"type":"Feature","properties":{"class":"major","highway":"motorway","sidewalk":"likely","lanes":3,"name":"제2경인고속도로","oneway":true},"geometry":{"type":"LineString","coordinates":[[126.87281,37.43127],[126.86363,37.43518]]}},{"type":"Feature","properties":{"class":"major","highway":"tertiary","sidewalk":"likely","lanes":0,"name":"영우로","oneway":false},"geometry":{"type":"LineString","coordinates":[[126.8793,37.43326],[126.879,37.43314],[126.87883,37.43306],[126.87849,37.43286],[126.87813,37.43273],[126.87805,37.4327],[126.87731,37.43242],[126.87722,37.43258],[126.87663,37.43255],[126.87654,37.43255],[126.87575,37.43259],[126.87534,37.43266],[126.8752,37.43268],[126.8742,37.43324]]}},{"type":"Feature","properties":{"class":"minor","highway":"residential","sidewalk":"unknown","lanes":0,"name":"오리로366번길","oneway":false},"geometry":{"type":"LineString","coordinates":[[126.87951,37.43515],[126.88001,37.43512],[126.88043,37.4351],[126.88085,37.43507],[126.88126,37.43504],[126.88168,37.43502],[126.8821,37.43499],[126.88253,37.43496],[126.88301,37.43493],[126.88338,37.43491],[126.88377,37.43489],[126.88422,37.43486],[126.8846,37.43483],[126.88523,37.4348]]}},{"type":"Feature","properties":{"class":"minor","highway":"residential","sidewalk":"unknown","lanes":0,"name":"오리로348번길","oneway":false},"geometry":{"type":"LineString","coordinates":[[126.8793,37.43326],[126.87966,37.43345],[126.87986,37.43351],[126.88011,37.43359],[126.88041,37.43382],[126.88074,37.43399],[126.88093,37.43409],[126.8812,37.43436],[126.88139,37.43451],[126.88165,37.43464],[126.88203,37.43441],[126.88245,37.4342],[126.8827,37.43412],[126.8829,37.43413],[126.88311,37.43414],[126.8833,37.43414],[126.88345,37.43414],[126.88368,37.43405],[126.88388,37.43396],[126.88409,37.43385],[126.88449,37.43365],[126.88539,37.43324]]}},{"type":"Feature","properties":{"class":"minor","highway":"residential","sidewalk":"unknown","lanes":0,"name":"","oneway":false},"geometry":{"type":"LineString","coordinates":[[126.87971,37.43265],[126.88049,37.43267]]}},{"type":"Feature","properties":{"class":"major","highway":"tertiary","sidewalk":"likely","lanes":0,"name":"성채로","oneway":false},"geometry":{"type":"LineString","coordinates":[[126.87955,37.43189],[126.87888,37.43183],[126.87823,37.43177],[126.87775,37.43167],[126.87765,37.43164],[126.87728,37.43153],[126.87701,37.43144],[126.87659,37.43122],[126.87635,37.43108],[126.87605,37.43084],[126.87587,37.43072],[126.87552,37.43045]]}},{"type":"Feature","properties":{"class":"minor","highway":"residential","sidewalk":"unknown","lanes":0,"name":"성채로50번길","oneway":false},"geometry":{"type":"LineString","coordinates":[[126.8805,37.4319],[126.8805,37.43227],[126.88049,37.43267],[126.88047,37.43306],[126.88012,37.43305],[126.87969,37.43304],[126.87971,37.43265],[126.87971,37.43226],[126.8805,37.43227]]}},{"type":"Feature","properties":{"class":"minor","highway":"residential","sidewalk":"unknown","lanes":0,"name":"성채로78번길","oneway":false},"geometry":{"type":"LineString","coordinates":[[126.87765,37.43164],[126.87731,37.43242],[126.87702,37.43243],[126.87525,37.4325],[126.87415,37.43316]]}},{"type":"Feature","properties":{"class":"minor","highway":"residential","sidewalk":"unknown","lanes":0,"name":"성채로84번길","oneway":false},"geometry":{"type":"LineString","coordinates":[[126.87701,37.43144],[126.87685,37.4317],[126.87683,37.43175],[126.87681,37.43185],[126.87678,37.43191],[126.87605,37.4319],[126.87558,37.43189],[126.87523,37.43191],[126.87515,37.4319],[126.8751,37.43185],[126.87508,37.43164],[126.87511,37.43144],[126.87518,37.43131],[126.87533,37.43114],[126.87559,37.43096],[126.87587,37.43072]]}},{"type":"Feature","properties":{"class":"minor","highway":"residential","sidewalk":"unknown","lanes":0,"name":"","oneway":false},"geometry":{"type":"LineString","coordinates":[[126.87685,37.4317],[126.87666,37.43163],[126.8763,37.43146],[126.87615,37.43137],[126.87589,37.43121],[126.87574,37.43111],[126.87559,37.43096]]}},{"type":"Feature","properties":{"class":"minor","highway":"residential","sidewalk":"unknown","lanes":0,"name":"","oneway":false},"geometry":{"type":"LineString","coordinates":[[126.87605,37.4319],[126.87608,37.43176],[126.87611,37.43163],[126.87624,37.43152],[126.8763,37.43146]]}},{"type":"Feature","properties":{"class":"minor","highway":"residential","sidewalk":"unknown","lanes":0,"name":"","oneway":false},"geometry":{"type":"LineString","coordinates":[[126.87558,37.43189],[126.87561,37.43181],[126.8756,37.43165],[126.87564,37.43148],[126.87589,37.43121]]}},{"type":"Feature","properties":{"class":"major","highway":"tertiary","sidewalk":"likely","lanes":0,"name":"영당안로","oneway":false},"geometry":{"type":"LineString","coordinates":[[126.87722,37.43258],[126.87708,37.4331],[126.877,37.43336],[126.87695,37.43359],[126.87696,37.43377],[126.8771,37.43397],[126.87744,37.43428],[126.87748,37.43431],[126.87781,37.43472],[126.87783,37.43476],[126.87794,37.43506],[126.87786,37.43523],[126.87778,37.43536],[126.87743,37.43596],[126.87735,37.43612],[126.87737,37.43619],[126.87738,37.43629],[126.87749,37.43649],[126.87793,37.43736]]}},{"type":"Feature","properties":{"class":"minor","highway":"residential","sidewalk":"unknown","lanes":0,"name":"영우로26번길","oneway":false},"geometry":{"type":"LineString","coordinates":[[126.87663,37.43255],[126.87661,37.43285],[126.87572,37.43294],[126.87547,37.43299],[126.87434,37.43345]]}},{"type":"Feature","properties":{"class":"minor","highway":"residential","sidewalk":"unknown","lanes":0,"name":"영우로38번길","oneway":false},"geometry":{"type":"LineString","coordinates":[[126.87534,37.43266],[126.87547,37.43299],[126.87559,37.43335],[126.87569,37.43366],[126.87572,37.43394],[126.87575,37.43441],[126.87579,37.43489]]}},{"type":"Feature","properties":{"class":"minor","highway":"residential","sidewalk":"unknown","lanes":0,"name":"영당안로7번길","oneway":false},"geometry":{"type":"LineString","coordinates":[[126.87708,37.4331],[126.87693,37.43308],[126.87663,37.43313],[126.87617,37.43327],[126.87599,37.43331],[126.87573,37.43333],[126.87559,37.43335],[126.87541,37.4334],[126.87507,37.43351],[126.87449,37.43369]]}},{"type":"Feature","properties":{"class":"minor","highway":"residential","sidewalk":"unknown","lanes":0,"name":"영당안로13번길","oneway":false},"geometry":{"type":"LineString","coordinates":[[126.87696,37.43377],[126.87624,37.43385],[126.87572,37.43394],[126.8747,37.43419]]}},{"type":"Feature","properties":{"class":"minor","highway":"residential","sidewalk":"unknown","lanes":0,"name":"","oneway":false},"geometry":{"type":"LineString","coordinates":[[126.8742,37.43324],[126.87434,37.43345],[126.87449,37.43369],[126.87466,37.43399],[126.8747,37.43419],[126.87474,37.43462],[126.87477,37.43503],[126.87479,37.43534]]}},{"type":"Feature","properties":{"class":"minor","highway":"residential","sidewalk":"unknown","lanes":0,"name":"영당로21번길","oneway":false},"geometry":{"type":"LineString","coordinates":[[126.87721,37.43495],[126.87665,37.43429],[126.87575,37.43441],[126.87474,37.43462]]}},{"type":"Feature","properties":{"class":"major","highway":"tertiary","sidewalk":"likely","lanes":0,"name":"영당로","oneway":false},"geometry":{"type":"LineString","coordinates":[[126.87949,37.43429],[126.87897,37.43434],[126.87884,37.4344],[126.87876,37.43444],[126.87854,37.43456],[126.87828,37.43463],[126.87783,37.43476],[126.87721,37.43495],[126.87674,37.43509]]}},{"type":"Feature","properties":{"class":"minor","highway":"residential","sidewalk":"unknown","lanes":0,"name":"","oneway":false},"geometry":{"type":"LineString","coordinates":[[126.87665,37.43429],[126.87624,37.43385]]}},{"type":"Feature","properties":{"class":"minor","highway":"residential","sidewalk":"unknown","lanes":0,"name":"오리로347번길","oneway":false},"geometry":{"type":"LineString","coordinates":[[126.87931,37.43344],[126.87905,37.43358],[126.87886,37.4337],[126.87862,37.43381],[126.87857,37.43383],[126.87788,37.4341],[126.87744,37.43428]]}},{"type":"Feature","properties":{"class":"minor","highway":"residential","sidewalk":"unknown","lanes":0,"name":"","oneway":false},"geometry":{"type":"LineString","coordinates":[[126.87862,37.43381],[126.87854,37.43355],[126.87851,37.43353],[126.87845,37.43348],[126.87832,37.43343],[126.87728,37.43314],[126.87718,37.43312],[126.87708,37.4331]]}},{"type":"Feature","properties":{"class":"minor","highway":"residential","sidewalk":"unknown","lanes":0,"name":"","oneway":false},"geometry":{"type":"LineString","coordinates":[[126.87805,37.4327],[126.87718,37.43312]]}},{"type":"Feature","properties":{"class":"minor","highway":"residential","sidewalk":"unknown","lanes":0,"name":"","oneway":false},"geometry":{"type":"LineString","coordinates":[[126.879,37.43314],[126.87864,37.43342],[126.87851,37.43353]]}},{"type":"Feature","properties":{"class":"minor","highway":"residential","sidewalk":"unknown","lanes":0,"name":"","oneway":false},"geometry":{"type":"LineString","coordinates":[[126.87864,37.43342],[126.87905,37.43358]]}},{"type":"Feature","properties":{"class":"minor","highway":"residential","sidewalk":"unknown","lanes":0,"name":"영당로25번길","oneway":false},"geometry":{"type":"LineString","coordinates":[[126.87674,37.43509],[126.87654,37.4349],[126.87579,37.43489],[126.87477,37.43503]]}},{"type":"Feature","properties":{"class":"minor","highway":"residential","sidewalk":"unknown","lanes":0,"name":"영당로22번길","oneway":false},"geometry":{"type":"LineString","coordinates":[[126.87721,37.43495],[126.87728,37.43513],[126.87726,37.43527],[126.87707,37.43612],[126.87706,37.43615],[126.87679,37.43688],[126.87647,37.43767]]}},{"type":"Feature","properties":{"class":"minor","highway":"residential","sidewalk":"unknown","lanes":0,"name":"","oneway":false},"geometry":{"type":"LineString","coordinates":[[126.87674,37.43509],[126.87684,37.43521],[126.87681,37.43535],[126.87668,37.43602],[126.87667,37.43605],[126.87627,37.43654],[126.87629,37.43688]]}},{"type":"Feature","properties":{"class":"minor","highway":"residential","sidewalk":"unknown","lanes":0,"name":"오리로381번길","oneway":false},"geometry":{"type":"LineString","coordinates":[[126.87963,37.43663],[126.87926,37.43657],[126.87836,37.4365],[126.87737,37.43619],[126.87707,37.43612],[126.87668,37.43602]]}},{"type":"Feature","properties":{"class":"minor","highway":"residential","sidewalk":"unknown","lanes":0,"name":"","oneway":false},"geometry":{"type":"LineString","coordinates":[[126.87679,37.43688],[126.87629,37.43688],[126.87521,37.43694]]}},{"type":"Feature","properties":{"class":"minor","highway":"residential","sidewalk":"unknown","lanes":0,"name":"오리로397번길","oneway":false},"geometry":{"type":"LineString","coordinates":[[126.8796,37.43791],[126.87845,37.43763],[126.87824,37.43748],[126.87807,37.4374],[126.87793,37.43736],[126.87775,37.4373],[126.87723,37.43706],[126.87701,37.43697],[126.87679,37.43688]]}},{"type":"Feature","properties":{"class":"minor","highway":"residential","sidewalk":"unknown","lanes":0,"name":"오리로403번길","oneway":false},"geometry":{"type":"LineString","coordinates":[[126.8793,37.43845],[126.87825,37.43824],[126.87744,37.43804],[126.87674,37.43781],[126.87647,37.43767],[126.87602,37.43759],[126.8754,37.43748],[126.87521,37.43694],[126.87506,37.43656],[126.87617,37.43651],[126.87627,37.43654]]}},{"type":"Feature","properties":{"class":"minor","highway":"residential","sidewalk":"unknown","lanes":0,"name":"","oneway":false},"geometry":{"type":"LineString","coordinates":[[126.87749,37.43649],[126.87723,37.43706]]}},{"type":"Feature","properties":{"class":"minor","highway":"residential","sidewalk":"unknown","lanes":0,"name":"영당안로36번길","oneway":false},"geometry":{"type":"LineString","coordinates":[[126.87778,37.43536],[126.87829,37.43546],[126.87844,37.43549],[126.87839,37.43613],[126.87836,37.4365],[126.87836,37.43662],[126.87846,37.43743],[126.87846,37.43754],[126.87845,37.43763],[126.87825,37.43824]]}},{"type":"Feature","properties":{"class":"minor","highway":"residential","sidewalk":"unknown","lanes":0,"name":"","oneway":false},"geometry":{"type":"LineString","coordinates":[[126.8795,37.43533],[126.87933,37.43545],[126.87914,37.43576],[126.87897,37.43585],[126.8788,37.43591],[126.8786,37.43614],[126.87839,37.43613]]}},{"type":"Feature","properties":{"class":"minor","highway":"residential","sidewalk":"unknown","lanes":0,"name":"","oneway":false},"geometry":{"type":"LineString","coordinates":[[126.87884,37.4344],[126.87875,37.43412],[126.87867,37.43397],[126.87857,37.43383]]}},{"type":"Feature","properties":{"class":"minor","highway":"residential","sidewalk":"unknown","lanes":0,"name":"","oneway":false},"geometry":{"type":"LineString","coordinates":[[126.87828,37.43463],[126.87841,37.43483],[126.87854,37.43494],[126.87829,37.43546]]}},{"type":"Feature","properties":{"class":"minor","highway":"residential","sidewalk":"unknown","lanes":0,"name":"","oneway":false},"geometry":{"type":"LineString","coordinates":[[126.87876,37.43444],[126.87883,37.43454],[126.87887,37.43503]]}},{"type":"Feature","properties":{"class":"major","highway":"tertiary","sidewalk":"likely","lanes":0,"name":"기아로6번길","oneway":false},"geometry":{"type":"LineString","coordinates":[[126.88017,37.43659],[126.88007,37.43613],[126.88007,37.436],[126.88001,37.43512],[126.87996,37.43467],[126.87989,37.43415],[126.87987,37.43401],[126.87985,37.43381],[126.87985,37.43358],[126.87986,37.43351]]}},{"type":"Feature","properties":{"class":"minor","highway":"residential","sidewalk":"unknown","lanes":0,"name":"","oneway":false},"geometry":{"type":"LineString","coordinates":[[126.87946,37.43418],[126.87989,37.43415],[126.88031,37.43413],[126.88076,37.4341],[126.88093,37.43409]]}},{"type":"Feature","properties":{"class":"minor","highway":"residential","sidewalk":"unknown","lanes":0,"name":"오리로396번길","oneway":false},"geometry":{"type":"LineString","coordinates":[[126.87969,37.43769],[126.88036,37.43783],[126.881,37.43795]]}},{"type":"Feature","properties":{"class":"minor","highway":"residential","sidewalk":"unknown","lanes":0,"name":"오리로406번길","oneway":false},"geometry":{"type":"LineString","coordinates":[[126.87924,37.4386],[126.87949,37.43869],[126.87984,37.43876],[126.88005,37.43884],[126.8802,37.43897],[126.88038,37.43908],[126.88061,37.43923],[126.88087,37.43929],[126.88091,37.43928],[126.88102,37.43925],[126.88147,37.43899],[126.88153,37.43889],[126.88184,37.43886],[126.88225,37.43885],[126.88247,37.43882],[126.88269,37.43876],[126.88283,37.43869],[126.88304,37.43856],[126.88328,37.4384],[126.88353,37.43831]]}},{"type":"Feature","properties":{"class":"major","highway":"tertiary","sidewalk":"likely","lanes":0,"name":"성채로","oneway":false},"geometry":{"type":"LineString","coordinates":[[126.88544,37.43194],[126.8838,37.43192],[126.8822,37.43189],[126.8805,37.4319],[126.88037,37.4319],[126.87955,37.43189]]}},{"type":"Feature","properties":{"class":"major","highway":"motorway","sidewalk":"likely","lanes":0,"name":"평택파주고속도로 지선","oneway":true},"geometry":{"type":"LineString","coordinates":[[126.89289,37.43459],[126.89106,37.43275],[126.88946,37.43129],[126.88751,37.42971],[126.88568,37.42836],[126.88103,37.42554],[126.87985,37.42471],[126.87899,37.42401],[126.87407,37.41937],[126.87265,37.41799],[126.87165,37.41724],[126.87072,37.41664],[126.86946,37.41601],[126.86814,37.4155],[126.86721,37.41522],[126.86572,37.41489]]}},{"type":"Feature","properties":{"class":"major","highway":"motorway","sidewalk":"likely","lanes":0,"name":"평택파주고속도로 지선","oneway":true},"geometry":{"type":"LineString","coordinates":[[126.86578,37.4147],[126.86704,37.41494],[126.86891,37.41546],[126.87064,37.41622],[126.87215,37.41716],[126.87308,37.4179],[126.87893,37.42353],[126.88019,37.42459],[126.88116,37.42525],[126.8823,37.42596],[126.88593,37.42819],[126.88744,37.4292],[126.88804,37.42963],[126.88873,37.43022],[126.89166,37.43292],[126.89307,37.4345]]}},{"type":"Feature","properties":{"class":"major","highway":"secondary_link","sidewalk":"likely","lanes":0,"name":"","oneway":true},"geometry":{"type":"LineString","coordinates":[[126.87883,37.43306],[126.87891,37.43305],[126.87898,37.43304],[126.87906,37.43302],[126.87913,37.43299],[126.87919,37.43294],[126.87932,37.43283]]}},{"type":"Feature","properties":{"class":"major","highway":"secondary","sidewalk":"likely","lanes":0,"name":"오리로","oneway":false},"geometry":{"type":"LineString","coordinates":[[126.8793,37.43326],[126.87931,37.43344],[126.87932,37.43351],[126.87946,37.43418],[126.87949,37.43429],[126.87952,37.43449],[126.87951,37.43515],[126.8795,37.43533],[126.87951,37.43588],[126.87952,37.43614],[126.87954,37.43631],[126.87963,37.43663]]}},{"type":"Feature","properties":{"class":"minor","highway":"residential","sidewalk":"unknown","lanes":0,"name":"성채로78번길","oneway":false},"geometry":{"type":"LineString","coordinates":[[126.87415,37.43316],[126.8736,37.43349],[126.87345,37.43358],[126.8725,37.43392]]}},{"type":"Feature","properties":{"class":"major","highway":"secondary","sidewalk":"likely","lanes":0,"name":"오리로","oneway":false},"geometry":{"type":"LineString","coordinates":[[126.88105,37.42951],[126.88101,37.42978],[126.88091,37.43005],[126.88075,37.43031],[126.88044,37.43074],[126.88014,37.43114],[126.87986,37.43144],[126.87972,37.43164],[126.87955,37.43189]]}},{"type":"Feature","properties":{"class":"major","highway":"secondary","sidewalk":"likely","lanes":0,"name":"오리로","oneway":false},"geometry":{"type":"LineString","coordinates":[[126.87955,37.43189],[126.87948,37.432],[126.87944,37.43208],[126.8794,37.43218],[126.87938,37.43232],[126.87932,37.43283],[126.8793,37.43326]]}},{"type":"Feature","properties":{"class":"major","highway":"secondary","sidewalk":"likely","lanes":0,"name":"오리로","oneway":false},"geometry":{"type":"LineString","coordinates":[[126.87963,37.43663],[126.87967,37.43679],[126.87972,37.43699],[126.87975,37.43716],[126.87976,37.43736],[126.87974,37.43759],[126.87969,37.43769],[126.87965,37.43777],[126.8796,37.43791],[126.8793,37.43845]]}},{"type":"Feature","properties":{"class":"major","highway":"secondary","sidewalk":"likely","lanes":0,"name":"오리로","oneway":false},"geometry":{"type":"LineString","coordinates":[[126.8793,37.43845],[126.87924,37.4386],[126.87906,37.43895],[126.87896,37.43915],[126.87886,37.43944],[126.87882,37.43961],[126.8788,37.44002],[126.87883,37.44023],[126.87926,37.44111],[126.87927,37.44113],[126.87934,37.44126]]}}]}