{"type":"FeatureCollection","features":[{"type":"Feature","properties":{"class":"major","highway":"motorway_link","sidewalk":"likely","lanes":0,"name":"","oneway":true},"geometry":{"type":"LineString","coordinates":[[127.08956,37.42191],[127.08986,37.42243],[127.09008,37.42293],[127.09033,37.42351],[127.09073,37.42468],[127.09107,37.42574],[127.09117,37.42615],[127.09124,37.42663],[127.09124,37.42685]]}},{"type":"Feature","properties":{"class":"major","highway":"trunk","sidewalk":"likely","lanes":0,"name":"분당내곡로","oneway":true},"geometry":{"type":"LineString","coordinates":[[127.08282,37.43118],[127.08347,37.43083],[127.08471,37.43026],[127.08595,37.42972],[127.08668,37.42942],[127.0882,37.42877],[127.08898,37.42844],[127.08981,37.42808],[127.09083,37.42766],[127.09172,37.42727],[127.09366,37.4264],[127.09473,37.42592],[127.0959,37.4254],[127.09704,37.42487]]}},{"type":"Feature","properties":{"class":"major","highway":"motorway","sidewalk":"likely","lanes":2,"name":"용인서울고속도로","oneway":true},"geometry":{"type":"LineString","coordinates":[[127.08961,37.43492],[127.08951,37.43526],[127.08944,37.4356],[127.08937,37.43601],[127.08932,37.43647],[127.08931,37.43688],[127.08933,37.43782],[127.0894,37.43847],[127.08949,37.43902],[127.0896,37.43935]]}},{"type":"Feature","properties":{"class":"major","highway":"motorway","sidewalk":"likely","lanes":2,"name":"용인서울고속도로","oneway":true},"geometry":{"type":"LineString","coordinates":[[127.0896,37.43935],[127.08977,37.43987],[127.09039,37.44098],[127.09127,37.4425],[127.09182,37.4433],[127.09279,37.44467],[127.09374,37.44594],[127.09451,37.44688],[127.09492,37.44742],[127.09535,37.44818],[127.09563,37.44883]]}},{"type":"Feature","properties":{"class":"major","highway":"motorway","sidewalk":"likely","lanes":2,"name":"용인서울고속도로","oneway":true},"geometry":{"type":"LineString","coordinates":[[127.09526,37.4489],[127.09508,37.44847],[127.09467,37.4477],[127.09422,37.44705],[127.09339,37.44604],[127.09247,37.44482],[127.09138,37.44331],[127.09093,37.44261],[127.09025,37.44142],[127.08931,37.43983],[127.08919,37.43929]]}},{"type":"Feature","properties":{"class":"major","highway":"motorway","sidewalk":"likely","lanes":2,"name":"용인서울고속도로","oneway":true},"geometry":{"type":"LineString","coordinates":[[127.08956,37.42191],[127.08982,37.42249],[127.08997,37.42288],[127.09022,37.42346],[127.09039,37.42397],[127.09053,37.42451],[127.09062,37.42487],[127.09072,37.42545],[127.09082,37.42591],[127.09093,37.42653]]}},{"type":"Feature","properties":{"class":"major","highway":"motorway","sidewalk":"likely","lanes":2,"name":"용인서울고속도로","oneway":true},"geometry":{"type":"LineString","coordinates":[[127.09048,37.43046],[127.09053,37.43023]]}},{"type":"Feature","properties":{"class":"major","highway":"motorway","sidewalk":"likely","lanes":2,"name":"용인서울고속도로","oneway":true},"geometry":{"type":"LineString","coordinates":[[127.09097,37.42985],[127.09093,37.43012]]}},{"type":"Feature","properties":{"class":"major","highway":"motorway","sidewalk":"likely","lanes":2,"name":"용인서울고속도로","oneway":true},"geometry":{"type":"LineString","coordinates":[[127.09103,37.42758],[127.09106,37.42823],[127.09104,37.42869],[127.09102,37.42921],[127.09097,37.42985]]}},{"type":"Feature","properties":{"class":"major","highway":"motorway","sidewalk":"likely","lanes":2,"name":"용인서울고속도로","oneway":true},"geometry":{"type":"LineString","coordinates":[[127.09066,37.42794],[127.0906,37.42722],[127.0905,37.42635]]}},{"type":"Feature","properties":{"class":"major","highway":"motorway","sidewalk":"likely","lanes":2,"name":"용인서울고속도로","oneway":true},"geometry":{"type":"LineString","coordinates":[[127.09093,37.42653],[127.09096,37.42681],[127.09101,37.42731],[127.09103,37.42758]]}},{"type":"Feature","properties":{"class":"major","highway":"motorway","sidewalk":"likely","lanes":2,"name":"용인서울고속도로","oneway":true},"geometry":{"type":"LineString","coordinates":[[127.09053,37.43023],[127.09058,37.4298],[127.09063,37.42919],[127.09066,37.42868],[127.09066,37.42794]]}},{"type":"Feature","properties":{"class":"major","highway":"motorway","sidewalk":"likely","lanes":2,"name":"용인서울고속도로","oneway":true},"geometry":{"type":"LineString","coordinates":[[127.0893,37.43485],[127.08939,37.43453],[127.08991,37.43283],[127.09016,37.43192],[127.09037,37.43124],[127.09048,37.43046]]}},{"type":"Feature","properties":{"class":"major","highway":"motorway","sidewalk":"likely","lanes":2,"name":"용인서울고속도로","oneway":true},"geometry":{"type":"LineString","coordinates":[[127.09093,37.43012],[127.09074,37.431],[127.09061,37.4316],[127.09027,37.43269],[127.08985,37.43412],[127.08961,37.43492]]}},{"type":"Feature","properties":{"class":"major","highway":"motorway","sidewalk":"likely","lanes":2,"name":"용인서울고속도로","oneway":true},"geometry":{"type":"LineString","coordinates":[[127.08919,37.43929],[127.08907,37.43875],[127.08896,37.43796],[127.08894,37.43752],[127.08894,37.43703],[127.08901,37.43606],[127.08908,37.43564],[127.08918,37.4352],[127.0893,37.43485]]}},{"type":"Feature","properties":{"class":"major","highway":"trunk","sidewalk":"likely","lanes":0,"name":"","oneway":true},"geometry":{"type":"LineString","coordinates":[[127.08112,37.43229],[127.08181,37.4318],[127.08282,37.43118]]}},{"type":"Feature","properties":{"class":"major","highway":"trunk","sidewalk":"likely","lanes":0,"name":"분당내곡로","oneway":true},"geometry":{"type":"LineString","coordinates":[[127.07868,37.43451],[127.07891,37.43425],[127.07922,37.43392],[127.0795,37.43364],[127.07992,37.43326],[127.08025,37.43297],[127.08054,37.43273],[127.08074,37.43258],[127.08092,37.43243],[127.08112,37.43229]]}},{"type":"Feature","properties":{"class":"major","highway":"trunk","sidewalk":"likely","lanes":0,"name":"분당내곡로","oneway":true},"geometry":{"type":"LineString","coordinates":[[127.09709,37.42495],[127.09681,37.42509],[127.09581,37.42556],[127.0946,37.42611],[127.09378,37.42648],[127.09313,37.42678],[127.09278,37.42693],[127.09215,37.42721],[127.09145,37.42752],[127.09033,37.42799],[127.08911,37.42851],[127.08829,37.42886],[127.08742,37.42923],[127.08671,37.42953],[127.08548,37.43005],[127.08455,37.43046],[127.08329,37.43109],[127.08294,37.4313]]}},{"type":"Feature","properties":{"class":"major","highway":"trunk","sidewalk":"likely","lanes":0,"name":"","oneway":true},"geometry":{"type":"LineString","coordinates":[[127.08294,37.4313],[127.08192,37.43195],[127.0813,37.4324]]}},{"type":"Feature","properties":{"class":"major","highway":"trunk","sidewalk":"likely","lanes":0,"name":"분당내곡로","oneway":true},"geometry":{"type":"LineString","coordinates":[[127.0813,37.4324],[127.08079,37.43281],[127.08023,37.43329],[127.0797,37.43381],[127.07927,37.43426],[127.07888,37.43471],[127.07847,37.43522]]}},{"type":"Feature","properties":{"class":"major","highway":"motorway_link","sidewalk":"likely","lanes":0,"name":"","oneway":true},"geometry":{"type":"LineString","coordinates":[[127.09124,37.42685],[127.09124,37.42724],[127.09123,37.42777],[127.09122,37.42854]]}},{"type":"Feature","properties":{"class":"alley","highway":"service","sidewalk":"unknown","lanes":0,"name":"","oneway":false},"geometry":{"type":"LineString","coordinates":[[127.09892,37.43751],[127.09879,37.43758],[127.09847,37.43784],[127.09825,37.43802],[127.09799,37.43816],[127.09785,37.4383],[127.09772,37.43855],[127.09756,37.43895],[127.09738,37.43936],[127.0973,37.43949]]}},{"type":"Feature","properties":{"class":"minor","highway":"residential","sidewalk":"unknown","lanes":0,"name":"등자로60번길","oneway":false},"geometry":{"type":"LineString","coordinates":[[127.09716,37.43677],[127.09722,37.43691]]}},{"type":"Feature","properties":{"class":"alley","highway":"service","sidewalk":"unknown","lanes":0,"name":"","oneway":false},"geometry":{"type":"LineString","coordinates":[[127.09783,37.43651],[127.09796,37.43682]]}},{"type":"Feature","properties":{"class":"minor","highway":"residential","sidewalk":"unknown","lanes":0,"name":"","oneway":false},"geometry":{"type":"LineString","coordinates":[[127.08954,37.43764],[127.08882,37.43746]]}},{"type":"Feature","properties":{"class":"minor","highway":"residential","sidewalk":"unknown","lanes":0,"name":"","oneway":false},"geometry":{"type":"LineString","coordinates":[[127.09572,37.43677],[127.09578,37.43689]]}},{"type":"Feature","properties":{"class":"alley","highway":"service","sidewalk":"unknown","lanes":0,"name":"","oneway":false},"geometry":{"type":"LineString","coordinates":[[127.09745,37.43402],[127.09732,37.43394],[127.09718,37.43386],[127.09707,37.43384],[127.09678,37.43387],[127.09659,37.4339],[127.09652,37.4339]]}},{"type":"Feature","properties":{"class":"alley","highway":"service","sidewalk":"unknown","lanes":0,"name":"","oneway":false},"geometry":{"type":"LineString","coordinates":[[127.0973,37.43949],[127.09768,37.43939],[127.09802,37.4393],[127.10006,37.43896],[127.10033,37.43892],[127.10083,37.43881],[127.10111,37.43875],[127.10137,37.43864],[127.10157,37.43853],[127.10167,37.43853],[127.10197,37.4385],[127.10235,37.43845],[127.10251,37.43842],[127.10264,37.43836],[127.10281,37.43827],[127.1029,37.4382],[127.10325,37.43799]]}},{"type":"Feature","properties":{"class":"alley","highway":"service","sidewalk":"unknown","lanes":0,"name":"","oneway":false},"geometry":{"type":"LineString","coordinates":[[127.09977,37.43858],[127.0997,37.43847],[127.09955,37.43835],[127.09883,37.43804],[127.09847,37.43784]]}},{"type":"Feature","properties":{"class":"alley","highway":"service","sidewalk":"unknown","lanes":0,"name":"","oneway":false},"geometry":{"type":"LineString","coordinates":[[127.10336,37.43834],[127.1034,37.43805],[127.10344,37.43766],[127.10346,37.43722],[127.10346,37.43703],[127.10332,37.43605],[127.10295,37.43562],[127.10285,37.43554],[127.1028,37.43549],[127.10272,37.43548],[127.10258,37.43554],[127.10212,37.43573],[127.10198,37.43577],[127.10157,37.43586],[127.10093,37.43597],[127.09897,37.43645],[127.09829,37.43655],[127.09814,37.4366],[127.0981,37.43672],[127.09814,37.43686],[127.09835,37.43703],[127.09865,37.43728],[127.09892,37.43751]]}},{"type":"Feature","properties":{"class":"minor","highway":"residential","sidewalk":"unknown","lanes":0,"name":"","oneway":false},"geometry":{"type":"LineString","coordinates":[[127.09422,37.43727],[127.09402,37.43727],[127.09391,37.43728],[127.0937,37.43731],[127.09352,37.43731],[127.09329,37.43732],[127.09309,37.43736],[127.09223,37.43728],[127.09211,37.4373],[127.09201,37.43732],[127.09196,37.43737],[127.0919,37.43744],[127.09181,37.43749],[127.0917,37.43754],[127.09162,37.43759],[127.09156,37.43763],[127.09145,37.43769],[127.09088,37.43786],[127.09076,37.43787],[127.09069,37.43785],[127.0906,37.43777],[127.09056,37.43771],[127.09045,37.4377],[127.09033,37.4377],[127.09023,37.43773],[127.09011,37.43774],[127.08996,37.43773],[127.08973,37.43767],[127.08966,37.43766],[127.08954,37.43764]]}},{"type":"Feature","properties":{"class":"minor","highway":"residential","sidewalk":"unknown","lanes":0,"name":"","oneway":false},"geometry":{"type":"LineString","coordinates":[[127.08882,37.43746],[127.08875,37.43743],[127.08875,37.43731],[127.08883,37.4367],[127.08885,37.43659],[127.08888,37.43586],[127.08888,37.4358],[127.08885,37.43573],[127.0887,37.43573],[127.08852,37.43573],[127.08833,37.4357],[127.08824,37.43565],[127.08801,37.4355],[127.08776,37.43537],[127.08741,37.43517],[127.08694,37.43492],[127.08666,37.43478],[127.08658,37.43476],[127.08647,37.43475],[127.08631,37.43477],[127.08619,37.43479],[127.08606,37.4348],[127.08586,37.4348],[127.08574,37.43476],[127.08559,37.4347]]}},{"type":"Feature","properties":{"class":"minor","highway":"residential","sidewalk":"unknown","lanes":0,"name":"","oneway":false},"geometry":{"type":"LineString","coordinates":[[127.09722,37.43691],[127.09723,37.43701]]}},{"type":"Feature","properties":{"class":"minor","highway":"residential","sidewalk":"unknown","lanes":0,"name":"적푸리로35번길","oneway":false},"geometry":{"type":"LineString","coordinates":[[127.08467,37.43441],[127.08462,37.43426],[127.08459,37.43418],[127.08458,37.43403],[127.08458,37.43395]]}},{"type":"Feature","properties":{"class":"minor","highway":"residential","sidewalk":"unknown","lanes":0,"name":"등자로71번길","oneway":false},"geometry":{"type":"LineString","coordinates":[[127.09651,37.43611],[127.09639,37.43614],[127.09596,37.43623],[127.09586,37.43627],[127.09584,37.43656],[127.09584,37.43662],[127.09577,37.43667],[127.09572,37.43672],[127.09572,37.43677]]}},{"type":"Feature","properties":{"class":"minor","highway":"residential","sidewalk":"unknown","lanes":0,"name":"등자로63번길","oneway":false},"geometry":{"type":"LineString","coordinates":[[127.09706,37.43527],[127.09666,37.43511],[127.09659,37.43519],[127.09657,37.43524],[127.09658,37.43533],[127.09657,37.43538],[127.0965,37.43548],[127.09641,37.43557],[127.09632,37.43565],[127.09625,37.43574],[127.09627,37.43587],[127.09635,37.4359],[127.09647,37.43597],[127.09651,37.436],[127.09651,37.43611],[127.09649,37.43617],[127.09647,37.43634],[127.09651,37.43654],[127.0966,37.43672],[127.09661,37.43681],[127.09667,37.43689]]}},{"type":"Feature","properties":{"class":"alley","highway":"service","sidewalk":"unknown","lanes":0,"name":"","oneway":false},"geometry":{"type":"LineString","coordinates":[[127.09728,37.43469],[127.09735,37.43468],[127.09748,37.43468],[127.09773,37.43471],[127.0978,37.43471],[127.09784,37.43466],[127.09793,37.43439]]}},{"type":"Feature","properties":{"class":"minor","highway":"residential","sidewalk":"unknown","lanes":0,"name":"","oneway":false},"geometry":{"type":"LineString","coordinates":[[127.10281,37.43528],[127.1027,37.43517],[127.10252,37.43512],[127.1024,37.4351],[127.10222,37.43508],[127.10209,37.43507],[127.10195,37.43505],[127.10181,37.43503],[127.10167,37.43502],[127.10151,37.43505],[127.10137,37.43508],[127.10116,37.43511],[127.101,37.43511],[127.1008,37.43508],[127.10057,37.43506],[127.10037,37.43504],[127.10024,37.43502],[127.10003,37.435],[127.09994,37.43496],[127.09972,37.43489],[127.09952,37.4348],[127.09938,37.43471],[127.09928,37.43465],[127.09916,37.4346],[127.09903,37.43457],[127.09893,37.43451],[127.09884,37.43443],[127.09871,37.43433],[127.09861,37.43427],[127.09853,37.43422],[127.09843,37.43421],[127.09833,37.43421],[127.09822,37.43425],[127.09809,37.43426],[127.09793,37.43422],[127.0978,37.43418],[127.09767,37.43415],[127.09765,37.4341],[127.09761,37.43403],[127.09753,37.43401],[127.09745,37.43402],[127.0974,37.43408],[127.09739,37.43414],[127.09735,37.4342],[127.09725,37.43431],[127.09721,37.43443],[127.09718,37.43454],[127.09719,37.43463],[127.09728,37.43469],[127.0973,37.43476],[127.09732,37.43485],[127.09727,37.43494],[127.09706,37.43527]]}},{"type":"Feature","properties":{"class":"minor","highway":"residential","sidewalk":"unknown","lanes":0,"name":"","oneway":false},"geometry":{"type":"LineString","coordinates":[[127.09578,37.43689],[127.09579,37.43694],[127.09581,37.43705]]}},{"type":"Feature","properties":{"class":"alley","highway":"service","sidewalk":"unknown","lanes":0,"name":"","oneway":false},"geometry":{"type":"LineString","coordinates":[[127.08966,37.43766],[127.08952,37.43736],[127.08946,37.43722],[127.08944,37.43705],[127.08942,37.43686],[127.08946,37.43665],[127.08946,37.43659]]}},{"type":"Feature","properties":{"class":"major","highway":"secondary","sidewalk":"likely","lanes":2,"name":"청계산로","oneway":false},"geometry":{"type":"LineString","coordinates":[[127.09079,37.42957],[127.09068,37.42963],[127.09022,37.42992],[127.08998,37.43013],[127.08956,37.43055],[127.08913,37.43102],[127.08849,37.43152],[127.08822,37.43175],[127.08805,37.43193],[127.08776,37.43228],[127.08745,37.43274],[127.08723,37.43296],[127.08697,37.43314],[127.08676,37.43324],[127.08667,37.4333],[127.0863,37.43345],[127.08589,37.43354],[127.08547,37.43359],[127.08479,37.4336],[127.08465,37.43361],[127.08458,37.4336],[127.08419,37.43355],[127.08373,37.43345],[127.08355,37.43337],[127.08317,37.43321],[127.0828,37.43301],[127.08249,37.43278]]}},{"type":"Feature","properties":{"class":"alley","highway":"service","sidewalk":"unknown","lanes":0,"name":"","oneway":false},"geometry":{"type":"LineString","coordinates":[[127.08842,37.43203],[127.08832,37.43208],[127.08825,37.43214],[127.08815,37.43232]]}},{"type":"Feature","properties":{"class":"minor","highway":"residential","sidewalk":"unknown","lanes":0,"name":"","oneway":false},"geometry":{"type":"LineString","coordinates":[[127.08776,37.43228],[127.08781,37.43229],[127.08787,37.43231],[127.08796,37.43235],[127.08805,37.43238],[127.08821,37.4325],[127.08826,37.43255],[127.08833,37.43256],[127.08844,37.43256],[127.08858,37.43251]]}},{"type":"Feature","properties":{"class":"alley","highway":"service","sidewalk":"unknown","lanes":0,"name":"","oneway":false},"geometry":{"type":"LineString","coordinates":[[127.08787,37.43231],[127.08793,37.4322],[127.08802,37.4321],[127.08818,37.43197]]}},{"type":"Feature","properties":{"class":"minor","highway":"residential","sidewalk":"unknown","lanes":0,"name":"","oneway":false},"geometry":{"type":"LineString","coordinates":[[127.08913,37.43102],[127.08917,37.43104],[127.0892,37.43105],[127.08914,37.43116],[127.08887,37.43134],[127.08875,37.43147],[127.08866,37.43158],[127.08861,37.43166],[127.08842,37.43178]]}},{"type":"Feature","properties":{"class":"alley","highway":"service","sidewalk":"unknown","lanes":0,"name":"","oneway":false},"geometry":{"type":"LineString","coordinates":[[127.08822,37.43175],[127.08826,37.43177],[127.08832,37.4318],[127.08843,37.43194],[127.08842,37.43203]]}},{"type":"Feature","properties":{"class":"minor","highway":"residential","sidewalk":"unknown","lanes":0,"name":"적푸리로35번길","oneway":false},"geometry":{"type":"LineString","coordinates":[[127.08467,37.43453],[127.08457,37.43457],[127.08447,37.43461],[127.08441,37.43464],[127.08438,37.43468],[127.08435,37.43475],[127.0843,37.43481],[127.08424,37.4349]]}},{"type":"Feature","properties":{"class":"minor","highway":"residential","sidewalk":"unknown","lanes":0,"name":"적푸리로23번길","oneway":false},"geometry":{"type":"LineString","coordinates":[[127.08337,37.43424],[127.08355,37.43434],[127.08365,37.4344],[127.08367,37.4345],[127.08368,37.43464],[127.08368,37.43468],[127.08376,37.43468]]}},{"type":"Feature","properties":{"class":"minor","highway":"residential","sidewalk":"unknown","lanes":0,"name":"","oneway":false},"geometry":{"type":"LineString","coordinates":[[127.08424,37.4339],[127.0841,37.43394],[127.08398,37.43397],[127.08385,37.43398],[127.08372,37.43396],[127.08357,37.43395],[127.08342,37.43394]]}},{"type":"Feature","properties":{"class":"minor","highway":"residential","sidewalk":"unknown","lanes":0,"name":"적푸리로35번길","oneway":false},"geometry":{"type":"LineString","coordinates":[[127.08511,37.43398],[127.08514,37.43407],[127.08512,37.43413],[127.08498,37.43417],[127.08488,37.4342],[127.08472,37.43424],[127.08462,37.43426]]}},{"type":"Feature","properties":{"class":"major","highway":"secondary","sidewalk":"likely","lanes":0,"name":"청계산로","oneway":false},"geometry":{"type":"LineString","coordinates":[[127.08249,37.43278],[127.08237,37.43269]]}},{"type":"Feature","properties":{"class":"minor","highway":"residential","sidewalk":"unknown","lanes":0,"name":"적푸리로35번길","oneway":false},"geometry":{"type":"LineString","coordinates":[[127.08467,37.43441],[127.08467,37.43453],[127.08468,37.43456],[127.0847,37.43471],[127.08471,37.43497],[127.08473,37.43507],[127.08473,37.43519],[127.08474,37.43524],[127.08471,37.43533],[127.08466,37.43544]]}},{"type":"Feature","properties":{"class":"alley","highway":"service","sidewalk":"unknown","lanes":0,"name":"","oneway":false},"geometry":{"type":"LineString","coordinates":[[127.08376,37.43468],[127.08384,37.4347],[127.0839,37.43473],[127.08394,37.43479]]}},{"type":"Feature","properties":{"class":"minor","highway":"residential","sidewalk":"unknown","lanes":0,"name":"적푸리로35번길","oneway":false},"geometry":{"type":"LineString","coordinates":[[127.08471,37.43533],[127.08462,37.43533],[127.0845,37.43533],[127.08432,37.43533],[127.0842,37.43528],[127.08405,37.43523],[127.08397,37.43516]]}},{"type":"Feature","properties":{"class":"minor","highway":"residential","sidewalk":"unknown","lanes":0,"name":"","oneway":false},"geometry":{"type":"LineString","coordinates":[[127.08471,37.43497],[127.08496,37.43497],[127.08515,37.435],[127.08523,37.435],[127.08537,37.43496]]}},{"type":"Feature","properties":{"class":"minor","highway":"residential","sidewalk":"unknown","lanes":0,"name":"","oneway":false},"geometry":{"type":"LineString","coordinates":[[127.08667,37.4333],[127.08669,37.43334],[127.08671,37.43345],[127.08648,37.43356]]}},{"type":"Feature","properties":{"class":"minor","highway":"residential","sidewalk":"unknown","lanes":0,"name":"","oneway":false},"geometry":{"type":"LineString","coordinates":[[127.08441,37.43464],[127.08428,37.43462],[127.08414,37.43457],[127.08403,37.43453],[127.08384,37.4345],[127.08369,37.43442],[127.08365,37.4344]]}},{"type":"Feature","properties":{"class":"major","highway":"secondary","sidewalk":"likely","lanes":0,"name":"청계산로","oneway":false},"geometry":{"type":"LineString","coordinates":[[127.08237,37.43269],[127.08214,37.43252],[127.0818,37.43224],[127.08158,37.43205],[127.08143,37.43193],[127.08137,37.43188],[127.08122,37.43176],[127.08101,37.4316]]}},{"type":"Feature","properties":{"class":"minor","highway":"residential","sidewalk":"unknown","lanes":0,"name":"적푸리로23번길","oneway":false},"geometry":{"type":"LineString","coordinates":[[127.08337,37.43371],[127.08338,37.43382],[127.08342,37.43392],[127.08342,37.43394],[127.08344,37.434],[127.08344,37.43407],[127.08344,37.43413],[127.08337,37.43424],[127.08329,37.43436],[127.08324,37.43443],[127.08321,37.43449],[127.08309,37.43468]]}},{"type":"Feature","properties":{"class":"alley","highway":"service","sidewalk":"unknown","lanes":0,"name":"","oneway":false},"geometry":{"type":"LineString","coordinates":[[127.08318,37.4337],[127.08314,37.4338]]}},{"type":"Feature","properties":{"class":"minor","highway":"residential","sidewalk":"unknown","lanes":0,"name":"적푸리로","oneway":false},"geometry":{"type":"LineString","coordinates":[[127.08458,37.43395],[127.08436,37.43393],[127.08424,37.4339],[127.08401,37.43382],[127.08378,37.43376],[127.08348,37.43371],[127.08337,37.43371],[127.08318,37.4337],[127.08315,37.4337],[127.08292,37.43369],[127.08262,37.4337],[127.0825,37.43369],[127.08225,37.43368],[127.08217,37.43366],[127.08206,37.4336],[127.08202,37.43358],[127.08196,37.43354],[127.08187,37.43346],[127.08183,37.43338],[127.08182,37.43332],[127.08182,37.43327],[127.08185,37.43318],[127.08187,37.4331],[127.0819,37.43304],[127.08198,37.43294],[127.08204,37.43284],[127.0821,37.43271],[127.08214,37.43252]]}},{"type":"Feature","properties":{"class":"major","highway":"secondary","sidewalk":"likely","lanes":0,"name":"상적1교","oneway":false},"geometry":{"type":"LineString","coordinates":[[127.08101,37.4316],[127.0807,37.43135]]}},{"type":"Feature","properties":{"class":"minor","highway":"residential","sidewalk":"unknown","lanes":0,"name":"","oneway":false},"geometry":{"type":"LineString","coordinates":[[127.07905,37.43048],[127.07909,37.43044],[127.07914,37.43042],[127.07922,37.43043],[127.07929,37.43044],[127.07947,37.4305],[127.07965,37.43057],[127.07988,37.43068],[127.08016,37.43082],[127.08041,37.43096],[127.0806,37.43109],[127.08072,37.43117]]}},{"type":"Feature","properties":{"class":"major","highway":"secondary","sidewalk":"likely","lanes":0,"name":"청계산로","oneway":false},"geometry":{"type":"LineString","coordinates":[[127.0807,37.43135],[127.08039,37.43111],[127.08005,37.43089],[127.07968,37.4307],[127.07905,37.43048],[127.07903,37.43047],[127.07902,37.43047],[127.07824,37.4303],[127.07771,37.43026],[127.07736,37.43026],[127.07725,37.43027]]}},{"type":"Feature","properties":{"class":"minor","highway":"residential","sidewalk":"unknown","lanes":0,"name":"","oneway":false},"geometry":{"type":"LineString","coordinates":[[127.08875,37.43743],[127.08882,37.43783],[127.08883,37.4381],[127.08886,37.43825],[127.08887,37.43837],[127.08886,37.43848],[127.0888,37.43849]]}},{"type":"Feature","properties":{"class":"major","highway":"motorway_link","sidewalk":"likely","lanes":1,"name":"","oneway":true},"geometry":{"type":"LineString","coordinates":[[127.09114,37.42854],[127.09116,37.42772],[127.09113,37.42746],[127.09109,37.42733],[127.09103,37.42719],[127.09086,37.42701]]}},{"type":"Feature","properties":{"class":"major","highway":"motorway_link","sidewalk":"likely","lanes":0,"name":"","oneway":true},"geometry":{"type":"LineString","coordinates":[[127.09086,37.42701],[127.0905,37.42678],[127.09037,37.42665],[127.09028,37.42653],[127.09021,37.42643],[127.09016,37.42633],[127.09014,37.4262],[127.09013,37.42596],[127.09014,37.42542],[127.09011,37.42499],[127.09007,37.42471],[127.08985,37.42368]]}},{"type":"Feature","properties":{"class":"minor","highway":"unclassified","sidewalk":"unknown","lanes":0,"name":"등자로","oneway":false},"geometry":{"type":"LineString","coordinates":[[127.10353,37.43502],[127.10334,37.43505],[127.10292,37.43523],[127.10281,37.43528],[127.10253,37.43539],[127.10212,37.4356],[127.10183,37.43569],[127.10096,37.43584],[127.10045,37.43598],[127.09992,37.4361],[127.0991,37.43633],[127.09835,37.43643],[127.09801,37.43648],[127.09783,37.43651]]}},{"type":"Feature","properties":{"class":"major","highway":"tertiary","sidewalk":"likely","lanes":4,"name":"고등로","oneway":true},"geometry":{"type":"LineString","coordinates":[[127.09805,37.43029],[127.09768,37.43028],[127.09744,37.43025],[127.09712,37.43013]]}},{"type":"Feature","properties":{"class":"major","highway":"tertiary","sidewalk":"likely","lanes":4,"name":"고등로","oneway":true},"geometry":{"type":"LineString","coordinates":[[127.09712,37.43013],[127.09748,37.43015],[127.0977,37.43019],[127.09805,37.43029]]}},{"type":"Feature","properties":{"class":"major","highway":"secondary","sidewalk":"likely","lanes":0,"name":"청계산로","oneway":false},"geometry":{"type":"LineString","coordinates":[[127.09657,37.42626],[127.09625,37.42639],[127.09588,37.42659]]}},{"type":"Feature","properties":{"class":"major","highway":"secondary","sidewalk":"likely","lanes":0,"name":"청계산로","oneway":false},"geometry":{"type":"LineString","coordinates":[[127.09588,37.42659],[127.09502,37.4271],[127.09443,37.42744],[127.09385,37.42778],[127.09349,37.428],[127.09345,37.42802],[127.09293,37.42834],[127.09253,37.4286]]}},{"type":"Feature","properties":{"class":"major","highway":"tertiary","sidewalk":"likely","lanes":0,"name":"고등로","oneway":false},"geometry":{"type":"LineString","coordinates":[[127.09288,37.42742],[127.09345,37.42802],[127.09357,37.42814],[127.09379,37.42837],[127.09393,37.4285],[127.09426,37.42881],[127.09442,37.42893],[127.0948,37.4292],[127.09524,37.42945],[127.09532,37.42949],[127.09581,37.42973],[127.09641,37.42995],[127.09699,37.4301],[127.09712,37.43013]]}},{"type":"Feature","properties":{"class":"major","highway":"tertiary","sidewalk":"likely","lanes":0,"name":"고등로","oneway":false},"geometry":{"type":"LineString","coordinates":[[127.09805,37.43029],[127.09834,37.43032],[127.09884,37.43033],[127.09903,37.43033],[127.09929,37.43034],[127.09978,37.43031],[127.10036,37.4303],[127.10065,37.43025],[127.10071,37.43025],[127.10102,37.43021],[127.10158,37.43013],[127.10207,37.43004]]}},{"type":"Feature","properties":{"class":"minor","highway":"residential","sidewalk":"unknown","lanes":0,"name":"청계산로1길","oneway":false},"geometry":{"type":"LineString","coordinates":[[127.09442,37.42893],[127.09474,37.42874],[127.09589,37.42805],[127.09561,37.42775],[127.0953,37.4274],[127.0951,37.42718],[127.09502,37.4271]]}},{"type":"Feature","properties":{"class":"minor","highway":"residential","sidewalk":"unknown","lanes":0,"name":"청계산로2길","oneway":false},"geometry":{"type":"LineString","coordinates":[[127.09474,37.42874],[127.09444,37.42842],[127.0943,37.42827],[127.09414,37.42809],[127.09472,37.42775],[127.0953,37.4274],[127.09617,37.42689],[127.09649,37.42722]]}},{"type":"Feature","properties":{"class":"minor","highway":"residential","sidewalk":"unknown","lanes":0,"name":"청계산로3길","oneway":false},"geometry":{"type":"LineString","coordinates":[[127.09649,37.42722],[127.09561,37.42775],[127.09444,37.42842]]}},{"type":"Feature","properties":{"class":"alley","highway":"living_street","sidewalk":"unknown","lanes":0,"name":"","oneway":false},"geometry":{"type":"LineString","coordinates":[[127.0943,37.42827],[127.09393,37.4285]]}},{"type":"Feature","properties":{"class":"alley","highway":"living_street","sidewalk":"unknown","lanes":0,"name":"","oneway":false},"geometry":{"type":"LineString","coordinates":[[127.09414,37.42809],[127.09394,37.42788],[127.09385,37.42778]]}},{"type":"Feature","properties":{"class":"alley","highway":"living_street","sidewalk":"unknown","lanes":0,"name":"","oneway":false},"geometry":{"type":"LineString","coordinates":[[127.09472,37.42775],[127.09451,37.42752],[127.09443,37.42744]]}},{"type":"Feature","properties":{"class":"alley","highway":"service","sidewalk":"unknown","lanes":0,"name":"연내개울로","oneway":false},"geometry":{"type":"LineString","coordinates":[[127.09502,37.4271],[127.09467,37.42669],[127.09389,37.42698],[127.09335,37.42718],[127.09288,37.42742],[127.09274,37.42749],[127.09208,37.42783],[127.09169,37.42809],[127.09144,37.42836],[127.09138,37.42842]]}},{"type":"Feature","properties":{"class":"minor","highway":"residential","sidewalk":"unknown","lanes":0,"name":"적푸리로","oneway":false},"geometry":{"type":"LineString","coordinates":[[127.08458,37.43395],[127.08466,37.43393],[127.08475,37.43378],[127.08478,37.43366],[127.08478,37.43365],[127.08479,37.4336]]}},{"type":"Feature","properties":{"class":"minor","highway":"residential","sidewalk":"unknown","lanes":0,"name":"적푸리로","oneway":false},"geometry":{"type":"LineString","coordinates":[[127.08466,37.43393],[127.08502,37.43385],[127.08507,37.43388],[127.08511,37.43398]]}},{"type":"Feature","properties":{"class":"minor","highway":"residential","sidewalk":"unknown","lanes":0,"name":"","oneway":false},"geometry":{"type":"LineString","coordinates":[[127.09726,37.43611],[127.09697,37.43613],[127.09677,37.43614],[127.09658,37.43613],[127.09651,37.43611]]}},{"type":"Feature","properties":{"class":"alley","highway":"service","sidewalk":"unknown","lanes":0,"name":"등자로51번길","oneway":false},"geometry":{"type":"LineString","coordinates":[[127.09706,37.43527],[127.09704,37.43538],[127.09697,37.43564],[127.09698,37.43575],[127.09702,37.43582],[127.09712,37.43594],[127.09726,37.43611],[127.09728,37.43613],[127.09783,37.43651]]}},{"type":"Feature","properties":{"class":"minor","highway":"residential","sidewalk":"unknown","lanes":0,"name":"등자로","oneway":false},"geometry":{"type":"LineString","coordinates":[[127.09667,37.43689],[127.09662,37.43701],[127.09651,37.43703],[127.09634,37.43699],[127.09618,37.43699],[127.09607,37.437],[127.09591,37.43703],[127.09581,37.43705],[127.0955,37.43715],[127.0953,37.43716],[127.09512,37.43716],[127.09494,37.43717],[127.09482,37.43718],[127.09476,37.43724],[127.09467,37.43727],[127.09455,37.43727],[127.09422,37.43727]]}},{"type":"Feature","properties":{"class":"minor","highway":"residential","sidewalk":"unknown","lanes":0,"name":"등자로60번길","oneway":false},"geometry":{"type":"LineString","coordinates":[[127.09723,37.43701],[127.09722,37.43709],[127.0973,37.43716],[127.09741,37.43723],[127.09741,37.43728],[127.09736,37.43731],[127.09728,37.43732],[127.09717,37.43731],[127.09706,37.43729],[127.09696,37.43724],[127.09682,37.43716],[127.09672,37.43713],[127.09665,37.43709],[127.09667,37.43689]]}},{"type":"Feature","properties":{"class":"minor","highway":"residential","sidewalk":"unknown","lanes":0,"name":"등자로","oneway":false},"geometry":{"type":"LineString","coordinates":[[127.09667,37.43689],[127.09688,37.43684],[127.097,37.43682],[127.0971,37.43681],[127.09716,37.43677],[127.09719,37.4367],[127.09725,37.43666],[127.0974,37.43661],[127.09755,37.43656],[127.09772,37.43653],[127.09783,37.43651]]}},{"type":"Feature","properties":{"class":"minor","highway":"residential","sidewalk":"unknown","lanes":0,"name":"왕남로","oneway":false},"geometry":{"type":"LineString","coordinates":[[127.1009,37.42818],[127.10076,37.42817],[127.10036,37.42814],[127.09989,37.42802],[127.09954,37.4279],[127.09914,37.4278],[127.09865,37.42779],[127.09833,37.42784],[127.09797,37.42795],[127.0974,37.42813],[127.09732,37.42817]]}},{"type":"Feature","properties":{"class":"minor","highway":"residential","sidewalk":"unknown","lanes":0,"name":"","oneway":false},"geometry":{"type":"LineString","coordinates":[[127.09903,37.43033],[127.099,37.43085],[127.09863,37.43086],[127.09802,37.43086],[127.09802,37.4306],[127.09861,37.43061],[127.09863,37.43086]]}},{"type":"Feature","properties":{"class":"minor","highway":"residential","sidewalk":"unknown","lanes":0,"name":"","oneway":false},"geometry":{"type":"LineString","coordinates":[[127.09842,37.4309],[127.09842,37.43105],[127.09842,37.43131],[127.09868,37.43131]]}},{"type":"Feature","properties":{"class":"minor","highway":"residential","sidewalk":"unknown","lanes":0,"name":"","oneway":false},"geometry":{"type":"LineString","coordinates":[[127.09842,37.43105],[127.09799,37.43104],[127.09802,37.43086]]}},{"type":"Feature","properties":{"class":"minor","highway":"residential","sidewalk":"unknown","lanes":0,"name":"적푸리로35번길","oneway":false},"geometry":{"type":"LineString","coordinates":[[127.08559,37.4347],[127.08514,37.43451],[127.08477,37.43443],[127.08467,37.43441]]}},{"type":"Feature","properties":{"class":"alley","highway":"service","sidewalk":"unknown","lanes":0,"name":"","oneway":false},"geometry":{"type":"LineString","coordinates":[[127.09293,37.42834],[127.09301,37.42842],[127.09362,37.42897]]}},{"type":"Feature","properties":{"class":"minor","highway":"residential","sidewalk":"unknown","lanes":0,"name":"고등로1길","oneway":false},"geometry":{"type":"LineString","coordinates":[[127.09442,37.42893],[127.09418,37.42924],[127.09463,37.4295],[127.09501,37.42971],[127.09427,37.43066],[127.09402,37.43053],[127.09393,37.43029],[127.09383,37.42967],[127.09418,37.42924]]}},{"type":"Feature","properties":{"class":"minor","highway":"residential","sidewalk":"unknown","lanes":0,"name":"고등로2길","oneway":false},"geometry":{"type":"LineString","coordinates":[[127.09463,37.4295],[127.09393,37.43029]]}},{"type":"Feature","properties":{"class":"minor","highway":"residential","sidewalk":"unknown","lanes":0,"name":"고등로1길","oneway":false},"geometry":{"type":"LineString","coordinates":[[127.09501,37.42971],[127.09524,37.42945]]}},{"type":"Feature","properties":{"class":"major","highway":"secondary","sidewalk":"likely","lanes":0,"name":"","oneway":true},"geometry":{"type":"LineString","coordinates":[[127.09161,37.429],[127.09164,37.42903],[127.09165,37.42906],[127.09164,37.4291],[127.09162,37.42913],[127.09159,37.42916],[127.09155,37.42917],[127.09151,37.42918],[127.09146,37.42917],[127.09142,37.42915],[127.09139,37.42913],[127.09137,37.42909],[127.09137,37.42905],[127.09138,37.42903],[127.09139,37.42901],[127.09142,37.42899],[127.09144,37.42897],[127.09147,37.42896],[127.09151,37.42896],[127.09154,37.42896],[127.09158,37.42898],[127.09161,37.429]]}},{"type":"Feature","properties":{"class":"major","highway":"secondary","sidewalk":"likely","lanes":2,"name":"청계산로","oneway":true},"geometry":{"type":"LineString","coordinates":[[127.09217,37.42882],[127.092,37.42894],[127.09176,37.42907],[127.09159,37.42916]]}},{"type":"Feature","properties":{"class":"major","highway":"secondary","sidewalk":"likely","lanes":5,"name":"청계산로","oneway":false},"geometry":{"type":"LineString","coordinates":[[127.09253,37.4286],[127.09217,37.42882]]}},{"type":"Feature","properties":{"class":"major","highway":"secondary","sidewalk":"likely","lanes":2,"name":"청계산로","oneway":true},"geometry":{"type":"LineString","coordinates":[[127.09158,37.42898],[127.09167,37.42897],[127.0918,37.42895],[127.09194,37.42891],[127.09201,37.42889],[127.09217,37.42882]]}},{"type":"Feature","properties":{"class":"major","highway":"secondary","sidewalk":"likely","lanes":2,"name":"청계산로","oneway":true},"geometry":{"type":"LineString","coordinates":[[127.09155,37.42917],[127.09131,37.42931],[127.09106,37.42944]]}},{"type":"Feature","properties":{"class":"major","highway":"secondary","sidewalk":"likely","lanes":0,"name":"청계산로","oneway":false},"geometry":{"type":"LineString","coordinates":[[127.09106,37.42944],[127.09087,37.42953],[127.09079,37.42957]]}},{"type":"Feature","properties":{"class":"major","highway":"secondary","sidewalk":"likely","lanes":2,"name":"청계산로","oneway":true},"geometry":{"type":"LineString","coordinates":[[127.09106,37.42944],[127.09114,37.42937],[127.09122,37.42931],[127.09126,37.42926],[127.09131,37.4292],[127.09137,37.42909]]}},{"type":"Feature","properties":{"class":"major","highway":"motorway_link","sidewalk":"likely","lanes":0,"name":"","oneway":true},"geometry":{"type":"LineString","coordinates":[[127.09122,37.42854],[127.09124,37.42872],[127.09128,37.42879],[127.09134,37.42885],[127.0914,37.4289],[127.09146,37.42894],[127.09151,37.42896]]}},{"type":"Feature","properties":{"class":"major","highway":"motorway_link","sidewalk":"likely","lanes":0,"name":"","oneway":true},"geometry":{"type":"LineString","coordinates":[[127.09137,37.42905],[127.09134,37.42901],[127.09128,37.42894],[127.09122,37.42885],[127.09118,37.42878],[127.09115,37.4287],[127.09114,37.42854]]}},{"type":"Feature","properties":{"class":"alley","highway":"service","sidewalk":"unknown","lanes":0,"name":"","oneway":false},"geometry":{"type":"LineString","coordinates":[[127.0841,37.43394],[127.08421,37.4342]]}}]}