{"type":"FeatureCollection","features":[{"type":"Feature","properties":{"class":"alley","highway":"service","sidewalk":"unknown","lanes":0,"name":"서울공항","oneway":false},"geometry":{"type":"LineString","coordinates":[[127.11696,37.4322],[127.117,37.43275],[127.117,37.43334],[127.11701,37.43356],[127.11706,37.43379],[127.11739,37.43533],[127.11754,37.43589],[127.1177,37.43648],[127.11773,37.4366],[127.11786,37.43718],[127.118,37.43774],[127.11809,37.43819],[127.11813,37.43839],[127.1181,37.43877],[127.11803,37.43915],[127.11795,37.43943],[127.11765,37.44022],[127.11747,37.44061],[127.11736,37.44083],[127.11727,37.44101],[127.11707,37.4413],[127.11702,37.44142],[127.1169,37.4419],[127.11688,37.44213],[127.11686,37.44245],[127.11685,37.44285],[127.11684,37.44335],[127.11679,37.44501],[127.11681,37.44544],[127.11677,37.44697],[127.11675,37.44743],[127.11672,37.4483],[127.11668,37.44952],[127.11668,37.45033],[127.11667,37.45157],[127.11655,37.45556],[127.11656,37.45613],[127.11673,37.45829],[127.11679,37.45939],[127.1169,37.46033],[127.11693,37.46086],[127.11697,37.46114],[127.11704,37.46137],[127.11721,37.46179],[127.11727,37.46216],[127.11727,37.4623],[127.11721,37.46243],[127.11705,37.46251],[127.11676,37.46258],[127.1165,37.46259],[127.11616,37.46256],[127.11587,37.46247],[127.11564,37.46234],[127.11544,37.46217],[127.11492,37.46167],[127.11427,37.46103],[127.11417,37.46095],[127.11405,37.4609],[127.11343,37.46078],[127.11318,37.46093]]}},{"type":"Feature","properties":{"class":"major","highway":"primary","sidewalk":"likely","lanes":8,"name":"대왕판교로","oneway":false},"geometry":{"type":"LineString","coordinates":[[127.10216,37.42706],[127.10196,37.42794],[127.10193,37.42809],[127.10187,37.42848],[127.10187,37.42894],[127.10189,37.42937],[127.10199,37.42986],[127.10207,37.43004],[127.10214,37.43019],[127.10233,37.43059],[127.10247,37.43093],[127.10255,37.43113],[127.10304,37.43232],[127.10308,37.43249],[127.10315,37.43275],[127.1033,37.43339],[127.10337,37.43384],[127.10353,37.43502],[127.10367,37.436],[127.10374,37.43643],[127.10381,37.43704],[127.10379,37.43771],[127.10376,37.43819],[127.10374,37.43836],[127.1037,37.43856],[127.1036,37.43909],[127.10351,37.43966],[127.10353,37.44079],[127.10352,37.44131],[127.1035,37.44178],[127.10344,37.44262],[127.10346,37.44293],[127.10354,37.44355],[127.10359,37.44396],[127.10366,37.44442],[127.10371,37.44466],[127.10375,37.44487],[127.10393,37.44585],[127.10399,37.44612],[127.10406,37.44629],[127.10431,37.44698],[127.10463,37.44775],[127.10466,37.44782],[127.10476,37.44804],[127.10485,37.44823],[127.10497,37.44847],[127.10518,37.44891],[127.10527,37.44915],[127.10564,37.45003],[127.10608,37.45118],[127.10628,37.45187],[127.10642,37.45257],[127.1065,37.45317],[127.10673,37.45442],[127.1068,37.45474],[127.10683,37.45491],[127.10684,37.455],[127.10686,37.45507],[127.10698,37.4558],[127.10704,37.4561],[127.10706,37.45624],[127.10725,37.45754],[127.10726,37.4576],[127.10733,37.45793],[127.10735,37.45808],[127.10738,37.45825],[127.10756,37.45967],[127.10759,37.45991],[127.10761,37.46007],[127.10773,37.46094],[127.10794,37.46221]]}},{"type":"Feature","properties":{"class":"alley","highway":"service","sidewalk":"unknown","lanes":0,"name":"","oneway":false},"geometry":{"type":"LineString","coordinates":[[127.0973,37.43949],[127.09768,37.43939],[127.09802,37.4393],[127.10006,37.43896],[127.10033,37.43892],[127.10083,37.43881],[127.10111,37.43875],[127.10137,37.43864],[127.10157,37.43853],[127.10167,37.43853],[127.10197,37.4385],[127.10235,37.43845],[127.10251,37.43842],[127.10264,37.43836],[127.10281,37.43827],[127.1029,37.4382],[127.10325,37.43799]]}},{"type":"Feature","properties":{"class":"alley","highway":"service","sidewalk":"unknown","lanes":0,"name":"","oneway":false},"geometry":{"type":"LineString","coordinates":[[127.10336,37.43834],[127.1034,37.43805],[127.10344,37.43766],[127.10346,37.43722],[127.10346,37.43703],[127.10332,37.43605],[127.10295,37.43562],[127.10285,37.43554],[127.1028,37.43549],[127.10272,37.43548],[127.10258,37.43554],[127.10212,37.43573],[127.10198,37.43577],[127.10157,37.43586],[127.10093,37.43597],[127.09897,37.43645],[127.09829,37.43655],[127.09814,37.4366],[127.0981,37.43672],[127.09814,37.43686],[127.09835,37.43703],[127.09865,37.43728],[127.09892,37.43751]]}},{"type":"Feature","properties":{"class":"minor","highway":"residential","sidewalk":"unknown","lanes":0,"name":"","oneway":false},"geometry":{"type":"LineString","coordinates":[[127.10281,37.43528],[127.1027,37.43517],[127.10252,37.43512],[127.1024,37.4351],[127.10222,37.43508],[127.10209,37.43507],[127.10195,37.43505],[127.10181,37.43503],[127.10167,37.43502],[127.10151,37.43505],[127.10137,37.43508],[127.10116,37.43511],[127.101,37.43511],[127.1008,37.43508],[127.10057,37.43506],[127.10037,37.43504],[127.10024,37.43502],[127.10003,37.435],[127.09994,37.43496],[127.09972,37.43489],[127.09952,37.4348],[127.09938,37.43471],[127.09928,37.43465],[127.09916,37.4346],[127.09903,37.43457],[127.09893,37.43451],[127.09884,37.43443],[127.09871,37.43433],[127.09861,37.43427],[127.09853,37.43422],[127.09843,37.43421],[127.09833,37.43421],[127.09822,37.43425],[127.09809,37.43426],[127.09793,37.43422],[127.0978,37.43418],[127.09767,37.43415],[127.09765,37.4341],[127.09761,37.43403],[127.09753,37.43401],[127.09745,37.43402],[127.0974,37.43408],[127.09739,37.43414],[127.09735,37.4342],[127.09725,37.43431],[127.09721,37.43443],[127.09718,37.43454],[127.09719,37.43463],[127.09728,37.43469],[127.0973,37.43476],[127.09732,37.43485],[127.09727,37.43494],[127.09706,37.43527]]}},{"type":"Feature","properties":{"class":"minor","highway":"unclassified","sidewalk":"unknown","lanes":0,"name":"등자로","oneway":false},"geometry":{"type":"LineString","coordinates":[[127.10353,37.43502],[127.10334,37.43505],[127.10292,37.43523],[127.10281,37.43528],[127.10253,37.43539],[127.10212,37.4356],[127.10183,37.43569],[127.10096,37.43584],[127.10045,37.43598],[127.09992,37.4361],[127.0991,37.43633],[127.09835,37.43643],[127.09801,37.43648],[127.09783,37.43651]]}},{"type":"Feature","properties":{"class":"major","highway":"tertiary","sidewalk":"likely","lanes":0,"name":"고등로","oneway":false},"geometry":{"type":"LineString","coordinates":[[127.09805,37.43029],[127.09834,37.43032],[127.09884,37.43033],[127.09903,37.43033],[127.09929,37.43034],[127.09978,37.43031],[127.10036,37.4303],[127.10065,37.43025],[127.10071,37.43025],[127.10102,37.43021],[127.10158,37.43013],[127.10207,37.43004]]}},{"type":"Feature","properties":{"class":"minor","highway":"residential","sidewalk":"unknown","lanes":0,"name":"왕남로","oneway":false},"geometry":{"type":"LineString","coordinates":[[127.1009,37.42818],[127.10076,37.42817],[127.10036,37.42814],[127.09989,37.42802],[127.09954,37.4279],[127.09914,37.4278],[127.09865,37.42779],[127.09833,37.42784],[127.09797,37.42795],[127.0974,37.42813],[127.09732,37.42817]]}}]}