{"type":"FeatureCollection","features":[{"type":"Feature","properties":{"class":"alley","highway":"service","sidewalk":"unknown","lanes":0,"name":"","oneway":false},"geometry":{"type":"LineString","coordinates":[[127.07118,37.42872],[127.07094,37.42866],[127.07077,37.42863],[127.07065,37.42863],[127.07052,37.42869],[127.07044,37.42875],[127.07035,37.42891],[127.07028,37.42914],[127.07017,37.42936],[127.07004,37.42947],[127.06993,37.42954],[127.06981,37.42956],[127.06936,37.42955],[127.06912,37.42951],[127.06863,37.42935],[127.06838,37.42923],[127.06825,37.42908],[127.06814,37.4289],[127.06813,37.42877],[127.06825,37.42783],[127.06822,37.42768],[127.06817,37.42753],[127.06814,37.42751],[127.06811,37.42748],[127.06806,37.42743],[127.06789,37.42733],[127.06772,37.42729],[127.06767,37.42728],[127.06751,37.42724],[127.06717,37.42719],[127.06691,37.42709],[127.06672,37.42699],[127.06624,37.42664],[127.06607,37.4266],[127.06592,37.42658],[127.06576,37.42654],[127.06564,37.4265],[127.06545,37.42644],[127.06527,37.42641],[127.06506,37.4264],[127.06485,37.42641],[127.06462,37.42646],[127.06439,37.42649],[127.0639,37.42659],[127.06368,37.42663],[127.06329,37.42667],[127.06291,37.42672],[127.06286,37.42672],[127.06247,37.42679],[127.06182,37.4269],[127.06161,37.42696],[127.0614,37.42706],[127.06126,37.4271],[127.06111,37.42714],[127.06098,37.42715],[127.06081,37.42715],[127.06069,37.42715],[127.06062,37.42714],[127.0605,37.42712],[127.06038,37.42709],[127.06022,37.42703],[127.06004,37.42693],[127.05986,37.42678],[127.05973,37.42669],[127.05967,37.42665],[127.05962,37.42658],[127.05959,37.42654],[127.05955,37.42649],[127.05949,37.42639],[127.05945,37.42625],[127.05944,37.42621],[127.05942,37.42612],[127.0594,37.42606],[127.05939,37.42602],[127.05934,37.42579],[127.05934,37.42576],[127.05925,37.42536],[127.05914,37.42505],[127.05902,37.42483],[127.05889,37.42461],[127.05886,37.42456],[127.05882,37.42453],[127.05876,37.42451],[127.05867,37.42451],[127.05854,37.42449],[127.05839,37.42446],[127.05823,37.42442],[127.05816,37.42441],[127.0578,37.4244],[127.05769,37.42437]]}},{"type":"Feature","properties":{"class":"alley","highway":"service","sidewalk":"unknown","lanes":0,"name":"원터길","oneway":false},"geometry":{"type":"LineString","coordinates":[[127.05983,37.44042],[127.05949,37.43959],[127.05945,37.43942],[127.05943,37.43927],[127.05943,37.43892],[127.05941,37.43883],[127.05936,37.43872],[127.05909,37.43827],[127.0589,37.43805],[127.0588,37.43807],[127.05865,37.43809],[127.05853,37.43806],[127.05838,37.43797],[127.05813,37.43776]]}},{"type":"Feature","properties":{"class":"alley","highway":"service","sidewalk":"unknown","lanes":0,"name":"","oneway":false},"geometry":{"type":"LineString","coordinates":[[127.05967,37.42665],[127.05997,37.42638]]}},{"type":"Feature","properties":{"class":"alley","highway":"service","sidewalk":"unknown","lanes":0,"name":"","oneway":false},"geometry":{"type":"LineString","coordinates":[[127.05942,37.42612],[127.05982,37.42639],[127.05962,37.42658]]}},{"type":"Feature","properties":{"class":"alley","highway":"service","sidewalk":"unknown","lanes":0,"name":"","oneway":false},"geometry":{"type":"LineString","coordinates":[[127.05897,37.42631],[127.05906,37.42634],[127.05912,37.42637],[127.05919,37.4264],[127.05932,37.4265],[127.05944,37.42659],[127.05951,37.42663],[127.05954,37.42665],[127.05958,37.42665],[127.05962,37.42665],[127.05967,37.42665]]}}]}