{"type":"FeatureCollection","features":[{"type":"Feature","properties":{"class":"minor","highway":"unclassified","sidewalk":"unknown","lanes":0,"name":"광명로","oneway":false},"geometry":{"type":"LineString","coordinates":[[127.01717,37.43147],[127.01732,37.4307],[127.01734,37.43049],[127.01723,37.43012],[127.01738,37.43001],[127.01836,37.42958],[127.01873,37.42941],[127.01913,37.42931],[127.01943,37.42931],[127.01981,37.4294],[127.01984,37.42942],[127.0204,37.42985],[127.02056,37.42999],[127.02083,37.43025],[127.02083,37.43054]]}},{"type":"Feature","properties":{"class":"alley","highway":"service","sidewalk":"unknown","lanes":0,"name":"","oneway":false},"geometry":{"type":"LineString","coordinates":[[127.01608,37.42872],[127.01644,37.42853],[127.01644,37.42846],[127.01643,37.42839],[127.01629,37.42825],[127.01628,37.42816],[127.01649,37.4278],[127.01651,37.42747],[127.01665,37.42724],[127.01693,37.4271],[127.0174,37.42674],[127.01747,37.42669],[127.01755,37.42663],[127.01789,37.42638],[127.01803,37.4261],[127.01805,37.42607],[127.01809,37.42573],[127.01825,37.42549],[127.0186,37.42522],[127.01898,37.42492],[127.01919,37.42463],[127.01935,37.42427],[127.01945,37.424],[127.01956,37.42375],[127.0196,37.42368],[127.01969,37.42335],[127.01968,37.42326],[127.01967,37.42316],[127.01962,37.42302],[127.01955,37.42274],[127.01954,37.42271],[127.01953,37.42244],[127.01971,37.42203],[127.01989,37.42184],[127.02048,37.42137],[127.02059,37.42104],[127.02082,37.42052],[127.02115,37.42001],[127.02152,37.41956],[127.02169,37.41927],[127.02166,37.41903],[127.02164,37.41897],[127.02161,37.41885],[127.02153,37.41852],[127.02146,37.41789],[127.02145,37.41777],[127.02152,37.41741],[127.02164,37.41732],[127.02177,37.41728],[127.02202,37.41726],[127.02226,37.4173],[127.02249,37.41734],[127.02303,37.4175],[127.02352,37.41764],[127.0237,37.41763],[127.0239,37.41757],[127.02417,37.41765],[127.02427,37.41779],[127.02434,37.41793],[127.02457,37.41841],[127.02486,37.41882],[127.02496,37.41893]]}},{"type":"Feature","properties":{"class":"alley","highway":"service","sidewalk":"unknown","lanes":0,"name":"동물원둘레길","oneway":false},"geometry":{"type":"LineString","coordinates":[[127.01644,37.42853],[127.01651,37.42853],[127.01664,37.42856],[127.01688,37.42858],[127.01724,37.42853],[127.0176,37.42849],[127.01789,37.42839],[127.01803,37.42823],[127.0181,37.42808],[127.01815,37.42797],[127.01829,37.42771],[127.0184,37.42764],[127.01843,37.42763],[127.01865,37.42749],[127.01883,37.42739],[127.01888,37.42736],[127.01927,37.42718],[127.01934,37.42716],[127.01948,37.42711],[127.0198,37.42707],[127.01999,37.42705],[127.02025,37.42705],[127.02047,37.42702],[127.02087,37.42692],[127.02097,37.42684],[127.02122,37.42656],[127.02136,37.4264],[127.02158,37.42628],[127.02178,37.42621],[127.02202,37.42599],[127.02211,37.42585],[127.02217,37.42566],[127.02212,37.42541],[127.02195,37.42498],[127.02189,37.42463],[127.02194,37.42433]]}},{"type":"Feature","properties":{"class":"minor","highway":"residential","sidewalk":"unknown","lanes":0,"name":"","oneway":false},"geometry":{"type":"LineString","coordinates":[[127.01873,37.42941],[127.01885,37.42953],[127.01891,37.42959],[127.01909,37.42981],[127.0191,37.42997],[127.01908,37.43009],[127.01908,37.43011],[127.01892,37.43044]]}},{"type":"Feature","properties":{"class":"alley","highway":"service","sidewalk":"unknown","lanes":0,"name":"동물원둘레길","oneway":false},"geometry":{"type":"LineString","coordinates":[[127.02638,37.41889],[127.02627,37.419],[127.02617,37.41908],[127.02536,37.4196],[127.02467,37.42002],[127.02453,37.42012],[127.0244,37.42023],[127.02432,37.42039],[127.02433,37.42048],[127.02436,37.42057],[127.02456,37.42071],[127.02463,37.42085],[127.02463,37.42099],[127.02462,37.42109],[127.0246,37.42122],[127.02458,37.42131],[127.02467,37.42148],[127.02476,37.42162],[127.02495,37.4219],[127.02512,37.4221],[127.02532,37.42225],[127.0257,37.42231],[127.02609,37.42228],[127.02651,37.42228],[127.02659,37.42229],[127.02676,37.42239],[127.02682,37.4225],[127.02683,37.4226],[127.02685,37.42278],[127.02683,37.42293],[127.02681,37.42308],[127.02669,37.42333],[127.02661,37.42347],[127.02651,37.42355],[127.02632,37.42365],[127.02613,37.4237],[127.02518,37.42388],[127.02464,37.42398],[127.02436,37.42411],[127.0241,37.42433],[127.0241,37.42454],[127.02414,37.42481],[127.02416,37.42506],[127.02416,37.4251],[127.02415,37.42518],[127.02411,37.42526],[127.02402,37.42551],[127.02392,37.42578],[127.02381,37.42596],[127.02363,37.42608],[127.02338,37.42614],[127.02305,37.42621],[127.0228,37.42629],[127.0226,37.42644],[127.02245,37.4266],[127.02228,37.42679],[127.02217,37.42737],[127.02214,37.42746],[127.02208,37.42752],[127.02188,37.42756],[127.02119,37.4275],[127.02082,37.42748],[127.02047,37.42757],[127.01974,37.42788],[127.01946,37.428],[127.01933,37.42806],[127.01912,37.4281],[127.01896,37.42808],[127.01875,37.42808],[127.0187,37.42808],[127.01859,37.42814],[127.01844,37.42832],[127.01831,37.42854],[127.01821,37.42886],[127.01822,37.42898],[127.01822,37.42899],[127.01822,37.429]]}},{"type":"Feature","properties":{"class":"alley","highway":"service","sidewalk":"unknown","lanes":0,"name":"막계로","oneway":false},"geometry":{"type":"LineString","coordinates":[[127.00867,37.43153],[127.00891,37.43136],[127.00897,37.43132],[127.00913,37.43117],[127.00927,37.431],[127.00936,37.43085],[127.00938,37.43071],[127.00939,37.43038],[127.00943,37.43019],[127.00961,37.43008],[127.0097,37.43005],[127.0098,37.43003],[127.01,37.43003],[127.01019,37.43007],[127.01045,37.43014],[127.01053,37.43015],[127.0106,37.43014],[127.0107,37.4301],[127.01076,37.43007],[127.01076,37.43006],[127.01084,37.42998],[127.01088,37.42987],[127.01091,37.42974],[127.0109,37.42961],[127.01089,37.42956],[127.01088,37.42942],[127.01091,37.42929],[127.01099,37.42918],[127.01114,37.42898],[127.01119,37.4289],[127.0112,37.42886],[127.01119,37.42876],[127.01117,37.42868],[127.01111,37.42855],[127.01103,37.42837],[127.01102,37.42822],[127.01108,37.4281],[127.01116,37.428],[127.01129,37.42788],[127.01155,37.42777],[127.01184,37.42774],[127.01198,37.42776],[127.01206,37.42779],[127.01221,37.42787],[127.01234,37.42797],[127.01248,37.42807],[127.01264,37.42817],[127.01281,37.42822],[127.01301,37.42824],[127.01314,37.42823],[127.01332,37.42818],[127.01344,37.42811],[127.01367,37.428],[127.01408,37.4278]]}},{"type":"Feature","properties":{"class":"minor","highway":"unclassified","sidewalk":"unknown","lanes":0,"name":"광명로","oneway":false},"geometry":{"type":"LineString","coordinates":[[127.0237,37.4354],[127.02395,37.43492],[127.024,37.43483],[127.02403,37.43474],[127.02405,37.43466],[127.02407,37.43455],[127.02407,37.4345],[127.02407,37.43447],[127.02407,37.43443],[127.02405,37.43433],[127.02403,37.43426],[127.02398,37.43412],[127.02391,37.43397],[127.02387,37.4339],[127.02383,37.43385],[127.02376,37.43376],[127.02369,37.43371],[127.02363,37.43366],[127.02353,37.4336],[127.02339,37.43353],[127.0233,37.43349],[127.02322,37.43346],[127.0231,37.43343],[127.023,37.4334],[127.02291,37.43339],[127.02278,37.43338],[127.02249,37.43335],[127.02237,37.43334],[127.02225,37.43332],[127.02207,37.4333],[127.02195,37.43327],[127.02182,37.43323],[127.02164,37.43318],[127.02142,37.43309],[127.02127,37.43303],[127.02117,37.43298],[127.02077,37.43278],[127.02046,37.43261],[127.02033,37.43254],[127.02021,37.43248],[127.02014,37.43245],[127.02006,37.43242],[127.01995,37.43238],[127.0198,37.43234],[127.01971,37.43231],[127.01963,37.4323],[127.01955,37.43229],[127.01909,37.43225],[127.01891,37.43224],[127.01882,37.43223],[127.01875,37.43222],[127.01868,37.43221],[127.0185,37.43217],[127.0184,37.43214],[127.01833,37.43212],[127.01826,37.43209],[127.01815,37.43204],[127.01802,37.43198],[127.01776,37.43187],[127.01747,37.43173],[127.01741,37.43169],[127.01736,37.43166],[127.0172,37.43154],[127.01718,37.4315],[127.01717,37.43147]]}},{"type":"Feature","properties":{"class":"minor","highway":"unclassified","sidewalk":"unknown","lanes":0,"name":"광명로","oneway":false},"geometry":{"type":"LineString","coordinates":[[127.00957,37.43892],[127.00981,37.43903],[127.01015,37.43911],[127.01037,37.43918],[127.01124,37.4396],[127.01138,37.43966],[127.0115,37.43966],[127.01163,37.43959],[127.01174,37.4395],[127.01183,37.43932],[127.01199,37.43915],[127.01216,37.43907],[127.01251,37.439],[127.01292,37.43882],[127.01313,37.43865],[127.01332,37.43845],[127.01364,37.43834],[127.01376,37.43822],[127.0139,37.43787],[127.01402,37.43757],[127.01407,37.43751],[127.01416,37.43742],[127.01432,37.43739],[127.0145,37.43734],[127.01462,37.43736],[127.01475,37.43754],[127.0149,37.43775],[127.0151,37.4379],[127.01544,37.43828],[127.01554,37.43831],[127.01564,37.43834],[127.0163,37.43831],[127.01646,37.43824],[127.01665,37.43812],[127.01671,37.43801],[127.01671,37.4379],[127.01668,37.43773],[127.01647,37.43731],[127.01647,37.43721],[127.01653,37.43711],[127.0166,37.43702],[127.01665,37.43697],[127.01682,37.43686],[127.01697,37.43681],[127.01714,37.43683],[127.01755,37.437],[127.01771,37.43709],[127.01798,37.43715],[127.01821,37.43712],[127.01841,37.43701],[127.01849,37.43679],[127.0185,37.43674],[127.01851,37.43669],[127.0185,37.43662],[127.01848,37.43648],[127.01847,37.4364],[127.01847,37.43633],[127.01849,37.43626],[127.01853,37.43619],[127.0186,37.43612],[127.01867,37.43606],[127.01874,37.43601],[127.01879,37.43599],[127.01882,37.43598],[127.01892,37.43594],[127.01904,37.4359],[127.01914,37.43587],[127.01921,37.43586],[127.01927,37.43586],[127.01937,37.43585],[127.01945,37.43586],[127.01953,37.43586],[127.0196,37.43587],[127.01967,37.43589],[127.01979,37.43592],[127.01994,37.43597],[127.02013,37.43603],[127.02026,37.43608],[127.02035,37.43611],[127.02045,37.43613],[127.02055,37.43614],[127.02065,37.43615],[127.0208,37.43615],[127.02093,37.43614],[127.02104,37.43613],[127.02118,37.43609],[127.0213,37.43606],[127.0214,37.43603],[127.02149,37.43599],[127.02157,37.43595],[127.02167,37.43589],[127.02194,37.43567],[127.02207,37.43557],[127.02218,37.43549],[127.02228,37.43544],[127.02236,37.4354],[127.02247,37.43537],[127.02258,37.43534],[127.02269,37.43532],[127.02278,37.43531],[127.02299,37.4353],[127.02308,37.43529],[127.02318,37.4353],[127.02326,37.43531],[127.02336,37.43532],[127.02349,37.43535],[127.0237,37.4354]]}},{"type":"Feature","properties":{"class":"major","highway":"trunk","sidewalk":"likely","lanes":0,"name":"과천대로","oneway":true},"geometry":{"type":"LineString","coordinates":[[127.00277,37.43391],[127.00267,37.43428],[127.00251,37.43463],[127.00229,37.43509],[127.00223,37.43519],[127.0015,37.43651],[127.00072,37.4379],[127.00038,37.4385],[127.00026,37.43872],[127.00006,37.43905],[126.99961,37.43986],[126.9989,37.44112],[126.99874,37.44139],[126.99872,37.44144]]}},{"type":"Feature","properties":{"class":"minor","highway":"residential","sidewalk":"unknown","lanes":2,"name":"문원로","oneway":false},"geometry":{"type":"LineString","coordinates":[[126.99876,37.43095],[126.99964,37.4305],[126.99969,37.43048],[126.99982,37.43041],[127.00005,37.4303],[127.0009,37.42987],[127.00118,37.42973]]}},{"type":"Feature","properties":{"class":"major","highway":"trunk","sidewalk":"likely","lanes":0,"name":"과천대로","oneway":true},"geometry":{"type":"LineString","coordinates":[[126.99695,37.4223],[126.9979,37.42351],[126.99856,37.42431],[126.99941,37.42538],[126.99984,37.42603],[127.00033,37.42692],[127.00042,37.42709]]}},{"type":"Feature","properties":{"class":"minor","highway":"unclassified","sidewalk":"unknown","lanes":2,"name":"아랫배랭이로","oneway":false},"geometry":{"type":"LineString","coordinates":[[126.99634,37.42109],[126.99657,37.42123],[126.99669,37.42126],[126.99682,37.42128],[126.99701,37.42129],[126.9972,37.42128],[126.99761,37.42127],[126.99794,37.42127],[126.99828,37.4213],[126.99855,37.42139],[126.99871,37.42154],[126.99884,37.42172],[126.99892,37.42191],[126.99893,37.42206],[126.99894,37.42223],[126.99891,37.42239],[126.99889,37.42261],[126.99876,37.42305],[126.99859,37.4235],[126.99862,37.4238],[126.99898,37.42427],[126.99949,37.42513],[126.9997,37.42543],[126.99977,37.4255],[126.99984,37.42559],[127.00006,37.4257],[127.00037,37.4258],[127.00062,37.42584],[127.00081,37.4259],[127.001,37.42601],[127.0011,37.4261],[127.00125,37.42622],[127.00143,37.42638],[127.00161,37.42654],[127.00177,37.42668]]}},{"type":"Feature","properties":{"class":"minor","highway":"residential","sidewalk":"unknown","lanes":0,"name":"","oneway":true},"geometry":{"type":"LineString","coordinates":[[127.00203,37.42686],[127.00202,37.42687],[127.002,37.42688],[127.00198,37.42688],[127.00196,37.42688],[127.00194,37.42688]]}},{"type":"Feature","properties":{"class":"alley","highway":"living_street","sidewalk":"unknown","lanes":2,"name":"참마을로","oneway":false},"geometry":{"type":"LineString","coordinates":[[127.00098,37.4271],[127.00114,37.42703],[127.00132,37.42704],[127.00155,37.42698],[127.00157,37.42698],[127.00178,37.42696],[127.00184,37.42693],[127.00192,37.42687]]}},{"type":"Feature","properties":{"class":"major","highway":"trunk_link","sidewalk":"likely","lanes":0,"name":"","oneway":true},"geometry":{"type":"LineString","coordinates":[[127.00231,37.42927],[127.00239,37.42938],[127.00174,37.42964],[127.00168,37.42985]]}},{"type":"Feature","properties":{"class":"major","highway":"tertiary","sidewalk":"likely","lanes":0,"name":"대공원대로","oneway":true},"geometry":{"type":"LineString","coordinates":[[127.00333,37.43691],[127.00594,37.43582],[127.00607,37.43577]]}},{"type":"Feature","properties":{"class":"major","highway":"trunk_link","sidewalk":"likely","lanes":0,"name":"","oneway":true},"geometry":{"type":"LineString","coordinates":[[127.0015,37.43651],[127.00148,37.43667],[127.00147,37.43673],[127.00139,37.43694],[127.00148,37.43717],[127.00164,37.43731],[127.00195,37.43737],[127.00221,37.4373],[127.00295,37.43703],[127.00333,37.43691]]}},{"type":"Feature","properties":{"class":"major","highway":"trunk","sidewalk":"likely","lanes":0,"name":"우면산로","oneway":true},"geometry":{"type":"LineString","coordinates":[[127.00077,37.43904],[127.00068,37.43835],[127.00071,37.4378],[127.00078,37.4375],[127.00111,37.43679]]}},{"type":"Feature","properties":{"class":"major","highway":"trunk","sidewalk":"likely","lanes":0,"name":"우면산로","oneway":true},"geometry":{"type":"LineString","coordinates":[[127.00277,37.43391],[127.00263,37.43408],[127.00236,37.43468],[127.00128,37.43668],[127.0012,37.43681]]}},{"type":"Feature","properties":{"class":"major","highway":"trunk","sidewalk":"likely","lanes":0,"name":"우면산로","oneway":true},"geometry":{"type":"LineString","coordinates":[[127.00111,37.43679],[127.00119,37.43663],[127.00225,37.43458],[127.0025,37.43407],[127.00251,37.43386]]}},{"type":"Feature","properties":{"class":"major","highway":"trunk","sidewalk":"likely","lanes":5,"name":"과천대로","oneway":true},"geometry":{"type":"LineString","coordinates":[[127.00251,37.43386],[127.00258,37.43358],[127.00261,37.43322],[127.00261,37.43296],[127.00259,37.43273],[127.00255,37.4325],[127.00249,37.43223],[127.00239,37.43195],[127.00213,37.43137],[127.00144,37.42982],[127.00127,37.42955]]}},{"type":"Feature","properties":{"class":"major","highway":"trunk","sidewalk":"likely","lanes":0,"name":"과천대로","oneway":true},"geometry":{"type":"LineString","coordinates":[[127.00151,37.42947],[127.00165,37.42976],[127.00168,37.42985],[127.00252,37.43171],[127.00266,37.4321],[127.00276,37.43243],[127.00286,37.43278],[127.00288,37.43302],[127.00282,37.43356],[127.00277,37.43389],[127.00277,37.43391]]}},{"type":"Feature","properties":{"class":"major","highway":"trunk","sidewalk":"likely","lanes":4,"name":"과천대로","oneway":true},"geometry":{"type":"LineString","coordinates":[[127.00021,37.42725],[127.0,37.42684],[126.9996,37.42616],[126.99922,37.4256],[126.99879,37.42498],[126.9978,37.4238]]}},{"type":"Feature","properties":{"class":"alley","highway":"service","sidewalk":"unknown","lanes":0,"name":"","oneway":true},"geometry":{"type":"LineString","coordinates":[[127.0062,37.4352],[127.00659,37.43536],[127.00663,37.43537],[127.00677,37.43557],[127.00684,37.4357],[127.00691,37.43583],[127.00684,37.43618],[127.00684,37.43619]]}},{"type":"Feature","properties":{"class":"major","highway":"trunk","sidewalk":"likely","lanes":0,"name":"우면산로","oneway":true},"geometry":{"type":"LineString","coordinates":[[127.00494,37.44694],[127.00272,37.44285],[127.00208,37.44165],[127.00157,37.44074],[127.00102,37.43972],[127.00091,37.43942],[127.00077,37.43904]]}},{"type":"Feature","properties":{"class":"major","highway":"trunk","sidewalk":"likely","lanes":0,"name":"우면산로","oneway":true},"geometry":{"type":"LineString","coordinates":[[127.0009,37.43901],[127.00101,37.43937],[127.00114,37.43968],[127.00168,37.4407],[127.00217,37.44161],[127.00304,37.44319],[127.00359,37.4442],[127.00502,37.44685]]}},{"type":"Feature","properties":{"class":"minor","highway":"residential","sidewalk":"unknown","lanes":2,"name":"문원로","oneway":false},"geometry":{"type":"LineString","coordinates":[[127.00171,37.42952],[127.00231,37.42927],[127.00253,37.42917],[127.00258,37.42913],[127.00291,37.42896],[127.00294,37.42894],[127.00348,37.42837],[127.00362,37.42829],[127.00366,37.42826],[127.0038,37.42817],[127.00424,37.42779],[127.00469,37.42741],[127.00511,37.42705],[127.00537,37.42683],[127.00572,37.42653],[127.00587,37.42641],[127.00618,37.42614],[127.0066,37.42578],[127.00682,37.4256],[127.00702,37.42546],[127.00778,37.42506],[127.00786,37.42501],[127.00794,37.42495],[127.008,37.4249],[127.00813,37.42476],[127.00817,37.4247],[127.0083,37.42423]]}},{"type":"Feature","properties":{"class":"minor","highway":"residential","sidewalk":"unknown","lanes":2,"name":"","oneway":false},"geometry":{"type":"LineString","coordinates":[[127.00118,37.42973],[127.00171,37.42952]]}},{"type":"Feature","properties":{"class":"major","highway":"trunk_link","sidewalk":"likely","lanes":0,"name":"","oneway":true},"geometry":{"type":"LineString","coordinates":[[127.00141,37.42924],[127.00155,37.42932],[127.00171,37.42932],[127.00194,37.42926],[127.00228,37.42915],[127.00253,37.42917]]}},{"type":"Feature","properties":{"class":"alley","highway":"service","sidewalk":"unknown","lanes":0,"name":"","oneway":true},"geometry":{"type":"LineString","coordinates":[[127.00258,37.42913],[127.00262,37.42905],[127.00261,37.42896],[127.00253,37.4288]]}},{"type":"Feature","properties":{"class":"alley","highway":"service","sidewalk":"unknown","lanes":0,"name":"","oneway":false},"geometry":{"type":"LineString","coordinates":[[127.0019,37.42738],[127.00178,37.42748],[127.00163,37.42758],[127.00149,37.42764],[127.00112,37.42771]]}},{"type":"Feature","properties":{"class":"alley","highway":"living_street","sidewalk":"unknown","lanes":0,"name":"공원마을길","oneway":false},"geometry":{"type":"LineString","coordinates":[[127.00294,37.42894],[127.00316,37.42905],[127.00353,37.42923],[127.00391,37.42941],[127.00429,37.4296],[127.00466,37.42978],[127.00503,37.42996],[127.0046,37.43054]]}},{"type":"Feature","properties":{"class":"alley","highway":"living_street","sidewalk":"unknown","lanes":0,"name":"공원마을1길","oneway":false},"geometry":{"type":"LineString","coordinates":[[127.00366,37.42826],[127.00369,37.42834],[127.00316,37.42905],[127.00276,37.42956],[127.00228,37.43021]]}},{"type":"Feature","properties":{"class":"alley","highway":"living_street","sidewalk":"unknown","lanes":0,"name":"","oneway":false},"geometry":{"type":"LineString","coordinates":[[127.00239,37.42938],[127.00202,37.42989],[127.00228,37.43021],[127.00255,37.43053],[127.00266,37.43065],[127.00294,37.43069]]}},{"type":"Feature","properties":{"class":"alley","highway":"living_street","sidewalk":"unknown","lanes":0,"name":"","oneway":false},"geometry":{"type":"LineString","coordinates":[[127.0038,37.42817],[127.00418,37.42836],[127.00456,37.42854],[127.00494,37.42873],[127.00515,37.42883],[127.00522,37.42905]]}},{"type":"Feature","properties":{"class":"alley","highway":"living_street","sidewalk":"unknown","lanes":0,"name":"공원마을2길","oneway":false},"geometry":{"type":"LineString","coordinates":[[127.00418,37.42836],[127.00353,37.42923],[127.00315,37.42975],[127.00255,37.43053]]}},{"type":"Feature","properties":{"class":"alley","highway":"living_street","sidewalk":"unknown","lanes":0,"name":"","oneway":false},"geometry":{"type":"LineString","coordinates":[[127.00239,37.42938],[127.00276,37.42956],[127.00315,37.42975],[127.00352,37.42993],[127.0039,37.4301],[127.00428,37.43029]]}},{"type":"Feature","properties":{"class":"alley","highway":"living_street","sidewalk":"unknown","lanes":0,"name":"공원마을3길","oneway":false},"geometry":{"type":"LineString","coordinates":[[127.00456,37.42854],[127.00391,37.42941],[127.00352,37.42993],[127.00294,37.43069]]}},{"type":"Feature","properties":{"class":"alley","highway":"living_street","sidewalk":"unknown","lanes":0,"name":"공원마을4길","oneway":false},"geometry":{"type":"LineString","coordinates":[[127.00494,37.42873],[127.00429,37.4296],[127.0039,37.4301],[127.0036,37.4305],[127.00302,37.43068],[127.00294,37.43069]]}},{"type":"Feature","properties":{"class":"alley","highway":"living_street","sidewalk":"unknown","lanes":0,"name":"공원마을5길","oneway":false},"geometry":{"type":"LineString","coordinates":[[127.00522,37.42905],[127.00466,37.42978],[127.00428,37.43029]]}},{"type":"Feature","properties":{"class":"alley","highway":"pedestrian","sidewalk":"unknown","lanes":0,"name":"대공원나들길","oneway":false},"geometry":{"type":"LineString","coordinates":[[126.99816,37.43316],[126.99839,37.43317],[126.99893,37.43317],[126.99934,37.43317],[126.99965,37.43317],[126.99997,37.43317],[127.00011,37.43319],[127.00036,37.4332],[127.00059,37.43317],[127.00097,37.43318],[127.00099,37.43318],[127.00129,37.43318],[127.00246,37.43318]]}},{"type":"Feature","properties":{"class":"major","highway":"tertiary","sidewalk":"likely","lanes":0,"name":"대공원대로","oneway":true},"geometry":{"type":"LineString","coordinates":[[127.0066,37.43581],[127.0062,37.43599],[127.00602,37.43604],[127.00595,37.43607],[127.00312,37.43722]]}},{"type":"Feature","properties":{"class":"major","highway":"trunk_link","sidewalk":"likely","lanes":0,"name":"","oneway":true},"geometry":{"type":"LineString","coordinates":[[127.00238,37.43751],[127.00198,37.43776],[127.00155,37.43811],[127.00132,37.43843],[127.00122,37.4388],[127.0012,37.43909],[127.00127,37.43942],[127.00151,37.44012],[127.00168,37.4407]]}},{"type":"Feature","properties":{"class":"major","highway":"trunk_link","sidewalk":"likely","lanes":0,"name":"","oneway":true},"geometry":{"type":"LineString","coordinates":[[127.00006,37.43905],[126.99992,37.43956],[126.99991,37.43962],[126.99989,37.43968],[126.99988,37.43978],[126.99999,37.43998],[127.00011,37.44007],[127.00025,37.44013],[127.00041,37.44014],[127.00057,37.44012],[127.00069,37.44009],[127.00082,37.44],[127.00091,37.43988],[127.00093,37.43981],[127.00091,37.43942]]}},{"type":"Feature","properties":{"class":"major","highway":"tertiary_link","sidewalk":"likely","lanes":0,"name":"","oneway":true},"geometry":{"type":"LineString","coordinates":[[127.00695,37.43636],[127.00677,37.43623],[127.00658,37.43607],[127.00642,37.43601],[127.00621,37.43601],[127.00595,37.43607]]}},{"type":"Feature","properties":{"class":"major","highway":"tertiary_link","sidewalk":"likely","lanes":0,"name":"","oneway":true},"geometry":{"type":"LineString","coordinates":[[127.00607,37.43577],[127.00614,37.43567],[127.00618,37.4356],[127.0062,37.4355],[127.0062,37.43536],[127.00616,37.43521],[127.00611,37.43506]]}},{"type":"Feature","properties":{"class":"major","highway":"tertiary","sidewalk":"likely","lanes":0,"name":"대공원광장로","oneway":true},"geometry":{"type":"LineString","coordinates":[[127.0066,37.43581],[127.0062,37.4352],[127.00611,37.43506],[127.0059,37.43473],[127.00538,37.43396],[127.0054,37.4338],[127.00545,37.43366],[127.00557,37.43356],[127.00593,37.43342],[127.00732,37.43286],[127.00794,37.43261],[127.00842,37.43243],[127.00857,37.43245],[127.0086,37.4325],[127.00876,37.43272],[127.00949,37.43385],[127.00967,37.43413],[127.00975,37.43426]]}},{"type":"Feature","properties":{"class":"major","highway":"tertiary","sidewalk":"likely","lanes":0,"name":"대공원광장로","oneway":false},"geometry":{"type":"LineString","coordinates":[[127.00836,37.43884],[127.00836,37.43866],[127.00832,37.43844],[127.00817,37.4382],[127.00744,37.4371],[127.00695,37.43636],[127.00684,37.43619],[127.0066,37.43581]]}},{"type":"Feature","properties":{"class":"alley","highway":"service","sidewalk":"unknown","lanes":0,"name":"","oneway":true},"geometry":{"type":"LineString","coordinates":[[127.00904,37.43235],[127.00908,37.43239],[127.00971,37.43335],[127.00978,37.43345],[127.0097,37.43353],[127.00966,37.43359],[127.00957,37.43363],[127.00956,37.43366],[127.00949,37.43385]]}},{"type":"Feature","properties":{"class":"alley","highway":"pedestrian","sidewalk":"unknown","lanes":0,"name":"","oneway":false},"geometry":{"type":"LineString","coordinates":[[127.01,37.43382],[127.00995,37.43363],[127.00997,37.43354],[127.01004,37.43349],[127.00955,37.43227],[127.00935,37.43186],[127.00976,37.4317]]}},{"type":"Feature","properties":{"class":"minor","highway":"unclassified","sidewalk":"unknown","lanes":0,"name":"광명로","oneway":false},"geometry":{"type":"LineString","coordinates":[[127.00916,37.43868],[127.00927,37.43874]]}},{"type":"Feature","properties":{"class":"minor","highway":"unclassified","sidewalk":"unknown","lanes":0,"name":"나들목다리","oneway":false},"geometry":{"type":"LineString","coordinates":[[127.00927,37.43874],[127.00957,37.43892]]}},{"type":"Feature","properties":{"class":"alley","highway":"pedestrian","sidewalk":"unknown","lanes":0,"name":"","oneway":false},"geometry":{"type":"LineString","coordinates":[[127.01622,37.43456],[127.01661,37.43398]]}},{"type":"Feature","properties":{"class":"alley","highway":"service","sidewalk":"unknown","lanes":0,"name":"서울대공원 코끼리열차","oneway":true},"geometry":{"type":"LineString","coordinates":[[127.01613,37.43452],[127.01603,37.43466],[127.01597,37.43474],[127.01591,37.4348],[127.01587,37.43484],[127.0158,37.43489],[127.01577,37.43491],[127.01541,37.43511],[127.01487,37.43541],[127.01452,37.4356],[127.0144,37.43567],[127.01417,37.43578],[127.01402,37.43584],[127.01387,37.43588],[127.0137,37.43593],[127.01344,37.43596],[127.01339,37.43596],[127.01316,37.43595],[127.01299,37.43589],[127.01288,37.43583],[127.01276,37.43571],[127.01254,37.43545],[127.01209,37.43488],[127.01195,37.43469],[127.01186,37.43447],[127.01179,37.43427],[127.01174,37.43414],[127.01116,37.43325],[127.011,37.43307],[127.01078,37.43286],[127.01067,37.43276],[127.01005,37.43169],[127.00996,37.4315],[127.00995,37.43139],[127.00997,37.43124],[127.01002,37.43111],[127.01012,37.431],[127.01027,37.43084],[127.01043,37.43074],[127.01059,37.43066],[127.01065,37.43065],[127.01071,37.43063],[127.01171,37.43039]]}},{"type":"Feature","properties":{"class":"alley","highway":"service","sidewalk":"unknown","lanes":0,"name":"미리내다리","oneway":true},"geometry":{"type":"LineString","coordinates":[[127.01171,37.43039],[127.01314,37.43003]]}},{"type":"Feature","properties":{"class":"alley","highway":"service","sidewalk":"unknown","lanes":0,"name":"서울대공원 코끼리열차","oneway":true},"geometry":{"type":"LineString","coordinates":[[127.01314,37.43003],[127.01349,37.42993],[127.01375,37.42984],[127.01399,37.42976],[127.01427,37.42965],[127.01442,37.42959],[127.01464,37.42949],[127.01492,37.42936],[127.01512,37.42932],[127.01528,37.42931],[127.01547,37.42932],[127.01562,37.42935],[127.0157,37.42937],[127.01599,37.42947],[127.01637,37.42961],[127.01652,37.42968],[127.01672,37.42978],[127.01696,37.42994],[127.01698,37.42996],[127.01703,37.43002],[127.01708,37.43007],[127.01717,37.43019],[127.01722,37.43034],[127.01724,37.43049],[127.01725,37.43063],[127.01706,37.43171],[127.01694,37.43241]]}},{"type":"Feature","properties":{"class":"alley","highway":"service","sidewalk":"unknown","lanes":0,"name":"","oneway":false},"geometry":{"type":"LineString","coordinates":[[127.01694,37.43241],[127.01687,37.43281]]}},{"type":"Feature","properties":{"class":"alley","highway":"service","sidewalk":"unknown","lanes":0,"name":"서울대공원 코끼리열차","oneway":false},"geometry":{"type":"LineString","coordinates":[[127.01687,37.43281],[127.01681,37.43316],[127.01676,37.43342],[127.0167,37.43357],[127.01661,37.43376],[127.01651,37.43392]]}},{"type":"Feature","properties":{"class":"alley","highway":"service","sidewalk":"unknown","lanes":0,"name":"","oneway":false},"geometry":{"type":"LineString","coordinates":[[127.01651,37.43392],[127.01613,37.43452]]}},{"type":"Feature","properties":{"class":"alley","highway":"service","sidewalk":"unknown","lanes":0,"name":"동물원둘레길","oneway":false},"geometry":{"type":"LineString","coordinates":[[127.0146,37.42766],[127.0147,37.42763],[127.01506,37.42754],[127.01523,37.42748],[127.01535,37.42743],[127.0155,37.42737],[127.01571,37.42726],[127.01634,37.42692],[127.01662,37.42674],[127.01671,37.42666],[127.01676,37.42654],[127.01675,37.42633],[127.01647,37.42572],[127.01641,37.42556],[127.01648,37.42544],[127.0166,37.42537],[127.01668,37.42533],[127.01669,37.42532],[127.01673,37.4253],[127.01745,37.425],[127.01811,37.42469],[127.01843,37.42449],[127.01856,37.42438],[127.01863,37.42432],[127.01871,37.42415],[127.01877,37.42398],[127.0189,37.42353],[127.0189,37.42316],[127.0188,37.42305],[127.01845,37.42271],[127.01833,37.4226],[127.01821,37.42243],[127.01821,37.42229],[127.01825,37.42215],[127.01841,37.42201],[127.01871,37.42192],[127.01915,37.4218],[127.01991,37.42153],[127.02,37.4214],[127.02003,37.42119],[127.02004,37.42084],[127.02,37.42071],[127.01981,37.42055],[127.01966,37.42042],[127.01968,37.42027],[127.01982,37.42008],[127.02002,37.41985],[127.02046,37.41935],[127.02064,37.41912],[127.0207,37.41894],[127.02072,37.41874],[127.02068,37.41856],[127.0206,37.41838],[127.02044,37.41807],[127.0202,37.41776],[127.01992,37.41761],[127.01973,37.41747],[127.01964,37.41731],[127.0196,37.41698],[127.01971,37.41679],[127.02008,37.41641],[127.02029,37.4163],[127.02053,37.41629],[127.02086,37.41633],[127.02109,37.41629],[127.02146,37.41605],[127.02169,37.41597],[127.02187,37.41594],[127.0219,37.41594],[127.02203,37.41594]]}},{"type":"Feature","properties":{"class":"minor","highway":"residential","sidewalk":"unknown","lanes":0,"name":"","oneway":false},"geometry":{"type":"LineString","coordinates":[[127.00277,37.43389],[127.00302,37.43392],[127.00325,37.43395],[127.00351,37.43397],[127.00377,37.43398],[127.00402,37.43395],[127.00419,37.43396],[127.00439,37.43399],[127.00452,37.43391],[127.00465,37.43385],[127.00484,37.43374],[127.00488,37.43372]]}},{"type":"Feature","properties":{"class":"minor","highway":"residential","sidewalk":"unknown","lanes":0,"name":"","oneway":false},"geometry":{"type":"LineString","coordinates":[[127.00148,37.43667],[127.00158,37.43669],[127.00173,37.43669],[127.00193,37.43663],[127.00214,37.43655],[127.00236,37.43644],[127.00252,37.43635],[127.00273,37.43624],[127.00287,37.43611],[127.00333,37.43574],[127.00358,37.43557],[127.00372,37.43547],[127.00384,37.43543],[127.00394,37.43548],[127.0041,37.43553],[127.0042,37.43556],[127.00435,37.43558],[127.00455,37.4356],[127.0047,37.43559],[127.0048,37.43554],[127.00491,37.43544],[127.00509,37.43531],[127.0052,37.43518],[127.00531,37.43511],[127.00547,37.43502],[127.00563,37.43488],[127.00574,37.43481],[127.0059,37.43473]]}},{"type":"Feature","properties":{"class":"alley","highway":"service","sidewalk":"unknown","lanes":0,"name":"","oneway":false},"geometry":{"type":"LineString","coordinates":[[127.00566,37.4411],[127.00566,37.44103],[127.00565,37.44082],[127.00565,37.4406],[127.00551,37.44062],[127.00537,37.44068],[127.0052,37.44081],[127.00501,37.44089],[127.00438,37.44091],[127.00408,37.44091],[127.00378,37.44094],[127.00268,37.44095],[127.00257,37.44093],[127.00245,37.44091],[127.00231,37.44086],[127.00217,37.44079],[127.00206,37.44072],[127.00191,37.44058],[127.00183,37.44043],[127.00175,37.44028],[127.00164,37.44002],[127.00157,37.43982],[127.00154,37.43974],[127.00142,37.43934],[127.00136,37.43906],[127.00135,37.43897],[127.0014,37.43868],[127.00154,37.43849],[127.0016,37.4384],[127.00169,37.43832],[127.00177,37.43823],[127.00186,37.43821],[127.00197,37.43818],[127.00219,37.43819],[127.0024,37.43816],[127.00246,37.43812],[127.00251,37.43809],[127.00254,37.43802],[127.00258,37.43795],[127.0026,37.43794],[127.0028,37.4378],[127.00307,37.4377],[127.00337,37.43759],[127.00359,37.4375]]}},{"type":"Feature","properties":{"class":"alley","highway":"service","sidewalk":"unknown","lanes":0,"name":"","oneway":true},"geometry":{"type":"LineString","coordinates":[[127.00359,37.4375],[127.00367,37.43742],[127.00369,37.43733],[127.00362,37.43722],[127.00347,37.4372],[127.00312,37.43722]]}},{"type":"Feature","properties":{"class":"alley","highway":"service","sidewalk":"unknown","lanes":0,"name":"","oneway":true},"geometry":{"type":"LineString","coordinates":[[127.00246,37.43812],[127.00271,37.43848],[127.00254,37.43858],[127.00249,37.43861],[127.00235,37.43867],[127.00217,37.43875],[127.002,37.43882],[127.00181,37.43889],[127.00163,37.43896],[127.00143,37.43903],[127.00136,37.43906]]}},{"type":"Feature","properties":{"class":"alley","highway":"service","sidewalk":"unknown","lanes":0,"name":"","oneway":true},"geometry":{"type":"LineString","coordinates":[[127.00143,37.43903],[127.0015,37.4391],[127.00185,37.43969]]}},{"type":"Feature","properties":{"class":"alley","highway":"service","sidewalk":"unknown","lanes":0,"name":"","oneway":true},"geometry":{"type":"LineString","coordinates":[[127.00204,37.43962],[127.00163,37.43896],[127.00147,37.43871],[127.0014,37.43868]]}},{"type":"Feature","properties":{"class":"alley","highway":"service","sidewalk":"unknown","lanes":0,"name":"","oneway":true},"geometry":{"type":"LineString","coordinates":[[127.00154,37.43849],[127.0016,37.43853],[127.00181,37.43889],[127.00217,37.43948],[127.00222,37.43951]]}},{"type":"Feature","properties":{"class":"alley","highway":"service","sidewalk":"unknown","lanes":0,"name":"","oneway":true},"geometry":{"type":"LineString","coordinates":[[127.00236,37.43938],[127.00231,37.43934],[127.002,37.43882],[127.00169,37.43832]]}},{"type":"Feature","properties":{"class":"alley","highway":"service","sidewalk":"unknown","lanes":0,"name":"","oneway":true},"geometry":{"type":"LineString","coordinates":[[127.00186,37.43821],[127.00217,37.43875],[127.0025,37.43927]]}},{"type":"Feature","properties":{"class":"alley","highway":"service","sidewalk":"unknown","lanes":0,"name":"","oneway":true},"geometry":{"type":"LineString","coordinates":[[127.00157,37.43982],[127.0017,37.43976],[127.00185,37.43969],[127.00204,37.43962],[127.00215,37.43956],[127.00222,37.43951],[127.00236,37.43938],[127.0025,37.43927],[127.00261,37.4392],[127.00263,37.43917],[127.00263,37.43912],[127.00261,37.43906],[127.00235,37.43867],[127.00212,37.43829],[127.00212,37.43827],[127.00216,37.43825],[127.00232,37.43826],[127.00236,37.43827],[127.00254,37.43858]]}},{"type":"Feature","properties":{"class":"alley","highway":"service","sidewalk":"unknown","lanes":0,"name":"","oneway":false},"geometry":{"type":"LineString","coordinates":[[127.00565,37.4406],[127.00586,37.44057],[127.00607,37.44054],[127.00618,37.44052],[127.00626,37.4405],[127.00636,37.44048],[127.00647,37.44046],[127.00652,37.44045],[127.00668,37.44041],[127.00683,37.44037],[127.00688,37.44035],[127.00706,37.44027],[127.00709,37.44026],[127.00723,37.4402],[127.00725,37.44019],[127.00728,37.44017],[127.00743,37.44008],[127.00749,37.44004],[127.00757,37.44],[127.00764,37.43996],[127.00778,37.43984],[127.00783,37.43975],[127.00784,37.43965],[127.00782,37.43949],[127.00777,37.43931]]}},{"type":"Feature","properties":{"class":"major","highway":"tertiary_link","sidewalk":"likely","lanes":0,"name":"","oneway":true},"geometry":{"type":"LineString","coordinates":[[127.00914,37.4387],[127.0088,37.43911],[127.00833,37.43962]]}},{"type":"Feature","properties":{"class":"minor","highway":"residential","sidewalk":"unknown","lanes":0,"name":"","oneway":false},"geometry":{"type":"LineString","coordinates":[[127.00022,37.43438],[126.99998,37.43429],[126.99982,37.43423],[126.99964,37.43415],[126.99963,37.43412],[126.99955,37.43409],[126.99864,37.4337],[126.99842,37.43401],[126.99834,37.43414],[126.99804,37.43457],[126.99774,37.43501],[126.99743,37.43546],[126.99717,37.43582],[126.99696,37.43606],[126.99679,37.43632],[126.99665,37.43655],[126.99649,37.43681],[126.99646,37.43686]]}},{"type":"Feature","properties":{"class":"major","highway":"trunk_link","sidewalk":"likely","lanes":0,"name":"대공원고가교","oneway":true},"geometry":{"type":"LineString","coordinates":[[126.99926,37.44017],[127.0,37.43884],[127.00015,37.43859],[127.00025,37.43847],[127.00035,37.43836],[127.00049,37.43824],[127.00066,37.4381],[127.00081,37.43801],[127.00153,37.43769]]}},{"type":"Feature","properties":{"class":"major","highway":"trunk_link","sidewalk":"likely","lanes":0,"name":"","oneway":true},"geometry":{"type":"LineString","coordinates":[[127.00198,37.43776],[127.00134,37.43811],[127.00096,37.43837],[127.00055,37.43875],[127.00011,37.43923],[126.99992,37.43956]]}},{"type":"Feature","properties":{"class":"major","highway":"trunk_link","sidewalk":"likely","lanes":0,"name":"대공원고가교","oneway":true},"geometry":{"type":"LineString","coordinates":[[127.00153,37.43769],[127.00245,37.43731],[127.00299,37.43709],[127.00322,37.437],[127.00333,37.43691]]}},{"type":"Feature","properties":{"class":"major","highway":"tertiary","sidewalk":"likely","lanes":0,"name":"대공원대로","oneway":true},"geometry":{"type":"LineString","coordinates":[[127.00607,37.43577],[127.00625,37.43572],[127.0064,37.43572],[127.0066,37.43581]]}},{"type":"Feature","properties":{"class":"alley","highway":"service","sidewalk":"unknown","lanes":0,"name":"막계로","oneway":false},"geometry":{"type":"LineString","coordinates":[[127.00732,37.43286],[127.00741,37.43264],[127.00742,37.43258],[127.00745,37.4325],[127.00772,37.43231],[127.00781,37.43224],[127.00788,37.43218],[127.00818,37.43183],[127.00834,37.4317],[127.00859,37.43156],[127.00867,37.43153]]}},{"type":"Feature","properties":{"class":"major","highway":"trunk","sidewalk":"likely","lanes":4,"name":"과천대로","oneway":true},"geometry":{"type":"LineString","coordinates":[[127.00127,37.42955],[127.00088,37.42868],[127.00021,37.42725]]}},{"type":"Feature","properties":{"class":"major","highway":"trunk","sidewalk":"likely","lanes":0,"name":"과천대로","oneway":true},"geometry":{"type":"LineString","coordinates":[[127.00042,37.42709],[127.00105,37.42843],[127.00141,37.42924],[127.00151,37.42947]]}},{"type":"Feature","properties":{"class":"major","highway":"trunk","sidewalk":"likely","lanes":0,"name":"우면산로","oneway":true},"geometry":{"type":"LineString","coordinates":[[127.0012,37.43681],[127.00088,37.43751],[127.00084,37.43783],[127.00081,37.43831],[127.0009,37.43901]]}},{"type":"Feature","properties":{"class":"major","highway":"tertiary_link","sidewalk":"likely","lanes":0,"name":"","oneway":true},"geometry":{"type":"LineString","coordinates":[[127.00594,37.43582],[127.00616,37.43579],[127.00625,37.43581],[127.00627,37.43585],[127.00625,37.4359],[127.0062,37.43599]]}},{"type":"Feature","properties":{"class":"major","highway":"trunk","sidewalk":"likely","lanes":0,"name":"과천대로","oneway":true},"geometry":{"type":"LineString","coordinates":[[126.99845,37.44138],[126.99879,37.44081],[126.99901,37.44042],[126.99917,37.44012],[127.00049,37.43769],[127.00096,37.43674],[127.00162,37.43554],[127.00212,37.43463],[127.00231,37.4343],[127.00241,37.43408],[127.00251,37.43386]]}},{"type":"Feature","properties":{"class":"minor","highway":"residential","sidewalk":"unknown","lanes":0,"name":"","oneway":false},"geometry":{"type":"LineString","coordinates":[[127.01592,37.44333],[127.01592,37.44324],[127.01577,37.4423],[127.01568,37.44184],[127.01548,37.44084],[127.01549,37.43998]]}},{"type":"Feature","properties":{"class":"minor","highway":"residential","sidewalk":"unknown","lanes":0,"name":"","oneway":false},"geometry":{"type":"LineString","coordinates":[[127.01549,37.43998],[127.01549,37.43895],[127.01545,37.43864],[127.01554,37.43831]]}},{"type":"Feature","properties":{"class":"alley","highway":"service","sidewalk":"unknown","lanes":0,"name":"동물원둘레길","oneway":false},"geometry":{"type":"LineString","coordinates":[[127.01408,37.4278],[127.01429,37.42774],[127.01451,37.42768],[127.0146,37.42766]]}},{"type":"Feature","properties":{"class":"alley","highway":"service","sidewalk":"unknown","lanes":0,"name":"","oneway":false},"geometry":{"type":"LineString","coordinates":[[127.0148,37.42805],[127.01489,37.42818],[127.01502,37.42825],[127.0151,37.42826]]}},{"type":"Feature","properties":{"class":"alley","highway":"service","sidewalk":"unknown","lanes":0,"name":"원앙다리","oneway":false},"geometry":{"type":"LineString","coordinates":[[127.0146,37.42781],[127.0148,37.42805]]}},{"type":"Feature","properties":{"class":"alley","highway":"service","sidewalk":"unknown","lanes":0,"name":"","oneway":false},"geometry":{"type":"LineString","coordinates":[[127.01408,37.4278],[127.01422,37.42783],[127.01432,37.42785],[127.01457,37.42778],[127.0146,37.42781]]}},{"type":"Feature","properties":{"class":"alley","highway":"living_street","sidewalk":"unknown","lanes":0,"name":"참마을로","oneway":true},"geometry":{"type":"LineString","coordinates":[[127.00083,37.42717],[127.00098,37.4271]]}},{"type":"Feature","properties":{"class":"alley","highway":"pedestrian","sidewalk":"unknown","lanes":0,"name":"","oneway":false},"geometry":{"type":"LineString","coordinates":[[127.00116,37.42658],[127.00122,37.42668],[127.00118,37.42668],[127.00129,37.42678],[127.00131,37.42679],[127.00135,37.42683],[127.00135,37.42685],[127.00136,37.42687],[127.00138,37.42686],[127.00139,37.42687],[127.00142,37.42684],[127.00146,37.42684],[127.00148,37.42683],[127.0015,37.42682],[127.00154,37.42678],[127.00154,37.42675],[127.00154,37.42673],[127.00151,37.4267],[127.00148,37.42672],[127.00144,37.42672],[127.0014,37.42672],[127.00136,37.4267],[127.00135,37.42668],[127.00137,37.42663],[127.00128,37.4266],[127.00128,37.42658],[127.00124,37.42656],[127.00128,37.42653],[127.00133,37.4265],[127.00136,37.42652],[127.0014,37.4265],[127.00138,37.42649],[127.00132,37.42645],[127.00132,37.42647],[127.00121,37.4265],[127.00122,37.42651],[127.00114,37.42656],[127.00112,37.42653],[127.00062,37.42665],[127.00059,37.42665],[127.00063,37.42675],[127.00086,37.42665],[127.00091,37.4267],[127.00097,37.42666],[127.001,37.42664],[127.00106,37.4266],[127.00116,37.42658]]}},{"type":"Feature","properties":{"class":"alley","highway":"pedestrian","sidewalk":"unknown","lanes":0,"name":"","oneway":false},"geometry":{"type":"LineString","coordinates":[[127.00097,37.42666],[127.0011,37.42685],[127.00109,37.4269],[127.00115,37.42701],[127.00118,37.42701],[127.00129,37.427],[127.00123,37.42692],[127.00123,37.42691],[127.00125,37.42681],[127.00115,37.42674],[127.00106,37.4266],[127.00097,37.42666]]}},{"type":"Feature","properties":{"class":"alley","highway":"service","sidewalk":"unknown","lanes":0,"name":"","oneway":false},"geometry":{"type":"LineString","coordinates":[[127.00161,37.42654],[127.0014,37.42646],[127.00131,37.42638],[127.00113,37.42623],[127.00109,37.42618],[127.0011,37.4261]]}},{"type":"Feature","properties":{"class":"alley","highway":"service","sidewalk":"unknown","lanes":0,"name":"아랫배랭이로","oneway":false},"geometry":{"type":"LineString","coordinates":[[127.00236,37.42678],[127.00267,37.42674],[127.00289,37.42672],[127.00313,37.42669],[127.0034,37.42668],[127.00355,37.4267],[127.0037,37.42672],[127.00388,37.42677],[127.00402,37.42678],[127.0043,37.42675],[127.00457,37.42661],[127.00484,37.42648],[127.00505,37.42641],[127.00525,37.42636],[127.00552,37.42641],[127.00572,37.42653]]}},{"type":"Feature","properties":{"class":"minor","highway":"residential","sidewalk":"unknown","lanes":0,"name":"","oneway":true},"geometry":{"type":"LineString","coordinates":[[127.00203,37.42676],[127.00209,37.42677],[127.00216,37.42678],[127.00225,37.42678],[127.00236,37.42678]]}},{"type":"Feature","properties":{"class":"minor","highway":"residential","sidewalk":"unknown","lanes":0,"name":"","oneway":true},"geometry":{"type":"LineString","coordinates":[[127.00236,37.42678],[127.00217,37.42682],[127.00209,37.42684],[127.00203,37.42686]]}},{"type":"Feature","properties":{"class":"alley","highway":"service","sidewalk":"unknown","lanes":2,"name":"","oneway":false},"geometry":{"type":"LineString","coordinates":[[127.00196,37.42702],[127.00194,37.42718],[127.0019,37.42738],[127.00191,37.42746],[127.00194,37.42754],[127.00245,37.42865],[127.00253,37.4288],[127.00275,37.42891],[127.00291,37.42896]]}},{"type":"Feature","properties":{"class":"minor","highway":"residential","sidewalk":"unknown","lanes":0,"name":"","oneway":true},"geometry":{"type":"LineString","coordinates":[[127.00203,37.42686],[127.00201,37.42689],[127.00198,37.42696],[127.00196,37.42702]]}},{"type":"Feature","properties":{"class":"minor","highway":"residential","sidewalk":"unknown","lanes":0,"name":"","oneway":true},"geometry":{"type":"LineString","coordinates":[[127.0019,37.42678],[127.00192,37.42676],[127.00194,37.42675],[127.00197,37.42675]]}},{"type":"Feature","properties":{"class":"minor","highway":"residential","sidewalk":"unknown","lanes":0,"name":"","oneway":true},"geometry":{"type":"LineString","coordinates":[[127.00192,37.42687],[127.0019,37.42685],[127.00189,37.42684],[127.00188,37.42682]]}},{"type":"Feature","properties":{"class":"minor","highway":"residential","sidewalk":"unknown","lanes":0,"name":"","oneway":true},"geometry":{"type":"LineString","coordinates":[[127.00203,37.42676],[127.00204,37.42678],[127.00205,37.4268],[127.00206,37.42682],[127.00205,37.42684],[127.00203,37.42686]]}},{"type":"Feature","properties":{"class":"minor","highway":"residential","sidewalk":"unknown","lanes":0,"name":"","oneway":true},"geometry":{"type":"LineString","coordinates":[[127.00196,37.42702],[127.00196,37.42696],[127.00195,37.4269],[127.00194,37.42688]]}},{"type":"Feature","properties":{"class":"minor","highway":"residential","sidewalk":"unknown","lanes":0,"name":"","oneway":true},"geometry":{"type":"LineString","coordinates":[[127.00194,37.42688],[127.00192,37.42687]]}},{"type":"Feature","properties":{"class":"minor","highway":"residential","sidewalk":"unknown","lanes":0,"name":"","oneway":true},"geometry":{"type":"LineString","coordinates":[[127.00188,37.42682],[127.00186,37.42678],[127.00185,37.42677],[127.00182,37.42672],[127.00177,37.42668]]}},{"type":"Feature","properties":{"class":"minor","highway":"residential","sidewalk":"unknown","lanes":0,"name":"","oneway":true},"geometry":{"type":"LineString","coordinates":[[127.00177,37.42668],[127.00183,37.42671],[127.00191,37.42673],[127.00197,37.42675]]}},{"type":"Feature","properties":{"class":"minor","highway":"residential","sidewalk":"unknown","lanes":0,"name":"","oneway":true},"geometry":{"type":"LineString","coordinates":[[127.00197,37.42675],[127.002,37.42675],[127.00203,37.42676]]}},{"type":"Feature","properties":{"class":"minor","highway":"residential","sidewalk":"unknown","lanes":0,"name":"","oneway":true},"geometry":{"type":"LineString","coordinates":[[127.00188,37.42682],[127.00189,37.4268],[127.0019,37.42678]]}},{"type":"Feature","properties":{"class":"alley","highway":"service","sidewalk":"unknown","lanes":0,"name":"","oneway":false},"geometry":{"type":"LineString","coordinates":[[127.00157,37.42698],[127.00156,37.42695],[127.00156,37.42694],[127.00154,37.42689],[127.00148,37.42683]]}},{"type":"Feature","properties":{"class":"alley","highway":"service","sidewalk":"unknown","lanes":0,"name":"","oneway":false},"geometry":{"type":"LineString","coordinates":[[127.00031,37.43464],[127.0013,37.43506],[127.00104,37.43551],[127.0001,37.43512],[127.00004,37.43508]]}},{"type":"Feature","properties":{"class":"alley","highway":"service","sidewalk":"unknown","lanes":0,"name":"","oneway":false},"geometry":{"type":"LineString","coordinates":[[127.00092,37.4357],[127.00077,37.43595],[126.99989,37.43558],[126.99982,37.43557]]}},{"type":"Feature","properties":{"class":"minor","highway":"residential","sidewalk":"unknown","lanes":0,"name":"","oneway":false},"geometry":{"type":"LineString","coordinates":[[127.00889,37.43978],[127.00896,37.4398],[127.00928,37.43993],[127.00947,37.44009],[127.0096,37.44017],[127.00977,37.44028],[127.00984,37.44036],[127.00988,37.44046],[127.00991,37.4406],[127.00979,37.44093],[127.00965,37.44113],[127.0088,37.44165],[127.00875,37.44169]]}},{"type":"Feature","properties":{"class":"minor","highway":"residential","sidewalk":"unknown","lanes":0,"name":"","oneway":false},"geometry":{"type":"LineString","coordinates":[[127.00833,37.43962],[127.00847,37.43964],[127.00856,37.43965]]}},{"type":"Feature","properties":{"class":"minor","highway":"residential","sidewalk":"unknown","lanes":0,"name":"","oneway":false},"geometry":{"type":"LineString","coordinates":[[127.00856,37.43965],[127.00889,37.43978]]}},{"type":"Feature","properties":{"class":"alley","highway":"service","sidewalk":"unknown","lanes":0,"name":"","oneway":true},"geometry":{"type":"LineString","coordinates":[[127.00833,37.44168],[127.00833,37.44162],[127.00842,37.44053],[127.00847,37.43964]]}},{"type":"Feature","properties":{"class":"alley","highway":"service","sidewalk":"unknown","lanes":0,"name":"","oneway":false},"geometry":{"type":"LineString","coordinates":[[127.0088,37.44165],[127.00881,37.44154],[127.00895,37.43986],[127.00896,37.4398]]}},{"type":"Feature","properties":{"class":"alley","highway":"service","sidewalk":"unknown","lanes":0,"name":"","oneway":true},"geometry":{"type":"LineString","coordinates":[[127.00757,37.44],[127.00768,37.44002],[127.00771,37.44008],[127.00769,37.44094],[127.0075,37.44094],[127.00729,37.44094],[127.00707,37.44094],[127.00689,37.44093],[127.00668,37.44093],[127.00648,37.44093],[127.00628,37.44093],[127.00606,37.44093],[127.00587,37.44093]]}},{"type":"Feature","properties":{"class":"alley","highway":"service","sidewalk":"unknown","lanes":0,"name":"","oneway":true},"geometry":{"type":"LineString","coordinates":[[127.00826,37.44044],[127.00801,37.44023],[127.00783,37.44007],[127.00781,37.44003],[127.00781,37.43998],[127.00784,37.43987],[127.00783,37.43975]]}},{"type":"Feature","properties":{"class":"major","highway":"tertiary","sidewalk":"likely","lanes":0,"name":"경마공원대로","oneway":false},"geometry":{"type":"LineString","coordinates":[[127.00826,37.44044],[127.00833,37.43962],[127.00836,37.43884]]}},{"type":"Feature","properties":{"class":"alley","highway":"pedestrian","sidewalk":"unknown","lanes":0,"name":"대공원나들길","oneway":false},"geometry":{"type":"LineString","coordinates":[[127.00246,37.43318],[127.00306,37.43319]]}},{"type":"Feature","properties":{"class":"alley","highway":"pedestrian","sidewalk":"unknown","lanes":0,"name":"대공원나들길","oneway":false},"geometry":{"type":"LineString","coordinates":[[127.00306,37.43319],[127.0044,37.43318],[127.00448,37.43318],[127.00488,37.43372]]}},{"type":"Feature","properties":{"class":"major","highway":"tertiary_link","sidewalk":"likely","lanes":0,"name":"","oneway":true},"geometry":{"type":"LineString","coordinates":[[127.00817,37.4382],[127.00828,37.43827],[127.0085,37.4386],[127.00854,37.43866],[127.00862,37.43869],[127.00904,37.4387],[127.00916,37.43868]]}},{"type":"Feature","properties":{"class":"alley","highway":"service","sidewalk":"unknown","lanes":0,"name":"","oneway":true},"geometry":{"type":"LineString","coordinates":[[127.00684,37.4357],[127.0066,37.43581]]}},{"type":"Feature","properties":{"class":"major","highway":"trunk_link","sidewalk":"likely","lanes":0,"name":"","oneway":true},"geometry":{"type":"LineString","coordinates":[[127.00042,37.42709],[127.00083,37.42717]]}},{"type":"Feature","properties":{"class":"major","highway":"trunk_link","sidewalk":"likely","lanes":0,"name":"대공원대로","oneway":true},"geometry":{"type":"LineString","coordinates":[[127.00312,37.43722],[127.00265,37.43741],[127.00238,37.43751],[127.00202,37.43764],[127.00119,37.43799],[127.00083,37.43817],[127.00062,37.43832],[127.00051,37.43847],[127.00026,37.43872]]}},{"type":"Feature","properties":{"class":"minor","highway":"residential","sidewalk":"unknown","lanes":0,"name":"대공원나들길","oneway":false},"geometry":{"type":"LineString","coordinates":[[127.00488,37.43372],[127.00492,37.43376],[127.00501,37.43384],[127.00514,37.43394],[127.00516,37.43396],[127.00521,37.434],[127.00538,37.43396]]}},{"type":"Feature","properties":{"class":"alley","highway":"service","sidewalk":"unknown","lanes":0,"name":"","oneway":false},"geometry":{"type":"LineString","coordinates":[[127.00424,37.42779],[127.00403,37.42761],[127.00445,37.42727],[127.00469,37.42741]]}},{"type":"Feature","properties":{"class":"alley","highway":"service","sidewalk":"unknown","lanes":0,"name":"","oneway":false},"geometry":{"type":"LineString","coordinates":[[127.00005,37.4303],[126.99989,37.43006],[126.99981,37.42985],[126.99971,37.42963],[126.99976,37.4295],[126.99978,37.42939],[126.9998,37.4291],[126.99975,37.42895],[126.99963,37.42867],[126.99931,37.42804],[126.9992,37.4278]]}},{"type":"Feature","properties":{"class":"alley","highway":"service","sidewalk":"unknown","lanes":0,"name":"","oneway":false},"geometry":{"type":"LineString","coordinates":[[126.99963,37.42867],[126.99985,37.4285],[126.99995,37.42843],[127.00001,37.42841]]}},{"type":"Feature","properties":{"class":"alley","highway":"service","sidewalk":"unknown","lanes":0,"name":"","oneway":false},"geometry":{"type":"LineString","coordinates":[[127.00001,37.42841],[127.00017,37.42845],[127.00019,37.42849],[127.00032,37.42872],[127.00043,37.42891],[127.00058,37.42924],[127.00057,37.42933],[127.00046,37.42943],[126.99999,37.42976],[126.99981,37.42985]]}},{"type":"Feature","properties":{"class":"alley","highway":"service","sidewalk":"unknown","lanes":0,"name":"","oneway":false},"geometry":{"type":"LineString","coordinates":[[127.00071,37.42961],[127.00046,37.42943],[127.0003,37.42931],[127.0002,37.42928],[127.00002,37.4294],[126.99978,37.42939],[126.99964,37.42937],[126.99949,37.42925],[126.99942,37.42923],[126.99932,37.42925],[126.99917,37.42938],[126.99906,37.42945],[126.99896,37.42959]]}},{"type":"Feature","properties":{"class":"alley","highway":"service","sidewalk":"unknown","lanes":0,"name":"","oneway":false},"geometry":{"type":"LineString","coordinates":[[126.99975,37.42895],[127.00004,37.42878],[127.00032,37.42872]]}},{"type":"Feature","properties":{"class":"alley","highway":"service","sidewalk":"unknown","lanes":0,"name":"","oneway":false},"geometry":{"type":"LineString","coordinates":[[126.9998,37.4291],[127.00003,37.42907],[127.00043,37.42891]]}},{"type":"Feature","properties":{"class":"alley","highway":"service","sidewalk":"unknown","lanes":0,"name":"","oneway":false},"geometry":{"type":"LineString","coordinates":[[126.99985,37.4285],[126.99976,37.42845],[126.99963,37.42834],[126.99962,37.42827],[126.99967,37.42818],[126.99981,37.42815],[126.99996,37.42813],[127.00005,37.42807]]}},{"type":"Feature","properties":{"class":"alley","highway":"service","sidewalk":"unknown","lanes":0,"name":"","oneway":false},"geometry":{"type":"LineString","coordinates":[[127.00005,37.42807],[127.00004,37.428],[126.99991,37.42775],[126.99987,37.42756]]}},{"type":"Feature","properties":{"class":"minor","highway":"residential","sidewalk":"unknown","lanes":0,"name":"","oneway":false},"geometry":{"type":"LineString","coordinates":[[126.9983,37.43792],[126.99852,37.43754],[126.99876,37.43716],[126.99885,37.43703],[126.99916,37.43652],[126.99939,37.43632],[126.99952,37.43622],[126.99967,37.43599],[126.99976,37.43585],[126.99979,37.43573],[126.99982,37.43557],[126.99984,37.43542],[126.99986,37.43535],[126.99989,37.43528],[127.00004,37.43508],[127.00031,37.43464],[127.00034,37.43459],[127.00034,37.43452],[127.00032,37.43447],[127.00029,37.43443],[127.00022,37.43438]]}},{"type":"Feature","properties":{"class":"alley","highway":"service","sidewalk":"unknown","lanes":0,"name":"","oneway":false},"geometry":{"type":"LineString","coordinates":[[126.99959,37.43352],[126.99985,37.43363],[127.00055,37.43391],[127.00022,37.43438]]}},{"type":"Feature","properties":{"class":"alley","highway":"service","sidewalk":"unknown","lanes":0,"name":"","oneway":false},"geometry":{"type":"LineString","coordinates":[[126.99967,37.43599],[127.00039,37.43629],[127.00025,37.43654],[126.99988,37.43717],[126.99975,37.4374]]}},{"type":"Feature","properties":{"class":"alley","highway":"service","sidewalk":"unknown","lanes":0,"name":"","oneway":false},"geometry":{"type":"LineString","coordinates":[[126.99952,37.43622],[127.00025,37.43654]]}},{"type":"Feature","properties":{"class":"alley","highway":"service","sidewalk":"unknown","lanes":0,"name":"","oneway":false},"geometry":{"type":"LineString","coordinates":[[126.99913,37.43714],[126.99928,37.43693],[126.99958,37.43653],[127.00004,37.43672]]}},{"type":"Feature","properties":{"class":"alley","highway":"service","sidewalk":"unknown","lanes":0,"name":"","oneway":false},"geometry":{"type":"LineString","coordinates":[[127.01587,37.43484],[127.01592,37.43489],[127.0161,37.43506],[127.01633,37.43526],[127.01672,37.43561],[127.01677,37.43565],[127.0168,37.43568],[127.01686,37.43572],[127.01696,37.43579],[127.01709,37.43587],[127.01716,37.43592],[127.01721,37.43596],[127.01725,37.43599],[127.01728,37.43603],[127.01733,37.4361],[127.01744,37.43625],[127.01747,37.4363],[127.01751,37.43635],[127.01754,37.43639],[127.01758,37.43642],[127.01763,37.43645],[127.01768,37.43647],[127.01777,37.4365],[127.01784,37.43652],[127.0179,37.43653],[127.01797,37.43653],[127.01807,37.43653],[127.01848,37.43648]]}},{"type":"Feature","properties":{"class":"alley","highway":"service","sidewalk":"unknown","lanes":0,"name":"","oneway":false},"geometry":{"type":"LineString","coordinates":[[127.01849,37.43626],[127.01841,37.43622],[127.01836,37.43619],[127.0183,37.43614],[127.01829,37.43612],[127.01828,37.4361],[127.01829,37.43607],[127.01832,37.43603],[127.0184,37.43595],[127.01846,37.4359],[127.01852,37.43586],[127.01856,37.43585],[127.0186,37.43584],[127.01864,37.43584],[127.01868,37.43585],[127.01871,37.43587],[127.01875,37.4359],[127.01878,37.43593],[127.01882,37.43598]]}},{"type":"Feature","properties":{"class":"alley","highway":"pedestrian","sidewalk":"unknown","lanes":0,"name":"세계의 광장","oneway":false},"geometry":{"type":"LineString","coordinates":[[127.01803,37.43387],[127.01803,37.43377],[127.01803,37.43365],[127.01803,37.43364],[127.01828,37.43364],[127.01828,37.43367],[127.01852,37.43367],[127.01877,37.43367],[127.01891,37.43357],[127.01891,37.4335],[127.0189,37.43332],[127.01896,37.43332],[127.01902,37.43332],[127.01902,37.43357],[127.01937,37.43356],[127.01937,37.43365],[127.01935,37.43365],[127.01916,37.43365],[127.01916,37.43385],[127.01935,37.43385],[127.01935,37.43395],[127.01908,37.43396],[127.019,37.43402],[127.019,37.43419],[127.01896,37.43419],[127.01889,37.43419],[127.01889,37.43401],[127.01889,37.43394],[127.01875,37.43381],[127.01854,37.43381],[127.01854,37.43384],[127.01852,37.43384],[127.01829,37.43384],[127.01829,37.43389],[127.01803,37.43389],[127.01803,37.43387]]}},{"type":"Feature","properties":{"class":"alley","highway":"service","sidewalk":"unknown","lanes":0,"name":"","oneway":true},"geometry":{"type":"LineString","coordinates":[[127.01733,37.4361],[127.01747,37.43604]]}},{"type":"Feature","properties":{"class":"alley","highway":"service","sidewalk":"unknown","lanes":0,"name":"","oneway":true},"geometry":{"type":"LineString","coordinates":[[127.01757,37.43619],[127.01744,37.43625]]}},{"type":"Feature","properties":{"class":"alley","highway":"service","sidewalk":"unknown","lanes":0,"name":"","oneway":true},"geometry":{"type":"LineString","coordinates":[[127.01805,37.43601],[127.01806,37.43618],[127.01806,37.43619],[127.01806,37.4362],[127.01804,37.43621],[127.01801,37.43623],[127.01785,37.4363],[127.01775,37.43634],[127.01774,37.43635],[127.01773,37.43634],[127.01765,37.4363],[127.01764,37.4363],[127.01757,37.43619],[127.01747,37.43604],[127.01736,37.43588],[127.01752,37.43581],[127.01768,37.43575],[127.01783,37.43568],[127.018,37.43561],[127.01815,37.43555],[127.01829,37.43577],[127.0183,37.43578],[127.0183,37.43579],[127.01829,37.4358],[127.01819,37.43588],[127.01806,37.43599],[127.01805,37.436],[127.01805,37.43601]]}},{"type":"Feature","properties":{"class":"alley","highway":"service","sidewalk":"unknown","lanes":0,"name":"","oneway":true},"geometry":{"type":"LineString","coordinates":[[127.01752,37.43581],[127.01785,37.4363]]}},{"type":"Feature","properties":{"class":"alley","highway":"service","sidewalk":"unknown","lanes":0,"name":"","oneway":true},"geometry":{"type":"LineString","coordinates":[[127.01768,37.43575],[127.01801,37.43623]]}},{"type":"Feature","properties":{"class":"alley","highway":"service","sidewalk":"unknown","lanes":0,"name":"","oneway":true},"geometry":{"type":"LineString","coordinates":[[127.01783,37.43568],[127.01805,37.436]]}},{"type":"Feature","properties":{"class":"alley","highway":"service","sidewalk":"unknown","lanes":0,"name":"","oneway":true},"geometry":{"type":"LineString","coordinates":[[127.018,37.43561],[127.01819,37.43588]]}},{"type":"Feature","properties":{"class":"alley","highway":"service","sidewalk":"unknown","lanes":0,"name":"","oneway":false},"geometry":{"type":"LineString","coordinates":[[127.01937,37.43585],[127.01949,37.43569],[127.01959,37.43555],[127.01965,37.43546],[127.01977,37.4355],[127.01986,37.43553],[127.01995,37.43556],[127.02001,37.43557],[127.02006,37.43558],[127.02002,37.43568],[127.01996,37.43582]]}},{"type":"Feature","properties":{"class":"alley","highway":"service","sidewalk":"unknown","lanes":0,"name":"","oneway":false},"geometry":{"type":"LineString","coordinates":[[127.02034,37.43592],[127.01996,37.43582],[127.01949,37.43569]]}},{"type":"Feature","properties":{"class":"alley","highway":"service","sidewalk":"unknown","lanes":0,"name":"","oneway":false},"geometry":{"type":"LineString","coordinates":[[127.02031,37.43575],[127.02002,37.43568],[127.01959,37.43555]]}},{"type":"Feature","properties":{"class":"alley","highway":"pedestrian","sidewalk":"unknown","lanes":0,"name":"","oneway":false},"geometry":{"type":"LineString","coordinates":[[127.01896,37.43419],[127.01896,37.43435]]}},{"type":"Feature","properties":{"class":"alley","highway":"pedestrian","sidewalk":"unknown","lanes":0,"name":"","oneway":false},"geometry":{"type":"LineString","coordinates":[[127.01896,37.43332],[127.01896,37.43313]]}},{"type":"Feature","properties":{"class":"alley","highway":"service","sidewalk":"unknown","lanes":0,"name":"","oneway":false},"geometry":{"type":"LineString","coordinates":[[127.01822,37.429],[127.01824,37.42907],[127.01834,37.42942],[127.01836,37.42958]]}},{"type":"Feature","properties":{"class":"alley","highway":"pedestrian","sidewalk":"unknown","lanes":0,"name":"","oneway":false},"geometry":{"type":"LineString","coordinates":[[127.00344,37.4385],[127.00339,37.4383],[127.00336,37.43819]]}},{"type":"Feature","properties":{"class":"alley","highway":"pedestrian","sidewalk":"unknown","lanes":0,"name":"","oneway":false},"geometry":{"type":"LineString","coordinates":[[127.01601,37.42878],[127.01602,37.42876],[127.01608,37.42872]]}},{"type":"Feature","properties":{"class":"alley","highway":"service","sidewalk":"unknown","lanes":0,"name":"","oneway":false},"geometry":{"type":"LineString","coordinates":[[127.01457,37.42778],[127.01451,37.42768]]}},{"type":"Feature","properties":{"class":"alley","highway":"pedestrian","sidewalk":"unknown","lanes":0,"name":"","oneway":false},"geometry":{"type":"LineString","coordinates":[[127.00954,37.43459],[127.00957,37.43457],[127.00963,37.43453],[127.01003,37.43438],[127.00996,37.43427],[127.00965,37.43439],[127.00957,37.43442],[127.00943,37.43444],[127.00916,37.43455],[127.00909,37.43445],[127.00905,37.43448],[127.00873,37.43469],[127.00867,37.43472],[127.0086,37.43475],[127.00766,37.43516],[127.0076,37.43518],[127.00755,37.43521],[127.00711,37.4354],[127.00708,37.43543],[127.00711,37.43549],[127.00714,37.43554],[127.00724,37.43555],[127.00764,37.43537],[127.00769,37.43535],[127.00775,37.43533],[127.00861,37.43498],[127.0092,37.43474],[127.00929,37.4347],[127.00954,37.43459]]}},{"type":"Feature","properties":{"class":"alley","highway":"service","sidewalk":"unknown","lanes":0,"name":"","oneway":true},"geometry":{"type":"LineString","coordinates":[[127.00794,37.43261],[127.0081,37.43263],[127.00816,37.43267],[127.00817,37.4327],[127.00816,37.43272],[127.00815,37.43275],[127.00801,37.4328],[127.00783,37.43287],[127.00766,37.43294],[127.00729,37.43308],[127.00711,37.43316],[127.00696,37.43321],[127.00679,37.43328],[127.00665,37.43334],[127.00631,37.43347],[127.00611,37.43355],[127.00597,37.4336],[127.00579,37.43367],[127.00569,37.43371],[127.00568,37.43382],[127.00649,37.4351]]}},{"type":"Feature","properties":{"class":"alley","highway":"service","sidewalk":"unknown","lanes":0,"name":"","oneway":true},"geometry":{"type":"LineString","coordinates":[[127.00649,37.4351],[127.00652,37.43516],[127.00659,37.43536]]}},{"type":"Feature","properties":{"class":"alley","highway":"service","sidewalk":"unknown","lanes":0,"name":"","oneway":true},"geometry":{"type":"LineString","coordinates":[[127.00816,37.43272],[127.00916,37.43427],[127.0093,37.43411],[127.00835,37.43265],[127.00816,37.43272]]}},{"type":"Feature","properties":{"class":"major","highway":"tertiary","sidewalk":"likely","lanes":0,"name":"대공원광장로","oneway":true},"geometry":{"type":"LineString","coordinates":[[127.00991,37.4345],[127.01071,37.43578],[127.01107,37.43636],[127.01109,37.43656],[127.01086,37.43683],[127.01009,37.43769],[127.00916,37.43868],[127.00914,37.4387],[127.00901,37.43875],[127.00886,37.4388],[127.00862,37.43884],[127.00846,37.43884],[127.00836,37.43884]]}},{"type":"Feature","properties":{"class":"major","highway":"tertiary","sidewalk":"likely","lanes":0,"name":"대공원광장로","oneway":true},"geometry":{"type":"LineString","coordinates":[[127.00975,37.43426],[127.00991,37.4345]]}},{"type":"Feature","properties":{"class":"alley","highway":"service","sidewalk":"unknown","lanes":0,"name":"","oneway":true},"geometry":{"type":"LineString","coordinates":[[127.00957,37.43363],[127.00878,37.43244]]}},{"type":"Feature","properties":{"class":"alley","highway":"service","sidewalk":"unknown","lanes":0,"name":"","oneway":true},"geometry":{"type":"LineString","coordinates":[[127.00878,37.43244],[127.0086,37.4325]]}},{"type":"Feature","properties":{"class":"alley","highway":"service","sidewalk":"unknown","lanes":0,"name":"","oneway":true},"geometry":{"type":"LineString","coordinates":[[127.00842,37.43243],[127.00863,37.43241],[127.00888,37.43234],[127.00904,37.43235]]}},{"type":"Feature","properties":{"class":"alley","highway":"service","sidewalk":"unknown","lanes":0,"name":"","oneway":true},"geometry":{"type":"LineString","coordinates":[[127.00904,37.43235],[127.00897,37.43238],[127.00878,37.43244]]}},{"type":"Feature","properties":{"class":"alley","highway":"service","sidewalk":"unknown","lanes":0,"name":"","oneway":true},"geometry":{"type":"LineString","coordinates":[[127.0097,37.43353],[127.00897,37.43238]]}},{"type":"Feature","properties":{"class":"alley","highway":"service","sidewalk":"unknown","lanes":0,"name":"","oneway":true},"geometry":{"type":"LineString","coordinates":[[127.00766,37.43294],[127.00871,37.43457],[127.00886,37.43447],[127.00902,37.43436],[127.00916,37.43427]]}},{"type":"Feature","properties":{"class":"alley","highway":"service","sidewalk":"unknown","lanes":0,"name":"","oneway":true},"geometry":{"type":"LineString","coordinates":[[127.00783,37.43287],[127.00886,37.43447]]}},{"type":"Feature","properties":{"class":"alley","highway":"service","sidewalk":"unknown","lanes":0,"name":"","oneway":true},"geometry":{"type":"LineString","coordinates":[[127.00801,37.4328],[127.00902,37.43436]]}},{"type":"Feature","properties":{"class":"alley","highway":"service","sidewalk":"unknown","lanes":0,"name":"","oneway":true},"geometry":{"type":"LineString","coordinates":[[127.00711,37.43316],[127.00819,37.43482]]}},{"type":"Feature","properties":{"class":"alley","highway":"service","sidewalk":"unknown","lanes":0,"name":"","oneway":true},"geometry":{"type":"LineString","coordinates":[[127.00729,37.43308],[127.00838,37.43472]]}},{"type":"Feature","properties":{"class":"alley","highway":"service","sidewalk":"unknown","lanes":0,"name":"","oneway":true},"geometry":{"type":"LineString","coordinates":[[127.00871,37.43457],[127.00838,37.43472],[127.00819,37.43482],[127.00803,37.43488],[127.00787,37.43494],[127.00771,37.435],[127.00753,37.43507],[127.00732,37.43508],[127.0071,37.4351],[127.00692,37.43511],[127.00671,37.43512],[127.00659,37.43512],[127.00652,37.43516]]}},{"type":"Feature","properties":{"class":"alley","highway":"service","sidewalk":"unknown","lanes":0,"name":"","oneway":true},"geometry":{"type":"LineString","coordinates":[[127.00696,37.43321],[127.00803,37.43488]]}},{"type":"Feature","properties":{"class":"alley","highway":"service","sidewalk":"unknown","lanes":0,"name":"","oneway":true},"geometry":{"type":"LineString","coordinates":[[127.00679,37.43328],[127.00787,37.43494]]}},{"type":"Feature","properties":{"class":"alley","highway":"service","sidewalk":"unknown","lanes":0,"name":"","oneway":true},"geometry":{"type":"LineString","coordinates":[[127.00665,37.43334],[127.00771,37.435]]}},{"type":"Feature","properties":{"class":"alley","highway":"service","sidewalk":"unknown","lanes":0,"name":"","oneway":true},"geometry":{"type":"LineString","coordinates":[[127.00631,37.43347],[127.00732,37.43508]]}},{"type":"Feature","properties":{"class":"alley","highway":"service","sidewalk":"unknown","lanes":0,"name":"","oneway":true},"geometry":{"type":"LineString","coordinates":[[127.00611,37.43355],[127.0071,37.4351]]}},{"type":"Feature","properties":{"class":"alley","highway":"service","sidewalk":"unknown","lanes":0,"name":"","oneway":true},"geometry":{"type":"LineString","coordinates":[[127.00597,37.4336],[127.00692,37.43511]]}},{"type":"Feature","properties":{"class":"alley","highway":"service","sidewalk":"unknown","lanes":0,"name":"","oneway":true},"geometry":{"type":"LineString","coordinates":[[127.00579,37.43367],[127.00671,37.43512]]}},{"type":"Feature","properties":{"class":"alley","highway":"pedestrian","sidewalk":"unknown","lanes":0,"name":"","oneway":false},"geometry":{"type":"LineString","coordinates":[[127.01003,37.43438],[127.01014,37.43441],[127.01022,37.43442],[127.01033,37.43445],[127.01034,37.43442],[127.01035,37.4344],[127.01037,37.43433],[127.01032,37.4343],[127.01027,37.43427],[127.01022,37.4342],[127.0102,37.43412],[127.0102,37.43406],[127.01023,37.43401],[127.01026,37.43396],[127.01031,37.43392],[127.01038,37.43388],[127.01034,37.43384],[127.01019,37.43392],[127.01013,37.43401],[127.0101,37.43406],[127.01003,37.43414],[127.00992,37.4342],[127.01003,37.43438]]}},{"type":"Feature","properties":{"class":"alley","highway":"pedestrian","sidewalk":"unknown","lanes":0,"name":"","oneway":false},"geometry":{"type":"LineString","coordinates":[[127.01207,37.43589],[127.01192,37.43583],[127.01096,37.43495],[127.01024,37.43446],[127.01022,37.43442],[127.01033,37.43445],[127.01034,37.43442],[127.01089,37.43476],[127.01095,37.43475],[127.01107,37.43483],[127.01205,37.43578],[127.01216,37.43581],[127.01217,37.43585],[127.01266,37.43594],[127.01242,37.43596],[127.01207,37.43589]]}},{"type":"Feature","properties":{"class":"alley","highway":"service","sidewalk":"unknown","lanes":0,"name":"","oneway":false},"geometry":{"type":"LineString","coordinates":[[127.01528,37.42931],[127.01529,37.42925],[127.01531,37.42915],[127.01533,37.429],[127.0152,37.42879],[127.01509,37.42855],[127.0151,37.42841],[127.0151,37.42826]]}},{"type":"Feature","properties":{"class":"alley","highway":"pedestrian","sidewalk":"unknown","lanes":0,"name":"","oneway":false},"geometry":{"type":"LineString","coordinates":[[127.01539,37.42927],[127.01551,37.42914],[127.01551,37.42898],[127.01538,37.42888],[127.01532,37.4288],[127.01551,37.4288],[127.0157,37.42884],[127.01581,37.42889],[127.01596,37.429],[127.01601,37.42905],[127.01615,37.42901],[127.01622,37.42916],[127.01621,37.42932],[127.01614,37.42939],[127.01612,37.42941],[127.01609,37.42947],[127.01587,37.42941],[127.01563,37.42933],[127.01553,37.42931],[127.01539,37.42927]]}},{"type":"Feature","properties":{"class":"alley","highway":"service","sidewalk":"unknown","lanes":0,"name":"","oneway":false},"geometry":{"type":"LineString","coordinates":[[127.01677,37.43565],[127.01701,37.43556],[127.01705,37.43556],[127.01724,37.43556],[127.01742,37.43556],[127.01754,37.43555]]}},{"type":"Feature","properties":{"class":"alley","highway":"service","sidewalk":"unknown","lanes":0,"name":"","oneway":true},"geometry":{"type":"LineString","coordinates":[[127.01705,37.43556],[127.01705,37.43467],[127.01726,37.43466],[127.01742,37.43466],[127.01742,37.43467],[127.01742,37.43556]]}},{"type":"Feature","properties":{"class":"alley","highway":"service","sidewalk":"unknown","lanes":0,"name":"","oneway":true},"geometry":{"type":"LineString","coordinates":[[127.01724,37.43556],[127.01726,37.43466]]}},{"type":"Feature","properties":{"class":"alley","highway":"service","sidewalk":"unknown","lanes":0,"name":"","oneway":true},"geometry":{"type":"LineString","coordinates":[[127.01742,37.43467],[127.01757,37.43468],[127.0176,37.43475],[127.01759,37.43551],[127.01754,37.43555]]}},{"type":"Feature","properties":{"class":"alley","highway":"service","sidewalk":"unknown","lanes":0,"name":"","oneway":true},"geometry":{"type":"LineString","coordinates":[[127.00754,37.43672],[127.00757,37.43675],[127.00763,37.43675],[127.01013,37.43574],[127.01031,37.43577],[127.01049,37.43577],[127.01061,37.43577],[127.01071,37.43578]]}},{"type":"Feature","properties":{"class":"alley","highway":"service","sidewalk":"unknown","lanes":0,"name":"","oneway":true},"geometry":{"type":"LineString","coordinates":[[127.00691,37.43583],[127.00694,37.43596],[127.00699,37.43604],[127.00712,37.43613],[127.00754,37.43672]]}}]}