{"type":"FeatureCollection","features":[{"type":"Feature","properties":{"class":"major","highway":"tertiary","sidewalk":"likely","lanes":0,"name":"석수로","oneway":false},"geometry":{"type":"LineString","coordinates":[[126.8993,37.42693],[126.89919,37.42714],[126.89902,37.4274],[126.89878,37.42785],[126.89864,37.42827],[126.89857,37.42852],[126.89855,37.42876],[126.89856,37.42927],[126.8986,37.42959],[126.89863,37.42968],[126.89876,37.42999],[126.89909,37.43066],[126.89962,37.43184],[126.8998,37.43224],[126.90006,37.43281],[126.90033,37.43339],[126.90068,37.43413]]}},{"type":"Feature","properties":{"class":"major","highway":"motorway","sidewalk":"likely","lanes":2,"name":"서해안고속도로","oneway":true},"geometry":{"type":"LineString","coordinates":[[126.89834,37.43381],[126.8988,37.43467]]}},{"type":"Feature","properties":{"class":"major","highway":"motorway","sidewalk":"likely","lanes":5,"name":"서해안고속도로","oneway":true},"geometry":{"type":"LineString","coordinates":[[126.89796,37.43361],[126.89712,37.43215]]}},{"type":"Feature","properties":{"class":"major","highway":"secondary","sidewalk":"likely","lanes":3,"name":"기아로","oneway":true},"geometry":{"type":"LineString","coordinates":[[126.89943,37.43862],[126.90099,37.43864],[126.90221,37.43866]]}},{"type":"Feature","properties":{"class":"major","highway":"motorway","sidewalk":"likely","lanes":2,"name":"서해안고속도로","oneway":true},"geometry":{"type":"LineString","coordinates":[[126.89232,37.45775],[126.89288,37.45671],[126.89433,37.45401],[126.89496,37.45271],[126.89566,37.45118],[126.89906,37.44344],[126.8995,37.44245],[126.89969,37.44195],[126.89985,37.44149],[126.90001,37.44089],[126.90013,37.44028],[126.90017,37.43993],[126.90019,37.43955],[126.90019,37.43916],[126.90017,37.43881],[126.90015,37.43851],[126.90011,37.43819],[126.90004,37.43778],[126.89995,37.43741],[126.89979,37.4369],[126.89958,37.43636],[126.89941,37.43598],[126.89905,37.4353],[126.8987,37.43471]]}},{"type":"Feature","properties":{"class":"major","highway":"trunk","sidewalk":"likely","lanes":4,"name":"강남순환로","oneway":true},"geometry":{"type":"LineString","coordinates":[[126.90459,37.43829],[126.90171,37.43844],[126.89918,37.43846]]}},{"type":"Feature","properties":{"class":"minor","highway":"unclassified","sidewalk":"unknown","lanes":0,"name":"","oneway":false},"geometry":{"type":"LineString","coordinates":[[126.89599,37.43265],[126.89608,37.43279],[126.8961,37.43293],[126.89623,37.43424],[126.89627,37.4344],[126.8964,37.43493],[126.89655,37.43551],[126.897,37.43708],[126.89706,37.43771],[126.89703,37.43778],[126.89698,37.43783],[126.89687,37.4379],[126.89652,37.43803],[126.89648,37.43809],[126.89649,37.43816],[126.89679,37.43879]]}},{"type":"Feature","properties":{"class":"alley","highway":"service","sidewalk":"unknown","lanes":0,"name":"","oneway":false},"geometry":{"type":"LineString","coordinates":[[126.89706,37.43771],[126.89704,37.43845],[126.89708,37.43853],[126.89722,37.43854],[126.89747,37.43852],[126.89751,37.43852],[126.89838,37.43836],[126.89846,37.43832],[126.8985,37.43827],[126.89846,37.43811],[126.89836,37.43811],[126.89832,37.43807],[126.89811,37.43728],[126.89818,37.43716],[126.89804,37.43666],[126.89805,37.43657],[126.89739,37.43412],[126.89726,37.43379],[126.89669,37.43247],[126.89653,37.43217],[126.89648,37.4321]]}},{"type":"Feature","properties":{"class":"alley","highway":"service","sidewalk":"unknown","lanes":0,"name":"","oneway":false},"geometry":{"type":"LineString","coordinates":[[126.8968,37.4386],[126.89678,37.43853],[126.89708,37.43853]]}},{"type":"Feature","properties":{"class":"major","highway":"trunk","sidewalk":"likely","lanes":2,"name":"강남순환로","oneway":true},"geometry":{"type":"LineString","coordinates":[[126.89882,37.43846],[126.89861,37.43842],[126.89795,37.4384],[126.89761,37.43839],[126.89731,37.43835],[126.89699,37.4383],[126.89671,37.43822],[126.89638,37.43812],[126.89614,37.43802],[126.8959,37.4379],[126.8957,37.43779],[126.89548,37.43763]]}},{"type":"Feature","properties":{"class":"major","highway":"trunk","sidewalk":"likely","lanes":2,"name":"강남순환로","oneway":true},"geometry":{"type":"LineString","coordinates":[[126.89861,37.43833],[126.90184,37.43832]]}},{"type":"Feature","properties":{"class":"major","highway":"motorway_link","sidewalk":"likely","lanes":2,"name":"","oneway":true},"geometry":{"type":"LineString","coordinates":[[126.89834,37.43381],[126.89861,37.43419],[126.89894,37.43462]]}},{"type":"Feature","properties":{"class":"major","highway":"trunk_link","sidewalk":"likely","lanes":1,"name":"","oneway":true},"geometry":{"type":"LineString","coordinates":[[126.89714,37.43977],[126.89724,37.44007],[126.8975,37.44055],[126.8976,37.44078],[126.89763,37.44091],[126.89768,37.44114],[126.89769,37.4415]]}},{"type":"Feature","properties":{"class":"major","highway":"trunk","sidewalk":"likely","lanes":2,"name":"서부간선도로","oneway":true},"geometry":{"type":"LineString","coordinates":[[126.89914,37.43865],[126.89904,37.43918],[126.89894,37.43955],[126.89869,37.4401],[126.89812,37.44138],[126.89773,37.44227]]}},{"type":"Feature","properties":{"class":"major","highway":"secondary","sidewalk":"likely","lanes":6,"name":"기아로","oneway":false},"geometry":{"type":"LineString","coordinates":[[126.89504,37.43877],[126.89516,37.43877],[126.89577,37.43881],[126.89592,37.43881],[126.8962,37.43882],[126.89649,37.4388],[126.89679,37.43879],[126.89685,37.43879],[126.89713,37.43877],[126.89819,37.43871],[126.89845,37.4387],[126.8986,37.43868],[126.89904,37.43865],[126.89914,37.43865],[126.89918,37.43865],[126.89928,37.43865],[126.89935,37.43865],[126.89937,37.43865]]}},{"type":"Feature","properties":{"class":"major","highway":"motorway_link","sidewalk":"likely","lanes":2,"name":"","oneway":true},"geometry":{"type":"LineString","coordinates":[[126.89714,37.43977],[126.89722,37.43989],[126.89729,37.43995],[126.89742,37.44003],[126.89757,37.44008],[126.89757,37.44008],[126.8977,37.4401],[126.89783,37.44011],[126.898,37.4401],[126.89815,37.44007],[126.89828,37.44001],[126.89835,37.43997],[126.89843,37.43991],[126.89848,37.43985],[126.89856,37.43975],[126.89863,37.43963],[126.8987,37.43946],[126.89874,37.43929],[126.89882,37.43893],[126.89895,37.43823],[126.89902,37.43789],[126.89906,37.43765],[126.8991,37.43747],[126.89912,37.43715],[126.89912,37.43686],[126.8991,37.43661],[126.89906,37.4364],[126.89902,37.43613],[126.89892,37.43574]]}},{"type":"Feature","properties":{"class":"alley","highway":"service","sidewalk":"unknown","lanes":0,"name":"뚝방길","oneway":false},"geometry":{"type":"LineString","coordinates":[[126.89734,37.4316],[126.89743,37.43172],[126.8975,37.43182],[126.89762,37.43192],[126.89784,37.43211],[126.89807,37.43239],[126.89826,37.43267],[126.899,37.43424],[126.89926,37.43496],[126.89928,37.43503],[126.89938,37.43539],[126.89946,37.43583],[126.8996,37.43689],[126.89956,37.43769],[126.89949,37.43814],[126.89947,37.43831],[126.89945,37.43846],[126.89937,37.43857],[126.89928,37.43865]]}},{"type":"Feature","properties":{"class":"major","highway":"motorway","sidewalk":"likely","lanes":2,"name":"서해안고속도로","oneway":true},"geometry":{"type":"LineString","coordinates":[[126.8988,37.43467],[126.89914,37.43527],[126.89951,37.43594],[126.89968,37.43634],[126.89987,37.43684],[126.90005,37.43738],[126.90013,37.43777],[126.9002,37.43817],[126.90025,37.43851],[126.90028,37.4388],[126.9003,37.43917],[126.90029,37.43955],[126.90027,37.43993],[126.90022,37.4403],[126.90011,37.44092],[126.89995,37.4415],[126.89977,37.44202],[126.89959,37.44249],[126.89915,37.44348],[126.89575,37.45121],[126.89506,37.45274],[126.89441,37.45403],[126.89299,37.45672],[126.89241,37.45778]]}},{"type":"Feature","properties":{"class":"major","highway":"trunk_link","sidewalk":"likely","lanes":3,"name":"","oneway":true},"geometry":{"type":"LineString","coordinates":[[126.89882,37.43846],[126.89859,37.43849],[126.89813,37.43851],[126.89787,37.43856],[126.89765,37.43864],[126.89748,37.43876],[126.89736,37.43888],[126.89725,37.439],[126.89718,37.43917],[126.89712,37.43935],[126.89712,37.43937],[126.8971,37.43948],[126.8971,37.43962],[126.89714,37.43977]]}},{"type":"Feature","properties":{"class":"major","highway":"motorway","sidewalk":"likely","lanes":2,"name":"서해안고속도로","oneway":true},"geometry":{"type":"LineString","coordinates":[[126.8987,37.43471],[126.89796,37.43361]]}},{"type":"Feature","properties":{"class":"major","highway":"trunk","sidewalk":"likely","lanes":5,"name":"강남순환로","oneway":true},"geometry":{"type":"LineString","coordinates":[[126.89918,37.43846],[126.89882,37.43846]]}},{"type":"Feature","properties":{"class":"major","highway":"motorway_link","sidewalk":"likely","lanes":2,"name":"","oneway":true},"geometry":{"type":"LineString","coordinates":[[126.89752,37.44219],[126.89756,37.44184],[126.89754,37.44159],[126.89751,37.44138],[126.89743,37.4411],[126.89732,37.44083],[126.89703,37.44021],[126.89689,37.43995],[126.89653,37.43938]]}},{"type":"Feature","properties":{"class":"major","highway":"motorway","sidewalk":"likely","lanes":4,"name":"서해안고속도로","oneway":true},"geometry":{"type":"LineString","coordinates":[[126.89729,37.43205],[126.89732,37.4321],[126.89834,37.43381]]}},{"type":"Feature","properties":{"class":"major","highway":"trunk","sidewalk":"likely","lanes":3,"name":"강남순환로","oneway":true},"geometry":{"type":"LineString","coordinates":[[126.89556,37.43756],[126.89594,37.43782],[126.89624,37.43797],[126.89652,37.43808],[126.89677,37.43816],[126.897,37.43822],[126.89727,37.43828],[126.89752,37.4383],[126.89778,37.43832],[126.89809,37.43833],[126.89861,37.43833]]}},{"type":"Feature","properties":{"class":"major","highway":"motorway_link","sidewalk":"likely","lanes":2,"name":"","oneway":true},"geometry":{"type":"LineString","coordinates":[[126.89905,37.43569],[126.89889,37.43541],[126.89876,37.43522]]}},{"type":"Feature","properties":{"class":"major","highway":"motorway_link","sidewalk":"likely","lanes":2,"name":"","oneway":true},"geometry":{"type":"LineString","coordinates":[[126.89876,37.43522],[126.89796,37.43361]]}},{"type":"Feature","properties":{"class":"major","highway":"motorway_link","sidewalk":"likely","lanes":2,"name":"","oneway":true},"geometry":{"type":"LineString","coordinates":[[126.89894,37.43462],[126.89935,37.43534],[126.89965,37.43592],[126.89982,37.43631],[126.90003,37.43676],[126.90019,37.43719],[126.90031,37.43755],[126.90039,37.43771],[126.90049,37.43784],[126.90059,37.43794],[126.90073,37.43806],[126.90086,37.43813],[126.90107,37.43821],[126.90128,37.43826],[126.90184,37.43832]]}},{"type":"Feature","properties":{"class":"major","highway":"motorway_link","sidewalk":"likely","lanes":1,"name":"","oneway":true},"geometry":{"type":"LineString","coordinates":[[126.89667,37.43938],[126.89674,37.43953],[126.89708,37.44013],[126.89738,37.44078],[126.89749,37.44104],[126.89758,37.44139],[126.8976,37.4415],[126.89764,37.4418]]}},{"type":"Feature","properties":{"class":"major","highway":"trunk","sidewalk":"likely","lanes":2,"name":"서부간선도로","oneway":true},"geometry":{"type":"LineString","coordinates":[[126.8976,37.44104],[126.89788,37.44072],[126.89826,37.44032],[126.89842,37.44014],[126.89857,37.43993],[126.89872,37.43972],[126.89881,37.43952],[126.89892,37.43918],[126.89904,37.43865]]}},{"type":"Feature","properties":{"class":"major","highway":"motorway_link","sidewalk":"likely","lanes":2,"name":"","oneway":true},"geometry":{"type":"LineString","coordinates":[[126.89892,37.43574],[126.89881,37.43538],[126.89876,37.43522]]}},{"type":"Feature","properties":{"class":"major","highway":"trunk_link","sidewalk":"likely","lanes":0,"name":"","oneway":true},"geometry":{"type":"LineString","coordinates":[[126.89935,37.43865],[126.89924,37.43879],[126.89919,37.43886],[126.89915,37.43896],[126.89904,37.43918]]}},{"type":"Feature","properties":{"class":"major","highway":"trunk_link","sidewalk":"likely","lanes":0,"name":"","oneway":true},"geometry":{"type":"LineString","coordinates":[[126.89892,37.43918],[126.8989,37.43898],[126.89885,37.43886],[126.89872,37.43877],[126.89856,37.43875],[126.89819,37.43871]]}},{"type":"Feature","properties":{"class":"minor","highway":"residential","sidewalk":"unknown","lanes":0,"name":"","oneway":false},"geometry":{"type":"LineString","coordinates":[[126.89713,37.43877],[126.89736,37.43907],[126.8979,37.44008]]}},{"type":"Feature","properties":{"class":"alley","highway":"service","sidewalk":"unknown","lanes":0,"name":"","oneway":false},"geometry":{"type":"LineString","coordinates":[[126.89797,37.4353],[126.89787,37.43531]]}},{"type":"Feature","properties":{"class":"alley","highway":"service","sidewalk":"unknown","lanes":0,"name":"","oneway":false},"geometry":{"type":"LineString","coordinates":[[126.89787,37.43531],[126.89655,37.43551]]}},{"type":"Feature","properties":{"class":"alley","highway":"service","sidewalk":"unknown","lanes":0,"name":"","oneway":false},"geometry":{"type":"LineString","coordinates":[[126.89666,37.43138],[126.89684,37.43222],[126.89725,37.43306],[126.89759,37.43401],[126.89767,37.43433],[126.89791,37.43508],[126.89797,37.4353],[126.89806,37.43566],[126.89841,37.4368],[126.89863,37.43769],[126.89874,37.43782],[126.8989,37.43788],[126.89913,37.43797],[126.89917,37.43799],[126.89935,37.43809],[126.89949,37.43814]]}},{"type":"Feature","properties":{"class":"alley","highway":"service","sidewalk":"unknown","lanes":0,"name":"","oneway":false},"geometry":{"type":"LineString","coordinates":[[126.89797,37.4353],[126.8984,37.43523]]}},{"type":"Feature","properties":{"class":"alley","highway":"service","sidewalk":"unknown","lanes":0,"name":"","oneway":false},"geometry":{"type":"LineString","coordinates":[[126.89913,37.43797],[126.89917,37.43769],[126.89916,37.43735],[126.89901,37.43725],[126.89898,37.43654],[126.8988,37.43591],[126.8986,37.43585],[126.89849,37.43566],[126.8984,37.43523],[126.89833,37.43501],[126.89751,37.43333]]}},{"type":"Feature","properties":{"class":"alley","highway":"service","sidewalk":"unknown","lanes":0,"name":"","oneway":false},"geometry":{"type":"LineString","coordinates":[[126.89747,37.43852],[126.89635,37.43422],[126.89618,37.43272],[126.89625,37.4323],[126.89631,37.43221],[126.89645,37.43219],[126.89653,37.43217]]}},{"type":"Feature","properties":{"class":"alley","highway":"service","sidewalk":"unknown","lanes":0,"name":"","oneway":false},"geometry":{"type":"LineString","coordinates":[[126.8986,37.43868],[126.89891,37.43813],[126.89894,37.43796],[126.8989,37.43788]]}},{"type":"Feature","properties":{"class":"major","highway":"secondary","sidewalk":"likely","lanes":3,"name":"기아로","oneway":true},"geometry":{"type":"LineString","coordinates":[[126.90221,37.43877],[126.89943,37.43869]]}},{"type":"Feature","properties":{"class":"major","highway":"secondary","sidewalk":"likely","lanes":3,"name":"기아로","oneway":true},"geometry":{"type":"LineString","coordinates":[[126.89943,37.43869],[126.89937,37.43865],[126.89943,37.43862]]}},{"type":"Feature","properties":{"class":"major","highway":"secondary","sidewalk":"likely","lanes":0,"name":"기아로","oneway":false},"geometry":{"type":"LineString","coordinates":[[126.87963,37.43663],[126.88017,37.43659],[126.88034,37.43658],[126.88122,37.43651],[126.88144,37.4365],[126.88272,37.43641],[126.88399,37.43632],[126.88432,37.43629],[126.88466,37.43627]]}},{"type":"Feature","properties":{"class":"alley","highway":"service","sidewalk":"unknown","lanes":0,"name":"","oneway":false},"geometry":{"type":"LineString","coordinates":[[126.88487,37.43974],[126.88615,37.43967],[126.88751,37.4396],[126.89064,37.43942],[126.89157,37.43937],[126.89191,37.43935],[126.89202,37.43929],[126.89206,37.43919],[126.89194,37.43785],[126.89149,37.43769]]}},{"type":"Feature","properties":{"class":"alley","highway":"service","sidewalk":"unknown","lanes":0,"name":"","oneway":false},"geometry":{"type":"LineString","coordinates":[[126.88622,37.44102],[126.88762,37.44095],[126.88751,37.4396]]}},{"type":"Feature","properties":{"class":"alley","highway":"service","sidewalk":"unknown","lanes":0,"name":"","oneway":false},"geometry":{"type":"LineString","coordinates":[[126.88615,37.43967],[126.88602,37.43803],[126.88596,37.43749],[126.88588,37.43662],[126.88586,37.43635],[126.88473,37.43639],[126.88467,37.43639],[126.88461,37.43643],[126.88456,37.43645],[126.88451,37.43652],[126.88462,37.43757],[126.88468,37.43811],[126.8847,37.43834],[126.88487,37.43974],[126.88493,37.44107],[126.88497,37.44171],[126.88498,37.44205]]}},{"type":"Feature","properties":{"class":"alley","highway":"service","sidewalk":"unknown","lanes":0,"name":"","oneway":false},"geometry":{"type":"LineString","coordinates":[[126.88588,37.43662],[126.88719,37.43654],[126.88725,37.4374],[126.88724,37.43745],[126.88727,37.43796],[126.88602,37.43803],[126.88468,37.43811]]}},{"type":"Feature","properties":{"class":"alley","highway":"service","sidewalk":"unknown","lanes":0,"name":"","oneway":false},"geometry":{"type":"LineString","coordinates":[[126.88719,37.43654],[126.88715,37.43626],[126.88833,37.43621],[126.88845,37.43733]]}},{"type":"Feature","properties":{"class":"alley","highway":"service","sidewalk":"unknown","lanes":0,"name":"","oneway":false},"geometry":{"type":"LineString","coordinates":[[126.89504,37.43877],[126.89482,37.43878],[126.89445,37.43883],[126.89256,37.43895],[126.89237,37.43893],[126.89228,37.4389],[126.8922,37.43881],[126.89218,37.43871],[126.89208,37.43745],[126.89202,37.4363]]}},{"type":"Feature","properties":{"class":"major","highway":"tertiary","sidewalk":"likely","lanes":0,"name":"성채안로","oneway":false},"geometry":{"type":"LineString","coordinates":[[126.88544,37.43194],[126.88539,37.43324],[126.8853,37.43428],[126.88523,37.4348],[126.8852,37.43497],[126.88509,37.43578],[126.88502,37.43624]]}},{"type":"Feature","properties":{"class":"minor","highway":"residential","sidewalk":"unknown","lanes":0,"name":"오리로366번길","oneway":false},"geometry":{"type":"LineString","coordinates":[[126.87951,37.43515],[126.88001,37.43512],[126.88043,37.4351],[126.88085,37.43507],[126.88126,37.43504],[126.88168,37.43502],[126.8821,37.43499],[126.88253,37.43496],[126.88301,37.43493],[126.88338,37.43491],[126.88377,37.43489],[126.88422,37.43486],[126.8846,37.43483],[126.88523,37.4348]]}},{"type":"Feature","properties":{"class":"minor","highway":"residential","sidewalk":"unknown","lanes":0,"name":"오리로348번길","oneway":false},"geometry":{"type":"LineString","coordinates":[[126.8793,37.43326],[126.87966,37.43345],[126.87986,37.43351],[126.88011,37.43359],[126.88041,37.43382],[126.88074,37.43399],[126.88093,37.43409],[126.8812,37.43436],[126.88139,37.43451],[126.88165,37.43464],[126.88203,37.43441],[126.88245,37.4342],[126.8827,37.43412],[126.8829,37.43413],[126.88311,37.43414],[126.8833,37.43414],[126.88345,37.43414],[126.88368,37.43405],[126.88388,37.43396],[126.88409,37.43385],[126.88449,37.43365],[126.88539,37.43324]]}},{"type":"Feature","properties":{"class":"minor","highway":"residential","sidewalk":"unknown","lanes":0,"name":"기아로28번길","oneway":false},"geometry":{"type":"LineString","coordinates":[[126.88272,37.43641],[126.88263,37.43595],[126.88253,37.43496],[126.88245,37.4342]]}},{"type":"Feature","properties":{"class":"minor","highway":"residential","sidewalk":"unknown","lanes":0,"name":"","oneway":false},"geometry":{"type":"LineString","coordinates":[[126.88399,37.43632],[126.88388,37.43586]]}},{"type":"Feature","properties":{"class":"minor","highway":"residential","sidewalk":"unknown","lanes":0,"name":"기아로16번길","oneway":false},"geometry":{"type":"LineString","coordinates":[[126.88144,37.4365],[126.88136,37.43604],[126.88126,37.43504],[126.8812,37.43436]]}},{"type":"Feature","properties":{"class":"minor","highway":"residential","sidewalk":"unknown","lanes":0,"name":"","oneway":false},"geometry":{"type":"LineString","coordinates":[[126.87971,37.43265],[126.88049,37.43267]]}},{"type":"Feature","properties":{"class":"alley","highway":"service","sidewalk":"unknown","lanes":0,"name":"","oneway":false},"geometry":{"type":"LineString","coordinates":[[126.8822,37.43189],[126.88219,37.43243],[126.8816,37.43247],[126.88145,37.43258],[126.88137,37.43295],[126.88114,37.43305],[126.88079,37.43304]]}},{"type":"Feature","properties":{"class":"alley","highway":"service","sidewalk":"unknown","lanes":0,"name":"","oneway":false},"geometry":{"type":"LineString","coordinates":[[126.88219,37.43243],[126.88288,37.43248],[126.88313,37.43263],[126.88313,37.43303]]}},{"type":"Feature","properties":{"class":"major","highway":"secondary","sidewalk":"likely","lanes":3,"name":"덕안로","oneway":true},"geometry":{"type":"LineString","coordinates":[[126.88636,37.43195],[126.88606,37.43145],[126.88596,37.43129],[126.88584,37.43103],[126.88572,37.43076],[126.8856,37.43045],[126.8855,37.43019],[126.88543,37.42982],[126.88527,37.42875]]}},{"type":"Feature","properties":{"class":"major","highway":"tertiary","sidewalk":"likely","lanes":0,"name":"서원로","oneway":false},"geometry":{"type":"LineString","coordinates":[[126.8838,37.43192],[126.88379,37.42952],[126.88256,37.42951],[126.88129,37.42951],[126.88105,37.42951]]}},{"type":"Feature","properties":{"class":"minor","highway":"residential","sidewalk":"unknown","lanes":0,"name":"성채로50번길","oneway":false},"geometry":{"type":"LineString","coordinates":[[126.8805,37.4319],[126.8805,37.43227],[126.88049,37.43267],[126.88047,37.43306],[126.88012,37.43305],[126.87969,37.43304],[126.87971,37.43265],[126.87971,37.43226],[126.8805,37.43227]]}},{"type":"Feature","properties":{"class":"minor","highway":"residential","sidewalk":"unknown","lanes":0,"name":"","oneway":false},"geometry":{"type":"LineString","coordinates":[[126.88012,37.43305],[126.88011,37.43359]]}},{"type":"Feature","properties":{"class":"major","highway":"tertiary","sidewalk":"likely","lanes":0,"name":"기아로6번길","oneway":false},"geometry":{"type":"LineString","coordinates":[[126.88017,37.43659],[126.88007,37.43613],[126.88007,37.436],[126.88001,37.43512],[126.87996,37.43467],[126.87989,37.43415],[126.87987,37.43401],[126.87985,37.43381],[126.87985,37.43358],[126.87986,37.43351]]}},{"type":"Feature","properties":{"class":"minor","highway":"residential","sidewalk":"unknown","lanes":0,"name":"","oneway":false},"geometry":{"type":"LineString","coordinates":[[126.87946,37.43418],[126.87989,37.43415],[126.88031,37.43413],[126.88076,37.4341],[126.88093,37.43409]]}},{"type":"Feature","properties":{"class":"major","highway":"tertiary","sidewalk":"likely","lanes":0,"name":"충현로","oneway":false},"geometry":{"type":"LineString","coordinates":[[126.88007,37.43613],[126.88053,37.4361],[126.88095,37.43607],[126.88136,37.43604],[126.88177,37.43601],[126.88221,37.43598],[126.88263,37.43595],[126.88312,37.43592],[126.88349,37.43589],[126.88388,37.43586],[126.88432,37.43583],[126.88472,37.4358],[126.88509,37.43578]]}},{"type":"Feature","properties":{"class":"minor","highway":"residential","sidewalk":"unknown","lanes":0,"name":"충현로34번길","oneway":false},"geometry":{"type":"LineString","coordinates":[[126.88388,37.43586],[126.88377,37.43489],[126.88368,37.43405]]}},{"type":"Feature","properties":{"class":"minor","highway":"residential","sidewalk":"unknown","lanes":0,"name":"충현로4번길","oneway":false},"geometry":{"type":"LineString","coordinates":[[126.88053,37.4361],[126.88045,37.43546],[126.88043,37.4351],[126.88037,37.43458],[126.88031,37.43413]]}},{"type":"Feature","properties":{"class":"minor","highway":"residential","sidewalk":"unknown","lanes":0,"name":"충현로8번길","oneway":false},"geometry":{"type":"LineString","coordinates":[[126.88095,37.43607],[126.88085,37.43507],[126.88076,37.4341]]}},{"type":"Feature","properties":{"class":"minor","highway":"residential","sidewalk":"unknown","lanes":0,"name":"충현로16번길","oneway":false},"geometry":{"type":"LineString","coordinates":[[126.88177,37.43601],[126.88168,37.43502],[126.88165,37.43464]]}},{"type":"Feature","properties":{"class":"minor","highway":"residential","sidewalk":"unknown","lanes":0,"name":"충현로20번길","oneway":false},"geometry":{"type":"LineString","coordinates":[[126.88221,37.43598],[126.8821,37.43499],[126.88203,37.43441]]}},{"type":"Feature","properties":{"class":"minor","highway":"residential","sidewalk":"unknown","lanes":0,"name":"충현로28번길","oneway":false},"geometry":{"type":"LineString","coordinates":[[126.88312,37.43592],[126.88301,37.43493],[126.8829,37.43413]]}},{"type":"Feature","properties":{"class":"minor","highway":"residential","sidewalk":"unknown","lanes":0,"name":"충현로32번길","oneway":false},"geometry":{"type":"LineString","coordinates":[[126.88349,37.43589],[126.88338,37.43491],[126.8833,37.43414]]}},{"type":"Feature","properties":{"class":"minor","highway":"residential","sidewalk":"unknown","lanes":0,"name":"충현로38번길","oneway":false},"geometry":{"type":"LineString","coordinates":[[126.88432,37.43583],[126.88422,37.43486],[126.88409,37.43385]]}},{"type":"Feature","properties":{"class":"minor","highway":"residential","sidewalk":"unknown","lanes":0,"name":"충현로42번길","oneway":false},"geometry":{"type":"LineString","coordinates":[[126.88472,37.4358],[126.8846,37.43483],[126.88449,37.43365]]}},{"type":"Feature","properties":{"class":"minor","highway":"residential","sidewalk":"unknown","lanes":0,"name":"기아로62번길","oneway":false},"geometry":{"type":"LineString","coordinates":[[126.88647,37.43617],[126.88645,37.43578],[126.88643,37.43494],[126.88598,37.43494],[126.88557,37.43495],[126.8852,37.43497]]}},{"type":"Feature","properties":{"class":"minor","highway":"residential","sidewalk":"unknown","lanes":0,"name":"","oneway":false},"geometry":{"type":"LineString","coordinates":[[126.88645,37.43578],[126.88597,37.43578],[126.88541,37.43579]]}},{"type":"Feature","properties":{"class":"minor","highway":"residential","sidewalk":"unknown","lanes":0,"name":"","oneway":false},"geometry":{"type":"LineString","coordinates":[[126.88557,37.43495],[126.88541,37.43579]]}},{"type":"Feature","properties":{"class":"minor","highway":"residential","sidewalk":"unknown","lanes":0,"name":"","oneway":false},"geometry":{"type":"LineString","coordinates":[[126.88598,37.43494],[126.88597,37.43578]]}},{"type":"Feature","properties":{"class":"minor","highway":"residential","sidewalk":"unknown","lanes":0,"name":"기아로5번길","oneway":false},"geometry":{"type":"LineString","coordinates":[[126.88034,37.43658],[126.88032,37.43673],[126.88029,37.43682],[126.88032,37.43699],[126.88041,37.43741],[126.88046,37.43752],[126.88041,37.43772],[126.88036,37.43783]]}},{"type":"Feature","properties":{"class":"minor","highway":"residential","sidewalk":"unknown","lanes":0,"name":"오리로396번길","oneway":false},"geometry":{"type":"LineString","coordinates":[[126.87969,37.43769],[126.88036,37.43783],[126.881,37.43795]]}},{"type":"Feature","properties":{"class":"minor","highway":"residential","sidewalk":"unknown","lanes":0,"name":"기아로13번길","oneway":false},"geometry":{"type":"LineString","coordinates":[[126.88122,37.43651],[126.88124,37.43677],[126.88122,37.43733],[126.88115,37.43753],[126.881,37.43795]]}},{"type":"Feature","properties":{"class":"minor","highway":"residential","sidewalk":"unknown","lanes":0,"name":"기아로13번안길","oneway":false},"geometry":{"type":"LineString","coordinates":[[126.88124,37.43677],[126.8823,37.43681],[126.88276,37.43678],[126.88302,37.43677],[126.8839,37.43677]]}},{"type":"Feature","properties":{"class":"minor","highway":"residential","sidewalk":"unknown","lanes":0,"name":"","oneway":false},"geometry":{"type":"LineString","coordinates":[[126.8823,37.43681],[126.88208,37.43711],[126.88207,37.43714],[126.88204,37.43723],[126.88199,37.4375],[126.88296,37.43754]]}},{"type":"Feature","properties":{"class":"minor","highway":"residential","sidewalk":"unknown","lanes":0,"name":"","oneway":false},"geometry":{"type":"LineString","coordinates":[[126.88207,37.43714],[126.88295,37.43715],[126.88301,37.43718],[126.88322,37.43733]]}},{"type":"Feature","properties":{"class":"minor","highway":"residential","sidewalk":"unknown","lanes":0,"name":"","oneway":false},"geometry":{"type":"LineString","coordinates":[[126.88272,37.43641],[126.88276,37.43678],[126.88291,37.43687],[126.88316,37.437],[126.88339,37.43719],[126.8834,37.4372]]}},{"type":"Feature","properties":{"class":"minor","highway":"residential","sidewalk":"unknown","lanes":0,"name":"오리로406번길","oneway":false},"geometry":{"type":"LineString","coordinates":[[126.87924,37.4386],[126.87949,37.43869],[126.87984,37.43876],[126.88005,37.43884],[126.8802,37.43897],[126.88038,37.43908],[126.88061,37.43923],[126.88087,37.43929],[126.88091,37.43928],[126.88102,37.43925],[126.88147,37.43899],[126.88153,37.43889],[126.88184,37.43886],[126.88225,37.43885],[126.88247,37.43882],[126.88269,37.43876],[126.88283,37.43869],[126.88304,37.43856],[126.88328,37.4384],[126.88353,37.43831]]}},{"type":"Feature","properties":{"class":"major","highway":"secondary_link","sidewalk":"likely","lanes":2,"name":"하안로","oneway":true},"geometry":{"type":"LineString","coordinates":[[126.89516,37.43877],[126.89526,37.43907],[126.89537,37.43958],[126.89544,37.44069],[126.89544,37.44092],[126.8953,37.44121]]}},{"type":"Feature","properties":{"class":"major","highway":"tertiary","sidewalk":"likely","lanes":0,"name":"성채로","oneway":false},"geometry":{"type":"LineString","coordinates":[[126.88544,37.43194],[126.8838,37.43192],[126.8822,37.43189],[126.8805,37.4319],[126.88037,37.4319],[126.87955,37.43189]]}},{"type":"Feature","properties":{"class":"major","highway":"tertiary","sidewalk":"likely","lanes":0,"name":"자경로","oneway":false},"geometry":{"type":"LineString","coordinates":[[126.8963,37.43128],[126.89617,37.43146],[126.89605,37.43157],[126.89605,37.43247],[126.89602,37.43261],[126.89599,37.43265],[126.89597,37.43269],[126.89577,37.43286],[126.89557,37.43304],[126.89505,37.43349],[126.89489,37.43358],[126.89452,37.43375],[126.89442,37.4338],[126.89417,37.43392],[126.89389,37.43411],[126.89381,37.43415],[126.89377,37.43417],[126.8936,37.43423],[126.89338,37.43427],[126.89317,37.4343],[126.89306,37.43435],[126.89298,37.43439],[126.89282,37.43451],[126.89264,37.43468],[126.89242,37.43483],[126.89226,37.4349],[126.89181,37.43501],[126.89172,37.43503],[126.89168,37.43507],[126.89147,37.43527],[126.89116,37.43558]]}},{"type":"Feature","properties":{"class":"major","highway":"motorway_link","sidewalk":"likely","lanes":0,"name":"","oneway":true},"geometry":{"type":"LineString","coordinates":[[126.89504,37.43877],[126.89511,37.43865],[126.89521,37.4385],[126.89525,37.43839],[126.89527,37.43828],[126.89526,37.43815],[126.89524,37.43802],[126.8952,37.43788],[126.89514,37.43778],[126.89506,37.43768],[126.8946,37.43697],[126.8945,37.43678],[126.89355,37.43536]]}},{"type":"Feature","properties":{"class":"major","highway":"motorway","sidewalk":"likely","lanes":0,"name":"평택파주고속도로 지선","oneway":true},"geometry":{"type":"LineString","coordinates":[[126.89289,37.43459],[126.89106,37.43275],[126.88946,37.43129],[126.88751,37.42971],[126.88568,37.42836],[126.88103,37.42554],[126.87985,37.42471],[126.87899,37.42401],[126.87407,37.41937],[126.87265,37.41799],[126.87165,37.41724],[126.87072,37.41664],[126.86946,37.41601],[126.86814,37.4155],[126.86721,37.41522],[126.86572,37.41489]]}},{"type":"Feature","properties":{"class":"major","highway":"motorway","sidewalk":"likely","lanes":0,"name":"평택파주고속도로 지선","oneway":true},"geometry":{"type":"LineString","coordinates":[[126.86578,37.4147],[126.86704,37.41494],[126.86891,37.41546],[126.87064,37.41622],[126.87215,37.41716],[126.87308,37.4179],[126.87893,37.42353],[126.88019,37.42459],[126.88116,37.42525],[126.8823,37.42596],[126.88593,37.42819],[126.88744,37.4292],[126.88804,37.42963],[126.88873,37.43022],[126.89166,37.43292],[126.89307,37.4345]]}},{"type":"Feature","properties":{"class":"major","highway":"motorway_link","sidewalk":"likely","lanes":0,"name":"","oneway":true},"geometry":{"type":"LineString","coordinates":[[126.8947,37.43824],[126.89482,37.43827],[126.89489,37.43827],[126.89495,37.43827],[126.89502,37.43825],[126.89505,37.43821],[126.89509,37.43816],[126.89511,37.43805],[126.89509,37.43796],[126.89507,37.43789],[126.89507,37.43788],[126.89506,37.43768]]}},{"type":"Feature","properties":{"class":"major","highway":"motorway_link","sidewalk":"likely","lanes":0,"name":"","oneway":true},"geometry":{"type":"LineString","coordinates":[[126.89554,37.43819],[126.89543,37.43842],[126.89541,37.43851],[126.89545,37.4386],[126.89562,37.4387],[126.89592,37.43881]]}},{"type":"Feature","properties":{"class":"major","highway":"trunk_link","sidewalk":"likely","lanes":1,"name":"","oneway":true},"geometry":{"type":"LineString","coordinates":[[126.89536,37.43782],[126.89505,37.4375],[126.89488,37.43735],[126.89453,37.43714],[126.89425,37.43698],[126.89413,37.43687],[126.89407,37.43681],[126.89401,37.43671],[126.89398,37.43664],[126.89397,37.43658],[126.89397,37.43652],[126.89398,37.43645],[126.894,37.43637],[126.89406,37.43628],[126.8941,37.43624],[126.89414,37.4362],[126.89422,37.43615],[126.89433,37.4361],[126.89443,37.43608],[126.89455,37.43606],[126.89463,37.43607],[126.89471,37.43608],[126.8948,37.4361],[126.89487,37.43613],[126.89496,37.43618],[126.89503,37.43624],[126.89507,37.4363],[126.8951,37.43634],[126.89515,37.4364],[126.89517,37.43646],[126.89522,37.43666]]}},{"type":"Feature","properties":{"class":"alley","highway":"service","sidewalk":"unknown","lanes":0,"name":"","oneway":false},"geometry":{"type":"LineString","coordinates":[[126.88353,37.43831],[126.88451,37.43834]]}},{"type":"Feature","properties":{"class":"alley","highway":"service","sidewalk":"unknown","lanes":0,"name":"","oneway":false},"geometry":{"type":"LineString","coordinates":[[126.88451,37.43834],[126.88433,37.43647],[126.88433,37.43642],[126.88432,37.43629]]}},{"type":"Feature","properties":{"class":"major","highway":"secondary_link","sidewalk":"likely","lanes":0,"name":"","oneway":true},"geometry":{"type":"LineString","coordinates":[[126.8917,37.43608],[126.89148,37.43601],[126.89114,37.43598],[126.89057,37.43597]]}},{"type":"Feature","properties":{"class":"major","highway":"secondary_link","sidewalk":"likely","lanes":2,"name":"기아로","oneway":true},"geometry":{"type":"LineString","coordinates":[[126.8929,37.43684],[126.89314,37.43696],[126.89428,37.43787],[126.89458,37.43811],[126.8947,37.43824],[126.89491,37.43844],[126.89511,37.43865],[126.89516,37.43877]]}},{"type":"Feature","properties":{"class":"major","highway":"secondary_link","sidewalk":"likely","lanes":2,"name":"기아로","oneway":true},"geometry":{"type":"LineString","coordinates":[[126.89438,37.43826],[126.89315,37.43724],[126.89282,37.43691]]}},{"type":"Feature","properties":{"class":"major","highway":"secondary_link","sidewalk":"likely","lanes":2,"name":"하안로","oneway":true},"geometry":{"type":"LineString","coordinates":[[126.8953,37.44121],[126.89516,37.44092],[126.89509,37.43962],[126.89508,37.43945],[126.89508,37.43932],[126.89508,37.43904],[126.89504,37.43877]]}},{"type":"Feature","properties":{"class":"major","highway":"secondary","sidewalk":"likely","lanes":4,"name":"소하지하도로","oneway":false},"geometry":{"type":"LineString","coordinates":[[126.8953,37.44121],[126.89531,37.44078],[126.89524,37.43962]]}},{"type":"Feature","properties":{"class":"major","highway":"secondary","sidewalk":"likely","lanes":4,"name":"소하지하도로","oneway":false},"geometry":{"type":"LineString","coordinates":[[126.89301,37.437],[126.89447,37.43816]]}},{"type":"Feature","properties":{"class":"major","highway":"secondary_link","sidewalk":"likely","lanes":1,"name":"하안로","oneway":true},"geometry":{"type":"LineString","coordinates":[[126.89509,37.43962],[126.89511,37.43952],[126.89514,37.43949],[126.89519,37.43946],[126.89524,37.43948],[126.89529,37.43951],[126.89537,37.43958]]}},{"type":"Feature","properties":{"class":"major","highway":"secondary_link","sidewalk":"likely","lanes":1,"name":"기아로","oneway":true},"geometry":{"type":"LineString","coordinates":[[126.89458,37.43811],[126.89459,37.43815],[126.89457,37.4382],[126.89452,37.43825],[126.89445,37.43826],[126.89438,37.43826]]}},{"type":"Feature","properties":{"class":"major","highway":"motorway_link","sidewalk":"likely","lanes":0,"name":"","oneway":true},"geometry":{"type":"LineString","coordinates":[[126.89371,37.43527],[126.89426,37.43589],[126.89442,37.43603],[126.89459,37.43615],[126.89474,37.43621],[126.89503,37.43635],[126.89525,37.4365],[126.89543,37.43663],[126.89557,37.4368],[126.89571,37.43697],[126.89599,37.4376],[126.89607,37.43815]]}},{"type":"Feature","properties":{"class":"major","highway":"secondary","sidewalk":"likely","lanes":4,"name":"소하지하도로","oneway":false},"geometry":{"type":"LineString","coordinates":[[126.89447,37.43816],[126.89468,37.43835],[126.89482,37.43851],[126.89495,37.43864],[126.89502,37.43875],[126.89509,37.43888],[126.89514,37.43906],[126.89518,37.43919],[126.89521,37.43931],[126.89524,37.43962]]}},{"type":"Feature","properties":{"class":"major","highway":"secondary","sidewalk":"likely","lanes":3,"name":"기아로","oneway":true},"geometry":{"type":"LineString","coordinates":[[126.89116,37.43558],[126.89201,37.43616]]}},{"type":"Feature","properties":{"class":"alley","highway":"service","sidewalk":"unknown","lanes":0,"name":"","oneway":false},"geometry":{"type":"LineString","coordinates":[[126.8853,37.43428],[126.88589,37.43426],[126.88639,37.43424],[126.88658,37.4342],[126.88675,37.43417],[126.88695,37.4341],[126.8871,37.43407],[126.88724,37.43405],[126.88749,37.43411],[126.88765,37.43418],[126.88781,37.43428],[126.88788,37.4344],[126.88791,37.43452],[126.88791,37.43459],[126.88791,37.43464],[126.88788,37.43475],[126.88779,37.43499],[126.88781,37.43535],[126.88782,37.43545],[126.88785,37.43575],[126.88788,37.4361]]}},{"type":"Feature","properties":{"class":"alley","highway":"service","sidewalk":"unknown","lanes":0,"name":"","oneway":false},"geometry":{"type":"LineString","coordinates":[[126.88724,37.43405],[126.8874,37.43392],[126.88754,37.43382]]}},{"type":"Feature","properties":{"class":"alley","highway":"service","sidewalk":"unknown","lanes":0,"name":"","oneway":false},"geometry":{"type":"LineString","coordinates":[[126.88639,37.43424],[126.88645,37.43467],[126.88649,37.43485]]}},{"type":"Feature","properties":{"class":"major","highway":"secondary","sidewalk":"likely","lanes":0,"name":"기아로","oneway":false},"geometry":{"type":"LineString","coordinates":[[126.89057,37.43597],[126.89072,37.43593],[126.89082,37.43591],[126.89088,37.43585],[126.89095,37.43579],[126.89107,37.43567]]}},{"type":"Feature","properties":{"class":"major","highway":"secondary","sidewalk":"likely","lanes":3,"name":"기아로","oneway":true},"geometry":{"type":"LineString","coordinates":[[126.89201,37.43616],[126.8929,37.43684]]}},{"type":"Feature","properties":{"class":"major","highway":"motorway_link","sidewalk":"likely","lanes":1,"name":"","oneway":true},"geometry":{"type":"LineString","coordinates":[[126.89482,37.43705],[126.8946,37.43674],[126.89454,37.43658]]}},{"type":"Feature","properties":{"class":"major","highway":"secondary_link","sidewalk":"likely","lanes":0,"name":"","oneway":true},"geometry":{"type":"LineString","coordinates":[[126.88561,37.43194],[126.88582,37.4318],[126.8859,37.43175],[126.88594,37.43171],[126.88597,37.43166],[126.88599,37.43158],[126.88595,37.43147],[126.88596,37.43129]]}},{"type":"Feature","properties":{"class":"alley","highway":"service","sidewalk":"unknown","lanes":0,"name":"","oneway":false},"geometry":{"type":"LineString","coordinates":[[126.88462,37.43757],[126.88596,37.43749],[126.88725,37.4374],[126.88845,37.43733],[126.89091,37.43722],[126.89096,37.43722]]}},{"type":"Feature","properties":{"class":"alley","highway":"service","sidewalk":"unknown","lanes":0,"name":"","oneway":false},"geometry":{"type":"LineString","coordinates":[[126.89157,37.43937],[126.89172,37.44115],[126.89176,37.4415],[126.89179,37.44162],[126.89261,37.44158]]}},{"type":"Feature","properties":{"class":"major","highway":"motorway_link","sidewalk":"likely","lanes":1,"name":"","oneway":true},"geometry":{"type":"LineString","coordinates":[[126.89607,37.43815],[126.89611,37.43826],[126.89611,37.43827],[126.8962,37.4385],[126.89625,37.43861],[126.89634,37.43882],[126.89667,37.43938]]}},{"type":"Feature","properties":{"class":"major","highway":"secondary","sidewalk":"likely","lanes":0,"name":"기아로","oneway":false},"geometry":{"type":"LineString","coordinates":[[126.88466,37.43627],[126.88502,37.43624],[126.88647,37.43617],[126.88788,37.4361],[126.89057,37.43597]]}},{"type":"Feature","properties":{"class":"major","highway":"trunk_link","sidewalk":"likely","lanes":1,"name":"","oneway":true},"geometry":{"type":"LineString","coordinates":[[126.89522,37.43666],[126.89527,37.43696],[126.89531,37.43717],[126.89538,37.43731],[126.89546,37.43744],[126.8955,37.43751]]}},{"type":"Feature","properties":{"class":"major","highway":"motorway","sidewalk":"likely","lanes":4,"name":"서해안고속도로","oneway":true},"geometry":{"type":"LineString","coordinates":[[126.89667,37.4308],[126.89676,37.43099],[126.89701,37.43154],[126.89729,37.43205]]}},{"type":"Feature","properties":{"class":"major","highway":"motorway","sidewalk":"likely","lanes":4,"name":"서해안고속도로","oneway":true},"geometry":{"type":"LineString","coordinates":[[126.89712,37.43215],[126.89684,37.43158],[126.89664,37.43116],[126.89651,37.43083]]}},{"type":"Feature","properties":{"class":"major","highway":"motorway_link","sidewalk":"likely","lanes":0,"name":"","oneway":true},"geometry":{"type":"LineString","coordinates":[[126.89571,37.43697],[126.89579,37.43723],[126.89585,37.43752],[126.89584,37.43764],[126.89583,37.43772],[126.89574,37.43788],[126.89567,37.43799],[126.89554,37.43819],[126.8954,37.43837],[126.89533,37.43848],[126.89516,37.43877]]}},{"type":"Feature","properties":{"class":"major","highway":"motorway_link","sidewalk":"likely","lanes":2,"name":"","oneway":true},"geometry":{"type":"LineString","coordinates":[[126.89653,37.43938],[126.89536,37.43782]]}},{"type":"Feature","properties":{"class":"major","highway":"motorway","sidewalk":"likely","lanes":2,"name":"평택파주고속도로 지선","oneway":true},"geometry":{"type":"LineString","coordinates":[[126.89548,37.43763],[126.89518,37.43735],[126.89491,37.43704],[126.89454,37.43658],[126.89355,37.43536],[126.89289,37.43459]]}},{"type":"Feature","properties":{"class":"major","highway":"motorway","sidewalk":"likely","lanes":2,"name":"평택파주고속도로 지선","oneway":true},"geometry":{"type":"LineString","coordinates":[[126.89307,37.4345],[126.89371,37.43527],[126.89403,37.43574],[126.89466,37.43654],[126.89514,37.43713],[126.89538,37.4374],[126.8955,37.43751]]}},{"type":"Feature","properties":{"class":"alley","highway":"service","sidewalk":"unknown","lanes":0,"name":"","oneway":false},"geometry":{"type":"LineString","coordinates":[[126.89149,37.43769],[126.89158,37.43757],[126.89157,37.43747],[126.89156,37.43735],[126.89147,37.43728],[126.89117,37.43729],[126.89111,37.43734],[126.8911,37.43735],[126.89112,37.43762],[126.89125,37.43772],[126.89147,37.43771],[126.89149,37.43769]]}},{"type":"Feature","properties":{"class":"alley","highway":"service","sidewalk":"unknown","lanes":0,"name":"","oneway":false},"geometry":{"type":"LineString","coordinates":[[126.89157,37.43747],[126.89179,37.43746],[126.89208,37.43745]]}},{"type":"Feature","properties":{"class":"alley","highway":"service","sidewalk":"unknown","lanes":0,"name":"","oneway":false},"geometry":{"type":"LineString","coordinates":[[126.89096,37.43722],[126.89111,37.43734]]}},{"type":"Feature","properties":{"class":"alley","highway":"service","sidewalk":"unknown","lanes":0,"name":"","oneway":false},"geometry":{"type":"LineString","coordinates":[[126.89084,37.43621],[126.89091,37.43722]]}},{"type":"Feature","properties":{"class":"alley","highway":"service","sidewalk":"unknown","lanes":0,"name":"","oneway":false},"geometry":{"type":"LineString","coordinates":[[126.89084,37.43621],[126.89116,37.43619],[126.89131,37.43621]]}},{"type":"Feature","properties":{"class":"alley","highway":"service","sidewalk":"unknown","lanes":0,"name":"","oneway":false},"geometry":{"type":"LineString","coordinates":[[126.8871,37.4355],[126.88709,37.4353]]}},{"type":"Feature","properties":{"class":"alley","highway":"service","sidewalk":"unknown","lanes":0,"name":"","oneway":false},"geometry":{"type":"LineString","coordinates":[[126.88757,37.43546],[126.88756,37.43536],[126.88754,37.43531],[126.88753,37.43529],[126.8875,37.43527],[126.8873,37.43529],[126.88728,37.43531],[126.88726,37.43533],[126.88726,37.43536],[126.88728,37.43549]]}},{"type":"Feature","properties":{"class":"alley","highway":"service","sidewalk":"unknown","lanes":0,"name":"","oneway":false},"geometry":{"type":"LineString","coordinates":[[126.88791,37.43459],[126.88818,37.43458],[126.88833,37.43471],[126.88858,37.43449],[126.88842,37.43436],[126.88818,37.43458]]}},{"type":"Feature","properties":{"class":"alley","highway":"service","sidewalk":"unknown","lanes":0,"name":"","oneway":false},"geometry":{"type":"LineString","coordinates":[[126.88779,37.43499],[126.88874,37.43494]]}},{"type":"Feature","properties":{"class":"alley","highway":"service","sidewalk":"unknown","lanes":0,"name":"","oneway":false},"geometry":{"type":"LineString","coordinates":[[126.88852,37.43542],[126.88853,37.43526]]}},{"type":"Feature","properties":{"class":"alley","highway":"service","sidewalk":"unknown","lanes":0,"name":"","oneway":false},"geometry":{"type":"LineString","coordinates":[[126.88674,37.43551],[126.8871,37.4355],[126.88728,37.43549],[126.88757,37.43546],[126.88782,37.43545],[126.88798,37.43544],[126.88852,37.43542],[126.88868,37.43542],[126.88879,37.43541],[126.88884,37.43539],[126.88886,37.43536],[126.88887,37.43532],[126.88886,37.4353],[126.8888,37.43527],[126.88874,37.43526],[126.88853,37.43526],[126.88796,37.43528],[126.88798,37.43544]]}},{"type":"Feature","properties":{"class":"major","highway":"secondary","sidewalk":"likely","lanes":3,"name":"덕안로","oneway":true},"geometry":{"type":"LineString","coordinates":[[126.89107,37.43567],[126.89079,37.43549],[126.88746,37.43298],[126.88715,37.43273],[126.8869,37.43248],[126.88659,37.43216],[126.88636,37.43195]]}},{"type":"Feature","properties":{"class":"major","highway":"secondary","sidewalk":"likely","lanes":3,"name":"덕안로","oneway":true},"geometry":{"type":"LineString","coordinates":[[126.88658,37.43195],[126.8867,37.43208],[126.88688,37.43227],[126.88705,37.43244],[126.88731,37.43269],[126.89116,37.43558]]}},{"type":"Feature","properties":{"class":"alley","highway":"service","sidewalk":"unknown","lanes":0,"name":"","oneway":false},"geometry":{"type":"LineString","coordinates":[[126.89168,37.43507],[126.89093,37.43524],[126.89065,37.43507],[126.89062,37.43504],[126.89062,37.43501],[126.89065,37.43497],[126.8907,37.43495],[126.89101,37.43487],[126.89108,37.43483],[126.89114,37.43476],[126.89121,37.43468],[126.89134,37.43461],[126.89147,37.43455],[126.89158,37.4345],[126.89164,37.4345],[126.8917,37.43454],[126.89174,37.43459],[126.89182,37.43481]]}},{"type":"Feature","properties":{"class":"major","highway":"secondary_link","sidewalk":"likely","lanes":0,"name":"","oneway":true},"geometry":{"type":"LineString","coordinates":[[126.89577,37.43881],[126.89569,37.43883],[126.89558,37.43885],[126.89552,37.43886],[126.89545,37.43888],[126.89541,37.4389],[126.89536,37.43895],[126.8953,37.43901],[126.89526,37.43907]]}},{"type":"Feature","properties":{"class":"major","highway":"secondary_link","sidewalk":"likely","lanes":0,"name":"","oneway":true},"geometry":{"type":"LineString","coordinates":[[126.89445,37.43883],[126.89463,37.43873],[126.89469,37.43869],[126.89472,37.43865],[126.89474,37.43862],[126.89475,37.43858],[126.89474,37.43855],[126.89474,37.43851],[126.89471,37.43845]]}},{"type":"Feature","properties":{"class":"major","highway":"secondary_link","sidewalk":"likely","lanes":0,"name":"","oneway":true},"geometry":{"type":"LineString","coordinates":[[126.89072,37.43593],[126.89081,37.43582],[126.89083,37.43574],[126.89083,37.43569],[126.89083,37.43565],[126.89081,37.43558],[126.89079,37.43549]]}},{"type":"Feature","properties":{"class":"alley","highway":"service","sidewalk":"unknown","lanes":0,"name":"","oneway":false},"geometry":{"type":"LineString","coordinates":[[126.89448,37.43399],[126.89439,37.43396],[126.89438,37.43399],[126.89439,37.43402],[126.89441,37.43408],[126.89443,37.43415],[126.89445,37.43419],[126.89525,37.43564]]}},{"type":"Feature","properties":{"class":"alley","highway":"service","sidewalk":"unknown","lanes":0,"name":"","oneway":false},"geometry":{"type":"LineString","coordinates":[[126.89648,37.43809],[126.89638,37.43795],[126.89638,37.43786],[126.89638,37.43782],[126.89636,37.43775],[126.89633,37.43767],[126.89534,37.43583]]}},{"type":"Feature","properties":{"class":"alley","highway":"service","sidewalk":"unknown","lanes":0,"name":"","oneway":false},"geometry":{"type":"LineString","coordinates":[[126.89442,37.4338],[126.89448,37.43399],[126.89455,37.434],[126.8946,37.43404],[126.89464,37.4341],[126.89502,37.43477],[126.89541,37.43547],[126.89549,37.43563],[126.89551,37.43566],[126.89551,37.43571],[126.89548,37.43573],[126.89528,37.43581]]}},{"type":"Feature","properties":{"class":"alley","highway":"service","sidewalk":"unknown","lanes":0,"name":"","oneway":false},"geometry":{"type":"LineString","coordinates":[[126.89986,37.43197],[126.90003,37.43192],[126.90006,37.43185],[126.90009,37.4318],[126.90009,37.43149]]}},{"type":"Feature","properties":{"class":"alley","highway":"service","sidewalk":"unknown","lanes":0,"name":"","oneway":false},"geometry":{"type":"LineString","coordinates":[[126.89962,37.43184],[126.8998,37.43193],[126.89983,37.43195],[126.89985,37.43196],[126.89986,37.43197]]}},{"type":"Feature","properties":{"class":"alley","highway":"service","sidewalk":"unknown","lanes":0,"name":"","oneway":false},"geometry":{"type":"LineString","coordinates":[[126.8998,37.43224],[126.89985,37.43203],[126.89986,37.432],[126.89986,37.43197]]}},{"type":"Feature","properties":{"class":"major","highway":"secondary","sidewalk":"likely","lanes":6,"name":"기아로","oneway":true},"geometry":{"type":"LineString","coordinates":[[126.8917,37.43608],[126.89107,37.43567]]}},{"type":"Feature","properties":{"class":"major","highway":"secondary","sidewalk":"likely","lanes":0,"name":"기아로","oneway":false},"geometry":{"type":"LineString","coordinates":[[126.89107,37.43567],[126.89116,37.43558]]}},{"type":"Feature","properties":{"class":"major","highway":"secondary","sidewalk":"likely","lanes":3,"name":"기아로","oneway":true},"geometry":{"type":"LineString","coordinates":[[126.89282,37.43691],[126.89271,37.43683],[126.8922,37.43644],[126.89202,37.4363]]}},{"type":"Feature","properties":{"class":"major","highway":"secondary","sidewalk":"likely","lanes":2,"name":"기아로","oneway":true},"geometry":{"type":"LineString","coordinates":[[126.8929,37.43684],[126.89301,37.437]]}},{"type":"Feature","properties":{"class":"major","highway":"secondary","sidewalk":"likely","lanes":2,"name":"기아로","oneway":true},"geometry":{"type":"LineString","coordinates":[[126.89301,37.437],[126.89282,37.43691]]}},{"type":"Feature","properties":{"class":"alley","highway":"service","sidewalk":"unknown","lanes":0,"name":"","oneway":false},"geometry":{"type":"LineString","coordinates":[[126.89202,37.4363],[126.89201,37.43616]]}},{"type":"Feature","properties":{"class":"major","highway":"secondary","sidewalk":"likely","lanes":3,"name":"기아로","oneway":true},"geometry":{"type":"LineString","coordinates":[[126.89202,37.4363],[126.8917,37.43608]]}},{"type":"Feature","properties":{"class":"major","highway":"secondary","sidewalk":"likely","lanes":3,"name":"덕안로","oneway":true},"geometry":{"type":"LineString","coordinates":[[126.88542,37.42872],[126.88558,37.42983],[126.88567,37.43023],[126.88577,37.43051],[126.88588,37.43075],[126.88601,37.43106],[126.88613,37.43128],[126.88621,37.43144],[126.88658,37.43195]]}},{"type":"Feature","properties":{"class":"major","highway":"motorway_link","sidewalk":"likely","lanes":2,"name":"","oneway":true},"geometry":{"type":"LineString","coordinates":[[126.89536,37.43782],[126.89482,37.43705]]}},{"type":"Feature","properties":{"class":"major","highway":"trunk_link","sidewalk":"likely","lanes":2,"name":"평택파주고속도로 지선","oneway":true},"geometry":{"type":"LineString","coordinates":[[126.8955,37.43751],[126.89556,37.43756]]}},{"type":"Feature","properties":{"class":"major","highway":"secondary","sidewalk":"likely","lanes":0,"name":"오리로","oneway":false},"geometry":{"type":"LineString","coordinates":[[126.88105,37.42951],[126.88101,37.42978],[126.88091,37.43005],[126.88075,37.43031],[126.88044,37.43074],[126.88014,37.43114],[126.87986,37.43144],[126.87972,37.43164],[126.87955,37.43189]]}},{"type":"Feature","properties":{"class":"major","highway":"secondary_link","sidewalk":"likely","lanes":2,"name":"하안로","oneway":true},"geometry":{"type":"LineString","coordinates":[[126.89504,37.43877],[126.895,37.4387],[126.89493,37.43863],[126.89481,37.43851],[126.89471,37.43845],[126.89438,37.43826]]}},{"type":"Feature","properties":{"class":"alley","highway":"service","sidewalk":"unknown","lanes":0,"name":"","oneway":false},"geometry":{"type":"LineString","coordinates":[[126.8964,37.43493],[126.89633,37.43494],[126.89629,37.43495],[126.89626,37.43502],[126.89628,37.43529],[126.89624,37.43544],[126.89618,37.43549],[126.89613,37.4355],[126.89599,37.43549],[126.89588,37.43545],[126.89576,37.43545],[126.89549,37.43563]]}},{"type":"Feature","properties":{"class":"alley","highway":"service","sidewalk":"unknown","lanes":0,"name":"","oneway":false},"geometry":{"type":"LineString","coordinates":[[126.89655,37.43551],[126.89641,37.43553],[126.89629,37.43551],[126.89618,37.43549]]}},{"type":"Feature","properties":{"class":"minor","highway":"unclassified","sidewalk":"unknown","lanes":0,"name":"","oneway":false},"geometry":{"type":"LineString","coordinates":[[126.89381,37.43415],[126.89378,37.43445],[126.89368,37.43457],[126.89355,37.43465],[126.89348,37.4347],[126.89345,37.43474],[126.89349,37.43483],[126.8938,37.43528],[126.89427,37.43574],[126.8945,37.4359],[126.8947,37.43597]]}},{"type":"Feature","properties":{"class":"minor","highway":"unclassified","sidewalk":"unknown","lanes":0,"name":"","oneway":false},"geometry":{"type":"LineString","coordinates":[[126.8945,37.4359],[126.89442,37.43596]]}},{"type":"Feature","properties":{"class":"minor","highway":"unclassified","sidewalk":"unknown","lanes":0,"name":"","oneway":false},"geometry":{"type":"LineString","coordinates":[[126.89403,37.43617],[126.89398,37.43621]]}},{"type":"Feature","properties":{"class":"minor","highway":"unclassified","sidewalk":"unknown","lanes":0,"name":"","oneway":false},"geometry":{"type":"LineString","coordinates":[[126.89442,37.43596],[126.89403,37.43617]]}},{"type":"Feature","properties":{"class":"minor","highway":"unclassified","sidewalk":"unknown","lanes":0,"name":"","oneway":false},"geometry":{"type":"LineString","coordinates":[[126.89242,37.43483],[126.89255,37.43483],[126.89281,37.43483],[126.89288,37.43485],[126.89315,37.43508],[126.8934,37.4354],[126.89384,37.43604],[126.89398,37.43621],[126.8942,37.4367],[126.89492,37.43781],[126.89499,37.43796],[126.89502,37.43801],[126.89501,37.43806],[126.89495,37.43811],[126.89486,37.43815],[126.89481,37.43814],[126.89466,37.43804],[126.89449,37.43788],[126.89443,37.43783],[126.89438,37.43781],[126.89428,37.43787]]}},{"type":"Feature","properties":{"class":"alley","highway":"service","sidewalk":"unknown","lanes":0,"name":"","oneway":false},"geometry":{"type":"LineString","coordinates":[[126.89685,37.43879],[126.8968,37.4386]]}},{"type":"Feature","properties":{"class":"major","highway":"tertiary","sidewalk":"likely","lanes":0,"name":"성채로","oneway":false},"geometry":{"type":"LineString","coordinates":[[126.88658,37.43195],[126.88636,37.43195],[126.88561,37.43194],[126.88544,37.43194]]}},{"type":"Feature","properties":{"class":"minor","highway":"residential","sidewalk":"unknown","lanes":0,"name":"","oneway":false},"geometry":{"type":"LineString","coordinates":[[126.88433,37.43647],[126.8834,37.4372],[126.88322,37.43733],[126.88296,37.43754]]}}]}