{"type":"FeatureCollection","features":[{"type":"Feature","properties":{"class":"minor","highway":"unclassified","sidewalk":"unknown","lanes":0,"name":"광명로","oneway":false},"geometry":{"type":"LineString","coordinates":[[127.01717,37.43147],[127.01732,37.4307],[127.01734,37.43049],[127.01723,37.43012],[127.01738,37.43001],[127.01836,37.42958],[127.01873,37.42941],[127.01913,37.42931],[127.01943,37.42931],[127.01981,37.4294],[127.01984,37.42942],[127.0204,37.42985],[127.02056,37.42999],[127.02083,37.43025],[127.02083,37.43054]]}},{"type":"Feature","properties":{"class":"alley","highway":"service","sidewalk":"unknown","lanes":0,"name":"동물원둘레길","oneway":false},"geometry":{"type":"LineString","coordinates":[[127.01644,37.42853],[127.01651,37.42853],[127.01664,37.42856],[127.01688,37.42858],[127.01724,37.42853],[127.0176,37.42849],[127.01789,37.42839],[127.01803,37.42823],[127.0181,37.42808],[127.01815,37.42797],[127.01829,37.42771],[127.0184,37.42764],[127.01843,37.42763],[127.01865,37.42749],[127.01883,37.42739],[127.01888,37.42736],[127.01927,37.42718],[127.01934,37.42716],[127.01948,37.42711],[127.0198,37.42707],[127.01999,37.42705],[127.02025,37.42705],[127.02047,37.42702],[127.02087,37.42692],[127.02097,37.42684],[127.02122,37.42656],[127.02136,37.4264],[127.02158,37.42628],[127.02178,37.42621],[127.02202,37.42599],[127.02211,37.42585],[127.02217,37.42566],[127.02212,37.42541],[127.02195,37.42498],[127.02189,37.42463],[127.02194,37.42433]]}},{"type":"Feature","properties":{"class":"alley","highway":"pedestrian","sidewalk":"unknown","lanes":0,"name":"","oneway":false},"geometry":{"type":"LineString","coordinates":[[127.0204,37.42985],[127.02037,37.42991]]}},{"type":"Feature","properties":{"class":"alley","highway":"service","sidewalk":"unknown","lanes":0,"name":"동물원둘레길","oneway":false},"geometry":{"type":"LineString","coordinates":[[127.02638,37.41889],[127.02627,37.419],[127.02617,37.41908],[127.02536,37.4196],[127.02467,37.42002],[127.02453,37.42012],[127.0244,37.42023],[127.02432,37.42039],[127.02433,37.42048],[127.02436,37.42057],[127.02456,37.42071],[127.02463,37.42085],[127.02463,37.42099],[127.02462,37.42109],[127.0246,37.42122],[127.02458,37.42131],[127.02467,37.42148],[127.02476,37.42162],[127.02495,37.4219],[127.02512,37.4221],[127.02532,37.42225],[127.0257,37.42231],[127.02609,37.42228],[127.02651,37.42228],[127.02659,37.42229],[127.02676,37.42239],[127.02682,37.4225],[127.02683,37.4226],[127.02685,37.42278],[127.02683,37.42293],[127.02681,37.42308],[127.02669,37.42333],[127.02661,37.42347],[127.02651,37.42355],[127.02632,37.42365],[127.02613,37.4237],[127.02518,37.42388],[127.02464,37.42398],[127.02436,37.42411],[127.0241,37.42433],[127.0241,37.42454],[127.02414,37.42481],[127.02416,37.42506],[127.02416,37.4251],[127.02415,37.42518],[127.02411,37.42526],[127.02402,37.42551],[127.02392,37.42578],[127.02381,37.42596],[127.02363,37.42608],[127.02338,37.42614],[127.02305,37.42621],[127.0228,37.42629],[127.0226,37.42644],[127.02245,37.4266],[127.02228,37.42679],[127.02217,37.42737],[127.02214,37.42746],[127.02208,37.42752],[127.02188,37.42756],[127.02119,37.4275],[127.02082,37.42748],[127.02047,37.42757],[127.01974,37.42788],[127.01946,37.428],[127.01933,37.42806],[127.01912,37.4281],[127.01896,37.42808],[127.01875,37.42808],[127.0187,37.42808],[127.01859,37.42814],[127.01844,37.42832],[127.01831,37.42854],[127.01821,37.42886],[127.01822,37.42898],[127.01822,37.42899],[127.01822,37.429]]}},{"type":"Feature","properties":{"class":"minor","highway":"unclassified","sidewalk":"unknown","lanes":0,"name":"광명로","oneway":false},"geometry":{"type":"LineString","coordinates":[[127.0237,37.4354],[127.02395,37.43492],[127.024,37.43483],[127.02403,37.43474],[127.02405,37.43466],[127.02407,37.43455],[127.02407,37.4345],[127.02407,37.43447],[127.02407,37.43443],[127.02405,37.43433],[127.02403,37.43426],[127.02398,37.43412],[127.02391,37.43397],[127.02387,37.4339],[127.02383,37.43385],[127.02376,37.43376],[127.02369,37.43371],[127.02363,37.43366],[127.02353,37.4336],[127.02339,37.43353],[127.0233,37.43349],[127.02322,37.43346],[127.0231,37.43343],[127.023,37.4334],[127.02291,37.43339],[127.02278,37.43338],[127.02249,37.43335],[127.02237,37.43334],[127.02225,37.43332],[127.02207,37.4333],[127.02195,37.43327],[127.02182,37.43323],[127.02164,37.43318],[127.02142,37.43309],[127.02127,37.43303],[127.02117,37.43298],[127.02077,37.43278],[127.02046,37.43261],[127.02033,37.43254],[127.02021,37.43248],[127.02014,37.43245],[127.02006,37.43242],[127.01995,37.43238],[127.0198,37.43234],[127.01971,37.43231],[127.01963,37.4323],[127.01955,37.43229],[127.01909,37.43225],[127.01891,37.43224],[127.01882,37.43223],[127.01875,37.43222],[127.01868,37.43221],[127.0185,37.43217],[127.0184,37.43214],[127.01833,37.43212],[127.01826,37.43209],[127.01815,37.43204],[127.01802,37.43198],[127.01776,37.43187],[127.01747,37.43173],[127.01741,37.43169],[127.01736,37.43166],[127.0172,37.43154],[127.01718,37.4315],[127.01717,37.43147]]}},{"type":"Feature","properties":{"class":"minor","highway":"unclassified","sidewalk":"unknown","lanes":0,"name":"광명로","oneway":false},"geometry":{"type":"LineString","coordinates":[[127.00957,37.43892],[127.00981,37.43903],[127.01015,37.43911],[127.01037,37.43918],[127.01124,37.4396],[127.01138,37.43966],[127.0115,37.43966],[127.01163,37.43959],[127.01174,37.4395],[127.01183,37.43932],[127.01199,37.43915],[127.01216,37.43907],[127.01251,37.439],[127.01292,37.43882],[127.01313,37.43865],[127.01332,37.43845],[127.01364,37.43834],[127.01376,37.43822],[127.0139,37.43787],[127.01402,37.43757],[127.01407,37.43751],[127.01416,37.43742],[127.01432,37.43739],[127.0145,37.43734],[127.01462,37.43736],[127.01475,37.43754],[127.0149,37.43775],[127.0151,37.4379],[127.01544,37.43828],[127.01554,37.43831],[127.01564,37.43834],[127.0163,37.43831],[127.01646,37.43824],[127.01665,37.43812],[127.01671,37.43801],[127.01671,37.4379],[127.01668,37.43773],[127.01647,37.43731],[127.01647,37.43721],[127.01653,37.43711],[127.0166,37.43702],[127.01665,37.43697],[127.01682,37.43686],[127.01697,37.43681],[127.01714,37.43683],[127.01755,37.437],[127.01771,37.43709],[127.01798,37.43715],[127.01821,37.43712],[127.01841,37.43701],[127.01849,37.43679],[127.0185,37.43674],[127.01851,37.43669],[127.0185,37.43662],[127.01848,37.43648],[127.01847,37.4364],[127.01847,37.43633],[127.01849,37.43626],[127.01853,37.43619],[127.0186,37.43612],[127.01867,37.43606],[127.01874,37.43601],[127.01879,37.43599],[127.01882,37.43598],[127.01892,37.43594],[127.01904,37.4359],[127.01914,37.43587],[127.01921,37.43586],[127.01927,37.43586],[127.01937,37.43585],[127.01945,37.43586],[127.01953,37.43586],[127.0196,37.43587],[127.01967,37.43589],[127.01979,37.43592],[127.01994,37.43597],[127.02013,37.43603],[127.02026,37.43608],[127.02035,37.43611],[127.02045,37.43613],[127.02055,37.43614],[127.02065,37.43615],[127.0208,37.43615],[127.02093,37.43614],[127.02104,37.43613],[127.02118,37.43609],[127.0213,37.43606],[127.0214,37.43603],[127.02149,37.43599],[127.02157,37.43595],[127.02167,37.43589],[127.02194,37.43567],[127.02207,37.43557],[127.02218,37.43549],[127.02228,37.43544],[127.02236,37.4354],[127.02247,37.43537],[127.02258,37.43534],[127.02269,37.43532],[127.02278,37.43531],[127.02299,37.4353],[127.02308,37.43529],[127.02318,37.4353],[127.02326,37.43531],[127.02336,37.43532],[127.02349,37.43535],[127.0237,37.4354]]}},{"type":"Feature","properties":{"class":"minor","highway":"unclassified","sidewalk":"unknown","lanes":0,"name":"","oneway":false},"geometry":{"type":"LineString","coordinates":[[127.02083,37.43054],[127.02084,37.43061],[127.02092,37.43066],[127.02101,37.43068],[127.02106,37.43068],[127.02113,37.43067],[127.02121,37.43059],[127.02129,37.43056],[127.02292,37.43053],[127.02298,37.43055],[127.02304,37.43056],[127.02316,37.43049],[127.02339,37.43029],[127.02348,37.43021],[127.02366,37.43015],[127.02388,37.43005],[127.02401,37.4299],[127.0242,37.42961],[127.02441,37.42934],[127.02451,37.42926],[127.02466,37.42917],[127.0249,37.42888],[127.02515,37.42883],[127.02542,37.42876],[127.02563,37.42869],[127.02583,37.42859],[127.02596,37.42846],[127.02611,37.42833],[127.02622,37.42823],[127.02647,37.42814],[127.0267,37.42809],[127.02693,37.42807]]}},{"type":"Feature","properties":{"class":"minor","highway":"residential","sidewalk":"unknown","lanes":0,"name":"","oneway":false},"geometry":{"type":"LineString","coordinates":[[127.0237,37.4354],[127.024,37.43552],[127.02432,37.43566],[127.02446,37.43573],[127.02455,37.43579],[127.02467,37.43595],[127.02479,37.43617],[127.02483,37.43626]]}},{"type":"Feature","properties":{"class":"alley","highway":"pedestrian","sidewalk":"unknown","lanes":0,"name":"","oneway":false},"geometry":{"type":"LineString","coordinates":[[127.0201,37.43043],[127.0201,37.43042],[127.02012,37.43039],[127.02009,37.43037],[127.02007,37.43035],[127.02006,37.43033],[127.02006,37.4303],[127.02008,37.43027],[127.02012,37.43025],[127.02016,37.43024],[127.02019,37.43025],[127.0202,37.43024]]}},{"type":"Feature","properties":{"class":"alley","highway":"pedestrian","sidewalk":"unknown","lanes":0,"name":"","oneway":false},"geometry":{"type":"LineString","coordinates":[[127.02012,37.43039],[127.02015,37.43039],[127.02018,37.43039],[127.02021,37.43038],[127.02023,37.43035],[127.02024,37.43034],[127.02025,37.43032],[127.02024,37.43029],[127.02022,37.43026],[127.02019,37.43025]]}},{"type":"Feature","properties":{"class":"alley","highway":"pedestrian","sidewalk":"unknown","lanes":0,"name":"","oneway":false},"geometry":{"type":"LineString","coordinates":[[127.02037,37.42991],[127.0202,37.43024]]}},{"type":"Feature","properties":{"class":"alley","highway":"service","sidewalk":"unknown","lanes":0,"name":"","oneway":false},"geometry":{"type":"LineString","coordinates":[[127.02483,37.43626],[127.02499,37.43654],[127.02502,37.43659],[127.02506,37.43688],[127.02505,37.43731],[127.02505,37.43734],[127.02503,37.43761],[127.02514,37.4378],[127.02539,37.4379],[127.02566,37.43794],[127.02599,37.43804]]}},{"type":"Feature","properties":{"class":"alley","highway":"service","sidewalk":"unknown","lanes":0,"name":"","oneway":false},"geometry":{"type":"LineString","coordinates":[[127.02514,37.4378],[127.02498,37.43792],[127.02483,37.43802],[127.02468,37.4381],[127.02455,37.43813],[127.02446,37.43812],[127.02427,37.438],[127.02413,37.43788],[127.02395,37.43774],[127.02388,37.43768],[127.02384,37.43765],[127.02371,37.4376],[127.02363,37.43759],[127.02322,37.43768],[127.02293,37.43774],[127.02289,37.43767],[127.02289,37.43756]]}},{"type":"Feature","properties":{"class":"alley","highway":"service","sidewalk":"unknown","lanes":0,"name":"","oneway":false},"geometry":{"type":"LineString","coordinates":[[127.02483,37.43626],[127.02475,37.43633],[127.02452,37.43646],[127.02451,37.43655],[127.02499,37.43654]]}},{"type":"Feature","properties":{"class":"alley","highway":"service","sidewalk":"unknown","lanes":0,"name":"","oneway":true},"geometry":{"type":"LineString","coordinates":[[127.02407,37.43443],[127.02432,37.43444],[127.02452,37.43444],[127.02476,37.43445]]}},{"type":"Feature","properties":{"class":"alley","highway":"service","sidewalk":"unknown","lanes":0,"name":"","oneway":true},"geometry":{"type":"LineString","coordinates":[[127.02475,37.43452],[127.02452,37.43451],[127.02431,37.43451],[127.02407,37.4345]]}},{"type":"Feature","properties":{"class":"alley","highway":"service","sidewalk":"unknown","lanes":0,"name":"","oneway":false},"geometry":{"type":"LineString","coordinates":[[127.02432,37.43444],[127.02431,37.43451]]}},{"type":"Feature","properties":{"class":"alley","highway":"service","sidewalk":"unknown","lanes":0,"name":"","oneway":false},"geometry":{"type":"LineString","coordinates":[[127.02452,37.43444],[127.02452,37.43451]]}},{"type":"Feature","properties":{"class":"alley","highway":"service","sidewalk":"unknown","lanes":0,"name":"","oneway":true},"geometry":{"type":"LineString","coordinates":[[127.02472,37.43484],[127.02474,37.4347],[127.02475,37.43456],[127.02475,37.43452],[127.02476,37.43445],[127.02476,37.43442],[127.02477,37.43427],[127.02479,37.43412],[127.02556,37.43416],[127.02638,37.4342],[127.02636,37.43436],[127.02635,37.4345],[127.02634,37.43464],[127.02633,37.43479],[127.02632,37.43493],[127.02549,37.43488],[127.02472,37.43484]]}},{"type":"Feature","properties":{"class":"alley","highway":"service","sidewalk":"unknown","lanes":0,"name":"","oneway":true},"geometry":{"type":"LineString","coordinates":[[127.02556,37.43416],[127.02554,37.43431],[127.02553,37.43446],[127.02552,37.4346],[127.0255,37.43474],[127.02549,37.43488]]}},{"type":"Feature","properties":{"class":"alley","highway":"service","sidewalk":"unknown","lanes":0,"name":"","oneway":true},"geometry":{"type":"LineString","coordinates":[[127.02477,37.43427],[127.02554,37.43431],[127.02636,37.43436]]}},{"type":"Feature","properties":{"class":"alley","highway":"service","sidewalk":"unknown","lanes":0,"name":"","oneway":true},"geometry":{"type":"LineString","coordinates":[[127.02476,37.43442],[127.02553,37.43446],[127.02635,37.4345]]}},{"type":"Feature","properties":{"class":"alley","highway":"service","sidewalk":"unknown","lanes":0,"name":"","oneway":true},"geometry":{"type":"LineString","coordinates":[[127.02634,37.43464],[127.02552,37.4346],[127.02475,37.43456]]}},{"type":"Feature","properties":{"class":"alley","highway":"service","sidewalk":"unknown","lanes":0,"name":"","oneway":true},"geometry":{"type":"LineString","coordinates":[[127.02633,37.43479],[127.0255,37.43474],[127.02474,37.4347]]}},{"type":"Feature","properties":{"class":"alley","highway":"service","sidewalk":"unknown","lanes":0,"name":"","oneway":false},"geometry":{"type":"LineString","coordinates":[[127.01937,37.43585],[127.01949,37.43569],[127.01959,37.43555],[127.01965,37.43546],[127.01977,37.4355],[127.01986,37.43553],[127.01995,37.43556],[127.02001,37.43557],[127.02006,37.43558],[127.02002,37.43568],[127.01996,37.43582]]}},{"type":"Feature","properties":{"class":"alley","highway":"service","sidewalk":"unknown","lanes":0,"name":"","oneway":false},"geometry":{"type":"LineString","coordinates":[[127.02034,37.43592],[127.01996,37.43582],[127.01949,37.43569]]}},{"type":"Feature","properties":{"class":"alley","highway":"service","sidewalk":"unknown","lanes":0,"name":"","oneway":false},"geometry":{"type":"LineString","coordinates":[[127.02031,37.43575],[127.02002,37.43568],[127.01959,37.43555]]}},{"type":"Feature","properties":{"class":"alley","highway":"pedestrian","sidewalk":"unknown","lanes":0,"name":"","oneway":false},"geometry":{"type":"LineString","coordinates":[[127.02121,37.43411],[127.02111,37.43426]]}},{"type":"Feature","properties":{"class":"alley","highway":"service","sidewalk":"unknown","lanes":0,"name":"","oneway":false},"geometry":{"type":"LineString","coordinates":[[127.02505,37.43731],[127.02582,37.43728]]}}]}