{"type":"FeatureCollection","features":[{"type":"Feature","properties":{"class":"major","highway":"secondary","sidewalk":"likely","lanes":1,"name":"금하로","oneway":true},"geometry":{"type":"LineString","coordinates":[[126.92058,37.4517],[126.92057,37.45128],[126.9206,37.45098],[126.9208,37.45045],[126.92087,37.45035],[126.92089,37.45032],[126.92096,37.45026],[126.92097,37.45021],[126.92096,37.45015],[126.92095,37.45011],[126.92094,37.45005],[126.92094,37.44998]]}},{"type":"Feature","properties":{"class":"major","highway":"secondary","sidewalk":"likely","lanes":0,"name":"금하로","oneway":true},"geometry":{"type":"LineString","coordinates":[[126.92094,37.44998],[126.92101,37.45004],[126.92104,37.45016],[126.92105,37.45027],[126.92102,37.45041]]}},{"type":"Feature","properties":{"class":"major","highway":"secondary","sidewalk":"likely","lanes":2,"name":"호암로","oneway":true},"geometry":{"type":"LineString","coordinates":[[126.92058,37.4517],[126.92064,37.4514],[126.92069,37.45116],[126.92076,37.45098],[126.92089,37.45078],[126.92103,37.45062],[126.92125,37.45042],[126.9217,37.45007],[126.92181,37.44995],[126.92187,37.44982],[126.9219,37.44969],[126.92191,37.44953],[126.92188,37.44942],[126.92184,37.44931],[126.92179,37.44923],[126.9204,37.44797],[126.91817,37.44593]]}},{"type":"Feature","properties":{"class":"major","highway":"trunk","sidewalk":"likely","lanes":3,"name":"강남순환로","oneway":true},"geometry":{"type":"LineString","coordinates":[[126.90748,37.43793],[126.90797,37.43795],[126.90867,37.43803],[126.90998,37.43826],[126.91126,37.43866],[126.91262,37.43933],[126.91444,37.44057],[126.91975,37.44449],[126.925,37.44833],[126.92948,37.45164],[126.93533,37.45598],[126.93936,37.45966],[126.94299,37.46376],[126.94528,37.46623]]}},{"type":"Feature","properties":{"class":"major","highway":"secondary","sidewalk":"likely","lanes":0,"name":"호암로","oneway":true},"geometry":{"type":"LineString","coordinates":[[126.91824,37.44589],[126.92037,37.44782],[126.92189,37.44925],[126.92197,37.44937],[126.922,37.44946],[126.92201,37.44964],[126.92199,37.44977],[126.92194,37.44992],[126.92184,37.45005],[126.92111,37.45065],[126.92097,37.4508],[126.92085,37.45099],[126.92078,37.45117],[126.92072,37.45141],[126.92071,37.45164],[126.92074,37.45188]]}},{"type":"Feature","properties":{"class":"major","highway":"secondary","sidewalk":"likely","lanes":0,"name":"호암로","oneway":true},"geometry":{"type":"LineString","coordinates":[[126.92117,37.45759],[126.92216,37.4586],[126.92252,37.45901],[126.92261,37.45921],[126.92267,37.45936],[126.92277,37.45959],[126.92292,37.46018],[126.92299,37.46043],[126.92304,37.46055],[126.92315,37.46069],[126.92333,37.46093],[126.92347,37.46104],[126.92363,37.46116],[126.92379,37.46122],[126.92395,37.46127],[126.9242,37.46131],[126.92453,37.46132]]}},{"type":"Feature","properties":{"class":"major","highway":"secondary","sidewalk":"likely","lanes":0,"name":"산복터널","oneway":true},"geometry":{"type":"LineString","coordinates":[[126.92076,37.45622],[126.92078,37.45645],[126.92083,37.45672],[126.92085,37.45687],[126.92088,37.457],[126.92093,37.45715],[126.92097,37.4573],[126.92102,37.4574],[126.92111,37.45751],[126.92117,37.45759]]}},{"type":"Feature","properties":{"class":"major","highway":"trunk","sidewalk":"likely","lanes":3,"name":"강남순환로","oneway":true},"geometry":{"type":"LineString","coordinates":[[126.9472,37.46872],[126.94608,37.46768],[126.94476,37.46625],[126.94255,37.46377],[126.93904,37.45986],[126.93779,37.45858],[126.93465,37.45588],[126.92959,37.45206],[126.9246,37.44852],[126.91641,37.44248],[126.91635,37.44242],[126.91344,37.44027],[126.91189,37.4393],[126.91069,37.43881],[126.90958,37.43852],[126.90865,37.43835],[126.90742,37.43825]]}},{"type":"Feature","properties":{"class":"minor","highway":"residential","sidewalk":"unknown","lanes":0,"name":"약수암길","oneway":false},"geometry":{"type":"LineString","coordinates":[[126.93188,37.46158],[126.93196,37.46158],[126.93205,37.46159],[126.93288,37.46164],[126.93296,37.46158],[126.93312,37.46134],[126.9332,37.46115],[126.93328,37.46108],[126.93337,37.46101],[126.93342,37.46078],[126.93348,37.46033],[126.93326,37.45972],[126.93309,37.45936],[126.93295,37.45909],[126.9329,37.45896],[126.93296,37.45884],[126.93307,37.45869],[126.93312,37.45853],[126.93324,37.45797],[126.93333,37.45753]]}},{"type":"Feature","properties":{"class":"minor","highway":"residential","sidewalk":"unknown","lanes":0,"name":"약수암1길","oneway":false},"geometry":{"type":"LineString","coordinates":[[126.93348,37.46033],[126.93362,37.4602],[126.93388,37.45989],[126.93418,37.4595]]}},{"type":"Feature","properties":{"class":"alley","highway":"service","sidewalk":"unknown","lanes":0,"name":"","oneway":false},"geometry":{"type":"LineString","coordinates":[[126.92131,37.45254],[126.92147,37.45248],[126.92186,37.45231],[126.92229,37.45213],[126.92248,37.45203],[126.92271,37.45197],[126.92309,37.45193],[126.92313,37.45193],[126.92329,37.45193],[126.92348,37.45195],[126.92361,37.45199],[126.9237,37.45207],[126.92375,37.45211],[126.92384,37.45213],[126.92401,37.45209],[126.92413,37.45199],[126.9242,37.4519],[126.92426,37.45183],[126.9244,37.45179],[126.92451,37.45179],[126.92461,37.45182],[126.92467,37.45189],[126.9247,37.45195],[126.92478,37.45198],[126.92481,37.45196],[126.92483,37.45191],[126.92488,37.4518],[126.92497,37.45175],[126.92508,37.4518],[126.92531,37.452],[126.92517,37.45208]]}},{"type":"Feature","properties":{"class":"minor","highway":"residential","sidewalk":"unknown","lanes":0,"name":"","oneway":false},"geometry":{"type":"LineString","coordinates":[[126.91944,37.45157],[126.91977,37.45175],[126.91995,37.45185],[126.92034,37.45189],[126.92054,37.45189],[126.9206,37.45189]]}},{"type":"Feature","properties":{"class":"major","highway":"secondary","sidewalk":"likely","lanes":4,"name":"호암로","oneway":true},"geometry":{"type":"LineString","coordinates":[[126.92079,37.4522],[126.92083,37.45233],[126.92094,37.45258],[126.92097,37.45265],[126.92112,37.45305],[126.9212,37.45334],[126.92123,37.45354],[126.92124,37.45359],[126.92123,37.454],[126.92121,37.45415],[126.92118,37.45438],[126.92076,37.45622]]}},{"type":"Feature","properties":{"class":"major","highway":"secondary_link","sidewalk":"likely","lanes":0,"name":"","oneway":true},"geometry":{"type":"LineString","coordinates":[[126.9208,37.45045],[126.92085,37.45041],[126.92089,37.45039],[126.92093,37.45038],[126.92097,37.45039],[126.92102,37.45041]]}},{"type":"Feature","properties":{"class":"major","highway":"secondary","sidewalk":"likely","lanes":1,"name":"금하로","oneway":true},"geometry":{"type":"LineString","coordinates":[[126.92102,37.45041],[126.92102,37.45085]]}},{"type":"Feature","properties":{"class":"major","highway":"secondary","sidewalk":"likely","lanes":1,"name":"금하로","oneway":true},"geometry":{"type":"LineString","coordinates":[[126.92102,37.45085],[126.92099,37.45102],[126.92082,37.45144],[126.92074,37.45188]]}},{"type":"Feature","properties":{"class":"major","highway":"secondary","sidewalk":"likely","lanes":4,"name":"금하로","oneway":false},"geometry":{"type":"LineString","coordinates":[[126.91451,37.45004],[126.9152,37.45022],[126.91524,37.45022],[126.91544,37.45025],[126.9156,37.45023],[126.91602,37.45006],[126.91616,37.45],[126.91676,37.44986],[126.91737,37.44979],[126.91757,37.44978],[126.91784,37.4498],[126.91796,37.44982],[126.9196,37.44999],[126.91996,37.45],[126.92011,37.45],[126.92026,37.45001],[126.92045,37.45],[126.92092,37.44992],[126.92093,37.44994],[126.92094,37.44996],[126.92094,37.44998]]}},{"type":"Feature","properties":{"class":"major","highway":"secondary_link","sidewalk":"likely","lanes":1,"name":"","oneway":true},"geometry":{"type":"LineString","coordinates":[[126.92092,37.44992],[126.921,37.44988],[126.92141,37.44981],[126.92149,37.44978],[126.92157,37.44973],[126.92164,37.44968],[126.92167,37.44964],[126.92169,37.4496],[126.9217,37.44956],[126.9217,37.44951],[126.92169,37.44947],[126.92167,37.44939],[126.92164,37.44933],[126.92161,37.44928],[126.92156,37.44922],[126.92069,37.44839],[126.92063,37.4483],[126.9204,37.44797]]}},{"type":"Feature","properties":{"class":"minor","highway":"residential","sidewalk":"unknown","lanes":0,"name":"","oneway":false},"geometry":{"type":"LineString","coordinates":[[126.9196,37.44999],[126.91961,37.44979],[126.91958,37.44971],[126.91955,37.44967],[126.9194,37.44954],[126.91935,37.4495],[126.91927,37.44944],[126.91888,37.44926],[126.91873,37.44915],[126.91867,37.44908],[126.91825,37.44871],[126.91822,37.44868],[126.91799,37.44847],[126.91778,37.44827],[126.91736,37.44789],[126.91733,37.44784],[126.91732,37.44779],[126.91734,37.44774],[126.91741,37.44768],[126.91813,37.4472],[126.91862,37.44768],[126.9188,37.44784],[126.91927,37.44801],[126.91929,37.44802],[126.91939,37.44807],[126.91948,37.44814],[126.91979,37.44845],[126.91995,37.44862],[126.92014,37.44899],[126.92023,37.44911],[126.92061,37.44945],[126.92065,37.44949],[126.92078,37.44966],[126.92084,37.44983],[126.92092,37.44992]]}},{"type":"Feature","properties":{"class":"major","highway":"secondary","sidewalk":"likely","lanes":0,"name":"호암로","oneway":true},"geometry":{"type":"LineString","coordinates":[[126.92988,37.45869],[126.9304,37.459],[126.93062,37.4592],[126.93078,37.45939],[126.93113,37.45983],[126.93128,37.46004],[126.93155,37.4604],[126.93172,37.46074],[126.93186,37.4611],[126.93196,37.46158],[126.93189,37.46196],[126.93189,37.462],[126.93188,37.46206],[126.93187,37.46214],[126.93177,37.46281],[126.93168,37.46333],[126.93157,37.46437],[126.93151,37.46467],[126.93143,37.4654],[126.9314,37.46566],[126.9314,37.46626],[126.93141,37.46639],[126.93146,37.46672],[126.93154,37.46701],[126.9319,37.46774],[126.93194,37.46781],[126.93269,37.46921],[126.93318,37.47014],[126.93365,37.47095],[126.93381,37.47124],[126.93382,37.47125],[126.93384,37.47129]]}},{"type":"Feature","properties":{"class":"major","highway":"secondary","sidewalk":"likely","lanes":0,"name":"호암로","oneway":true},"geometry":{"type":"LineString","coordinates":[[126.92074,37.45188],[126.92079,37.4522]]}},{"type":"Feature","properties":{"class":"major","highway":"secondary","sidewalk":"likely","lanes":2,"name":"호암로","oneway":true},"geometry":{"type":"LineString","coordinates":[[126.92065,37.45219],[126.9206,37.45189],[126.92058,37.4517]]}},{"type":"Feature","properties":{"class":"major","highway":"tertiary","sidewalk":"likely","lanes":0,"name":"탑골로","oneway":false},"geometry":{"type":"LineString","coordinates":[[126.91754,37.45344],[126.91758,37.45348],[126.9177,37.45356],[126.91782,37.45364],[126.91798,37.45372],[126.91812,37.45377],[126.91829,37.45378],[126.91846,37.45378],[126.91869,37.45379],[126.9188,37.45382],[126.91892,37.45388],[126.91903,37.45398],[126.91913,37.45411],[126.9192,37.45416],[126.91928,37.45417],[126.91935,37.45414],[126.91997,37.45375],[126.92,37.45371],[126.92004,37.45366],[126.92029,37.45318],[126.92069,37.45255],[126.9207,37.45253],[126.92074,37.45245],[126.92083,37.45233]]}},{"type":"Feature","properties":{"class":"major","highway":"secondary_link","sidewalk":"likely","lanes":0,"name":"","oneway":true},"geometry":{"type":"LineString","coordinates":[[126.9277,37.45952],[126.92772,37.45964],[126.92771,37.45973],[126.92769,37.45982],[126.92766,37.45991],[126.92761,37.46],[126.92749,37.4602],[126.92703,37.46048],[126.92692,37.4605]]}},{"type":"Feature","properties":{"class":"alley","highway":"service","sidewalk":"unknown","lanes":0,"name":"","oneway":false},"geometry":{"type":"LineString","coordinates":[[126.92084,37.44983],[126.92112,37.44974],[126.92133,37.4496],[126.92119,37.44947]]}},{"type":"Feature","properties":{"class":"alley","highway":"service","sidewalk":"unknown","lanes":0,"name":"","oneway":false},"geometry":{"type":"LineString","coordinates":[[126.92061,37.44945],[126.9209,37.44925],[126.92112,37.44909],[126.92105,37.44904],[126.92092,37.44891]]}},{"type":"Feature","properties":{"class":"alley","highway":"service","sidewalk":"unknown","lanes":0,"name":"","oneway":false},"geometry":{"type":"LineString","coordinates":[[126.9209,37.44925],[126.92077,37.44914],[126.92066,37.44905]]}},{"type":"Feature","properties":{"class":"alley","highway":"service","sidewalk":"unknown","lanes":0,"name":"","oneway":false},"geometry":{"type":"LineString","coordinates":[[126.92077,37.44914],[126.92081,37.4491]]}},{"type":"Feature","properties":{"class":"alley","highway":"service","sidewalk":"unknown","lanes":0,"name":"","oneway":false},"geometry":{"type":"LineString","coordinates":[[126.92014,37.44899],[126.92044,37.44878],[126.92064,37.44864],[126.92056,37.44857],[126.92033,37.44838]]}},{"type":"Feature","properties":{"class":"alley","highway":"service","sidewalk":"unknown","lanes":0,"name":"","oneway":false},"geometry":{"type":"LineString","coordinates":[[126.92083,37.44898],[126.92096,37.4491],[126.92105,37.44904]]}},{"type":"Feature","properties":{"class":"alley","highway":"service","sidewalk":"unknown","lanes":0,"name":"","oneway":false},"geometry":{"type":"LineString","coordinates":[[126.92056,37.44857],[126.92047,37.44864],[126.92024,37.44844]]}},{"type":"Feature","properties":{"class":"alley","highway":"service","sidewalk":"unknown","lanes":0,"name":"","oneway":false},"geometry":{"type":"LineString","coordinates":[[126.92044,37.44878],[126.92029,37.44865],[126.92014,37.44852]]}},{"type":"Feature","properties":{"class":"alley","highway":"service","sidewalk":"unknown","lanes":0,"name":"","oneway":false},"geometry":{"type":"LineString","coordinates":[[126.92029,37.44865],[126.92032,37.44863]]}},{"type":"Feature","properties":{"class":"alley","highway":"service","sidewalk":"unknown","lanes":0,"name":"","oneway":false},"geometry":{"type":"LineString","coordinates":[[126.91958,37.44971],[126.92,37.44946],[126.92012,37.44958]]}},{"type":"Feature","properties":{"class":"alley","highway":"service","sidewalk":"unknown","lanes":0,"name":"","oneway":false},"geometry":{"type":"LineString","coordinates":[[126.91979,37.44845],[126.91993,37.44835],[126.92018,37.44818],[126.9201,37.44812],[126.91989,37.44794]]}},{"type":"Feature","properties":{"class":"alley","highway":"service","sidewalk":"unknown","lanes":0,"name":"","oneway":false},"geometry":{"type":"LineString","coordinates":[[126.9201,37.44812],[126.92,37.44818],[126.91979,37.44799]]}},{"type":"Feature","properties":{"class":"major","highway":"secondary","sidewalk":"likely","lanes":0,"name":"호암로","oneway":true},"geometry":{"type":"LineString","coordinates":[[126.92606,37.4608],[126.92687,37.46043],[126.92693,37.46036],[126.92701,37.4603],[126.92711,37.46023],[126.92721,37.46016],[126.9273,37.46006],[126.92743,37.45991],[126.92751,37.45976],[126.92761,37.45951],[126.92765,37.45923],[126.92766,37.45906],[126.92772,37.4589],[126.92782,37.45874],[126.92799,37.45859],[126.92816,37.45849],[126.92835,37.45842],[126.9286,37.45838],[126.92883,37.45838],[126.9295,37.45854],[126.92966,37.45859],[126.92971,37.45862],[126.92974,37.45863],[126.92988,37.45869]]}},{"type":"Feature","properties":{"class":"minor","highway":"residential","sidewalk":"unknown","lanes":0,"name":"원신길","oneway":false},"geometry":{"type":"LineString","coordinates":[[126.9301,37.46077],[126.93034,37.46034],[126.93044,37.46016],[126.93037,37.46008],[126.93034,37.45995],[126.93037,37.45986],[126.93043,37.4598],[126.93071,37.45947],[126.93074,37.45943],[126.93078,37.45939]]}},{"type":"Feature","properties":{"class":"alley","highway":"service","sidewalk":"unknown","lanes":0,"name":"","oneway":false},"geometry":{"type":"LineString","coordinates":[[126.92029,37.45318],[126.92038,37.45313]]}},{"type":"Feature","properties":{"class":"alley","highway":"service","sidewalk":"unknown","lanes":0,"name":"","oneway":false},"geometry":{"type":"LineString","coordinates":[[126.92038,37.45313],[126.92047,37.45308],[126.9212,37.45275]]}},{"type":"Feature","properties":{"class":"alley","highway":"service","sidewalk":"unknown","lanes":0,"name":"","oneway":false},"geometry":{"type":"LineString","coordinates":[[126.9212,37.45275],[126.92132,37.4527],[126.92133,37.45265],[126.92134,37.4526],[126.92133,37.45257],[126.92131,37.45254],[126.92125,37.45256],[126.92108,37.45262],[126.92097,37.45265]]}},{"type":"Feature","properties":{"class":"major","highway":"secondary_link","sidewalk":"likely","lanes":0,"name":"","oneway":true},"geometry":{"type":"LineString","coordinates":[[126.92089,37.45032],[126.92089,37.45024],[126.92086,37.45019],[126.92083,37.45015],[126.92078,37.45009],[126.92069,37.45004],[126.92054,37.45002],[126.92045,37.45]]}},{"type":"Feature","properties":{"class":"alley","highway":"service","sidewalk":"unknown","lanes":0,"name":"","oneway":false},"geometry":{"type":"LineString","coordinates":[[126.91945,37.45126],[126.91949,37.45126],[126.91977,37.45128],[126.9201,37.4513],[126.92012,37.45112]]}},{"type":"Feature","properties":{"class":"alley","highway":"service","sidewalk":"unknown","lanes":0,"name":"","oneway":false},"geometry":{"type":"LineString","coordinates":[[126.91952,37.45066],[126.9197,37.45068],[126.92003,37.45071],[126.92005,37.45054],[126.92042,37.45057]]}},{"type":"Feature","properties":{"class":"alley","highway":"service","sidewalk":"yes","lanes":0,"name":"","oneway":false},"geometry":{"type":"LineString","coordinates":[[126.91938,37.46051],[126.91924,37.46044],[126.91918,37.46041],[126.91868,37.46015],[126.91835,37.45996],[126.91808,37.45982],[126.91804,37.45975],[126.91797,37.45963],[126.91799,37.45949],[126.91804,37.45935],[126.91808,37.45918],[126.91825,37.45908],[126.91836,37.45905],[126.91851,37.45899],[126.9189,37.45896],[126.91922,37.45895],[126.91947,37.45893],[126.91959,37.4589],[126.91967,37.45883],[126.9198,37.45869],[126.91984,37.45863],[126.9199,37.45855],[126.91994,37.4585],[126.92,37.45842],[126.92029,37.45855],[126.92036,37.45859],[126.92061,37.45872],[126.922,37.45947],[126.92203,37.45948],[126.92219,37.45957],[126.92225,37.45992],[126.92225,37.46009],[126.92226,37.46031],[126.92225,37.46057],[126.92225,37.46071],[126.92215,37.46108],[126.92213,37.46111],[126.92202,37.46119]]}},{"type":"Feature","properties":{"class":"alley","highway":"service","sidewalk":"unknown","lanes":0,"name":"","oneway":false},"geometry":{"type":"LineString","coordinates":[[126.92009,37.45833],[126.92,37.45842],[126.9198,37.45833],[126.91952,37.45833],[126.91892,37.45831],[126.91874,37.45838],[126.91785,37.45837]]}},{"type":"Feature","properties":{"class":"alley","highway":"service","sidewalk":"unknown","lanes":0,"name":"","oneway":false},"geometry":{"type":"LineString","coordinates":[[126.91984,37.45863],[126.92027,37.45885]]}},{"type":"Feature","properties":{"class":"alley","highway":"service","sidewalk":"unknown","lanes":0,"name":"","oneway":false},"geometry":{"type":"LineString","coordinates":[[126.91954,37.45908],[126.9196,37.459],[126.91966,37.45901],[126.92002,37.4592]]}},{"type":"Feature","properties":{"class":"alley","highway":"pedestrian","sidewalk":"unknown","lanes":0,"name":"중앙광장","oneway":false},"geometry":{"type":"LineString","coordinates":[[126.92113,37.45894],[126.9212,37.45887],[126.92115,37.45884],[126.92117,37.45882],[126.92121,37.45881],[126.92122,37.45879],[126.92124,37.45877],[126.92124,37.45874],[126.92122,37.45871],[126.92118,37.45869],[126.92115,37.45869],[126.92112,37.45869],[126.92109,37.45871],[126.92108,37.45873],[126.92107,37.45877],[126.92106,37.45878],[126.921,37.45874],[126.92092,37.45882],[126.92113,37.45894]]}},{"type":"Feature","properties":{"class":"alley","highway":"service","sidewalk":"unknown","lanes":0,"name":"","oneway":false},"geometry":{"type":"LineString","coordinates":[[126.92087,37.45842],[126.92049,37.45821]]}},{"type":"Feature","properties":{"class":"alley","highway":"service","sidewalk":"unknown","lanes":0,"name":"","oneway":false},"geometry":{"type":"LineString","coordinates":[[126.92061,37.45872],[126.92087,37.45842],[126.92103,37.45821],[126.92066,37.458]]}},{"type":"Feature","properties":{"class":"alley","highway":"service","sidewalk":"unknown","lanes":0,"name":"","oneway":false},"geometry":{"type":"LineString","coordinates":[[126.92214,37.45914],[126.92217,37.45907],[126.92218,37.459],[126.92216,37.45893],[126.92208,37.45889],[126.92202,37.45887],[126.92193,37.45885],[126.92185,37.45879]]}},{"type":"Feature","properties":{"class":"alley","highway":"service","sidewalk":"unknown","lanes":0,"name":"","oneway":false},"geometry":{"type":"LineString","coordinates":[[126.92203,37.45948],[126.92217,37.45935],[126.92214,37.45914],[126.92178,37.45893]]}},{"type":"Feature","properties":{"class":"alley","highway":"service","sidewalk":"unknown","lanes":0,"name":"","oneway":false},"geometry":{"type":"LineString","coordinates":[[126.92166,37.45981],[126.92159,37.45977],[126.92161,37.45973],[126.92154,37.45961],[126.9215,37.45956],[126.9212,37.45939]]}},{"type":"Feature","properties":{"class":"alley","highway":"service","sidewalk":"unknown","lanes":0,"name":"","oneway":false},"geometry":{"type":"LineString","coordinates":[[126.92225,37.46009],[126.92188,37.4599],[126.92166,37.45981],[126.92152,37.45999],[126.92117,37.45981]]}},{"type":"Feature","properties":{"class":"alley","highway":"service","sidewalk":"unknown","lanes":0,"name":"","oneway":false},"geometry":{"type":"LineString","coordinates":[[126.92225,37.46057],[126.92196,37.4604],[126.92191,37.46038],[126.92189,37.46039],[126.92172,37.46031],[126.92165,37.46028],[126.92146,37.46047],[126.92109,37.46028],[126.92106,37.46025],[126.92105,37.46011],[126.92103,37.45988],[126.92095,37.45981],[126.92098,37.45971]]}},{"type":"Feature","properties":{"class":"major","highway":"secondary","sidewalk":"likely","lanes":0,"name":"","oneway":true},"geometry":{"type":"LineString","coordinates":[[126.93127,37.46014],[126.93074,37.45943],[126.93036,37.45905],[126.92986,37.45872],[126.92965,37.45864],[126.92914,37.45852],[126.92884,37.45845],[126.9286,37.45845],[126.92845,37.45847],[126.92836,37.4585],[126.92819,37.45857],[126.92806,37.45866],[126.92795,37.45877],[126.92785,37.45893],[126.92778,37.45907],[126.9277,37.45952],[126.92759,37.45982],[126.92748,37.46003],[126.9274,37.46014],[126.92703,37.4604],[126.92692,37.4605],[126.92564,37.46102],[126.92514,37.46121],[126.92472,37.46136],[126.92462,37.46139],[126.92453,37.4614],[126.92428,37.4614],[126.92423,37.46139],[126.92378,37.46131],[126.9236,37.46121],[126.92338,37.4611],[126.92326,37.46099],[126.92296,37.46058],[126.9229,37.46043],[126.92273,37.4598],[126.92263,37.45953],[126.92242,37.45903],[126.92171,37.45827],[126.92107,37.45765]]}},{"type":"Feature","properties":{"class":"major","highway":"secondary","sidewalk":"likely","lanes":0,"name":"","oneway":true},"geometry":{"type":"LineString","coordinates":[[126.92107,37.45765],[126.92086,37.45734],[126.92065,37.45676],[126.9206,37.45622]]}},{"type":"Feature","properties":{"class":"major","highway":"secondary","sidewalk":"likely","lanes":0,"name":"","oneway":true},"geometry":{"type":"LineString","coordinates":[[126.9206,37.45622],[126.92107,37.45436],[126.92111,37.454],[126.92113,37.45354],[126.92108,37.45332],[126.92088,37.45279],[126.92081,37.45262],[126.92074,37.45245],[126.92065,37.45219]]}}]}