{"type":"FeatureCollection","features":[{"type":"Feature","properties":{"class":"major","highway":"motorway","sidewalk":"likely","lanes":2,"name":"용인서울고속도로","oneway":true},"geometry":{"type":"LineString","coordinates":[[127.09643,37.45218],[127.09635,37.45308],[127.09623,37.4536],[127.09589,37.45479],[127.0953,37.45697],[127.09466,37.45919],[127.09425,37.46067],[127.09388,37.46197]]}},{"type":"Feature","properties":{"class":"major","highway":"motorway","sidewalk":"likely","lanes":2,"name":"용인서울고속도로","oneway":true},"geometry":{"type":"LineString","coordinates":[[127.0936,37.46177],[127.09385,37.46084],[127.09435,37.45918],[127.09494,37.45699],[127.09552,37.45491],[127.09596,37.45315],[127.09603,37.452]]}},{"type":"Feature","properties":{"class":"major","highway":"primary","sidewalk":"likely","lanes":0,"name":"헌릉로","oneway":true},"geometry":{"type":"LineString","coordinates":[[127.07155,37.45721],[127.07188,37.45731],[127.07205,37.45737],[127.0734,37.45783],[127.07498,37.45832],[127.07727,37.45909],[127.07861,37.45952],[127.07905,37.45967],[127.07989,37.45994],[127.08002,37.45998]]}},{"type":"Feature","properties":{"class":"alley","highway":"service","sidewalk":"unknown","lanes":0,"name":"","oneway":false},"geometry":{"type":"LineString","coordinates":[[127.07977,37.45957],[127.07989,37.45932],[127.08005,37.459],[127.08008,37.45893]]}},{"type":"Feature","properties":{"class":"minor","highway":"residential","sidewalk":"unknown","lanes":0,"name":"헌릉로422길","oneway":false},"geometry":{"type":"LineString","coordinates":[[127.08542,37.46178],[127.0856,37.46159],[127.08595,37.46109],[127.08616,37.46076],[127.08628,37.46054],[127.08637,37.46035],[127.08637,37.46022],[127.08634,37.45997],[127.08626,37.45969],[127.08621,37.45949]]}},{"type":"Feature","properties":{"class":"minor","highway":"residential","sidewalk":"unknown","lanes":0,"name":"헌릉로422길","oneway":false},"geometry":{"type":"LineString","coordinates":[[127.08621,37.45949],[127.08651,37.45963],[127.08685,37.45976]]}},{"type":"Feature","properties":{"class":"minor","highway":"residential","sidewalk":"unknown","lanes":0,"name":"헌릉로422길","oneway":false},"geometry":{"type":"LineString","coordinates":[[127.09334,37.45992],[127.09327,37.46005],[127.09314,37.4602],[127.09296,37.4604],[127.09275,37.46068],[127.09263,37.46084],[127.09248,37.46099],[127.09236,37.46115],[127.09222,37.4613],[127.09204,37.4615],[127.09185,37.4617],[127.09166,37.46181],[127.09141,37.46187],[127.09121,37.4619],[127.09092,37.46193],[127.09058,37.46192],[127.09037,37.46191],[127.0902,37.46191],[127.09007,37.46193]]}},{"type":"Feature","properties":{"class":"alley","highway":"service","sidewalk":"unknown","lanes":0,"name":"","oneway":false},"geometry":{"type":"LineString","coordinates":[[127.07188,37.45731],[127.07207,37.45712],[127.07222,37.45687],[127.07246,37.45647],[127.07264,37.45613],[127.07274,37.45596],[127.07277,37.45588],[127.07274,37.45575],[127.07264,37.45562],[127.07251,37.45553],[127.07232,37.45546],[127.07216,37.45535],[127.07196,37.45519],[127.07188,37.45513],[127.07169,37.45495],[127.07161,37.45483],[127.07152,37.45472],[127.07146,37.45464],[127.07135,37.45448],[127.07129,37.45438],[127.07126,37.45435],[127.07111,37.45419],[127.07103,37.45408],[127.07092,37.45393],[127.0708,37.45382],[127.07062,37.45366],[127.07052,37.45354],[127.07042,37.45344],[127.07035,37.45337],[127.07032,37.45331],[127.07031,37.45324],[127.07031,37.45314],[127.07035,37.45304],[127.07037,37.4529],[127.07041,37.45279],[127.07044,37.45262],[127.07046,37.45251],[127.0705,37.45234],[127.07053,37.45219],[127.07055,37.45213],[127.07056,37.45212],[127.0706,37.45202],[127.07065,37.45195],[127.07073,37.45187],[127.07084,37.45178],[127.07091,37.4517],[127.07098,37.45159],[127.07106,37.45145],[127.0712,37.45123],[127.07134,37.45101],[127.07142,37.4509],[127.0715,37.4508],[127.07157,37.45075],[127.0716,37.45073],[127.07175,37.45063],[127.07193,37.45051],[127.07245,37.45021],[127.0734,37.44965],[127.07355,37.44953],[127.07365,37.44946],[127.07369,37.44938],[127.07377,37.44928],[127.07391,37.44916],[127.07401,37.44906],[127.07413,37.44892],[127.07416,37.44889],[127.07423,37.4488],[127.07432,37.44864],[127.07436,37.44848],[127.07439,37.44822],[127.07441,37.44805],[127.0744,37.44782],[127.07432,37.44753],[127.07427,37.44741],[127.07423,37.4473],[127.07419,37.44718],[127.07413,37.44711],[127.07407,37.44702],[127.07403,37.44694],[127.07399,37.44688],[127.07398,37.44684],[127.07398,37.44677],[127.07401,37.44672],[127.07406,37.44665],[127.07413,37.44659],[127.07422,37.44652],[127.07449,37.44635],[127.07489,37.44603],[127.07499,37.44597],[127.07513,37.44585],[127.07523,37.4458],[127.07526,37.4457],[127.07525,37.4456],[127.07527,37.44546],[127.0753,37.44537],[127.07537,37.44526],[127.0755,37.44513],[127.07568,37.44503],[127.07579,37.44498],[127.0759,37.44491],[127.07601,37.44485],[127.07622,37.44481],[127.07639,37.4448],[127.07669,37.44479],[127.0779,37.44478],[127.07812,37.4448],[127.07815,37.44501],[127.0782,37.44511],[127.07885,37.44529],[127.07922,37.44543],[127.0795,37.44554],[127.07965,37.44558],[127.08059,37.44643],[127.0807,37.44649],[127.08078,37.44653],[127.08152,37.44733],[127.08192,37.44776],[127.08197,37.44784],[127.08207,37.44798],[127.0823,37.44829],[127.08242,37.44851],[127.08254,37.44874],[127.08264,37.44898],[127.08281,37.44953],[127.08295,37.45001],[127.08305,37.45033],[127.08304,37.45043],[127.08298,37.4505],[127.08282,37.45056]]}},{"type":"Feature","properties":{"class":"alley","highway":"service","sidewalk":"unknown","lanes":0,"name":"","oneway":false},"geometry":{"type":"LineString","coordinates":[[127.08782,37.45466],[127.08774,37.45463],[127.0877,37.45454],[127.0876,37.45409],[127.08757,37.45397],[127.08763,37.45384]]}},{"type":"Feature","properties":{"class":"alley","highway":"service","sidewalk":"unknown","lanes":0,"name":"","oneway":false},"geometry":{"type":"LineString","coordinates":[[127.08782,37.45466],[127.08852,37.45468]]}},{"type":"Feature","properties":{"class":"alley","highway":"service","sidewalk":"unknown","lanes":0,"name":"","oneway":false},"geometry":{"type":"LineString","coordinates":[[127.0878,37.45529],[127.08902,37.45532]]}},{"type":"Feature","properties":{"class":"alley","highway":"service","sidewalk":"unknown","lanes":0,"name":"","oneway":false},"geometry":{"type":"LineString","coordinates":[[127.08759,37.45378],[127.08763,37.45384],[127.08767,37.4539],[127.0878,37.45455],[127.08782,37.45466],[127.08779,37.45503],[127.0878,37.45529],[127.0878,37.4554],[127.0878,37.45552],[127.08784,37.45562],[127.08788,37.45569],[127.08796,37.45573]]}},{"type":"Feature","properties":{"class":"alley","highway":"service","sidewalk":"unknown","lanes":0,"name":"신흥안길","oneway":false},"geometry":{"type":"LineString","coordinates":[[127.08,37.45487],[127.07984,37.45484],[127.07961,37.45474],[127.07945,37.4547],[127.0793,37.45465],[127.07918,37.45459],[127.07905,37.45458],[127.07888,37.45455],[127.07874,37.45455],[127.07846,37.45453],[127.0783,37.45454],[127.07827,37.4546],[127.07814,37.45462],[127.07803,37.45462],[127.07785,37.45461],[127.07772,37.4546]]}},{"type":"Feature","properties":{"class":"major","highway":"tertiary","sidewalk":"likely","lanes":0,"name":"신흥말길","oneway":false},"geometry":{"type":"LineString","coordinates":[[127.08082,37.45565],[127.0808,37.45581],[127.08083,37.45604],[127.08091,37.45627],[127.08118,37.45682],[127.08129,37.45704],[127.0814,37.45728],[127.08174,37.45798],[127.08177,37.45806],[127.08178,37.45808],[127.08177,37.45822],[127.08174,37.45838],[127.08168,37.45852],[127.08152,37.4588]]}},{"type":"Feature","properties":{"class":"major","highway":"tertiary","sidewalk":"likely","lanes":0,"name":"","oneway":false},"geometry":{"type":"LineString","coordinates":[[127.08152,37.4588],[127.08146,37.45894]]}},{"type":"Feature","properties":{"class":"alley","highway":"service","sidewalk":"unknown","lanes":0,"name":"","oneway":false},"geometry":{"type":"LineString","coordinates":[[127.08129,37.45704],[127.08118,37.45705],[127.08108,37.45705],[127.08104,37.45701],[127.081,37.45699],[127.08094,37.45701],[127.08087,37.45703],[127.08081,37.45705],[127.08074,37.45705],[127.08068,37.45707]]}},{"type":"Feature","properties":{"class":"major","highway":"tertiary","sidewalk":"likely","lanes":0,"name":"신흥말길","oneway":false},"geometry":{"type":"LineString","coordinates":[[127.08094,37.45542],[127.08082,37.45565]]}},{"type":"Feature","properties":{"class":"major","highway":"trunk_link","sidewalk":"likely","lanes":0,"name":"","oneway":true},"geometry":{"type":"LineString","coordinates":[[127.08131,37.45941],[127.08037,37.45911],[127.08005,37.459],[127.07975,37.45891],[127.07848,37.45847]]}},{"type":"Feature","properties":{"class":"alley","highway":"service","sidewalk":"unknown","lanes":0,"name":"","oneway":false},"geometry":{"type":"LineString","coordinates":[[127.07913,37.45948],[127.07947,37.45958],[127.07997,37.45973],[127.08024,37.45969],[127.08051,37.45963],[127.08081,37.45953]]}},{"type":"Feature","properties":{"class":"minor","highway":"residential","sidewalk":"unknown","lanes":0,"name":"","oneway":false},"geometry":{"type":"LineString","coordinates":[[127.1005,37.45438],[127.1004,37.45446],[127.10032,37.45452],[127.10025,37.45458],[127.10014,37.45462],[127.10001,37.45468],[127.09991,37.45472],[127.09978,37.45476],[127.0997,37.45479],[127.09949,37.45483],[127.09933,37.45482],[127.0992,37.45482],[127.09904,37.4548],[127.09898,37.45478]]}},{"type":"Feature","properties":{"class":"alley","highway":"service","sidewalk":"unknown","lanes":0,"name":"","oneway":false},"geometry":{"type":"LineString","coordinates":[[127.08508,37.45433],[127.08513,37.45445],[127.08525,37.45459],[127.08556,37.45446]]}},{"type":"Feature","properties":{"class":"alley","highway":"service","sidewalk":"unknown","lanes":0,"name":"","oneway":false},"geometry":{"type":"LineString","coordinates":[[127.08909,37.45704],[127.08912,37.45694],[127.08919,37.45686],[127.08927,37.45677],[127.08932,37.45664]]}},{"type":"Feature","properties":{"class":"minor","highway":"residential","sidewalk":"unknown","lanes":0,"name":"헌릉로422길","oneway":false},"geometry":{"type":"LineString","coordinates":[[127.08685,37.45976],[127.08707,37.45984],[127.08787,37.46017],[127.08831,37.46035],[127.08842,37.46037],[127.08892,37.4605],[127.08954,37.4607],[127.08979,37.46082],[127.09002,37.46092],[127.09008,37.46098]]}},{"type":"Feature","properties":{"class":"major","highway":"primary","sidewalk":"likely","lanes":0,"name":"헌릉로","oneway":true},"geometry":{"type":"LineString","coordinates":[[127.08002,37.45998],[127.08086,37.46024],[127.08198,37.46064],[127.08229,37.46073],[127.08312,37.46105],[127.08393,37.46132],[127.08472,37.46155],[127.08487,37.4616]]}},{"type":"Feature","properties":{"class":"minor","highway":"residential","sidewalk":"unknown","lanes":0,"name":"헌릉로422길","oneway":false},"geometry":{"type":"LineString","coordinates":[[127.08621,37.45949],[127.08621,37.45939],[127.08623,37.45926],[127.08622,37.45909],[127.08626,37.45895],[127.08633,37.45875],[127.0864,37.45847],[127.08649,37.45824],[127.0865,37.4581],[127.08663,37.458],[127.08673,37.4579],[127.08774,37.4572],[127.08794,37.45704],[127.0881,37.45695],[127.08827,37.45683],[127.08838,37.45676],[127.08844,37.45672],[127.08854,37.45671],[127.08863,37.45672],[127.08875,37.45677],[127.08883,37.45685],[127.08904,37.45699],[127.08909,37.45704],[127.08916,37.4571],[127.08936,37.45725],[127.08947,37.45731],[127.08959,37.45738],[127.08973,37.45745],[127.08986,37.4575],[127.09004,37.45758],[127.09031,37.45771],[127.09042,37.45781],[127.09054,37.45793],[127.09069,37.45803],[127.09077,37.45811],[127.09078,37.45817],[127.09079,37.4583],[127.0908,37.45841],[127.09089,37.45851],[127.09105,37.45873],[127.09124,37.45896],[127.09138,37.45911],[127.09143,37.45918],[127.09147,37.45931]]}},{"type":"Feature","properties":{"class":"major","highway":"tertiary","sidewalk":"likely","lanes":0,"name":"신흥말길","oneway":false},"geometry":{"type":"LineString","coordinates":[[127.08282,37.45056],[127.08243,37.45078],[127.08228,37.45086],[127.08207,37.45095],[127.08191,37.45107],[127.08179,37.45115],[127.08165,37.45131],[127.08158,37.45146],[127.08144,37.45173],[127.08135,37.45194],[127.08128,37.45204],[127.08121,37.45216],[127.08115,37.45264],[127.0811,37.45276],[127.08108,37.45288],[127.08107,37.45299],[127.08104,37.45311],[127.081,37.45322],[127.08099,37.4534],[127.08101,37.45351],[127.08104,37.45363],[127.08117,37.45382],[127.0812,37.45394],[127.08123,37.45401],[127.0812,37.45427],[127.08104,37.45461],[127.08094,37.45542]]}},{"type":"Feature","properties":{"class":"minor","highway":"residential","sidewalk":"unknown","lanes":0,"name":"","oneway":false},"geometry":{"type":"LineString","coordinates":[[127.08909,37.45704],[127.08899,37.45716],[127.08886,37.45729],[127.08876,37.45739],[127.08869,37.45747],[127.08866,37.45755]]}},{"type":"Feature","properties":{"class":"major","highway":"trunk_link","sidewalk":"likely","lanes":0,"name":"","oneway":true},"geometry":{"type":"LineString","coordinates":[[127.07852,37.4584],[127.08008,37.45893],[127.08135,37.45933]]}},{"type":"Feature","properties":{"class":"major","highway":"trunk_link","sidewalk":"likely","lanes":0,"name":"","oneway":true},"geometry":{"type":"LineString","coordinates":[[127.08135,37.45933],[127.08144,37.45939],[127.08151,37.45944],[127.08155,37.45948],[127.0816,37.45954],[127.08164,37.4596],[127.08166,37.45965],[127.08168,37.45971],[127.0817,37.45976],[127.08171,37.45981],[127.08172,37.45987],[127.08175,37.46018],[127.08177,37.46023],[127.08179,37.46028],[127.08182,37.46033],[127.08184,37.46036],[127.08187,37.4604],[127.08189,37.46042],[127.08194,37.46047],[127.08229,37.46073]]}},{"type":"Feature","properties":{"class":"major","highway":"trunk_link","sidewalk":"likely","lanes":0,"name":"","oneway":true},"geometry":{"type":"LineString","coordinates":[[127.08086,37.46024],[127.08122,37.46024],[127.08132,37.46024],[127.08136,37.46023],[127.08141,37.46021],[127.08145,37.4602],[127.08148,37.46018],[127.08152,37.46015],[127.08156,37.46011],[127.08158,37.46006],[127.0816,37.46003],[127.08161,37.45999],[127.08161,37.45995],[127.08162,37.45992],[127.08162,37.45988],[127.08161,37.45985],[127.08161,37.45981],[127.08161,37.45978],[127.0816,37.45974],[127.08158,37.4597],[127.08156,37.45966],[127.08154,37.45963],[127.08152,37.45959],[127.08149,37.45956],[127.08146,37.45952],[127.0814,37.45947],[127.08135,37.45943],[127.08131,37.45941]]}},{"type":"Feature","properties":{"class":"alley","highway":"service","sidewalk":"unknown","lanes":0,"name":"","oneway":true},"geometry":{"type":"LineString","coordinates":[[127.08037,37.45911],[127.08031,37.45911],[127.08025,37.45912],[127.0802,37.45913],[127.08014,37.45914],[127.0801,37.45916],[127.08006,37.45918],[127.08002,37.4592],[127.07999,37.45922],[127.07989,37.45932]]}},{"type":"Feature","properties":{"class":"major","highway":"tertiary","sidewalk":"likely","lanes":0,"name":"신흥말길","oneway":false},"geometry":{"type":"LineString","coordinates":[[127.08146,37.45894],[127.08131,37.45924],[127.08119,37.45944],[127.08111,37.45952],[127.08103,37.45958],[127.08092,37.45963],[127.08077,37.45969],[127.08065,37.45971],[127.08022,37.45982],[127.08018,37.45984],[127.08013,37.45986],[127.08009,37.45988],[127.08007,37.45991],[127.08005,37.45994],[127.08002,37.45998],[127.07994,37.46014]]}},{"type":"Feature","properties":{"class":"minor","highway":"residential","sidewalk":"unknown","lanes":0,"name":"","oneway":false},"geometry":{"type":"LineString","coordinates":[[127.08177,37.45806],[127.08213,37.45802],[127.08238,37.45801],[127.08266,37.45803],[127.08292,37.4581],[127.08304,37.45815]]}},{"type":"Feature","properties":{"class":"minor","highway":"residential","sidewalk":"unknown","lanes":0,"name":"","oneway":false},"geometry":{"type":"LineString","coordinates":[[127.08056,37.45698],[127.0807,37.45701],[127.08076,37.45701],[127.08093,37.45695],[127.08103,37.4569],[127.08111,37.45686],[127.08118,37.45682]]}},{"type":"Feature","properties":{"class":"minor","highway":"residential","sidewalk":"unknown","lanes":0,"name":"","oneway":false},"geometry":{"type":"LineString","coordinates":[[127.0808,37.45581],[127.0807,37.45584],[127.08064,37.4559],[127.08058,37.45593],[127.0805,37.45595],[127.08042,37.45597],[127.08038,37.45601],[127.08033,37.45607],[127.0803,37.45614],[127.08031,37.45621],[127.08034,37.45633]]}},{"type":"Feature","properties":{"class":"alley","highway":"service","sidewalk":"unknown","lanes":0,"name":"신흥안길","oneway":false},"geometry":{"type":"LineString","coordinates":[[127.0808,37.45581],[127.08063,37.4556],[127.08058,37.45545],[127.08049,37.45524],[127.08036,37.45509],[127.08014,37.45498],[127.08,37.45487]]}},{"type":"Feature","properties":{"class":"major","highway":"motorway","sidewalk":"likely","lanes":2,"name":"용인서울고속도로","oneway":true},"geometry":{"type":"LineString","coordinates":[[127.0896,37.43935],[127.08977,37.43987],[127.09039,37.44098],[127.09127,37.4425],[127.09182,37.4433],[127.09279,37.44467],[127.09374,37.44594],[127.09451,37.44688],[127.09492,37.44742],[127.09535,37.44818],[127.09563,37.44883]]}},{"type":"Feature","properties":{"class":"major","highway":"motorway","sidewalk":"likely","lanes":2,"name":"용인서울고속도로","oneway":true},"geometry":{"type":"LineString","coordinates":[[127.09526,37.4489],[127.09508,37.44847],[127.09467,37.4477],[127.09422,37.44705],[127.09339,37.44604],[127.09247,37.44482],[127.09138,37.44331],[127.09093,37.44261],[127.09025,37.44142],[127.08931,37.43983],[127.08919,37.43929]]}},{"type":"Feature","properties":{"class":"alley","highway":"service","sidewalk":"unknown","lanes":0,"name":"","oneway":false},"geometry":{"type":"LineString","coordinates":[[127.08469,37.45278],[127.08482,37.45287],[127.08486,37.45298],[127.08493,37.45309],[127.08496,37.45313],[127.08486,37.45318],[127.08471,37.45326],[127.08441,37.45342],[127.08445,37.45371],[127.08452,37.45391],[127.08461,37.45403],[127.08462,37.4541],[127.08448,37.45424]]}},{"type":"Feature","properties":{"class":"alley","highway":"service","sidewalk":"unknown","lanes":0,"name":"","oneway":false},"geometry":{"type":"LineString","coordinates":[[127.08092,37.44783],[127.08087,37.44771],[127.08084,37.44759],[127.08081,37.44746],[127.08076,37.44725],[127.0807,37.44714],[127.08065,37.44705],[127.08059,37.44695],[127.08053,37.44689],[127.08039,37.44676],[127.08028,37.44664],[127.08002,37.44627],[127.07989,37.44611],[127.07983,37.44602],[127.07974,37.446],[127.07965,37.44597],[127.07953,37.44596],[127.07947,37.44595],[127.0794,37.44589],[127.07929,37.44577],[127.07921,37.4457],[127.07913,37.44567],[127.07901,37.44566],[127.07892,37.44566],[127.07879,37.44575],[127.07872,37.44583],[127.07861,37.44592],[127.07853,37.44597],[127.07848,37.44602],[127.0784,37.44612],[127.07829,37.44622],[127.0782,37.44628],[127.0781,37.44636],[127.07803,37.44639],[127.07795,37.44654],[127.07792,37.44661],[127.07783,37.4467],[127.0777,37.44677]]}},{"type":"Feature","properties":{"class":"alley","highway":"service","sidewalk":"unknown","lanes":0,"name":"신흥말길","oneway":false},"geometry":{"type":"LineString","coordinates":[[127.0812,37.45394],[127.08138,37.45374],[127.08143,37.45364],[127.08149,37.45357],[127.08154,37.45351],[127.0816,37.4535],[127.08169,37.45352],[127.08177,37.45354],[127.08183,37.45352],[127.08186,37.45345]]}},{"type":"Feature","properties":{"class":"alley","highway":"service","sidewalk":"unknown","lanes":0,"name":"신흥말길","oneway":false},"geometry":{"type":"LineString","coordinates":[[127.08101,37.45351],[127.08092,37.45353],[127.08087,37.45344],[127.08082,37.45334],[127.0808,37.4533],[127.08078,37.45321],[127.08072,37.45297],[127.08072,37.45294],[127.08072,37.45285],[127.0807,37.45274],[127.08069,37.45265],[127.08057,37.45247],[127.08046,37.45234],[127.0804,37.45228],[127.08031,37.4522],[127.08027,37.45212],[127.08021,37.45199],[127.08012,37.45185],[127.08007,37.45178],[127.07999,37.45173],[127.07993,37.45168],[127.07987,37.45162],[127.0798,37.45157],[127.07977,37.45151],[127.07978,37.45141],[127.0798,37.45132],[127.07982,37.45124],[127.07984,37.45115],[127.07987,37.4511],[127.07989,37.45101],[127.07989,37.45095],[127.07981,37.45084],[127.07972,37.45076],[127.07967,37.45067],[127.07964,37.45061],[127.0793,37.45023],[127.07922,37.45014],[127.07914,37.45009],[127.07903,37.45006],[127.07889,37.45001],[127.0787,37.44997],[127.07859,37.44995],[127.07853,37.44994],[127.07846,37.44991],[127.07839,37.44988],[127.07832,37.44981],[127.0783,37.44973],[127.07829,37.44967],[127.07834,37.44951],[127.07838,37.44941],[127.0784,37.44931],[127.07842,37.44922],[127.07843,37.4491]]}},{"type":"Feature","properties":{"class":"alley","highway":"service","sidewalk":"unknown","lanes":0,"name":"","oneway":false},"geometry":{"type":"LineString","coordinates":[[127.08187,37.44595],[127.08183,37.44603],[127.08182,37.44609],[127.08183,37.44614],[127.08192,37.44619],[127.082,37.44629],[127.08207,37.44639],[127.08217,37.44647],[127.08221,37.44651],[127.08226,37.44656],[127.08229,37.4466],[127.08226,37.44664],[127.08218,37.44669]]}},{"type":"Feature","properties":{"class":"alley","highway":"service","sidewalk":"unknown","lanes":0,"name":"","oneway":false},"geometry":{"type":"LineString","coordinates":[[127.08505,37.45394],[127.0853,37.45384],[127.08493,37.45328],[127.08486,37.45318]]}},{"type":"Feature","properties":{"class":"alley","highway":"service","sidewalk":"unknown","lanes":0,"name":"","oneway":false},"geometry":{"type":"LineString","coordinates":[[127.08231,37.45197],[127.08242,37.45212],[127.08217,37.45218]]}},{"type":"Feature","properties":{"class":"alley","highway":"service","sidewalk":"unknown","lanes":0,"name":"","oneway":false},"geometry":{"type":"LineString","coordinates":[[127.08195,37.45254],[127.08205,37.45258],[127.08213,37.45258],[127.0822,37.45254]]}},{"type":"Feature","properties":{"class":"alley","highway":"service","sidewalk":"unknown","lanes":0,"name":"","oneway":false},"geometry":{"type":"LineString","coordinates":[[127.07963,37.44534],[127.07985,37.4451],[127.07995,37.445],[127.08008,37.44487],[127.08024,37.44472],[127.08046,37.44485],[127.08076,37.44506],[127.08098,37.44525],[127.08117,37.44536],[127.08123,37.4455],[127.08126,37.44566],[127.08129,37.44581],[127.0813,37.44591],[127.08081,37.44642],[127.0807,37.44649]]}},{"type":"Feature","properties":{"class":"alley","highway":"service","sidewalk":"unknown","lanes":0,"name":"","oneway":false},"geometry":{"type":"LineString","coordinates":[[127.08256,37.44644],[127.08204,37.44604],[127.08187,37.44595],[127.08168,37.44589],[127.08152,37.44588],[127.08142,37.44588],[127.0813,37.44591],[127.08115,37.44582],[127.08094,37.4456]]}},{"type":"Feature","properties":{"class":"alley","highway":"service","sidewalk":"unknown","lanes":0,"name":"","oneway":false},"geometry":{"type":"LineString","coordinates":[[127.08462,37.4541],[127.08477,37.45409],[127.08486,37.45404],[127.08505,37.45394],[127.08498,37.4538],[127.08489,37.45357],[127.08481,37.4534],[127.08471,37.45326]]}},{"type":"Feature","properties":{"class":"alley","highway":"service","sidewalk":"unknown","lanes":0,"name":"","oneway":false},"geometry":{"type":"LineString","coordinates":[[127.08301,37.45231],[127.08254,37.45172],[127.08233,37.45183],[127.08231,37.45197]]}},{"type":"Feature","properties":{"class":"alley","highway":"service","sidewalk":"unknown","lanes":0,"name":"","oneway":false},"geometry":{"type":"LineString","coordinates":[[127.08123,37.4455],[127.08136,37.44543]]}},{"type":"Feature","properties":{"class":"alley","highway":"service","sidewalk":"unknown","lanes":0,"name":"","oneway":false},"geometry":{"type":"LineString","coordinates":[[127.08285,37.44733],[127.08216,37.44788],[127.08206,37.44777],[127.08197,37.44784],[127.08188,37.44792],[127.08186,37.44799],[127.08188,37.44832],[127.08186,37.44853],[127.08185,37.44872],[127.08184,37.44886]]}},{"type":"Feature","properties":{"class":"alley","highway":"service","sidewalk":"unknown","lanes":0,"name":"","oneway":false},"geometry":{"type":"LineString","coordinates":[[127.08301,37.45231],[127.08311,37.45242],[127.08339,37.45251],[127.08349,37.45254],[127.08357,37.45261],[127.08397,37.45256]]}},{"type":"Feature","properties":{"class":"alley","highway":"service","sidewalk":"unknown","lanes":0,"name":"","oneway":false},"geometry":{"type":"LineString","coordinates":[[127.08216,37.44788],[127.0822,37.44799],[127.08233,37.44808],[127.08245,37.44816],[127.08279,37.4479],[127.08274,37.44783]]}},{"type":"Feature","properties":{"class":"alley","highway":"service","sidewalk":"unknown","lanes":0,"name":"","oneway":false},"geometry":{"type":"LineString","coordinates":[[127.08498,37.4525],[127.08507,37.4526]]}},{"type":"Feature","properties":{"class":"alley","highway":"service","sidewalk":"unknown","lanes":0,"name":"","oneway":false},"geometry":{"type":"LineString","coordinates":[[127.08752,37.45341],[127.08761,37.45342],[127.08768,37.45346],[127.08771,37.45347],[127.08775,37.45346],[127.08782,37.45342],[127.08787,37.45338],[127.0879,37.45336],[127.08795,37.45334],[127.088,37.45333],[127.08805,37.45333],[127.08808,37.45339],[127.08809,37.45344],[127.08808,37.45349],[127.08807,37.45355],[127.08807,37.45363],[127.08807,37.45368],[127.08808,37.45374],[127.08811,37.45379],[127.08816,37.45383],[127.08822,37.45386],[127.0883,37.45386],[127.08839,37.4538]]}},{"type":"Feature","properties":{"class":"alley","highway":"service","sidewalk":"unknown","lanes":0,"name":"","oneway":false},"geometry":{"type":"LineString","coordinates":[[127.08346,37.45325],[127.0837,37.45329],[127.08378,37.4534],[127.08384,37.4535],[127.08401,37.45379],[127.08412,37.45397],[127.08417,37.45404],[127.08426,37.45413],[127.08437,37.45419],[127.08448,37.45424],[127.08458,37.45428],[127.08476,37.45432],[127.08488,37.45434],[127.08506,37.45433],[127.08508,37.45433],[127.08521,37.4543],[127.08537,37.45425],[127.08555,37.45416],[127.08653,37.45369],[127.08663,37.45365],[127.08673,37.45365],[127.08685,37.45369],[127.08698,37.45375],[127.0871,37.45382],[127.08717,37.45385],[127.08725,37.45387],[127.08732,37.45388],[127.08742,37.45386],[127.0875,37.45382],[127.08759,37.45378],[127.08762,37.4537],[127.08756,37.45349],[127.08752,37.45341],[127.08749,37.45333],[127.08732,37.45314],[127.08715,37.45284],[127.08707,37.45273],[127.08702,37.45267],[127.08697,37.45261],[127.08691,37.45257],[127.0868,37.45254],[127.0866,37.45249],[127.08637,37.45243],[127.08621,37.45238],[127.08616,37.45236],[127.08608,37.4523],[127.08594,37.45217],[127.08578,37.45202],[127.08567,37.45193],[127.08559,37.45187],[127.08552,37.45184],[127.08547,37.45181],[127.08537,37.45179],[127.08531,37.45178],[127.08522,37.45178],[127.0851,37.45182],[127.08503,37.45185],[127.08495,37.45188],[127.08489,37.45192],[127.08484,37.45195],[127.08481,37.45199],[127.0848,37.45203],[127.08479,37.45209],[127.08481,37.45214],[127.08488,37.45221],[127.08496,37.45234],[127.08501,37.45243],[127.08498,37.4525],[127.08476,37.4527],[127.08469,37.45278],[127.08463,37.45282],[127.0846,37.45283],[127.08447,37.45289],[127.08431,37.45294],[127.08421,37.45299],[127.08411,37.45302],[127.08401,37.45307],[127.08392,37.4531],[127.08387,37.45316],[127.0838,37.45323],[127.0837,37.45329]]}},{"type":"Feature","properties":{"class":"alley","highway":"service","sidewalk":"unknown","lanes":0,"name":"","oneway":false},"geometry":{"type":"LineString","coordinates":[[127.08231,37.45197],[127.08224,37.45179],[127.08215,37.45165],[127.08207,37.45154],[127.08194,37.45154],[127.08188,37.45163],[127.08219,37.45197],[127.08231,37.45197]]}},{"type":"Feature","properties":{"class":"alley","highway":"service","sidewalk":"unknown","lanes":0,"name":"","oneway":false},"geometry":{"type":"LineString","coordinates":[[127.08024,37.44472],[127.08075,37.4442]]}},{"type":"Feature","properties":{"class":"minor","highway":"residential","sidewalk":"unknown","lanes":0,"name":"","oneway":false},"geometry":{"type":"LineString","coordinates":[[127.08101,37.45351],[127.08111,37.45339],[127.08125,37.45328],[127.08134,37.4532],[127.08141,37.45315],[127.08146,37.45306],[127.08147,37.45297],[127.08152,37.45289],[127.08158,37.45281],[127.08167,37.45273],[127.0818,37.45264],[127.08188,37.45258],[127.08195,37.45254],[127.08204,37.4525],[127.08216,37.45247],[127.08233,37.45242],[127.08254,37.45238],[127.08275,37.45236],[127.08301,37.45231],[127.08318,37.45226],[127.08335,37.45224],[127.08354,37.45221],[127.08372,37.45217],[127.08386,37.45214],[127.08428,37.45206],[127.08437,37.4521],[127.08443,37.45218],[127.08448,37.4523],[127.08457,37.45246],[127.08461,37.45254],[127.0846,37.45262],[127.08458,37.45271],[127.08459,37.45277],[127.08463,37.45282]]}},{"type":"Feature","properties":{"class":"alley","highway":"service","sidewalk":"unknown","lanes":0,"name":"","oneway":false},"geometry":{"type":"LineString","coordinates":[[127.08295,37.45359],[127.08281,37.45367],[127.08282,37.45373]]}},{"type":"Feature","properties":{"class":"alley","highway":"service","sidewalk":"unknown","lanes":0,"name":"신흥말길","oneway":false},"geometry":{"type":"LineString","coordinates":[[127.08082,37.45334],[127.08065,37.45336],[127.08051,37.45337],[127.08038,37.45341],[127.08023,37.45347],[127.08015,37.4535],[127.08003,37.45358],[127.07996,37.45364],[127.07983,37.45376],[127.07977,37.45382],[127.07973,37.45389],[127.07975,37.45396],[127.07983,37.45401],[127.07993,37.45405],[127.08003,37.4541],[127.08012,37.45405]]}},{"type":"Feature","properties":{"class":"alley","highway":"service","sidewalk":"unknown","lanes":0,"name":"","oneway":false},"geometry":{"type":"LineString","coordinates":[[127.08337,37.45396],[127.08327,37.45399],[127.08332,37.45409]]}},{"type":"Feature","properties":{"class":"minor","highway":"residential","sidewalk":"unknown","lanes":0,"name":"","oneway":false},"geometry":{"type":"LineString","coordinates":[[127.08279,37.45342],[127.08295,37.45359],[127.08306,37.45371],[127.08319,37.45381],[127.08331,37.4539],[127.08337,37.45396],[127.08346,37.45405],[127.08353,37.45412],[127.08355,37.45417],[127.08344,37.45423],[127.0833,37.45429]]}},{"type":"Feature","properties":{"class":"alley","highway":"service","sidewalk":"unknown","lanes":0,"name":"신흥말길","oneway":false},"geometry":{"type":"LineString","coordinates":[[127.08072,37.45294],[127.0806,37.45294],[127.08051,37.45293],[127.08043,37.45294],[127.08032,37.45293],[127.08024,37.45291],[127.08019,37.45291],[127.08013,37.45293],[127.0801,37.45298],[127.08004,37.45302],[127.07998,37.45306],[127.07987,37.4531],[127.07976,37.45313],[127.07964,37.45316],[127.07955,37.45321],[127.07946,37.45325],[127.07941,37.45329],[127.07929,37.45334],[127.07918,37.45336]]}},{"type":"Feature","properties":{"class":"minor","highway":"residential","sidewalk":"unknown","lanes":0,"name":"심곡로75번길","oneway":false},"geometry":{"type":"LineString","coordinates":[[127.09736,37.45062],[127.0973,37.45045],[127.09729,37.45038],[127.09727,37.45029],[127.09723,37.45018],[127.09726,37.45009],[127.09722,37.45005],[127.09713,37.45002],[127.09705,37.44999],[127.09696,37.44996],[127.09687,37.44996],[127.09678,37.44993],[127.09661,37.44985],[127.09643,37.44978],[127.09633,37.44972]]}},{"type":"Feature","properties":{"class":"minor","highway":"residential","sidewalk":"unknown","lanes":0,"name":"","oneway":false},"geometry":{"type":"LineString","coordinates":[[127.09568,37.4504],[127.09558,37.45041],[127.09559,37.45048],[127.09563,37.45058],[127.09568,37.45076],[127.09574,37.45086],[127.09576,37.45094],[127.09573,37.45103],[127.09572,37.45113],[127.09571,37.45122],[127.09564,37.45123]]}},{"type":"Feature","properties":{"class":"minor","highway":"residential","sidewalk":"unknown","lanes":0,"name":"","oneway":false},"geometry":{"type":"LineString","coordinates":[[127.09658,37.45025],[127.09645,37.45027]]}},{"type":"Feature","properties":{"class":"minor","highway":"residential","sidewalk":"unknown","lanes":0,"name":"심곡로","oneway":false},"geometry":{"type":"LineString","coordinates":[[127.09863,37.45061],[127.09854,37.45057],[127.09841,37.45055],[127.0982,37.45054],[127.098,37.45054],[127.09794,37.45053],[127.09792,37.45052],[127.09778,37.45051],[127.09763,37.45054],[127.09745,37.45058],[127.09736,37.45062],[127.09728,37.45064],[127.09719,37.45063],[127.09704,37.45058],[127.09695,37.45052],[127.09685,37.45047],[127.09678,37.45043],[127.09673,37.45038],[127.09663,37.45031],[127.09658,37.45025],[127.09653,37.45015],[127.09659,37.4501],[127.09666,37.45003],[127.09678,37.44993]]}},{"type":"Feature","properties":{"class":"minor","highway":"residential","sidewalk":"unknown","lanes":0,"name":"심곡로37번길","oneway":false},"geometry":{"type":"LineString","coordinates":[[127.10129,37.45014],[127.10116,37.44997],[127.1011,37.44987],[127.10087,37.44989],[127.10072,37.4499],[127.10054,37.44986],[127.10047,37.44981],[127.10038,37.44976],[127.10012,37.44975],[127.10002,37.44974],[127.0999,37.44972],[127.09976,37.44972],[127.09957,37.4497],[127.09953,37.44967],[127.09952,37.44966],[127.09948,37.44962],[127.09943,37.44955],[127.09934,37.44952],[127.09921,37.44946],[127.09904,37.44945],[127.09894,37.4494],[127.09885,37.44933],[127.09868,37.44923],[127.09839,37.44909],[127.09828,37.44902],[127.09824,37.44899],[127.09816,37.44898],[127.09803,37.44896]]}},{"type":"Feature","properties":{"class":"major","highway":"motorway_link","sidewalk":"likely","lanes":0,"name":"","oneway":true},"geometry":{"type":"LineString","coordinates":[[127.09615,37.45037],[127.09626,37.45063],[127.0963,37.45076],[127.09637,37.45095],[127.09638,37.45111],[127.09638,37.45124]]}},{"type":"Feature","properties":{"class":"alley","highway":"service","sidewalk":"unknown","lanes":0,"name":"","oneway":false},"geometry":{"type":"LineString","coordinates":[[127.0963,37.45076],[127.09642,37.45063],[127.09647,37.4506],[127.09656,37.4506],[127.09666,37.45064],[127.09673,37.45071],[127.09678,37.45079],[127.09681,37.45104],[127.09681,37.45112],[127.09678,37.45119],[127.09671,37.45123],[127.09665,37.45124],[127.09656,37.45124],[127.0965,37.4512],[127.09644,37.45115],[127.09638,37.45111]]}},{"type":"Feature","properties":{"class":"minor","highway":"residential","sidewalk":"unknown","lanes":0,"name":"심곡로57번길","oneway":false},"geometry":{"type":"LineString","coordinates":[[127.09935,37.45059],[127.0993,37.45048],[127.09922,37.45038],[127.09918,37.45031],[127.09913,37.45026],[127.09908,37.45021],[127.099,37.45018],[127.09893,37.45012],[127.09889,37.45008],[127.09881,37.45002],[127.0986,37.44991],[127.09848,37.44987],[127.09836,37.44985],[127.09827,37.44984],[127.09807,37.44984],[127.09806,37.44974],[127.09806,37.44963],[127.09807,37.44958],[127.09809,37.4495],[127.09824,37.44927],[127.09839,37.44909]]}},{"type":"Feature","properties":{"class":"minor","highway":"residential","sidewalk":"unknown","lanes":0,"name":"","oneway":false},"geometry":{"type":"LineString","coordinates":[[127.09645,37.45027],[127.09568,37.4504]]}},{"type":"Feature","properties":{"class":"minor","highway":"residential","sidewalk":"unknown","lanes":0,"name":"","oneway":false},"geometry":{"type":"LineString","coordinates":[[127.09558,37.45041],[127.09553,37.45025],[127.09552,37.45015],[127.09551,37.45002],[127.09549,37.4499],[127.09548,37.4498],[127.09542,37.44966],[127.09538,37.44958],[127.09534,37.44953],[127.09529,37.44949],[127.09525,37.44945],[127.09519,37.44942],[127.0951,37.44938],[127.09503,37.44934],[127.09492,37.4493],[127.09484,37.44927]]}},{"type":"Feature","properties":{"class":"alley","highway":"service","sidewalk":"unknown","lanes":0,"name":"","oneway":false},"geometry":{"type":"LineString","coordinates":[[127.08327,37.44951],[127.08386,37.44916],[127.08391,37.44913],[127.08319,37.44823]]}},{"type":"Feature","properties":{"class":"alley","highway":"service","sidewalk":"unknown","lanes":0,"name":"","oneway":false},"geometry":{"type":"LineString","coordinates":[[127.08324,37.45032],[127.08311,37.45008],[127.08311,37.45001],[127.0832,37.44994],[127.08327,37.44993],[127.08335,37.44995],[127.08376,37.45036],[127.08436,37.45101],[127.08439,37.45106],[127.08415,37.45122]]}},{"type":"Feature","properties":{"class":"alley","highway":"service","sidewalk":"unknown","lanes":0,"name":"","oneway":false},"geometry":{"type":"LineString","coordinates":[[127.08594,37.45217],[127.08602,37.45213],[127.08605,37.45208],[127.08592,37.45182],[127.08584,37.45169],[127.08571,37.45153],[127.08558,37.45141],[127.08552,37.45129],[127.08549,37.45115],[127.08545,37.45099],[127.08547,37.45085],[127.08551,37.4507],[127.08558,37.45063],[127.08535,37.45005],[127.0853,37.44999],[127.08524,37.44995],[127.08516,37.44983],[127.08511,37.44968],[127.08499,37.44923],[127.0849,37.44908],[127.08471,37.44891]]}},{"type":"Feature","properties":{"class":"alley","highway":"service","sidewalk":"unknown","lanes":0,"name":"","oneway":false},"geometry":{"type":"LineString","coordinates":[[127.08305,37.45033],[127.08324,37.45032],[127.08415,37.45122],[127.08435,37.45142],[127.08441,37.45151],[127.08437,37.45158]]}},{"type":"Feature","properties":{"class":"alley","highway":"service","sidewalk":"unknown","lanes":0,"name":"","oneway":false},"geometry":{"type":"LineString","coordinates":[[127.08399,37.44997],[127.08412,37.45004],[127.08427,37.45023],[127.08462,37.45076]]}},{"type":"Feature","properties":{"class":"alley","highway":"service","sidewalk":"unknown","lanes":0,"name":"","oneway":false},"geometry":{"type":"LineString","coordinates":[[127.08399,37.44997],[127.08401,37.44993],[127.084,37.44983],[127.08392,37.44974],[127.08388,37.44968]]}},{"type":"Feature","properties":{"class":"alley","highway":"service","sidewalk":"unknown","lanes":0,"name":"","oneway":false},"geometry":{"type":"LineString","coordinates":[[127.08281,37.44953],[127.08327,37.44951],[127.08334,37.44962],[127.08345,37.44979],[127.08358,37.44989],[127.08372,37.44998],[127.08378,37.45002],[127.08389,37.45001],[127.08398,37.44999],[127.08399,37.44997]]}},{"type":"Feature","properties":{"class":"alley","highway":"service","sidewalk":"unknown","lanes":0,"name":"신흥말길","oneway":false},"geometry":{"type":"LineString","coordinates":[[127.0812,37.45394],[127.0811,37.45395],[127.08088,37.45407],[127.08071,37.45382]]}},{"type":"Feature","properties":{"class":"alley","highway":"service","sidewalk":"unknown","lanes":0,"name":"","oneway":false},"geometry":{"type":"LineString","coordinates":[[127.08236,37.45355],[127.08239,37.45361],[127.08238,37.45367],[127.08237,37.45373],[127.08232,37.45379],[127.08227,37.45387],[127.08225,37.45394],[127.08223,37.45402]]}},{"type":"Feature","properties":{"class":"minor","highway":"residential","sidewalk":"unknown","lanes":0,"name":"","oneway":false},"geometry":{"type":"LineString","coordinates":[[127.09633,37.44972],[127.09627,37.44981],[127.09624,37.44995],[127.09624,37.45022],[127.09627,37.4503],[127.09632,37.45045],[127.09636,37.45057],[127.09642,37.45063]]}},{"type":"Feature","properties":{"class":"minor","highway":"residential","sidewalk":"unknown","lanes":0,"name":"신흥말길","oneway":false},"geometry":{"type":"LineString","coordinates":[[127.0812,37.45427],[127.08134,37.45423],[127.08148,37.45412],[127.08162,37.45399],[127.08172,37.4539],[127.08183,37.45382],[127.08194,37.45375],[127.08213,37.45366],[127.0823,37.45358],[127.08236,37.45355],[127.08252,37.45349],[127.08276,37.45343],[127.08279,37.45342],[127.08308,37.45332],[127.08329,37.45327],[127.08346,37.45325]]}},{"type":"Feature","properties":{"class":"alley","highway":"service","sidewalk":"unknown","lanes":0,"name":"신흥말길","oneway":false},"geometry":{"type":"LineString","coordinates":[[127.07843,37.4491],[127.07848,37.44895],[127.07852,37.44885],[127.07859,37.44876],[127.07865,37.44869],[127.07876,37.44864],[127.07902,37.44861],[127.07923,37.44857],[127.0794,37.44853],[127.07961,37.44848],[127.07975,37.44848],[127.07988,37.44848],[127.08001,37.44856],[127.08013,37.4486],[127.08028,37.44863],[127.08038,37.44863],[127.08051,37.4486],[127.08065,37.44854],[127.08074,37.44848],[127.08083,37.44841],[127.08089,37.44834],[127.08099,37.44819],[127.08105,37.44811],[127.08103,37.44801],[127.08101,37.44794],[127.08096,37.44787],[127.08092,37.44783]]}},{"type":"Feature","properties":{"class":"major","highway":"motorway","sidewalk":"likely","lanes":2,"name":"용인서울고속도로","oneway":true},"geometry":{"type":"LineString","coordinates":[[127.09603,37.452],[127.09597,37.45157],[127.09593,37.45121],[127.09588,37.45089],[127.09566,37.45002],[127.09544,37.44937],[127.09526,37.4489]]}},{"type":"Feature","properties":{"class":"major","highway":"motorway_link","sidewalk":"likely","lanes":0,"name":"","oneway":true},"geometry":{"type":"LineString","coordinates":[[127.09638,37.45124],[127.09642,37.45159],[127.09638,37.45169]]}},{"type":"Feature","properties":{"class":"major","highway":"motorway","sidewalk":"likely","lanes":2,"name":"용인서울고속도로","oneway":true},"geometry":{"type":"LineString","coordinates":[[127.09563,37.44883],[127.09596,37.44969],[127.09615,37.45037],[127.09626,37.45087],[127.0963,37.45117],[127.09638,37.45169],[127.09643,37.45218]]}},{"type":"Feature","properties":{"class":"alley","highway":"service","sidewalk":"unknown","lanes":0,"name":"","oneway":false},"geometry":{"type":"LineString","coordinates":[[127.08076,37.45022],[127.0808,37.45009],[127.08079,37.45006],[127.08074,37.45004],[127.08036,37.44994]]}},{"type":"Feature","properties":{"class":"alley","highway":"service","sidewalk":"unknown","lanes":0,"name":"","oneway":false},"geometry":{"type":"LineString","coordinates":[[127.07961,37.4501],[127.07981,37.45017],[127.08001,37.45023],[127.08012,37.45028],[127.0802,37.45029],[127.08034,37.45029],[127.08043,37.45029],[127.08062,37.45023],[127.08072,37.45022],[127.08076,37.45022],[127.08083,37.45023],[127.08096,37.45029]]}}]}