{"type":"FeatureCollection","features":[{"type":"Feature","properties":{"class":"major","highway":"motorway","sidewalk":"likely","lanes":5,"name":"경부고속도로","oneway":true},"geometry":{"type":"LineString","coordinates":[[127.04046,37.46278],[127.0418,37.46134],[127.0439,37.45911],[127.04465,37.45831],[127.0448,37.45814],[127.04545,37.45746],[127.04758,37.45525],[127.04909,37.45361],[127.05118,37.45131],[127.05197,37.45042],[127.05293,37.44935],[127.05373,37.44848],[127.05456,37.44758],[127.05547,37.44654],[127.05596,37.44597],[127.05641,37.44543],[127.0569,37.44483],[127.05733,37.44425],[127.05823,37.44299],[127.05917,37.44164],[127.06004,37.44047],[127.06082,37.43935],[127.0613,37.43876],[127.06202,37.438],[127.06275,37.43727],[127.06393,37.43606],[127.06515,37.43481],[127.06699,37.43302],[127.06756,37.43246],[127.06946,37.43058],[127.07029,37.42977],[127.0708,37.42927],[127.07111,37.42897]]}},{"type":"Feature","properties":{"class":"major","highway":"trunk","sidewalk":"likely","lanes":0,"name":"분당내곡로","oneway":true},"geometry":{"type":"LineString","coordinates":[[127.06901,37.46555],[127.06978,37.46477],[127.07096,37.46362],[127.07163,37.46296],[127.07291,37.46164],[127.0733,37.46122],[127.07383,37.46062],[127.0742,37.46018],[127.07439,37.45991],[127.07439,37.4599],[127.07465,37.45949]]}},{"type":"Feature","properties":{"class":"major","highway":"trunk","sidewalk":"likely","lanes":0,"name":"분당내곡로","oneway":true},"geometry":{"type":"LineString","coordinates":[[127.07465,37.45949],[127.07485,37.45913],[127.07532,37.45829],[127.07559,37.45785]]}},{"type":"Feature","properties":{"class":"major","highway":"trunk_link","sidewalk":"likely","lanes":0,"name":"","oneway":true},"geometry":{"type":"LineString","coordinates":[[127.07205,37.45737],[127.07285,37.45741],[127.07348,37.45743],[127.07419,37.45731],[127.07477,37.45714],[127.07524,37.45691],[127.07559,37.45669],[127.07578,37.45659],[127.07611,37.45633],[127.07648,37.45597],[127.07681,37.45554],[127.07729,37.45481]]}},{"type":"Feature","properties":{"class":"major","highway":"trunk_link","sidewalk":"likely","lanes":0,"name":"","oneway":true},"geometry":{"type":"LineString","coordinates":[[127.0751,37.45923],[127.07509,37.4593],[127.07509,37.45937],[127.07509,37.45944],[127.07511,37.45951],[127.07513,37.45955],[127.07515,37.45959]]}},{"type":"Feature","properties":{"class":"major","highway":"trunk_link","sidewalk":"likely","lanes":0,"name":"","oneway":true},"geometry":{"type":"LineString","coordinates":[[127.07663,37.45785],[127.07632,37.45777],[127.07623,37.45776],[127.07614,37.45777],[127.07604,37.4578],[127.07593,37.45786],[127.07583,37.45794]]}},{"type":"Feature","properties":{"class":"major","highway":"trunk_link","sidewalk":"likely","lanes":0,"name":"","oneway":true},"geometry":{"type":"LineString","coordinates":[[127.07848,37.45847],[127.07663,37.45785]]}},{"type":"Feature","properties":{"class":"major","highway":"trunk_link","sidewalk":"likely","lanes":0,"name":"","oneway":true},"geometry":{"type":"LineString","coordinates":[[127.07816,37.4597],[127.07793,37.45965],[127.07783,37.45962],[127.07755,37.45958],[127.0772,37.45957],[127.07688,37.45959],[127.07655,37.45966],[127.07571,37.45995],[127.0749,37.46027],[127.07434,37.46053],[127.07403,37.46073],[127.07341,37.46126]]}},{"type":"Feature","properties":{"class":"major","highway":"primary","sidewalk":"likely","lanes":0,"name":"헌릉로","oneway":true},"geometry":{"type":"LineString","coordinates":[[127.07155,37.45721],[127.07188,37.45731],[127.07205,37.45737],[127.0734,37.45783],[127.07498,37.45832],[127.07727,37.45909],[127.07861,37.45952],[127.07905,37.45967],[127.07989,37.45994],[127.08002,37.45998]]}},{"type":"Feature","properties":{"class":"major","highway":"primary","sidewalk":"likely","lanes":0,"name":"헌릉로","oneway":true},"geometry":{"type":"LineString","coordinates":[[127.07147,37.45736],[127.07125,37.45734],[127.07036,37.45703],[127.07006,37.45691],[127.06926,37.45664],[127.06893,37.45653],[127.06589,37.45553],[127.06528,37.45543],[127.065,37.45541],[127.06495,37.45541]]}},{"type":"Feature","properties":{"class":"major","highway":"trunk_link","sidewalk":"likely","lanes":0,"name":"","oneway":true},"geometry":{"type":"LineString","coordinates":[[127.07532,37.45829],[127.0754,37.45799],[127.07544,37.45782]]}},{"type":"Feature","properties":{"class":"major","highway":"trunk_link","sidewalk":"likely","lanes":0,"name":"","oneway":true},"geometry":{"type":"LineString","coordinates":[[127.07623,37.45697],[127.07622,37.45716],[127.07622,37.4573],[127.07627,37.45746],[127.07634,37.45754],[127.07645,37.45764],[127.07679,37.4578]]}},{"type":"Feature","properties":{"class":"major","highway":"trunk_link","sidewalk":"likely","lanes":0,"name":"","oneway":true},"geometry":{"type":"LineString","coordinates":[[127.07544,37.45782],[127.07545,37.45769],[127.07541,37.45757],[127.07527,37.45741],[127.07508,37.45732],[127.07485,37.45731],[127.07462,37.45736],[127.07447,37.45746],[127.07438,37.45764],[127.0744,37.45784],[127.07449,37.45797],[127.07467,37.45811],[127.07498,37.45832]]}},{"type":"Feature","properties":{"class":"major","highway":"trunk_link","sidewalk":"likely","lanes":0,"name":"","oneway":true},"geometry":{"type":"LineString","coordinates":[[127.07532,37.45878],[127.07486,37.45863],[127.07399,37.45836],[127.07325,37.45803]]}},{"type":"Feature","properties":{"class":"major","highway":"trunk","sidewalk":"likely","lanes":0,"name":"분당내곡로","oneway":true},"geometry":{"type":"LineString","coordinates":[[127.07571,37.45789],[127.07563,37.45807],[127.07528,37.45869],[127.07503,37.45908],[127.07477,37.45954]]}},{"type":"Feature","properties":{"class":"major","highway":"trunk","sidewalk":"likely","lanes":0,"name":"분당내곡로","oneway":true},"geometry":{"type":"LineString","coordinates":[[127.07477,37.45954],[127.07449,37.45996],[127.0743,37.46023],[127.07389,37.4607],[127.07341,37.46126],[127.07232,37.46238],[127.0717,37.46303],[127.0711,37.46366],[127.06994,37.46489],[127.06918,37.46566]]}},{"type":"Feature","properties":{"class":"alley","highway":"service","sidewalk":"unknown","lanes":0,"name":"","oneway":false},"geometry":{"type":"LineString","coordinates":[[127.07977,37.45957],[127.07989,37.45932],[127.08005,37.459],[127.08008,37.45893]]}},{"type":"Feature","properties":{"class":"alley","highway":"service","sidewalk":"unknown","lanes":0,"name":"","oneway":false},"geometry":{"type":"LineString","coordinates":[[127.07977,37.45957],[127.07969,37.45972],[127.07946,37.46017],[127.0794,37.46028]]}},{"type":"Feature","properties":{"class":"minor","highway":"residential","sidewalk":"unknown","lanes":0,"name":"샘마을길","oneway":false},"geometry":{"type":"LineString","coordinates":[[127.07042,37.46363],[127.07068,37.46353],[127.07084,37.46333],[127.07125,37.46276],[127.07132,37.46248],[127.0716,37.46191],[127.07182,37.46142],[127.07186,37.46124],[127.07181,37.46105],[127.07162,37.46076],[127.0714,37.46064],[127.07129,37.46051],[127.07119,37.46014],[127.07122,37.46005],[127.07149,37.45972],[127.07186,37.4592],[127.07188,37.45911],[127.07186,37.45904],[127.07174,37.45885],[127.07141,37.45835],[127.07134,37.45815],[127.07132,37.45798],[127.0713,37.4578],[127.07131,37.45766],[127.07133,37.45761],[127.07136,37.45756],[127.0714,37.4575],[127.07147,37.45736],[127.07155,37.45721]]}},{"type":"Feature","properties":{"class":"alley","highway":"service","sidewalk":"unknown","lanes":0,"name":"","oneway":false},"geometry":{"type":"LineString","coordinates":[[127.07188,37.45731],[127.07207,37.45712],[127.07222,37.45687],[127.07246,37.45647],[127.07264,37.45613],[127.07274,37.45596],[127.07277,37.45588],[127.07274,37.45575],[127.07264,37.45562],[127.07251,37.45553],[127.07232,37.45546],[127.07216,37.45535],[127.07196,37.45519],[127.07188,37.45513],[127.07169,37.45495],[127.07161,37.45483],[127.07152,37.45472],[127.07146,37.45464],[127.07135,37.45448],[127.07129,37.45438],[127.07126,37.45435],[127.07111,37.45419],[127.07103,37.45408],[127.07092,37.45393],[127.0708,37.45382],[127.07062,37.45366],[127.07052,37.45354],[127.07042,37.45344],[127.07035,37.45337],[127.07032,37.45331],[127.07031,37.45324],[127.07031,37.45314],[127.07035,37.45304],[127.07037,37.4529],[127.07041,37.45279],[127.07044,37.45262],[127.07046,37.45251],[127.0705,37.45234],[127.07053,37.45219],[127.07055,37.45213],[127.07056,37.45212],[127.0706,37.45202],[127.07065,37.45195],[127.07073,37.45187],[127.07084,37.45178],[127.07091,37.4517],[127.07098,37.45159],[127.07106,37.45145],[127.0712,37.45123],[127.07134,37.45101],[127.07142,37.4509],[127.0715,37.4508],[127.07157,37.45075],[127.0716,37.45073],[127.07175,37.45063],[127.07193,37.45051],[127.07245,37.45021],[127.0734,37.44965],[127.07355,37.44953],[127.07365,37.44946],[127.07369,37.44938],[127.07377,37.44928],[127.07391,37.44916],[127.07401,37.44906],[127.07413,37.44892],[127.07416,37.44889],[127.07423,37.4488],[127.07432,37.44864],[127.07436,37.44848],[127.07439,37.44822],[127.07441,37.44805],[127.0744,37.44782],[127.07432,37.44753],[127.07427,37.44741],[127.07423,37.4473],[127.07419,37.44718],[127.07413,37.44711],[127.07407,37.44702],[127.07403,37.44694],[127.07399,37.44688],[127.07398,37.44684],[127.07398,37.44677],[127.07401,37.44672],[127.07406,37.44665],[127.07413,37.44659],[127.07422,37.44652],[127.07449,37.44635],[127.07489,37.44603],[127.07499,37.44597],[127.07513,37.44585],[127.07523,37.4458],[127.07526,37.4457],[127.07525,37.4456],[127.07527,37.44546],[127.0753,37.44537],[127.07537,37.44526],[127.0755,37.44513],[127.07568,37.44503],[127.07579,37.44498],[127.0759,37.44491],[127.07601,37.44485],[127.07622,37.44481],[127.07639,37.4448],[127.07669,37.44479],[127.0779,37.44478],[127.07812,37.4448],[127.07815,37.44501],[127.0782,37.44511],[127.07885,37.44529],[127.07922,37.44543],[127.0795,37.44554],[127.07965,37.44558],[127.08059,37.44643],[127.0807,37.44649],[127.08078,37.44653],[127.08152,37.44733],[127.08192,37.44776],[127.08197,37.44784],[127.08207,37.44798],[127.0823,37.44829],[127.08242,37.44851],[127.08254,37.44874],[127.08264,37.44898],[127.08281,37.44953],[127.08295,37.45001],[127.08305,37.45033],[127.08304,37.45043],[127.08298,37.4505],[127.08282,37.45056]]}},{"type":"Feature","properties":{"class":"alley","highway":"service","sidewalk":"unknown","lanes":0,"name":"신흥안길","oneway":false},"geometry":{"type":"LineString","coordinates":[[127.08,37.45487],[127.07984,37.45484],[127.07961,37.45474],[127.07945,37.4547],[127.0793,37.45465],[127.07918,37.45459],[127.07905,37.45458],[127.07888,37.45455],[127.07874,37.45455],[127.07846,37.45453],[127.0783,37.45454],[127.07827,37.4546],[127.07814,37.45462],[127.07803,37.45462],[127.07785,37.45461],[127.07772,37.4546]]}},{"type":"Feature","properties":{"class":"minor","highway":"residential","sidewalk":"unknown","lanes":0,"name":"신흥안길","oneway":false},"geometry":{"type":"LineString","coordinates":[[127.07529,37.45518],[127.0752,37.45507],[127.07516,37.45499],[127.07513,37.45491],[127.07513,37.45481],[127.07515,37.4547],[127.07518,37.45461],[127.07524,37.45453],[127.07533,37.45445],[127.07538,37.4544],[127.0755,37.45432],[127.07561,37.45425],[127.07581,37.45415],[127.07604,37.45407],[127.07628,37.45398],[127.07644,37.45391],[127.07665,37.45383],[127.07674,37.45379],[127.07684,37.45371],[127.07685,37.45363],[127.07681,37.45353],[127.07669,37.45338],[127.07658,37.45322],[127.07655,37.45318],[127.0765,37.45311],[127.07642,37.45301],[127.07628,37.45291],[127.07619,37.45284],[127.07611,37.4528],[127.07603,37.45274]]}},{"type":"Feature","properties":{"class":"alley","highway":"service","sidewalk":"unknown","lanes":0,"name":"","oneway":false},"geometry":{"type":"LineString","coordinates":[[127.07997,37.45973],[127.07994,37.45979],[127.07989,37.45994]]}},{"type":"Feature","properties":{"class":"alley","highway":"service","sidewalk":"unknown","lanes":0,"name":"신흥안길","oneway":false},"geometry":{"type":"LineString","coordinates":[[127.07207,37.45712],[127.07224,37.45713],[127.07236,37.45712],[127.07245,37.4571],[127.07252,37.45707],[127.07258,37.45703],[127.07263,37.45698],[127.07269,37.45693],[127.07274,37.45689],[127.07283,37.45684],[127.0729,37.4568],[127.07298,37.45676],[127.07305,37.45673],[127.07311,37.4567],[127.07318,37.45666],[127.07324,37.45661],[127.07329,37.45656],[127.07333,37.45644],[127.07336,37.45639],[127.07341,37.45626],[127.07346,37.4562],[127.07352,37.45613],[127.07356,37.45606],[127.07364,37.45596],[127.0737,37.45587],[127.07376,37.45582],[127.07387,37.45575],[127.07399,37.45572],[127.0741,37.45568],[127.07416,37.45566],[127.07426,37.4556],[127.07435,37.45556],[127.07457,37.45546],[127.0747,37.45543],[127.07482,37.4554],[127.0749,37.45537],[127.075,37.45534],[127.07513,37.45529],[127.07521,37.45525],[127.07528,37.4552],[127.07529,37.45518],[127.07534,37.45512],[127.07545,37.45504],[127.07554,37.45498],[127.0756,37.45494],[127.07566,37.45491],[127.07581,37.45488],[127.07591,37.45488],[127.07606,37.45488],[127.07617,37.45489],[127.07626,37.45491],[127.07633,37.45497],[127.07641,37.45503],[127.07646,37.45508],[127.07651,37.4551],[127.07672,37.45509],[127.07682,37.45507]]}},{"type":"Feature","properties":{"class":"major","highway":"trunk_link","sidewalk":"likely","lanes":0,"name":"","oneway":true},"geometry":{"type":"LineString","coordinates":[[127.08131,37.45941],[127.08037,37.45911],[127.08005,37.459],[127.07975,37.45891],[127.07848,37.45847]]}},{"type":"Feature","properties":{"class":"alley","highway":"service","sidewalk":"unknown","lanes":0,"name":"","oneway":false},"geometry":{"type":"LineString","coordinates":[[127.07913,37.45948],[127.07947,37.45958],[127.07997,37.45973],[127.08024,37.45969],[127.08051,37.45963],[127.08081,37.45953]]}},{"type":"Feature","properties":{"class":"alley","highway":"service","sidewalk":"unknown","lanes":0,"name":"","oneway":false},"geometry":{"type":"LineString","coordinates":[[127.07905,37.45967],[127.07913,37.45948],[127.07852,37.45929],[127.07844,37.45925],[127.07827,37.45912],[127.07819,37.45908]]}},{"type":"Feature","properties":{"class":"alley","highway":"service","sidewalk":"unknown","lanes":0,"name":"신흥안길","oneway":false},"geometry":{"type":"LineString","coordinates":[[127.07152,37.45472],[127.07166,37.45473],[127.07184,37.45478],[127.07229,37.45488],[127.0727,37.45498],[127.07301,37.45501],[127.07308,37.45503],[127.07309,37.45497],[127.07306,37.45491],[127.07298,37.45486],[127.07287,37.45482],[127.07278,37.45477],[127.0727,37.4547],[127.07263,37.45466],[127.07256,37.45458],[127.07254,37.45453],[127.07255,37.45446],[127.07262,37.45442],[127.07265,37.45439],[127.0727,37.45433],[127.07276,37.45426],[127.07288,37.45421]]}},{"type":"Feature","properties":{"class":"alley","highway":"service","sidewalk":"unknown","lanes":0,"name":"샘마루길","oneway":false},"geometry":{"type":"LineString","coordinates":[[127.07207,37.45712],[127.07185,37.45709],[127.0716,37.45702],[127.07141,37.45694],[127.0712,37.4569],[127.07121,37.45686],[127.07123,37.45677],[127.07123,37.45669],[127.07118,37.45658],[127.07113,37.45647],[127.07107,37.45637],[127.07105,37.45629],[127.071,37.45616],[127.07096,37.45608],[127.07095,37.45605],[127.07093,37.45599],[127.07092,37.4559],[127.07093,37.45573],[127.07081,37.45546]]}},{"type":"Feature","properties":{"class":"alley","highway":"service","sidewalk":"unknown","lanes":0,"name":"","oneway":false},"geometry":{"type":"LineString","coordinates":[[127.07095,37.45605],[127.07084,37.456],[127.07073,37.45596],[127.07063,37.45594],[127.07053,37.45597],[127.07045,37.45601],[127.0704,37.45605]]}},{"type":"Feature","properties":{"class":"minor","highway":"residential","sidewalk":"unknown","lanes":0,"name":"능안말3길","oneway":false},"geometry":{"type":"LineString","coordinates":[[127.06591,37.45463],[127.06597,37.45456],[127.06637,37.45438],[127.06658,37.45429],[127.06739,37.45397]]}},{"type":"Feature","properties":{"class":"minor","highway":"residential","sidewalk":"unknown","lanes":0,"name":"능안말1길","oneway":false},"geometry":{"type":"LineString","coordinates":[[127.06509,37.45504],[127.06519,37.45506],[127.06534,37.45508],[127.06569,37.45513],[127.06572,37.45514],[127.06616,37.45524],[127.06627,37.45526],[127.06691,37.45547],[127.06739,37.45561]]}},{"type":"Feature","properties":{"class":"minor","highway":"residential","sidewalk":"unknown","lanes":0,"name":"능안말길","oneway":false},"geometry":{"type":"LineString","coordinates":[[127.06727,37.4558],[127.06731,37.45573],[127.06734,37.45568],[127.06739,37.45561],[127.06752,37.45536],[127.06764,37.4551],[127.06783,37.45465],[127.06769,37.4544],[127.06739,37.45397],[127.06713,37.45359],[127.06632,37.45393],[127.06531,37.4544],[127.06525,37.4544]]}},{"type":"Feature","properties":{"class":"minor","highway":"residential","sidewalk":"unknown","lanes":0,"name":"능안말길","oneway":false},"geometry":{"type":"LineString","coordinates":[[127.06676,37.45482],[127.06696,37.4547],[127.06769,37.4544]]}},{"type":"Feature","properties":{"class":"minor","highway":"residential","sidewalk":"unknown","lanes":0,"name":"헌릉로8길","oneway":false},"geometry":{"type":"LineString","coordinates":[[127.06499,37.45447],[127.06451,37.45454],[127.06404,37.45461],[127.06372,37.45456],[127.0632,37.45444],[127.06268,37.45432],[127.06239,37.45429],[127.0622,37.45431],[127.06189,37.45443],[127.06173,37.45444],[127.06144,37.45443],[127.06115,37.45441],[127.06095,37.45446],[127.0606,37.45461]]}},{"type":"Feature","properties":{"class":"minor","highway":"residential","sidewalk":"unknown","lanes":0,"name":"능안말1길","oneway":false},"geometry":{"type":"LineString","coordinates":[[127.06719,37.45495],[127.06704,37.4552],[127.06691,37.45547]]}},{"type":"Feature","properties":{"class":"minor","highway":"residential","sidewalk":"unknown","lanes":0,"name":"능안말1길","oneway":false},"geometry":{"type":"LineString","coordinates":[[127.06653,37.45477],[127.06627,37.45526]]}},{"type":"Feature","properties":{"class":"minor","highway":"residential","sidewalk":"unknown","lanes":0,"name":"능안말1길","oneway":false},"geometry":{"type":"LineString","coordinates":[[127.06591,37.45463],[127.06572,37.45514]]}},{"type":"Feature","properties":{"class":"alley","highway":"service","sidewalk":"unknown","lanes":0,"name":"안골3길","oneway":false},"geometry":{"type":"LineString","coordinates":[[127.06424,37.45609],[127.0638,37.45618]]}},{"type":"Feature","properties":{"class":"alley","highway":"service","sidewalk":"unknown","lanes":0,"name":"안골2길","oneway":false},"geometry":{"type":"LineString","coordinates":[[127.06414,37.4557],[127.06434,37.45566],[127.06459,37.45561],[127.06479,37.45559],[127.06508,37.45559],[127.06516,37.45565],[127.06515,37.4558],[127.06524,37.45614]]}},{"type":"Feature","properties":{"class":"alley","highway":"service","sidewalk":"unknown","lanes":0,"name":"","oneway":false},"geometry":{"type":"LineString","coordinates":[[127.06322,37.45862],[127.06327,37.45871],[127.06333,37.45876],[127.06336,37.45877],[127.06339,37.45878],[127.06354,37.45879],[127.06371,37.45882],[127.0638,37.45886],[127.06393,37.45896],[127.064,37.45906],[127.06413,37.45915],[127.0642,37.4592],[127.06424,37.45927],[127.0642,37.45938],[127.06416,37.45946],[127.06415,37.45955],[127.06415,37.45965],[127.06425,37.45973],[127.0645,37.45992],[127.06459,37.46],[127.06464,37.46007],[127.06464,37.46013],[127.06466,37.46023],[127.06469,37.4603],[127.06476,37.46038],[127.06482,37.46045],[127.06482,37.46053],[127.06483,37.46058],[127.06488,37.46063],[127.06495,37.46071],[127.06501,37.46078],[127.06503,37.46082],[127.06509,37.46086],[127.06516,37.46091],[127.06521,37.46094],[127.06525,37.46098],[127.06526,37.46103],[127.06524,37.46107],[127.06518,37.46112],[127.06513,37.46115],[127.06506,37.46122],[127.06485,37.4614],[127.06478,37.46145],[127.06473,37.46147],[127.06464,37.46149],[127.06451,37.4615],[127.06437,37.46153],[127.06429,37.46156],[127.06419,37.46159],[127.06408,37.46164]]}},{"type":"Feature","properties":{"class":"alley","highway":"service","sidewalk":"unknown","lanes":0,"name":"안골2길","oneway":false},"geometry":{"type":"LineString","coordinates":[[127.06524,37.45614],[127.06531,37.45625],[127.06536,37.45632]]}},{"type":"Feature","properties":{"class":"alley","highway":"service","sidewalk":"unknown","lanes":0,"name":"안골길","oneway":false},"geometry":{"type":"LineString","coordinates":[[127.06409,37.45553],[127.06412,37.45563],[127.06414,37.4557],[127.06424,37.45609],[127.06428,37.45624]]}},{"type":"Feature","properties":{"class":"alley","highway":"service","sidewalk":"unknown","lanes":0,"name":"안골길","oneway":false},"geometry":{"type":"LineString","coordinates":[[127.06428,37.45624],[127.06427,37.45633],[127.0643,37.4568]]}},{"type":"Feature","properties":{"class":"minor","highway":"residential","sidewalk":"unknown","lanes":0,"name":"샘마을1길","oneway":false},"geometry":{"type":"LineString","coordinates":[[127.07132,37.45798],[127.07106,37.45817],[127.07047,37.45815],[127.07002,37.45805],[127.07039,37.45739]]}},{"type":"Feature","properties":{"class":"alley","highway":"service","sidewalk":"unknown","lanes":0,"name":"","oneway":false},"geometry":{"type":"LineString","coordinates":[[127.06871,37.45783],[127.06847,37.45781],[127.06832,37.45825],[127.06948,37.4585],[127.0696,37.45814],[127.06958,37.45808],[127.06931,37.45799]]}},{"type":"Feature","properties":{"class":"minor","highway":"residential","sidewalk":"unknown","lanes":0,"name":"샘마을1길","oneway":false},"geometry":{"type":"LineString","coordinates":[[127.07047,37.45815],[127.07081,37.45751]]}},{"type":"Feature","properties":{"class":"alley","highway":"service","sidewalk":"unknown","lanes":0,"name":"","oneway":false},"geometry":{"type":"LineString","coordinates":[[127.06792,37.45838],[127.06779,37.45832],[127.06772,37.45829],[127.06772,37.45824],[127.06776,37.45818],[127.06777,37.45812],[127.06779,37.45805],[127.06778,37.45797],[127.06776,37.4579],[127.06772,37.45783],[127.06764,37.45776],[127.0675,37.4577],[127.06736,37.45763],[127.06722,37.45759],[127.06711,37.45755]]}},{"type":"Feature","properties":{"class":"minor","highway":"residential","sidewalk":"unknown","lanes":0,"name":"샘마을2길","oneway":false},"geometry":{"type":"LineString","coordinates":[[127.07132,37.45798],[127.07148,37.45796],[127.0717,37.45808],[127.07216,37.45824],[127.07227,37.45831],[127.07256,37.45848],[127.07274,37.45857],[127.07297,37.45871],[127.07303,37.45876],[127.07323,37.45931],[127.07323,37.45937],[127.07314,37.45944],[127.07266,37.4598],[127.07246,37.45994],[127.07233,37.46029],[127.07227,37.46033],[127.07207,37.46046],[127.07179,37.46064],[127.07162,37.46076]]}},{"type":"Feature","properties":{"class":"alley","highway":"service","sidewalk":"unknown","lanes":0,"name":"","oneway":false},"geometry":{"type":"LineString","coordinates":[[127.06875,37.45775],[127.06868,37.45771],[127.06856,37.4577],[127.06842,37.45769],[127.06832,37.45773],[127.06821,37.45782],[127.06814,37.45792],[127.06809,37.45801],[127.06793,37.4583],[127.06792,37.45838],[127.06793,37.45847],[127.06796,37.45855],[127.06803,37.45867],[127.06817,37.45884],[127.06824,37.45893],[127.06832,37.45897],[127.0684,37.45907],[127.06854,37.4592]]}},{"type":"Feature","properties":{"class":"alley","highway":"service","sidewalk":"unknown","lanes":0,"name":"","oneway":false},"geometry":{"type":"LineString","coordinates":[[127.07136,37.45756],[127.07034,37.45722],[127.07002,37.45714],[127.06982,37.45712],[127.06967,37.45716],[127.06962,37.45722],[127.06956,37.45737],[127.0694,37.45778],[127.06931,37.45799],[127.06895,37.45793],[127.06879,37.4579],[127.06871,37.45783],[127.06875,37.45775],[127.06884,37.45769],[127.06895,37.45767],[127.06923,37.45773],[127.0694,37.45778]]}},{"type":"Feature","properties":{"class":"minor","highway":"residential","sidewalk":"unknown","lanes":0,"name":"","oneway":true},"geometry":{"type":"LineString","coordinates":[[127.06513,37.45458],[127.06509,37.45457],[127.06505,37.45456],[127.06502,37.45454],[127.065,37.45451],[127.06499,37.45447],[127.06499,37.45444],[127.06501,37.4544],[127.06504,37.45438],[127.06508,37.45436],[127.06512,37.45435],[127.06516,37.45435],[127.0652,37.45436],[127.06523,37.45438],[127.06525,37.4544],[127.06527,37.45442],[127.06528,37.45445],[127.06528,37.45448],[127.06527,37.4545],[127.06525,37.45453],[127.06522,37.45456],[127.06517,37.45458],[127.06513,37.45458]]}},{"type":"Feature","properties":{"class":"minor","highway":"residential","sidewalk":"unknown","lanes":0,"name":"홍씨마을길","oneway":false},"geometry":{"type":"LineString","coordinates":[[127.06495,37.45541],[127.065,37.45527]]}},{"type":"Feature","properties":{"class":"minor","highway":"residential","sidewalk":"unknown","lanes":0,"name":"능안말2길","oneway":false},"geometry":{"type":"LineString","coordinates":[[127.06528,37.45448],[127.06531,37.45449],[127.06591,37.45463],[127.06653,37.45477],[127.06676,37.45482],[127.06719,37.45495],[127.06764,37.4551]]}},{"type":"Feature","properties":{"class":"major","highway":"trunk_link","sidewalk":"likely","lanes":0,"name":"","oneway":true},"geometry":{"type":"LineString","coordinates":[[127.07528,37.45869],[127.0751,37.45923]]}},{"type":"Feature","properties":{"class":"major","highway":"trunk_link","sidewalk":"likely","lanes":0,"name":"","oneway":true},"geometry":{"type":"LineString","coordinates":[[127.07583,37.45794],[127.07563,37.45807]]}},{"type":"Feature","properties":{"class":"minor","highway":"residential","sidewalk":"unknown","lanes":0,"name":"능안말길","oneway":false},"geometry":{"type":"LineString","coordinates":[[127.06739,37.45561],[127.06804,37.45583]]}},{"type":"Feature","properties":{"class":"minor","highway":"residential","sidewalk":"unknown","lanes":0,"name":"청계산로9길","oneway":false},"geometry":{"type":"LineString","coordinates":[[127.05871,37.45289],[127.05881,37.45323],[127.05984,37.45406],[127.06023,37.45439],[127.06032,37.4545],[127.06036,37.45455]]}},{"type":"Feature","properties":{"class":"minor","highway":"residential","sidewalk":"unknown","lanes":0,"name":"","oneway":true},"geometry":{"type":"LineString","coordinates":[[127.06029,37.45472],[127.06029,37.45469],[127.06029,37.45464],[127.0603,37.4546],[127.06034,37.45456],[127.06036,37.45455],[127.06042,37.45453],[127.06048,37.45453],[127.06053,37.45455],[127.06058,37.45457],[127.0606,37.45461],[127.06062,37.45466],[127.06061,37.4547],[127.06059,37.45475],[127.06055,37.45478],[127.0605,37.4548],[127.06044,37.4548],[127.06038,37.45479],[127.06034,37.45477],[127.06029,37.45472]]}},{"type":"Feature","properties":{"class":"major","highway":"primary","sidewalk":"likely","lanes":0,"name":"헌릉로","oneway":true},"geometry":{"type":"LineString","coordinates":[[127.07994,37.46014],[127.07886,37.4598],[127.07846,37.45967],[127.07782,37.45947],[127.07756,37.4594],[127.07646,37.45903],[127.07384,37.45815],[127.07325,37.45803],[127.07147,37.45736]]}},{"type":"Feature","properties":{"class":"major","highway":"primary","sidewalk":"likely","lanes":0,"name":"헌릉로","oneway":true},"geometry":{"type":"LineString","coordinates":[[127.06495,37.45541],[127.0647,37.45542],[127.06457,37.45545],[127.06434,37.45548],[127.06409,37.45553],[127.06383,37.4556],[127.06372,37.45563],[127.06359,37.45568],[127.0628,37.456],[127.06226,37.45618],[127.06191,37.45633],[127.06077,37.45684],[127.05967,37.45731]]}},{"type":"Feature","properties":{"class":"minor","highway":"residential","sidewalk":"unknown","lanes":0,"name":"헌릉로8길","oneway":false},"geometry":{"type":"LineString","coordinates":[[127.05924,37.45586],[127.05953,37.45516],[127.05966,37.45503],[127.05987,37.4549],[127.06011,37.45479],[127.06029,37.45472]]}},{"type":"Feature","properties":{"class":"minor","highway":"residential","sidewalk":"unknown","lanes":0,"name":"홍씨마을길","oneway":false},"geometry":{"type":"LineString","coordinates":[[127.065,37.45527],[127.06504,37.45517],[127.06509,37.45504],[127.06514,37.45489],[127.06517,37.45473],[127.06517,37.45458]]}},{"type":"Feature","properties":{"class":"major","highway":"primary","sidewalk":"likely","lanes":0,"name":"헌릉로","oneway":true},"geometry":{"type":"LineString","coordinates":[[127.065,37.45527],[127.0654,37.45529],[127.06581,37.45534],[127.06636,37.45551],[127.0664,37.45552],[127.06727,37.4558],[127.06884,37.45635],[127.069,37.4564],[127.06925,37.45645],[127.07046,37.45683],[127.07084,37.45698],[127.07118,37.45709],[127.07155,37.45721]]}},{"type":"Feature","properties":{"class":"alley","highway":"service","sidewalk":"unknown","lanes":0,"name":"","oneway":false},"geometry":{"type":"LineString","coordinates":[[127.06956,37.45737],[127.06992,37.45746],[127.06995,37.4575],[127.06992,37.45757]]}},{"type":"Feature","properties":{"class":"alley","highway":"service","sidewalk":"unknown","lanes":0,"name":"헌릉로","oneway":false},"geometry":{"type":"LineString","coordinates":[[127.06191,37.45633],[127.06204,37.45651],[127.06211,37.45666],[127.06219,37.45685],[127.06223,37.45696],[127.06225,37.45709],[127.0623,37.45729],[127.06234,37.45745],[127.06243,37.45759],[127.06243,37.45768],[127.06239,37.45773],[127.06234,37.45777],[127.06229,37.45782],[127.06225,37.45788],[127.06228,37.45795],[127.06245,37.45802],[127.0626,37.45807],[127.06269,37.45808],[127.06282,37.45806],[127.06293,37.45806],[127.06298,37.45808],[127.06298,37.45818],[127.06298,37.45833],[127.063,37.45844],[127.06306,37.45853],[127.06316,37.45857],[127.06322,37.45862]]}},{"type":"Feature","properties":{"class":"alley","highway":"service","sidewalk":"unknown","lanes":0,"name":"","oneway":false},"geometry":{"type":"LineString","coordinates":[[127.06366,37.45584],[127.06359,37.45568]]}},{"type":"Feature","properties":{"class":"alley","highway":"service","sidewalk":"unknown","lanes":0,"name":"안골1길","oneway":false},"geometry":{"type":"LineString","coordinates":[[127.0638,37.45618],[127.06366,37.45584]]}},{"type":"Feature","properties":{"class":"alley","highway":"service","sidewalk":"unknown","lanes":0,"name":"","oneway":false},"geometry":{"type":"LineString","coordinates":[[127.06459,37.45561],[127.06458,37.45557],[127.06457,37.45545]]}},{"type":"Feature","properties":{"class":"alley","highway":"service","sidewalk":"unknown","lanes":0,"name":"안골4길","oneway":false},"geometry":{"type":"LineString","coordinates":[[127.06428,37.45624],[127.06475,37.45617]]}},{"type":"Feature","properties":{"class":"alley","highway":"service","sidewalk":"unknown","lanes":0,"name":"안골4길","oneway":false},"geometry":{"type":"LineString","coordinates":[[127.06524,37.45614],[127.06475,37.45617]]}},{"type":"Feature","properties":{"class":"alley","highway":"service","sidewalk":"unknown","lanes":0,"name":"안골2길","oneway":false},"geometry":{"type":"LineString","coordinates":[[127.06475,37.45617],[127.06459,37.45561]]}},{"type":"Feature","properties":{"class":"alley","highway":"service","sidewalk":"unknown","lanes":0,"name":"안골1길","oneway":false},"geometry":{"type":"LineString","coordinates":[[127.06366,37.45584],[127.06388,37.45577],[127.06403,37.45573],[127.06414,37.4557]]}},{"type":"Feature","properties":{"class":"minor","highway":"residential","sidewalk":"unknown","lanes":0,"name":"샘마을길","oneway":false},"geometry":{"type":"LineString","coordinates":[[127.07039,37.45739],[127.07081,37.45751],[127.07131,37.45766]]}},{"type":"Feature","properties":{"class":"major","highway":"primary","sidewalk":"likely","lanes":0,"name":"헌릉로","oneway":true},"geometry":{"type":"LineString","coordinates":[[127.0596,37.45717],[127.06078,37.45663],[127.06207,37.45608],[127.06265,37.45579],[127.06335,37.4555],[127.06351,37.45545],[127.0636,37.45541],[127.06398,37.45533],[127.06425,37.45531],[127.06449,37.45528],[127.065,37.45527]]}},{"type":"Feature","properties":{"class":"major","highway":"trunk_link","sidewalk":"likely","lanes":0,"name":"","oneway":true},"geometry":{"type":"LineString","coordinates":[[127.0788,37.46153],[127.07884,37.46115],[127.07887,37.461],[127.07889,37.46089],[127.07893,37.46077],[127.07914,37.46026],[127.07915,37.46022],[127.07914,37.46018],[127.07914,37.46013],[127.07911,37.46007],[127.07907,37.46003],[127.07902,37.45999],[127.07898,37.45996],[127.0789,37.45992],[127.07852,37.45981],[127.07816,37.4597]]}},{"type":"Feature","properties":{"class":"major","highway":"trunk_link","sidewalk":"likely","lanes":0,"name":"","oneway":true},"geometry":{"type":"LineString","coordinates":[[127.07679,37.4578],[127.07852,37.4584]]}},{"type":"Feature","properties":{"class":"major","highway":"trunk_link","sidewalk":"likely","lanes":0,"name":"","oneway":true},"geometry":{"type":"LineString","coordinates":[[127.07852,37.4584],[127.08008,37.45893],[127.08135,37.45933]]}},{"type":"Feature","properties":{"class":"alley","highway":"service","sidewalk":"unknown","lanes":0,"name":"","oneway":false},"geometry":{"type":"LineString","coordinates":[[127.06893,37.45653],[127.069,37.4564],[127.06905,37.45631],[127.06909,37.45621]]}},{"type":"Feature","properties":{"class":"alley","highway":"service","sidewalk":"unknown","lanes":0,"name":"","oneway":true},"geometry":{"type":"LineString","coordinates":[[127.08037,37.45911],[127.08031,37.45911],[127.08025,37.45912],[127.0802,37.45913],[127.08014,37.45914],[127.0801,37.45916],[127.08006,37.45918],[127.08002,37.4592],[127.07999,37.45922],[127.07989,37.45932]]}},{"type":"Feature","properties":{"class":"alley","highway":"service","sidewalk":"unknown","lanes":0,"name":"","oneway":true},"geometry":{"type":"LineString","coordinates":[[127.07989,37.45932],[127.0799,37.45926],[127.0799,37.45924],[127.0799,37.45921],[127.0799,37.45918],[127.0799,37.45915],[127.07989,37.45912],[127.07988,37.45908],[127.07987,37.45906],[127.07986,37.45903],[127.07984,37.459],[127.07982,37.45897],[127.0798,37.45895],[127.07978,37.45893],[127.07975,37.45891]]}},{"type":"Feature","properties":{"class":"major","highway":"trunk","sidewalk":"likely","lanes":0,"name":"분당내곡로","oneway":true},"geometry":{"type":"LineString","coordinates":[[127.07559,37.45785],[127.07579,37.45749],[127.07638,37.45644],[127.07689,37.45559],[127.07729,37.45481],[127.07753,37.45428],[127.07778,37.4537],[127.07786,37.45337]]}},{"type":"Feature","properties":{"class":"major","highway":"trunk","sidewalk":"likely","lanes":0,"name":"분당내곡로","oneway":true},"geometry":{"type":"LineString","coordinates":[[127.07802,37.45351],[127.07798,37.45365],[127.07782,37.45408],[127.07752,37.45467],[127.07672,37.45607],[127.07623,37.45697],[127.07571,37.45789]]}},{"type":"Feature","properties":{"class":"minor","highway":"residential","sidewalk":"unknown","lanes":0,"name":"","oneway":false},"geometry":{"type":"LineString","coordinates":[[127.05967,37.45731],[127.0597,37.45746],[127.05971,37.45747],[127.05976,37.45752],[127.05993,37.45758],[127.06002,37.45764],[127.06011,37.45778],[127.06022,37.45786],[127.06029,37.45799],[127.06037,37.45806],[127.06056,37.45813],[127.06071,37.4582],[127.06078,37.45827],[127.06086,37.45839],[127.06099,37.45851],[127.06116,37.4587],[127.06133,37.45897],[127.06138,37.45906],[127.06135,37.45914],[127.06135,37.45928],[127.06135,37.45942],[127.0613,37.45953],[127.0612,37.45963],[127.06111,37.45969],[127.06105,37.45969],[127.06099,37.45972],[127.06096,37.45976],[127.06091,37.45985],[127.06085,37.45995],[127.06085,37.46003],[127.0609,37.46015],[127.06097,37.46026],[127.061,37.46034],[127.06106,37.4604],[127.06108,37.46048],[127.06104,37.46062],[127.06099,37.46076],[127.06087,37.46085],[127.06083,37.4609],[127.06082,37.46097],[127.06086,37.46108]]}},{"type":"Feature","properties":{"class":"alley","highway":"service","sidewalk":"unknown","lanes":0,"name":"신흥안길","oneway":false},"geometry":{"type":"LineString","coordinates":[[127.07725,37.45469],[127.07718,37.4547],[127.07715,37.45473],[127.07693,37.45502],[127.07682,37.45507]]}},{"type":"Feature","properties":{"class":"alley","highway":"service","sidewalk":"unknown","lanes":0,"name":"신흥안길","oneway":false},"geometry":{"type":"LineString","coordinates":[[127.07772,37.4546],[127.07725,37.45469]]}},{"type":"Feature","properties":{"class":"major","highway":"trunk_link","sidewalk":"likely","lanes":0,"name":"","oneway":true},"geometry":{"type":"LineString","coordinates":[[127.07515,37.45959],[127.07518,37.45963],[127.07521,37.45967],[127.07523,37.45969],[127.07528,37.45972],[127.07532,37.45975],[127.07536,37.45977],[127.07542,37.45979],[127.07547,37.4598],[127.07553,37.45981],[127.07558,37.45982],[127.07564,37.45982],[127.0757,37.45981],[127.07575,37.45981],[127.0758,37.4598],[127.07584,37.45978],[127.07588,37.45976],[127.07592,37.45974]]}},{"type":"Feature","properties":{"class":"major","highway":"trunk_link","sidewalk":"likely","lanes":0,"name":"","oneway":true},"geometry":{"type":"LineString","coordinates":[[127.07592,37.45974],[127.07596,37.45972],[127.07599,37.45969],[127.07602,37.45966],[127.07605,37.45963],[127.07607,37.45959],[127.07609,37.45955],[127.07612,37.45951],[127.07613,37.45946],[127.07613,37.45942],[127.07613,37.45938],[127.07612,37.45933],[127.07611,37.45929],[127.07609,37.45925],[127.07607,37.45921],[127.07604,37.45916],[127.076,37.45912],[127.07594,37.45907],[127.07586,37.45902],[127.07577,37.45897],[127.07568,37.45893],[127.07532,37.45878]]}},{"type":"Feature","properties":{"class":"major","highway":"trunk_link","sidewalk":"likely","lanes":0,"name":"","oneway":true},"geometry":{"type":"LineString","coordinates":[[127.07886,37.4598],[127.07852,37.45981]]}},{"type":"Feature","properties":{"class":"major","highway":"trunk_link","sidewalk":"likely","lanes":0,"name":"","oneway":true},"geometry":{"type":"LineString","coordinates":[[127.07816,37.4597],[127.07782,37.45947]]}},{"type":"Feature","properties":{"class":"major","highway":"trunk","sidewalk":"likely","lanes":0,"name":"분당내곡로","oneway":true},"geometry":{"type":"LineString","coordinates":[[127.07582,37.44205],[127.07577,37.44088],[127.07584,37.43979],[127.07608,37.43859],[127.07661,37.43773]]}},{"type":"Feature","properties":{"class":"major","highway":"trunk","sidewalk":"likely","lanes":0,"name":"분당내곡로","oneway":true},"geometry":{"type":"LineString","coordinates":[[127.07789,37.45327],[127.0779,37.4532],[127.07798,37.45277],[127.07804,37.45225],[127.07805,37.45163],[127.07801,37.45103],[127.0779,37.45042],[127.07769,37.44971],[127.07663,37.44689]]}},{"type":"Feature","properties":{"class":"major","highway":"trunk","sidewalk":"likely","lanes":0,"name":"분당내곡로","oneway":true},"geometry":{"type":"LineString","coordinates":[[127.07663,37.44689],[127.07625,37.44575],[127.07606,37.44444],[127.07582,37.44205]]}},{"type":"Feature","properties":{"class":"major","highway":"trunk","sidewalk":"likely","lanes":0,"name":"분당내곡로","oneway":true},"geometry":{"type":"LineString","coordinates":[[127.07704,37.44677],[127.07729,37.44757],[127.07755,37.4484],[127.078,37.44977],[127.07814,37.45028],[127.07821,37.45066],[127.07826,37.45105],[127.07829,37.45174],[127.07826,37.45226],[127.07816,37.45299],[127.07804,37.45342]]}},{"type":"Feature","properties":{"class":"major","highway":"trunk","sidewalk":"likely","lanes":0,"name":"분당내곡로","oneway":true},"geometry":{"type":"LineString","coordinates":[[127.07698,37.43778],[127.07646,37.43875],[127.07627,37.43986],[127.07616,37.441],[127.07622,37.44216]]}},{"type":"Feature","properties":{"class":"minor","highway":"unclassified","sidewalk":"unknown","lanes":0,"name":"","oneway":false},"geometry":{"type":"LineString","coordinates":[[127.0596,37.44607],[127.05994,37.44607],[127.06026,37.44607]]}},{"type":"Feature","properties":{"class":"alley","highway":"service","sidewalk":"unknown","lanes":0,"name":"청계산로","oneway":false},"geometry":{"type":"LineString","coordinates":[[127.06333,37.44276],[127.06318,37.44273],[127.063,37.44274],[127.06287,37.44278],[127.06271,37.44281],[127.0626,37.44277],[127.0625,37.44275],[127.06235,37.44276],[127.06224,37.44278],[127.06211,37.44286],[127.06186,37.443],[127.06172,37.44307],[127.06162,37.4431],[127.06149,37.4431],[127.06134,37.44315],[127.06121,37.44322],[127.06111,37.44328],[127.06106,37.44335],[127.06101,37.44344],[127.06093,37.44348],[127.06076,37.44345],[127.06069,37.44345],[127.06067,37.44337],[127.06077,37.44308]]}},{"type":"Feature","properties":{"class":"alley","highway":"service","sidewalk":"unknown","lanes":0,"name":"청계산로","oneway":false},"geometry":{"type":"LineString","coordinates":[[127.06195,37.43917],[127.06192,37.43925],[127.06183,37.4395],[127.06179,37.43963],[127.06179,37.43979],[127.06176,37.44003],[127.06172,37.44015],[127.06166,37.44029],[127.06159,37.44041],[127.0615,37.44048],[127.06138,37.44056],[127.06127,37.44063],[127.06118,37.44067],[127.06109,37.4407],[127.06066,37.44082],[127.06052,37.44085],[127.06042,37.44085],[127.06037,37.44085]]}},{"type":"Feature","properties":{"class":"minor","highway":"unclassified","sidewalk":"unknown","lanes":0,"name":"","oneway":false},"geometry":{"type":"LineString","coordinates":[[127.05954,37.44375],[127.05946,37.44384],[127.05944,37.44397],[127.05948,37.44411],[127.05953,37.44426],[127.0596,37.44442],[127.05963,37.44457],[127.05965,37.44473],[127.05962,37.44484],[127.05962,37.445],[127.05958,37.44511],[127.05953,37.44523],[127.05949,37.44536],[127.05946,37.44551],[127.05949,37.44565],[127.05956,37.44584],[127.0596,37.44607],[127.0596,37.44618],[127.05961,37.44638],[127.05961,37.4465],[127.05961,37.44665],[127.05967,37.44681],[127.05976,37.44696],[127.05988,37.44708],[127.06003,37.44721],[127.06012,37.44733],[127.06015,37.44741],[127.06018,37.44751],[127.0602,37.44765],[127.06019,37.44775],[127.06016,37.44784],[127.0601,37.44794],[127.06001,37.44803],[127.05992,37.4481],[127.05978,37.44818],[127.05958,37.44825],[127.05945,37.44834],[127.0593,37.44852],[127.05925,37.44864],[127.05921,37.44866]]}},{"type":"Feature","properties":{"class":"alley","highway":"service","sidewalk":"unknown","lanes":0,"name":"청계산로","oneway":false},"geometry":{"type":"LineString","coordinates":[[127.05943,37.44368],[127.05954,37.44375],[127.05962,37.44369],[127.0597,37.44362],[127.05979,37.44358],[127.05993,37.4436],[127.06006,37.44363],[127.0602,37.44373],[127.0603,37.44375],[127.06044,37.44372],[127.06052,37.44365],[127.06058,37.44357],[127.06069,37.44352],[127.06098,37.44357],[127.06099,37.44365]]}},{"type":"Feature","properties":{"class":"alley","highway":"service","sidewalk":"unknown","lanes":0,"name":"","oneway":false},"geometry":{"type":"LineString","coordinates":[[127.0759,37.44491],[127.07587,37.44479],[127.07584,37.44473],[127.0757,37.44474],[127.07556,37.44472]]}},{"type":"Feature","properties":{"class":"alley","highway":"service","sidewalk":"unknown","lanes":0,"name":"","oneway":false},"geometry":{"type":"LineString","coordinates":[[127.08092,37.44783],[127.08087,37.44771],[127.08084,37.44759],[127.08081,37.44746],[127.08076,37.44725],[127.0807,37.44714],[127.08065,37.44705],[127.08059,37.44695],[127.08053,37.44689],[127.08039,37.44676],[127.08028,37.44664],[127.08002,37.44627],[127.07989,37.44611],[127.07983,37.44602],[127.07974,37.446],[127.07965,37.44597],[127.07953,37.44596],[127.07947,37.44595],[127.0794,37.44589],[127.07929,37.44577],[127.07921,37.4457],[127.07913,37.44567],[127.07901,37.44566],[127.07892,37.44566],[127.07879,37.44575],[127.07872,37.44583],[127.07861,37.44592],[127.07853,37.44597],[127.07848,37.44602],[127.0784,37.44612],[127.07829,37.44622],[127.0782,37.44628],[127.0781,37.44636],[127.07803,37.44639],[127.07795,37.44654],[127.07792,37.44661],[127.07783,37.4467],[127.0777,37.44677]]}},{"type":"Feature","properties":{"class":"alley","highway":"service","sidewalk":"unknown","lanes":0,"name":"신흥말길","oneway":false},"geometry":{"type":"LineString","coordinates":[[127.08101,37.45351],[127.08092,37.45353],[127.08087,37.45344],[127.08082,37.45334],[127.0808,37.4533],[127.08078,37.45321],[127.08072,37.45297],[127.08072,37.45294],[127.08072,37.45285],[127.0807,37.45274],[127.08069,37.45265],[127.08057,37.45247],[127.08046,37.45234],[127.0804,37.45228],[127.08031,37.4522],[127.08027,37.45212],[127.08021,37.45199],[127.08012,37.45185],[127.08007,37.45178],[127.07999,37.45173],[127.07993,37.45168],[127.07987,37.45162],[127.0798,37.45157],[127.07977,37.45151],[127.07978,37.45141],[127.0798,37.45132],[127.07982,37.45124],[127.07984,37.45115],[127.07987,37.4511],[127.07989,37.45101],[127.07989,37.45095],[127.07981,37.45084],[127.07972,37.45076],[127.07967,37.45067],[127.07964,37.45061],[127.0793,37.45023],[127.07922,37.45014],[127.07914,37.45009],[127.07903,37.45006],[127.07889,37.45001],[127.0787,37.44997],[127.07859,37.44995],[127.07853,37.44994],[127.07846,37.44991],[127.07839,37.44988],[127.07832,37.44981],[127.0783,37.44973],[127.07829,37.44967],[127.07834,37.44951],[127.07838,37.44941],[127.0784,37.44931],[127.07842,37.44922],[127.07843,37.4491]]}},{"type":"Feature","properties":{"class":"alley","highway":"service","sidewalk":"unknown","lanes":0,"name":"","oneway":false},"geometry":{"type":"LineString","coordinates":[[127.07963,37.44534],[127.07985,37.4451],[127.07995,37.445],[127.08008,37.44487],[127.08024,37.44472],[127.08046,37.44485],[127.08076,37.44506],[127.08098,37.44525],[127.08117,37.44536],[127.08123,37.4455],[127.08126,37.44566],[127.08129,37.44581],[127.0813,37.44591],[127.08081,37.44642],[127.0807,37.44649]]}},{"type":"Feature","properties":{"class":"alley","highway":"service","sidewalk":"unknown","lanes":0,"name":"","oneway":false},"geometry":{"type":"LineString","coordinates":[[127.07523,37.4458],[127.0753,37.44596],[127.07539,37.44611],[127.07547,37.44624],[127.07555,37.44636],[127.0757,37.44652]]}},{"type":"Feature","properties":{"class":"minor","highway":"unclassified","sidewalk":"unknown","lanes":0,"name":"","oneway":false},"geometry":{"type":"LineString","coordinates":[[127.0779,37.44913],[127.07745,37.44932]]}},{"type":"Feature","properties":{"class":"alley","highway":"service","sidewalk":"unknown","lanes":0,"name":"","oneway":false},"geometry":{"type":"LineString","coordinates":[[127.07812,37.4448],[127.07876,37.44497],[127.07946,37.44522],[127.07963,37.44534],[127.07952,37.4455],[127.0795,37.44554]]}},{"type":"Feature","properties":{"class":"alley","highway":"service","sidewalk":"unknown","lanes":0,"name":"신흥말길","oneway":true},"geometry":{"type":"LineString","coordinates":[[127.07755,37.4484],[127.07775,37.44866],[127.07782,37.44887],[127.07788,37.44906],[127.0779,37.44913],[127.07791,37.44914],[127.07794,37.44918],[127.07798,37.44922],[127.07814,37.44923],[127.07829,37.44922],[127.07842,37.44922]]}},{"type":"Feature","properties":{"class":"alley","highway":"service","sidewalk":"unknown","lanes":0,"name":"","oneway":false},"geometry":{"type":"LineString","coordinates":[[127.07812,37.4448],[127.07814,37.44467],[127.07821,37.4445],[127.07824,37.44437],[127.07823,37.44426],[127.07817,37.44422],[127.07804,37.44421],[127.07794,37.44424],[127.07773,37.44426],[127.07742,37.44426],[127.07706,37.44428],[127.07673,37.44429]]}},{"type":"Feature","properties":{"class":"minor","highway":"unclassified","sidewalk":"unknown","lanes":0,"name":"","oneway":false},"geometry":{"type":"LineString","coordinates":[[127.07745,37.44932],[127.07737,37.44935],[127.07724,37.44938],[127.07709,37.4496],[127.07708,37.44982],[127.07705,37.44997],[127.07706,37.45016],[127.07712,37.45034],[127.07721,37.45064],[127.07724,37.45079],[127.07728,37.45093],[127.07739,37.45107],[127.0775,37.45116],[127.07758,37.45125],[127.07764,37.45137],[127.07765,37.45148]]}},{"type":"Feature","properties":{"class":"alley","highway":"service","sidewalk":"unknown","lanes":0,"name":"언주로","oneway":false},"geometry":{"type":"LineString","coordinates":[[127.07842,37.44922],[127.07838,37.44909],[127.07833,37.44896],[127.07828,37.44892],[127.0779,37.44913],[127.0779,37.44913]]}},{"type":"Feature","properties":{"class":"alley","highway":"service","sidewalk":"unknown","lanes":0,"name":"신흥말길","oneway":false},"geometry":{"type":"LineString","coordinates":[[127.08082,37.45334],[127.08065,37.45336],[127.08051,37.45337],[127.08038,37.45341],[127.08023,37.45347],[127.08015,37.4535],[127.08003,37.45358],[127.07996,37.45364],[127.07983,37.45376],[127.07977,37.45382],[127.07973,37.45389],[127.07975,37.45396],[127.07983,37.45401],[127.07993,37.45405],[127.08003,37.4541],[127.08012,37.45405]]}},{"type":"Feature","properties":{"class":"alley","highway":"service","sidewalk":"unknown","lanes":0,"name":"","oneway":false},"geometry":{"type":"LineString","coordinates":[[127.07946,37.45325],[127.07944,37.45318],[127.07937,37.45314],[127.07931,37.45308],[127.07926,37.45302],[127.07921,37.45294],[127.07917,37.45289],[127.0791,37.45282],[127.07905,37.45277],[127.07898,37.45272],[127.07894,37.4527]]}},{"type":"Feature","properties":{"class":"alley","highway":"service","sidewalk":"unknown","lanes":0,"name":"신흥말길","oneway":false},"geometry":{"type":"LineString","coordinates":[[127.08072,37.45294],[127.0806,37.45294],[127.08051,37.45293],[127.08043,37.45294],[127.08032,37.45293],[127.08024,37.45291],[127.08019,37.45291],[127.08013,37.45293],[127.0801,37.45298],[127.08004,37.45302],[127.07998,37.45306],[127.07987,37.4531],[127.07976,37.45313],[127.07964,37.45316],[127.07955,37.45321],[127.07946,37.45325],[127.07941,37.45329],[127.07929,37.45334],[127.07918,37.45336]]}},{"type":"Feature","properties":{"class":"alley","highway":"service","sidewalk":"unknown","lanes":0,"name":"샘마루길","oneway":false},"geometry":{"type":"LineString","coordinates":[[127.07544,37.45272],[127.07539,37.45284],[127.07529,37.45294],[127.07521,37.45307],[127.07516,37.45318],[127.07507,37.45329],[127.07491,37.45328],[127.07475,37.45328],[127.07467,37.45329],[127.07452,37.45329],[127.07441,37.45319],[127.0743,37.45314],[127.07419,37.45311],[127.07409,37.45302],[127.07399,37.45293],[127.07394,37.45286],[127.07384,37.45279],[127.0737,37.4527],[127.07356,37.45262],[127.07343,37.45256],[127.07314,37.45243],[127.07306,37.45241],[127.07294,37.45241],[127.07283,37.45243],[127.07273,37.45245]]}},{"type":"Feature","properties":{"class":"alley","highway":"service","sidewalk":"unknown","lanes":0,"name":"","oneway":false},"geometry":{"type":"LineString","coordinates":[[127.07544,37.45272],[127.07535,37.45271],[127.07528,37.45264],[127.07518,37.45256],[127.07511,37.45251],[127.07509,37.45247]]}},{"type":"Feature","properties":{"class":"alley","highway":"service","sidewalk":"unknown","lanes":0,"name":"샘마루길","oneway":false},"geometry":{"type":"LineString","coordinates":[[127.07126,37.45435],[127.07129,37.45425],[127.07127,37.45418],[127.07122,37.45411],[127.07122,37.45403],[127.07122,37.45397],[127.07124,37.45391],[127.07131,37.45383],[127.07146,37.4537],[127.07151,37.45365],[127.07159,37.45361],[127.07166,37.45356],[127.07176,37.45346],[127.07184,37.45335],[127.07191,37.45325],[127.07196,37.45317],[127.07205,37.45309],[127.07215,37.45298],[127.07223,37.45287],[127.07237,37.45264],[127.07244,37.45259],[127.0725,37.45255],[127.0726,37.4525],[127.07273,37.45245]]}},{"type":"Feature","properties":{"class":"alley","highway":"service","sidewalk":"unknown","lanes":0,"name":"","oneway":false},"geometry":{"type":"LineString","coordinates":[[127.07265,37.45439],[127.07282,37.4545]]}},{"type":"Feature","properties":{"class":"alley","highway":"service","sidewalk":"unknown","lanes":0,"name":"","oneway":false},"geometry":{"type":"LineString","coordinates":[[127.07248,37.45152],[127.07278,37.45179],[127.07357,37.45135],[127.07332,37.4511]]}},{"type":"Feature","properties":{"class":"alley","highway":"service","sidewalk":"unknown","lanes":0,"name":"","oneway":false},"geometry":{"type":"LineString","coordinates":[[127.07099,37.4509],[127.07091,37.45088],[127.07085,37.45082],[127.0706,37.45048]]}},{"type":"Feature","properties":{"class":"alley","highway":"service","sidewalk":"unknown","lanes":0,"name":"","oneway":false},"geometry":{"type":"LineString","coordinates":[[127.07275,37.44762],[127.0727,37.44745],[127.0729,37.44745],[127.07319,37.44756],[127.07333,37.44763],[127.07353,37.44767],[127.07383,37.44767]]}},{"type":"Feature","properties":{"class":"alley","highway":"service","sidewalk":"unknown","lanes":0,"name":"","oneway":false},"geometry":{"type":"LineString","coordinates":[[127.0715,37.44789],[127.07135,37.44797],[127.0711,37.44807],[127.07089,37.44815],[127.07077,37.44821],[127.07061,37.44832],[127.07055,37.44839],[127.07044,37.44844],[127.07031,37.44846],[127.07018,37.44849],[127.07009,37.44849],[127.06999,37.44849],[127.0699,37.44849],[127.06979,37.44852],[127.0697,37.44856],[127.06962,37.44866],[127.06961,37.44876],[127.06965,37.44886],[127.06974,37.44897],[127.0698,37.44908],[127.06988,37.44927],[127.06991,37.44936],[127.06992,37.44948],[127.06991,37.4496]]}},{"type":"Feature","properties":{"class":"alley","highway":"service","sidewalk":"unknown","lanes":0,"name":"","oneway":false},"geometry":{"type":"LineString","coordinates":[[127.07377,37.44928],[127.07368,37.44924],[127.0736,37.44924],[127.07347,37.44923],[127.07329,37.44926],[127.07297,37.44894],[127.07292,37.44885],[127.07293,37.44874],[127.07293,37.44864],[127.07297,37.44853],[127.07266,37.44825],[127.07263,37.44821],[127.07259,37.44815],[127.07256,37.4481],[127.07254,37.44803],[127.07254,37.44797],[127.07255,37.4479],[127.07259,37.44784],[127.07266,37.44779],[127.07274,37.44776],[127.07278,37.44776],[127.07275,37.44762],[127.07214,37.44773],[127.07192,37.44791],[127.0718,37.44763],[127.0715,37.44789],[127.07176,37.44806],[127.07192,37.44791]]}},{"type":"Feature","properties":{"class":"alley","highway":"service","sidewalk":"unknown","lanes":0,"name":"","oneway":false},"geometry":{"type":"LineString","coordinates":[[127.07157,37.45075],[127.07235,37.45158],[127.07248,37.45152],[127.07332,37.4511],[127.07245,37.45021]]}},{"type":"Feature","properties":{"class":"alley","highway":"service","sidewalk":"unknown","lanes":0,"name":"","oneway":false},"geometry":{"type":"LineString","coordinates":[[127.07355,37.44953],[127.07376,37.4496],[127.07385,37.44966],[127.07411,37.44993],[127.07423,37.45006],[127.07451,37.4504],[127.07439,37.45048]]}},{"type":"Feature","properties":{"class":"alley","highway":"service","sidewalk":"unknown","lanes":0,"name":"","oneway":false},"geometry":{"type":"LineString","coordinates":[[127.0712,37.45123],[127.07104,37.45101],[127.07099,37.4509],[127.07091,37.45081],[127.0709,37.45071],[127.07089,37.45058],[127.07095,37.4504],[127.07102,37.4502],[127.07104,37.45007],[127.07121,37.44974],[127.07153,37.44952]]}},{"type":"Feature","properties":{"class":"alley","highway":"service","sidewalk":"unknown","lanes":0,"name":"","oneway":false},"geometry":{"type":"LineString","coordinates":[[127.07357,37.45135],[127.07367,37.45128],[127.07372,37.45123],[127.07376,37.45117],[127.07378,37.45111],[127.07382,37.45106],[127.07386,37.45094]]}},{"type":"Feature","properties":{"class":"alley","highway":"living_street","sidewalk":"unknown","lanes":0,"name":"홍씨마을길","oneway":false},"geometry":{"type":"LineString","coordinates":[[127.06614,37.45162],[127.06693,37.45193],[127.06686,37.45203],[127.06674,37.45221],[127.06669,37.45224],[127.06626,37.4523]]}},{"type":"Feature","properties":{"class":"minor","highway":"residential","sidewalk":"unknown","lanes":0,"name":"능안말길","oneway":false},"geometry":{"type":"LineString","coordinates":[[127.06658,37.45429],[127.06632,37.45393]]}},{"type":"Feature","properties":{"class":"alley","highway":"service","sidewalk":"unknown","lanes":0,"name":"홍씨마을길","oneway":false},"geometry":{"type":"LineString","coordinates":[[127.06686,37.45203],[127.06697,37.45203],[127.06704,37.452],[127.0671,37.45193],[127.06715,37.45187],[127.06721,37.45182],[127.06728,37.45178],[127.06748,37.45176],[127.06761,37.45176],[127.06771,37.45177],[127.06779,37.45181],[127.06787,37.45185],[127.06796,37.45188],[127.06812,37.45185],[127.06828,37.45185],[127.06836,37.45184]]}},{"type":"Feature","properties":{"class":"alley","highway":"service","sidewalk":"unknown","lanes":0,"name":"","oneway":false},"geometry":{"type":"LineString","coordinates":[[127.0727,37.44745],[127.07273,37.44733],[127.0727,37.44725],[127.07263,37.44718],[127.07255,37.44714],[127.07246,37.44701],[127.07242,37.4469],[127.07236,37.44683],[127.07206,37.44691]]}},{"type":"Feature","properties":{"class":"alley","highway":"living_street","sidewalk":"unknown","lanes":0,"name":"홍씨마을길","oneway":false},"geometry":{"type":"LineString","coordinates":[[127.06637,37.45127],[127.06715,37.45159]]}},{"type":"Feature","properties":{"class":"alley","highway":"service","sidewalk":"unknown","lanes":0,"name":"","oneway":false},"geometry":{"type":"LineString","coordinates":[[127.0716,37.45073],[127.07147,37.45035],[127.07137,37.45007]]}},{"type":"Feature","properties":{"class":"alley","highway":"service","sidewalk":"unknown","lanes":0,"name":"","oneway":false},"geometry":{"type":"LineString","coordinates":[[127.07416,37.44889],[127.0747,37.44914]]}},{"type":"Feature","properties":{"class":"alley","highway":"service","sidewalk":"unknown","lanes":0,"name":"","oneway":false},"geometry":{"type":"LineString","coordinates":[[127.07147,37.45035],[127.07179,37.45021],[127.07184,37.4503]]}},{"type":"Feature","properties":{"class":"alley","highway":"service","sidewalk":"unknown","lanes":0,"name":"","oneway":false},"geometry":{"type":"LineString","coordinates":[[127.07604,37.45407],[127.07609,37.45417],[127.07585,37.45429]]}},{"type":"Feature","properties":{"class":"alley","highway":"service","sidewalk":"unknown","lanes":0,"name":"","oneway":false},"geometry":{"type":"LineString","coordinates":[[127.07507,37.45329],[127.07516,37.45347]]}},{"type":"Feature","properties":{"class":"alley","highway":"service","sidewalk":"unknown","lanes":0,"name":"","oneway":false},"geometry":{"type":"LineString","coordinates":[[127.07533,37.45445],[127.0753,37.45434],[127.0753,37.45425],[127.07536,37.4541],[127.07542,37.45404],[127.0755,37.45397],[127.07553,37.45387],[127.07555,37.45367],[127.07555,37.4536],[127.07555,37.45352],[127.07558,37.45345],[127.07562,37.4534]]}},{"type":"Feature","properties":{"class":"minor","highway":"unclassified","sidewalk":"unknown","lanes":0,"name":"","oneway":false},"geometry":{"type":"LineString","coordinates":[[127.07655,37.45318],[127.07713,37.45288]]}},{"type":"Feature","properties":{"class":"alley","highway":"service","sidewalk":"unknown","lanes":0,"name":"","oneway":false},"geometry":{"type":"LineString","coordinates":[[127.0632,37.45444],[127.06322,37.45441],[127.06333,37.45423],[127.06344,37.45409]]}},{"type":"Feature","properties":{"class":"alley","highway":"living_street","sidewalk":"unknown","lanes":0,"name":"홍씨마을길","oneway":false},"geometry":{"type":"LineString","coordinates":[[127.06516,37.45435],[127.06514,37.45431],[127.06513,37.45427],[127.06506,37.45403],[127.06502,37.45389],[127.065,37.4538],[127.065,37.45367],[127.06503,37.45361],[127.06506,37.45356],[127.06508,37.4535],[127.06518,37.4532],[127.06529,37.45311],[127.06622,37.45234],[127.06626,37.4523],[127.06619,37.4522],[127.06613,37.45213],[127.06609,37.45207],[127.06609,37.45197],[127.06606,37.45173],[127.06612,37.45165],[127.06614,37.45162],[127.06637,37.45127],[127.06653,37.45103],[127.06656,37.45095],[127.06662,37.45091],[127.0667,37.45091],[127.06683,37.45095],[127.06743,37.45119]]}},{"type":"Feature","properties":{"class":"minor","highway":"unclassified","sidewalk":"unknown","lanes":0,"name":"","oneway":false},"geometry":{"type":"LineString","coordinates":[[127.07273,37.45245],[127.07276,37.45237],[127.07282,37.45227],[127.0729,37.45222],[127.07298,37.45216],[127.07311,37.45211],[127.07323,37.45206],[127.07333,37.45199],[127.07339,37.45197],[127.07369,37.45185],[127.07375,37.4518],[127.0738,37.45173],[127.07386,37.45166],[127.07391,37.45163],[127.07395,37.45165],[127.07405,37.45182],[127.0741,37.45191],[127.07416,37.45199],[127.07427,37.45217]]}},{"type":"Feature","properties":{"class":"alley","highway":"service","sidewalk":"unknown","lanes":0,"name":"신흥안길","oneway":false},"geometry":{"type":"LineString","coordinates":[[127.07603,37.45274],[127.07589,37.4527],[127.07581,37.45268],[127.07568,37.45268],[127.07552,37.45269],[127.07544,37.45272]]}},{"type":"Feature","properties":{"class":"minor","highway":"unclassified","sidewalk":"unknown","lanes":0,"name":"","oneway":false},"geometry":{"type":"LineString","coordinates":[[127.07603,37.45274],[127.07616,37.45269],[127.0763,37.45259],[127.0764,37.4525],[127.07649,37.45243]]}},{"type":"Feature","properties":{"class":"alley","highway":"service","sidewalk":"unknown","lanes":0,"name":"신흥말길","oneway":false},"geometry":{"type":"LineString","coordinates":[[127.07843,37.4491],[127.07848,37.44895],[127.07852,37.44885],[127.07859,37.44876],[127.07865,37.44869],[127.07876,37.44864],[127.07902,37.44861],[127.07923,37.44857],[127.0794,37.44853],[127.07961,37.44848],[127.07975,37.44848],[127.07988,37.44848],[127.08001,37.44856],[127.08013,37.4486],[127.08028,37.44863],[127.08038,37.44863],[127.08051,37.4486],[127.08065,37.44854],[127.08074,37.44848],[127.08083,37.44841],[127.08089,37.44834],[127.08099,37.44819],[127.08105,37.44811],[127.08103,37.44801],[127.08101,37.44794],[127.08096,37.44787],[127.08092,37.44783]]}},{"type":"Feature","properties":{"class":"alley","highway":"service","sidewalk":"unknown","lanes":0,"name":"","oneway":false},"geometry":{"type":"LineString","coordinates":[[127.06069,37.44352],[127.06076,37.44345]]}},{"type":"Feature","properties":{"class":"alley","highway":"service","sidewalk":"unknown","lanes":0,"name":"","oneway":false},"geometry":{"type":"LineString","coordinates":[[127.0782,37.44511],[127.07785,37.44517],[127.07587,37.44517],[127.07578,37.44519],[127.07569,37.44525],[127.07564,37.44532],[127.07543,37.44562],[127.07523,37.4458]]}},{"type":"Feature","properties":{"class":"major","highway":"trunk","sidewalk":"likely","lanes":0,"name":"분당내곡로","oneway":true},"geometry":{"type":"LineString","coordinates":[[127.07622,37.44216],[127.07631,37.44328],[127.07649,37.44442],[127.07668,37.44573],[127.07704,37.44677]]}},{"type":"Feature","properties":{"class":"alley","highway":"service","sidewalk":"unknown","lanes":0,"name":"","oneway":false},"geometry":{"type":"LineString","coordinates":[[127.06506,37.45356],[127.06477,37.45355],[127.06461,37.45349],[127.06448,37.45339],[127.06438,37.45325],[127.06431,37.45312],[127.06425,37.45298],[127.06425,37.45287],[127.06429,37.45258],[127.06437,37.45232],[127.06454,37.4521],[127.06477,37.45191],[127.06493,37.45179],[127.06503,37.45174],[127.06511,37.45169],[127.06519,37.4516],[127.06524,37.45152],[127.06526,37.45142],[127.06522,37.45131],[127.06507,37.451],[127.06502,37.45085],[127.06501,37.45074],[127.06504,37.45059],[127.06507,37.45051],[127.06518,37.45036],[127.06537,37.45023],[127.06541,37.4502]]}},{"type":"Feature","properties":{"class":"major","highway":"trunk","sidewalk":"likely","lanes":0,"name":"분당내곡로","oneway":true},"geometry":{"type":"LineString","coordinates":[[127.07786,37.45337],[127.07789,37.45327]]}},{"type":"Feature","properties":{"class":"major","highway":"trunk","sidewalk":"likely","lanes":0,"name":"분당내곡로","oneway":true},"geometry":{"type":"LineString","coordinates":[[127.07804,37.45342],[127.07802,37.45351]]}},{"type":"Feature","properties":{"class":"alley","highway":"service","sidewalk":"unknown","lanes":0,"name":"","oneway":false},"geometry":{"type":"LineString","coordinates":[[127.07961,37.4501],[127.07991,37.44993]]}},{"type":"Feature","properties":{"class":"alley","highway":"service","sidewalk":"unknown","lanes":0,"name":"","oneway":false},"geometry":{"type":"LineString","coordinates":[[127.07961,37.4501],[127.07981,37.45017],[127.08001,37.45023],[127.08012,37.45028],[127.0802,37.45029],[127.08034,37.45029],[127.08043,37.45029],[127.08062,37.45023],[127.08072,37.45022],[127.08076,37.45022],[127.08083,37.45023],[127.08096,37.45029]]}},{"type":"Feature","properties":{"class":"alley","highway":"service","sidewalk":"unknown","lanes":0,"name":"","oneway":false},"geometry":{"type":"LineString","coordinates":[[127.0793,37.45023],[127.07947,37.45014],[127.07961,37.4501]]}}]}