{"type":"FeatureCollection","features":[{"type":"Feature","properties":{"class":"major","highway":"tertiary","sidewalk":"likely","lanes":0,"name":"태봉로","oneway":true},"geometry":{"type":"LineString","coordinates":[[127.01998,37.46049],[127.0199,37.46046],[127.01923,37.45999],[127.01902,37.45983],[127.0186,37.45947]]}},{"type":"Feature","properties":{"class":"major","highway":"trunk","sidewalk":"likely","lanes":2,"name":"우면산로","oneway":true},"geometry":{"type":"LineString","coordinates":[[127.02043,37.45579],[127.02024,37.45555],[127.02009,37.45539],[127.01988,37.4552],[127.01962,37.45499],[127.01935,37.45482],[127.01887,37.45456],[127.01833,37.45433],[127.00839,37.45061],[127.00785,37.45037],[127.00745,37.45013],[127.00713,37.44992],[127.00674,37.4496],[127.0065,37.44937],[127.00629,37.44914],[127.00596,37.44875]]}},{"type":"Feature","properties":{"class":"minor","highway":"residential","sidewalk":"unknown","lanes":0,"name":"","oneway":false},"geometry":{"type":"LineString","coordinates":[[127.03261,37.45944],[127.03253,37.45951],[127.03249,37.45955],[127.03241,37.45958],[127.0323,37.45959],[127.03213,37.45958],[127.03157,37.45944],[127.03101,37.45935],[127.03048,37.45927],[127.03021,37.45923],[127.03,37.45913],[127.02992,37.45908],[127.0298,37.459],[127.02924,37.45857],[127.02877,37.45827],[127.02849,37.45809],[127.02774,37.4576],[127.02733,37.4574],[127.02707,37.45727],[127.02688,37.4572],[127.02598,37.45686],[127.0254,37.45663],[127.02517,37.45655],[127.02438,37.45623],[127.02424,37.45617],[127.02287,37.45562],[127.0226,37.45551],[127.02226,37.45537],[127.02217,37.45534],[127.02056,37.45477],[127.01961,37.45443],[127.01946,37.45438],[127.01876,37.45419],[127.01842,37.45407],[127.0178,37.45383],[127.01682,37.45349],[127.01661,37.45342],[127.01559,37.45306],[127.01508,37.45287],[127.01483,37.45279],[127.01458,37.45269],[127.01424,37.45247],[127.01429,37.45242],[127.01432,37.45237],[127.01435,37.45195],[127.01441,37.45143]]}},{"type":"Feature","properties":{"class":"major","highway":"trunk_link","sidewalk":"likely","lanes":0,"name":"","oneway":true},"geometry":{"type":"LineString","coordinates":[[127.02015,37.46028],[127.02005,37.46016],[127.02001,37.4601],[127.01997,37.46005],[127.01996,37.46001],[127.01995,37.45997],[127.01995,37.45992],[127.01996,37.45987],[127.01999,37.4598],[127.02019,37.45951],[127.02076,37.45887],[127.02101,37.45844]]}},{"type":"Feature","properties":{"class":"major","highway":"trunk_link","sidewalk":"likely","lanes":0,"name":"","oneway":true},"geometry":{"type":"LineString","coordinates":[[127.01898,37.46267],[127.01906,37.4623],[127.0195,37.46118],[127.01962,37.46087],[127.01964,37.46072],[127.01964,37.46058],[127.01959,37.46044],[127.01953,37.46033],[127.01948,37.46025],[127.01923,37.45999]]}},{"type":"Feature","properties":{"class":"major","highway":"trunk_link","sidewalk":"likely","lanes":0,"name":"","oneway":true},"geometry":{"type":"LineString","coordinates":[[127.01924,37.45965],[127.01958,37.4597],[127.01974,37.4597],[127.01987,37.45968],[127.01998,37.45964],[127.02019,37.45951]]}},{"type":"Feature","properties":{"class":"major","highway":"tertiary","sidewalk":"likely","lanes":0,"name":"양재대로2길","oneway":false},"geometry":{"type":"LineString","coordinates":[[127.015,37.45745],[127.01517,37.4566],[127.0152,37.45651],[127.01522,37.45644],[127.01525,37.45637],[127.01529,37.45629],[127.01534,37.45622],[127.0154,37.45615],[127.01549,37.45607],[127.01559,37.456],[127.0157,37.45595],[127.01582,37.4559],[127.01596,37.45588],[127.01608,37.45586],[127.01623,37.45585],[127.01647,37.45587],[127.01663,37.4559],[127.01772,37.45608]]}},{"type":"Feature","properties":{"class":"minor","highway":"residential","sidewalk":"unknown","lanes":0,"name":"양재대로2길","oneway":false},"geometry":{"type":"LineString","coordinates":[[127.01663,37.4559],[127.01657,37.45623],[127.0165,37.45669],[127.01642,37.45714],[127.01554,37.45705],[127.01562,37.45663],[127.01566,37.45651],[127.0157,37.45644],[127.01575,37.45638],[127.01584,37.45631],[127.01593,37.45627],[127.01602,37.45624],[127.01611,37.45622],[127.01619,37.45622],[127.0163,37.45622],[127.01647,37.45623],[127.01657,37.45623]]}},{"type":"Feature","properties":{"class":"alley","highway":"pedestrian","sidewalk":"unknown","lanes":0,"name":"","oneway":false},"geometry":{"type":"LineString","coordinates":[[127.01547,37.45748],[127.01554,37.45705]]}},{"type":"Feature","properties":{"class":"alley","highway":"pedestrian","sidewalk":"unknown","lanes":0,"name":"","oneway":false},"geometry":{"type":"LineString","coordinates":[[127.01635,37.45769],[127.01642,37.45714]]}},{"type":"Feature","properties":{"class":"minor","highway":"residential","sidewalk":"unknown","lanes":0,"name":"양재대로2길","oneway":false},"geometry":{"type":"LineString","coordinates":[[127.01517,37.4566],[127.01562,37.45663],[127.0165,37.45669]]}},{"type":"Feature","properties":{"class":"major","highway":"trunk","sidewalk":"likely","lanes":0,"name":"우면산로","oneway":true},"geometry":{"type":"LineString","coordinates":[[127.00603,37.44866],[127.00638,37.44909],[127.00659,37.44932],[127.00682,37.44954],[127.0072,37.44985],[127.00752,37.45006],[127.0079,37.45028],[127.00844,37.45053],[127.0184,37.45424],[127.0189,37.45446],[127.01934,37.4547],[127.01967,37.45492],[127.01995,37.45513],[127.02021,37.45537],[127.0204,37.45556],[127.02048,37.45567],[127.02057,37.45578]]}},{"type":"Feature","properties":{"class":"minor","highway":"residential","sidewalk":"unknown","lanes":0,"name":"송동길","oneway":false},"geometry":{"type":"LineString","coordinates":[[127.01837,37.45928],[127.018,37.45963],[127.01772,37.45975],[127.01737,37.45999],[127.01717,37.46017],[127.01693,37.46037],[127.01649,37.46067],[127.01589,37.46112],[127.01547,37.46139],[127.01522,37.46157],[127.015,37.46169],[127.01482,37.46172],[127.01455,37.46174],[127.01432,37.46176],[127.01403,37.46189],[127.0138,37.46211],[127.01369,37.46231],[127.01359,37.4625],[127.01333,37.46261],[127.01305,37.46264],[127.01282,37.46273],[127.01268,37.4628],[127.01247,37.46282],[127.01231,37.46277],[127.01217,37.46265],[127.0121,37.46247],[127.0121,37.46238],[127.01226,37.46219]]}},{"type":"Feature","properties":{"class":"minor","highway":"residential","sidewalk":"unknown","lanes":0,"name":"","oneway":false},"geometry":{"type":"LineString","coordinates":[[127.00911,37.45569],[127.00875,37.45598],[127.00871,37.45627],[127.0083,37.4568],[127.00808,37.45688],[127.00789,37.45695],[127.00779,37.45701],[127.00771,37.45709],[127.00766,37.45721],[127.00766,37.45727],[127.00786,37.45773],[127.00808,37.45779],[127.00833,37.45781],[127.00853,37.45782]]}},{"type":"Feature","properties":{"class":"minor","highway":"residential","sidewalk":"unknown","lanes":0,"name":"","oneway":false},"geometry":{"type":"LineString","coordinates":[[127.01853,37.46468],[127.01841,37.46474],[127.01827,37.46494],[127.01818,37.46515],[127.01811,37.46519],[127.01792,37.46515],[127.01773,37.46507],[127.01766,37.46497],[127.01772,37.46483],[127.01793,37.46452],[127.01801,37.46431],[127.01805,37.46412],[127.01817,37.46368],[127.01816,37.46349],[127.01804,37.46326],[127.01804,37.46319],[127.01828,37.46273],[127.01838,37.46266],[127.01851,37.46261],[127.01874,37.46254],[127.01891,37.46215],[127.01896,37.46203],[127.01921,37.46151],[127.01939,37.46111],[127.01948,37.4609],[127.01952,37.46078],[127.01953,37.46067],[127.01952,37.46054],[127.01948,37.46044],[127.01942,37.46034],[127.01932,37.46023],[127.01883,37.45984],[127.01839,37.45951]]}},{"type":"Feature","properties":{"class":"major","highway":"tertiary","sidewalk":"likely","lanes":0,"name":"태봉로","oneway":true},"geometry":{"type":"LineString","coordinates":[[127.01829,37.45913],[127.0186,37.45922],[127.01924,37.45965],[127.01971,37.45988],[127.01977,37.45994],[127.01979,37.46],[127.01981,37.46007],[127.01983,37.46019]]}},{"type":"Feature","properties":{"class":"major","highway":"primary","sidewalk":"likely","lanes":0,"name":"중앙로","oneway":false},"geometry":{"type":"LineString","coordinates":[[127.00949,37.45583],[127.01046,37.45638],[127.01136,37.45688],[127.0118,37.45709],[127.01226,37.45724],[127.01267,37.45732],[127.01298,37.45738],[127.015,37.45745]]}},{"type":"Feature","properties":{"class":"major","highway":"primary","sidewalk":"likely","lanes":0,"name":"중앙로","oneway":true},"geometry":{"type":"LineString","coordinates":[[127.01829,37.45913],[127.01852,37.45927],[127.01878,37.45946],[127.01904,37.45963],[127.01938,37.45982],[127.01966,37.45995]]}},{"type":"Feature","properties":{"class":"major","highway":"primary","sidewalk":"likely","lanes":0,"name":"양재대로","oneway":true},"geometry":{"type":"LineString","coordinates":[[127.0186,37.45947],[127.01851,37.4594],[127.01837,37.45928],[127.01829,37.45913]]}},{"type":"Feature","properties":{"class":"major","highway":"primary","sidewalk":"likely","lanes":0,"name":"중앙로","oneway":false},"geometry":{"type":"LineString","coordinates":[[127.015,37.45745],[127.01531,37.45747],[127.01547,37.45748],[127.01594,37.45757],[127.01615,37.45762],[127.01635,37.45769],[127.01685,37.45799],[127.01756,37.45855],[127.01829,37.45913]]}},{"type":"Feature","properties":{"class":"major","highway":"primary","sidewalk":"likely","lanes":0,"name":"선암지하차도","oneway":true},"geometry":{"type":"LineString","coordinates":[[127.01966,37.45995],[127.01981,37.46001],[127.02006,37.4601],[127.02048,37.46021],[127.02095,37.46029],[127.02144,37.46033]]}},{"type":"Feature","properties":{"class":"major","highway":"primary","sidewalk":"likely","lanes":0,"name":"양재대로","oneway":true},"geometry":{"type":"LineString","coordinates":[[127.01983,37.46019],[127.01963,37.46007],[127.01929,37.4599],[127.01889,37.45965],[127.0186,37.45947]]}},{"type":"Feature","properties":{"class":"alley","highway":"service","sidewalk":"unknown","lanes":0,"name":"능선길","oneway":false},"geometry":{"type":"LineString","coordinates":[[127.0123,37.46213],[127.01284,37.46186],[127.01325,37.46164],[127.01347,37.46134],[127.0136,37.46125],[127.01411,37.46086],[127.01426,37.46059],[127.01429,37.46034],[127.01425,37.46015],[127.01418,37.46004],[127.01408,37.45996],[127.01402,37.45987],[127.01388,37.45972],[127.01378,37.45954],[127.01383,37.4594],[127.01394,37.45929],[127.01414,37.45921],[127.01422,37.45918],[127.01446,37.45914],[127.01459,37.45913],[127.01488,37.45908],[127.01522,37.45905],[127.01549,37.45904],[127.01578,37.459],[127.01603,37.45896],[127.01636,37.45888],[127.01673,37.45882],[127.01705,37.45874],[127.01732,37.45864],[127.01756,37.45855]]}},{"type":"Feature","properties":{"class":"alley","highway":"service","sidewalk":"unknown","lanes":0,"name":"","oneway":false},"geometry":{"type":"LineString","coordinates":[[127.01534,37.45622],[127.01466,37.45607],[127.01439,37.45608]]}},{"type":"Feature","properties":{"class":"minor","highway":"residential","sidewalk":"unknown","lanes":0,"name":"","oneway":false},"geometry":{"type":"LineString","coordinates":[[127.01209,37.45803],[127.01185,37.45831],[127.01158,37.45866],[127.01151,37.45872],[127.01121,37.45889]]}},{"type":"Feature","properties":{"class":"minor","highway":"residential","sidewalk":"unknown","lanes":0,"name":"","oneway":false},"geometry":{"type":"LineString","coordinates":[[127.01531,37.45747],[127.01522,37.45762],[127.01517,37.45769],[127.01495,37.45792],[127.01481,37.45806],[127.01475,37.45811],[127.01467,37.45814],[127.01405,37.45828],[127.01359,37.45838],[127.01353,37.45837],[127.013,37.45827],[127.01268,37.45819],[127.01248,37.45815],[127.01209,37.45803],[127.01205,37.45802],[127.01201,37.45799],[127.01183,37.45777],[127.01183,37.45773],[127.01182,37.45767],[127.0118,37.45709]]}},{"type":"Feature","properties":{"class":"minor","highway":"residential","sidewalk":"unknown","lanes":0,"name":"","oneway":false},"geometry":{"type":"LineString","coordinates":[[127.01268,37.45819],[127.01298,37.45738]]}},{"type":"Feature","properties":{"class":"major","highway":"primary","sidewalk":"likely","lanes":0,"name":"중앙로","oneway":true},"geometry":{"type":"LineString","coordinates":[[127.00097,37.45173],[127.00109,37.45184],[127.00115,37.45191],[127.00132,37.45208],[127.00152,37.45222],[127.00177,37.45236],[127.00204,37.45247],[127.00264,37.45267],[127.00305,37.45279],[127.00372,37.45297],[127.00398,37.45307],[127.00435,37.45322],[127.00472,37.45344],[127.0059,37.45428],[127.00619,37.45448],[127.00644,37.45461]]}},{"type":"Feature","properties":{"class":"minor","highway":"residential","sidewalk":"unknown","lanes":0,"name":"","oneway":false},"geometry":{"type":"LineString","coordinates":[[127.00679,37.45487],[127.00675,37.45501],[127.00675,37.45518],[127.00673,37.45526],[127.00666,37.45531],[127.0065,37.45537],[127.00632,37.45547],[127.00623,37.45555],[127.00615,37.45564],[127.00604,37.45572]]}},{"type":"Feature","properties":{"class":"minor","highway":"residential","sidewalk":"unknown","lanes":0,"name":"","oneway":false},"geometry":{"type":"LineString","coordinates":[[127.01046,37.45638],[127.01031,37.45652],[127.01022,37.45659],[127.01017,37.45664],[127.01012,37.45671],[127.01009,37.45677],[127.01006,37.45687],[127.01004,37.45694],[127.01004,37.45699],[127.01004,37.45704],[127.01003,37.45712],[127.01,37.45717],[127.00993,37.45721],[127.00977,37.45727],[127.00969,37.45731],[127.00964,37.45735],[127.00962,37.45739],[127.00962,37.45743],[127.00965,37.45749],[127.00968,37.45754],[127.00967,37.45758],[127.00966,37.45761],[127.00958,37.45765],[127.00946,37.45769],[127.00939,37.45773],[127.00936,37.45776]]}},{"type":"Feature","properties":{"class":"alley","highway":"service","sidewalk":"unknown","lanes":0,"name":"","oneway":false},"geometry":{"type":"LineString","coordinates":[[127.01772,37.45608],[127.01763,37.45641]]}},{"type":"Feature","properties":{"class":"major","highway":"tertiary","sidewalk":"likely","lanes":0,"name":"양재대로2길","oneway":true},"geometry":{"type":"LineString","coordinates":[[127.02179,37.45712],[127.02166,37.45706],[127.02151,37.45701],[127.02142,37.45697],[127.02133,37.45696],[127.0212,37.45694],[127.02108,37.45692],[127.02071,37.45691],[127.02059,37.4569],[127.02044,37.45687],[127.02032,37.45683],[127.02013,37.45677],[127.01959,37.45651],[127.01944,37.45645],[127.0193,37.45641],[127.01902,37.45635],[127.01789,37.45614],[127.01772,37.45608]]}},{"type":"Feature","properties":{"class":"alley","highway":"service","sidewalk":"unknown","lanes":0,"name":"","oneway":false},"geometry":{"type":"LineString","coordinates":[[127.01903,37.45628],[127.01902,37.45635],[127.01898,37.45647]]}},{"type":"Feature","properties":{"class":"major","highway":"tertiary","sidewalk":"likely","lanes":0,"name":"양재대로2길","oneway":true},"geometry":{"type":"LineString","coordinates":[[127.01772,37.45608],[127.01791,37.45607],[127.01903,37.45628],[127.0192,37.45632],[127.01937,37.45636],[127.01957,37.45642],[127.01972,37.45649],[127.02002,37.45664],[127.02018,37.45672],[127.02031,37.45677],[127.02042,37.45681],[127.02055,37.45684],[127.02067,37.45685],[127.02082,37.45685],[127.02124,37.45688],[127.02138,37.45691],[127.02153,37.45695],[127.02169,37.45701],[127.02188,37.45709]]}},{"type":"Feature","properties":{"class":"major","highway":"primary","sidewalk":"likely","lanes":0,"name":"중앙로","oneway":true},"geometry":{"type":"LineString","coordinates":[[127.00949,37.45583],[127.00931,37.4558],[127.00911,37.45569],[127.00882,37.45552],[127.00852,37.45537],[127.00828,37.45528],[127.00679,37.45487],[127.00659,37.45481],[127.00637,37.45471]]}},{"type":"Feature","properties":{"class":"major","highway":"primary","sidewalk":"likely","lanes":0,"name":"중앙로","oneway":true},"geometry":{"type":"LineString","coordinates":[[127.00644,37.45461],[127.00671,37.45472],[127.00697,37.45482],[127.00811,37.45511],[127.00847,37.45522],[127.00892,37.45541],[127.00943,37.45569],[127.00949,37.45583]]}},{"type":"Feature","properties":{"class":"minor","highway":"residential","sidewalk":"unknown","lanes":0,"name":"","oneway":false},"geometry":{"type":"LineString","coordinates":[[127.01851,37.4594],[127.01839,37.45951],[127.018,37.45963]]}},{"type":"Feature","properties":{"class":"major","highway":"tertiary","sidewalk":"likely","lanes":0,"name":"경마공원대로","oneway":false},"geometry":{"type":"LineString","coordinates":[[127.00168,37.45248],[127.00177,37.45236],[127.00238,37.45153],[127.0031,37.45058],[127.00338,37.4502]]}},{"type":"Feature","properties":{"class":"alley","highway":"service","sidewalk":"unknown","lanes":0,"name":"","oneway":false},"geometry":{"type":"LineString","coordinates":[[127.00861,37.444],[127.00918,37.44409],[127.01002,37.44422],[127.01017,37.44425],[127.01038,37.44431],[127.01092,37.44458],[127.01102,37.44463],[127.01164,37.44497]]}},{"type":"Feature","properties":{"class":"major","highway":"primary","sidewalk":"likely","lanes":0,"name":"중앙로","oneway":true},"geometry":{"type":"LineString","coordinates":[[127.00087,37.4518],[127.00051,37.4514],[126.99993,37.45079],[126.99924,37.44994],[126.99914,37.44979],[126.99895,37.44952],[126.99863,37.44911],[126.9985,37.44898],[126.99833,37.44886],[126.99808,37.4487],[126.99765,37.44848],[126.99713,37.44817]]}},{"type":"Feature","properties":{"class":"major","highway":"tertiary","sidewalk":"likely","lanes":0,"name":"말두레로","oneway":false},"geometry":{"type":"LineString","coordinates":[[127.00735,37.44595],[127.00864,37.4459],[127.00902,37.44605],[127.0106,37.44705],[127.01082,37.44716],[127.0109,37.44719],[127.01146,37.44746],[127.01157,37.44763],[127.01169,37.44783],[127.01206,37.44892],[127.01208,37.449],[127.01224,37.44932],[127.01256,37.45],[127.01288,37.4504],[127.01366,37.45104],[127.0139,37.45122],[127.01414,37.45136],[127.01441,37.45143],[127.01469,37.45146],[127.01507,37.45148],[127.01608,37.45155],[127.0171,37.45162],[127.01733,37.45162],[127.01758,37.45155],[127.01793,37.45143],[127.0182,37.45127],[127.01839,37.45109],[127.01887,37.45062],[127.01894,37.45053],[127.01899,37.45042],[127.01915,37.44998],[127.01929,37.44977],[127.01948,37.4496],[127.01966,37.44949],[127.01985,37.44937],[127.02005,37.44923],[127.02034,37.44906],[127.02041,37.44903],[127.02061,37.44894],[127.02075,37.4489],[127.02089,37.44888],[127.02102,37.44887],[127.02135,37.44892]]}},{"type":"Feature","properties":{"class":"major","highway":"trunk_link","sidewalk":"likely","lanes":0,"name":"","oneway":true},"geometry":{"type":"LineString","coordinates":[[127.0044,37.44795],[127.00442,37.44775],[127.00449,37.44758],[127.0046,37.44743],[127.0047,37.44735],[127.00481,37.44727],[127.005,37.44719],[127.00536,37.44703],[127.00557,37.44691],[127.0058,37.44677]]}},{"type":"Feature","properties":{"class":"major","highway":"trunk_link","sidewalk":"likely","lanes":0,"name":"","oneway":true},"geometry":{"type":"LineString","coordinates":[[127.00359,37.4442],[127.0042,37.44508],[127.00497,37.44623],[127.00508,37.44639],[127.00515,37.44646],[127.00524,37.44653],[127.00533,37.44657],[127.00545,37.4466],[127.00558,37.44661],[127.00568,37.4466],[127.00581,37.44657],[127.00599,37.44649]]}},{"type":"Feature","properties":{"class":"major","highway":"trunk_link","sidewalk":"likely","lanes":1,"name":"","oneway":true},"geometry":{"type":"LineString","coordinates":[[127.00713,37.44992],[127.0068,37.44975],[127.00647,37.44954],[127.00584,37.44918]]}},{"type":"Feature","properties":{"class":"major","highway":"trunk_link","sidewalk":"likely","lanes":0,"name":"","oneway":true},"geometry":{"type":"LineString","coordinates":[[127.00586,37.44713],[127.00578,37.44728],[127.00574,37.44741],[127.00573,37.44752],[127.00574,37.44761],[127.00576,37.44772],[127.00579,37.4478],[127.00591,37.44806],[127.00616,37.44861]]}},{"type":"Feature","properties":{"class":"major","highway":"trunk_link","sidewalk":"likely","lanes":0,"name":"","oneway":true},"geometry":{"type":"LineString","coordinates":[[127.00616,37.44861],[127.00634,37.44892],[127.0066,37.44922],[127.00675,37.44938],[127.00713,37.44973],[127.0072,37.44985]]}},{"type":"Feature","properties":{"class":"major","highway":"trunk_link","sidewalk":"likely","lanes":1,"name":"","oneway":true},"geometry":{"type":"LineString","coordinates":[[127.00584,37.44918],[127.00483,37.44852],[127.00475,37.44847],[127.00459,37.44834],[127.0045,37.44821],[127.00443,37.44807],[127.0044,37.44795]]}},{"type":"Feature","properties":{"class":"major","highway":"trunk_link","sidewalk":"likely","lanes":0,"name":"","oneway":true},"geometry":{"type":"LineString","coordinates":[[127.00655,37.44601],[127.00648,37.44627],[127.00596,37.44698],[127.00586,37.44713]]}},{"type":"Feature","properties":{"class":"major","highway":"trunk","sidewalk":"likely","lanes":0,"name":"우면산로","oneway":true},"geometry":{"type":"LineString","coordinates":[[127.00596,37.44875],[127.00579,37.44848],[127.00563,37.44822],[127.00494,37.44694]]}},{"type":"Feature","properties":{"class":"major","highway":"trunk","sidewalk":"likely","lanes":0,"name":"우면산로","oneway":true},"geometry":{"type":"LineString","coordinates":[[127.00502,37.44685],[127.00574,37.4482],[127.00588,37.44842],[127.00603,37.44866]]}},{"type":"Feature","properties":{"class":"major","highway":"trunk","sidewalk":"likely","lanes":0,"name":"우면산로","oneway":true},"geometry":{"type":"LineString","coordinates":[[127.00494,37.44694],[127.00272,37.44285],[127.00208,37.44165],[127.00157,37.44074],[127.00102,37.43972],[127.00091,37.43942],[127.00077,37.43904]]}},{"type":"Feature","properties":{"class":"major","highway":"trunk","sidewalk":"likely","lanes":0,"name":"우면산로","oneway":true},"geometry":{"type":"LineString","coordinates":[[127.0009,37.43901],[127.00101,37.43937],[127.00114,37.43968],[127.00168,37.4407],[127.00217,37.44161],[127.00304,37.44319],[127.00359,37.4442],[127.00502,37.44685]]}},{"type":"Feature","properties":{"class":"major","highway":"trunk_link","sidewalk":"likely","lanes":0,"name":"","oneway":true},"geometry":{"type":"LineString","coordinates":[[127.00238,37.43751],[127.00198,37.43776],[127.00155,37.43811],[127.00132,37.43843],[127.00122,37.4388],[127.0012,37.43909],[127.00127,37.43942],[127.00151,37.44012],[127.00168,37.4407]]}},{"type":"Feature","properties":{"class":"major","highway":"trunk_link","sidewalk":"likely","lanes":0,"name":"","oneway":true},"geometry":{"type":"LineString","coordinates":[[127.00006,37.43905],[126.99992,37.43956],[126.99991,37.43962],[126.99989,37.43968],[126.99988,37.43978],[126.99999,37.43998],[127.00011,37.44007],[127.00025,37.44013],[127.00041,37.44014],[127.00057,37.44012],[127.00069,37.44009],[127.00082,37.44],[127.00091,37.43988],[127.00093,37.43981],[127.00091,37.43942]]}},{"type":"Feature","properties":{"class":"minor","highway":"unclassified","sidewalk":"unknown","lanes":0,"name":"","oneway":false},"geometry":{"type":"LineString","coordinates":[[127.0082,37.44111],[127.0079,37.44111],[127.00698,37.4411],[127.00674,37.4411],[127.00566,37.4411],[127.00484,37.44111],[127.00218,37.44113]]}},{"type":"Feature","properties":{"class":"alley","highway":"service","sidewalk":"unknown","lanes":0,"name":"","oneway":false},"geometry":{"type":"LineString","coordinates":[[127.00566,37.4411],[127.00566,37.44103],[127.00565,37.44082],[127.00565,37.4406],[127.00551,37.44062],[127.00537,37.44068],[127.0052,37.44081],[127.00501,37.44089],[127.00438,37.44091],[127.00408,37.44091],[127.00378,37.44094],[127.00268,37.44095],[127.00257,37.44093],[127.00245,37.44091],[127.00231,37.44086],[127.00217,37.44079],[127.00206,37.44072],[127.00191,37.44058],[127.00183,37.44043],[127.00175,37.44028],[127.00164,37.44002],[127.00157,37.43982],[127.00154,37.43974],[127.00142,37.43934],[127.00136,37.43906],[127.00135,37.43897],[127.0014,37.43868],[127.00154,37.43849],[127.0016,37.4384],[127.00169,37.43832],[127.00177,37.43823],[127.00186,37.43821],[127.00197,37.43818],[127.00219,37.43819],[127.0024,37.43816],[127.00246,37.43812],[127.00251,37.43809],[127.00254,37.43802],[127.00258,37.43795],[127.0026,37.43794],[127.0028,37.4378],[127.00307,37.4377],[127.00337,37.43759],[127.00359,37.4375]]}},{"type":"Feature","properties":{"class":"alley","highway":"service","sidewalk":"unknown","lanes":0,"name":"","oneway":false},"geometry":{"type":"LineString","coordinates":[[127.00218,37.44113],[127.00216,37.44105],[127.00191,37.44058]]}},{"type":"Feature","properties":{"class":"alley","highway":"service","sidewalk":"unknown","lanes":0,"name":"","oneway":false},"geometry":{"type":"LineString","coordinates":[[127.00565,37.4406],[127.00586,37.44057],[127.00607,37.44054],[127.00618,37.44052],[127.00626,37.4405],[127.00636,37.44048],[127.00647,37.44046],[127.00652,37.44045],[127.00668,37.44041],[127.00683,37.44037],[127.00688,37.44035],[127.00706,37.44027],[127.00709,37.44026],[127.00723,37.4402],[127.00725,37.44019],[127.00728,37.44017],[127.00743,37.44008],[127.00749,37.44004],[127.00757,37.44],[127.00764,37.43996],[127.00778,37.43984],[127.00783,37.43975],[127.00784,37.43965],[127.00782,37.43949],[127.00777,37.43931]]}},{"type":"Feature","properties":{"class":"minor","highway":"residential","sidewalk":"unknown","lanes":0,"name":"상하벌로","oneway":false},"geometry":{"type":"LineString","coordinates":[[127.00363,37.44399],[127.00378,37.44384],[127.0039,37.44362],[127.004,37.44336],[127.00415,37.44298],[127.00417,37.44291],[127.00462,37.4417],[127.00484,37.44111]]}},{"type":"Feature","properties":{"class":"major","highway":"tertiary","sidewalk":"likely","lanes":0,"name":"","oneway":false},"geometry":{"type":"LineString","coordinates":[[127.00341,37.44435],[127.00363,37.44399]]}},{"type":"Feature","properties":{"class":"minor","highway":"residential","sidewalk":"unknown","lanes":0,"name":"상하벌로","oneway":false},"geometry":{"type":"LineString","coordinates":[[127.00062,37.44887],[127.00072,37.44877],[127.00082,37.44862],[127.00102,37.44795],[127.00106,37.44782],[127.0011,37.44768],[127.00115,37.44756],[127.00163,37.44696],[127.00165,37.44694],[127.00186,37.44667],[127.00202,37.44646],[127.00224,37.44627],[127.0025,37.44604],[127.00259,37.44592],[127.00276,37.44542],[127.00292,37.44512],[127.00317,37.44474],[127.00319,37.44472],[127.00331,37.44454],[127.00341,37.44435]]}},{"type":"Feature","properties":{"class":"minor","highway":"residential","sidewalk":"unknown","lanes":0,"name":"과천교","oneway":false},"geometry":{"type":"LineString","coordinates":[[127.00015,37.44915],[127.00025,37.44911],[127.00035,37.44905],[127.00044,37.449],[127.00052,37.44895],[127.00062,37.44887]]}},{"type":"Feature","properties":{"class":"minor","highway":"residential","sidewalk":"unknown","lanes":0,"name":"상하벌로","oneway":false},"geometry":{"type":"LineString","coordinates":[[126.99906,37.44948],[127.00011,37.44916],[127.00015,37.44915]]}},{"type":"Feature","properties":{"class":"minor","highway":"residential","sidewalk":"unknown","lanes":0,"name":"상하벌1로","oneway":false},"geometry":{"type":"LineString","coordinates":[[126.9989,37.44112],[126.99911,37.44132],[127.00032,37.44356],[127.00067,37.44433],[127.00086,37.44456],[127.00259,37.44592],[127.00287,37.44637],[127.00345,37.44758],[127.00373,37.44787],[127.00378,37.44791],[127.00418,37.44803],[127.00462,37.44822],[127.00479,37.44828]]}},{"type":"Feature","properties":{"class":"minor","highway":"unclassified","sidewalk":"unknown","lanes":0,"name":"말두레로","oneway":false},"geometry":{"type":"LineString","coordinates":[[127.00735,37.44595],[127.00554,37.44843]]}},{"type":"Feature","properties":{"class":"major","highway":"tertiary","sidewalk":"likely","lanes":0,"name":"","oneway":false},"geometry":{"type":"LineString","coordinates":[[127.00711,37.44527],[127.0073,37.44536]]}},{"type":"Feature","properties":{"class":"major","highway":"tertiary","sidewalk":"likely","lanes":0,"name":"","oneway":false},"geometry":{"type":"LineString","coordinates":[[127.0073,37.44536],[127.00758,37.4455]]}},{"type":"Feature","properties":{"class":"major","highway":"tertiary","sidewalk":"likely","lanes":0,"name":"","oneway":false},"geometry":{"type":"LineString","coordinates":[[127.00758,37.4455],[127.00764,37.44553]]}},{"type":"Feature","properties":{"class":"major","highway":"tertiary","sidewalk":"likely","lanes":0,"name":"","oneway":false},"geometry":{"type":"LineString","coordinates":[[127.00764,37.44553],[127.00735,37.44595]]}},{"type":"Feature","properties":{"class":"major","highway":"primary_link","sidewalk":"likely","lanes":0,"name":"","oneway":true},"geometry":{"type":"LineString","coordinates":[[127.00115,37.45191],[127.00145,37.45197],[127.00147,37.45196],[127.00165,37.45192],[127.00185,37.4518],[127.00212,37.45165],[127.00238,37.45153]]}},{"type":"Feature","properties":{"class":"major","highway":"primary_link","sidewalk":"likely","lanes":0,"name":"","oneway":true},"geometry":{"type":"LineString","coordinates":[[127.00238,37.45153],[127.00237,37.45169],[127.00237,37.45194],[127.00254,37.45224],[127.0028,37.45253],[127.00305,37.45279]]}},{"type":"Feature","properties":{"class":"minor","highway":"residential","sidewalk":"unknown","lanes":0,"name":"뒷골로","oneway":false},"geometry":{"type":"LineString","coordinates":[[127.00143,37.45234],[127.00135,37.45239],[127.00115,37.45254],[127.00096,37.45271],[127.00087,37.45282]]}},{"type":"Feature","properties":{"class":"minor","highway":"residential","sidewalk":"unknown","lanes":0,"name":"뒷골1로","oneway":false},"geometry":{"type":"LineString","coordinates":[[127.00168,37.45248],[127.00162,37.45271],[127.00153,37.45313],[127.00147,37.45344],[127.00133,37.45417],[127.00123,37.45469],[127.00113,37.45518],[127.00113,37.45523],[127.00115,37.45556],[127.00114,37.45592],[127.0011,37.45666]]}},{"type":"Feature","properties":{"class":"minor","highway":"residential","sidewalk":"unknown","lanes":0,"name":"뒷골2로","oneway":false},"geometry":{"type":"LineString","coordinates":[[127.00217,37.45267],[127.00206,37.45289],[127.00204,37.45294],[127.00199,37.45308],[127.00197,37.45326],[127.00199,37.45342],[127.00202,37.45356],[127.00203,37.45359],[127.00209,37.45373],[127.00214,37.45384],[127.00215,37.45395],[127.00213,37.45407],[127.00208,37.45422],[127.00178,37.45485],[127.00174,37.45501],[127.00175,37.45523],[127.00167,37.45566],[127.00148,37.45638],[127.00142,37.45666],[127.00139,37.45695],[127.00148,37.45745],[127.00149,37.45757],[127.00148,37.4576],[127.00146,37.45781],[127.00143,37.45816],[127.0014,37.45827],[127.00135,37.45835],[127.00125,37.45844],[127.0011,37.45852],[127.00087,37.45859]]}},{"type":"Feature","properties":{"class":"minor","highway":"residential","sidewalk":"unknown","lanes":0,"name":"뒷골로","oneway":false},"geometry":{"type":"LineString","coordinates":[[127.00049,37.45516],[127.00113,37.45518]]}},{"type":"Feature","properties":{"class":"minor","highway":"residential","sidewalk":"unknown","lanes":0,"name":"뒷골로","oneway":false},"geometry":{"type":"LineString","coordinates":[[127.00016,37.4559],[127.00066,37.45592],[127.00075,37.45595],[127.00075,37.45625],[127.00067,37.45628],[127.00008,37.45626]]}},{"type":"Feature","properties":{"class":"minor","highway":"residential","sidewalk":"unknown","lanes":0,"name":"","oneway":false},"geometry":{"type":"LineString","coordinates":[[127.0011,37.45666],[127.00071,37.45665]]}},{"type":"Feature","properties":{"class":"minor","highway":"residential","sidewalk":"unknown","lanes":0,"name":"뒷골로","oneway":false},"geometry":{"type":"LineString","coordinates":[[127.00063,37.45748],[127.00064,37.45726],[127.00071,37.45665]]}},{"type":"Feature","properties":{"class":"minor","highway":"residential","sidewalk":"unknown","lanes":0,"name":"뒷골로","oneway":false},"geometry":{"type":"LineString","coordinates":[[127.00024,37.45747],[127.00063,37.45748],[127.00097,37.4575]]}},{"type":"Feature","properties":{"class":"minor","highway":"residential","sidewalk":"unknown","lanes":0,"name":"뒷골로","oneway":false},"geometry":{"type":"LineString","coordinates":[[127.00018,37.4566],[127.00071,37.45665]]}},{"type":"Feature","properties":{"class":"minor","highway":"residential","sidewalk":"unknown","lanes":0,"name":"뒷골로","oneway":false},"geometry":{"type":"LineString","coordinates":[[127.00139,37.45695],[127.00099,37.45695],[127.00097,37.4575],[127.00096,37.4578]]}},{"type":"Feature","properties":{"class":"minor","highway":"residential","sidewalk":"unknown","lanes":0,"name":"뒷골로","oneway":false},"geometry":{"type":"LineString","coordinates":[[127.00029,37.45779],[127.00069,37.45781],[127.00096,37.4578],[127.00146,37.45781]]}},{"type":"Feature","properties":{"class":"minor","highway":"residential","sidewalk":"unknown","lanes":0,"name":"뒷골로","oneway":false},"geometry":{"type":"LineString","coordinates":[[127.00096,37.45883],[127.00101,37.45896],[127.00103,37.45914],[127.00103,37.45934],[127.00092,37.45955],[127.00075,37.45988],[127.00048,37.46029]]}},{"type":"Feature","properties":{"class":"minor","highway":"residential","sidewalk":"unknown","lanes":0,"name":"뒷골로","oneway":false},"geometry":{"type":"LineString","coordinates":[[127.00032,37.45555],[127.00115,37.45556]]}},{"type":"Feature","properties":{"class":"minor","highway":"residential","sidewalk":"unknown","lanes":0,"name":"뒷골로","oneway":false},"geometry":{"type":"LineString","coordinates":[[127.00044,37.45483],[127.00123,37.45469]]}},{"type":"Feature","properties":{"class":"minor","highway":"residential","sidewalk":"unknown","lanes":0,"name":"뒷골로","oneway":false},"geometry":{"type":"LineString","coordinates":[[127.0003,37.45413],[127.00105,37.45416],[127.00133,37.45417],[127.00208,37.45422]]}},{"type":"Feature","properties":{"class":"alley","highway":"service","sidewalk":"unknown","lanes":0,"name":"","oneway":false},"geometry":{"type":"LineString","coordinates":[[127.01424,37.45247],[127.01404,37.45236],[127.01394,37.45231],[127.01329,37.45197],[127.01284,37.45178],[127.01244,37.45162],[127.01146,37.45125],[127.01041,37.45084],[127.00939,37.45045],[127.0089,37.45028],[127.00841,37.45007],[127.00826,37.44999]]}},{"type":"Feature","properties":{"class":"alley","highway":"pedestrian","sidewalk":"unknown","lanes":0,"name":"","oneway":false},"geometry":{"type":"LineString","coordinates":[[127.01156,37.44582],[127.00874,37.44443],[127.00849,37.44436],[127.00846,37.44435]]}},{"type":"Feature","properties":{"class":"major","highway":"tertiary","sidewalk":"likely","lanes":0,"name":"경마공원대로","oneway":false},"geometry":{"type":"LineString","coordinates":[[127.00788,37.4439],[127.00794,37.44367],[127.00804,37.4431],[127.00805,37.443],[127.00817,37.44167],[127.00819,37.44139],[127.0082,37.44111],[127.00821,37.44104],[127.00826,37.44044]]}},{"type":"Feature","properties":{"class":"major","highway":"primary","sidewalk":"likely","lanes":0,"name":"중앙로","oneway":true},"geometry":{"type":"LineString","coordinates":[[127.00168,37.45248],[127.00143,37.45234],[127.00123,37.45217],[127.00106,37.452],[127.00087,37.4518]]}},{"type":"Feature","properties":{"class":"minor","highway":"residential","sidewalk":"unknown","lanes":0,"name":"","oneway":false},"geometry":{"type":"LineString","coordinates":[[127.01656,37.4433],[127.01657,37.44313],[127.0166,37.44309],[127.01671,37.44304],[127.01688,37.44304],[127.01696,37.443],[127.0173,37.44274],[127.01791,37.4423],[127.01821,37.44235],[127.01843,37.44238],[127.01867,37.44239]]}},{"type":"Feature","properties":{"class":"minor","highway":"residential","sidewalk":"unknown","lanes":0,"name":"","oneway":false},"geometry":{"type":"LineString","coordinates":[[127.01919,37.44167],[127.01866,37.44173],[127.01847,37.44188],[127.01846,37.4423],[127.01843,37.44238]]}},{"type":"Feature","properties":{"class":"minor","highway":"residential","sidewalk":"unknown","lanes":0,"name":"","oneway":false},"geometry":{"type":"LineString","coordinates":[[127.01568,37.44184],[127.01718,37.4417],[127.01782,37.44186],[127.01796,37.44183],[127.01811,37.44183],[127.01847,37.44188]]}},{"type":"Feature","properties":{"class":"minor","highway":"residential","sidewalk":"unknown","lanes":0,"name":"","oneway":false},"geometry":{"type":"LineString","coordinates":[[127.01782,37.44186],[127.01791,37.4423]]}},{"type":"Feature","properties":{"class":"minor","highway":"residential","sidewalk":"unknown","lanes":0,"name":"","oneway":false},"geometry":{"type":"LineString","coordinates":[[127.01592,37.44333],[127.01592,37.44324],[127.01577,37.4423],[127.01568,37.44184],[127.01548,37.44084],[127.01549,37.43998]]}},{"type":"Feature","properties":{"class":"alley","highway":"service","sidewalk":"unknown","lanes":0,"name":"","oneway":false},"geometry":{"type":"LineString","coordinates":[[127.01215,37.44498],[127.01239,37.44483],[127.0125,37.44472],[127.01263,37.4445],[127.01296,37.44419],[127.01299,37.44416],[127.01353,37.44374],[127.0141,37.4435],[127.01448,37.4434],[127.015,37.44335],[127.01592,37.44333],[127.01598,37.44334],[127.01624,37.44335],[127.0163,37.44336],[127.01656,37.4433],[127.01661,37.44332],[127.01682,37.44334],[127.01713,37.44356],[127.01725,37.44378],[127.01741,37.44444],[127.01743,37.44461],[127.01755,37.44514],[127.01768,37.44587],[127.01774,37.44605],[127.0178,37.44666],[127.01792,37.44732],[127.01796,37.44746],[127.018,37.44754],[127.01891,37.44815],[127.01919,37.44827],[127.01996,37.44869],[127.02027,37.44886],[127.02031,37.44888],[127.02038,37.44887],[127.02048,37.44881],[127.02086,37.44859],[127.02089,37.44854],[127.02092,37.44851],[127.02099,37.44844],[127.02126,37.44828],[127.02135,37.44822],[127.0214,37.44816],[127.02143,37.44809],[127.02165,37.4477],[127.02169,37.44764],[127.02172,37.44761],[127.02175,37.44758],[127.02177,37.44756],[127.02183,37.44736],[127.02198,37.44687],[127.02199,37.44682],[127.022,37.44674],[127.022,37.44669],[127.02202,37.44661],[127.0221,37.44632]]}},{"type":"Feature","properties":{"class":"minor","highway":"residential","sidewalk":"unknown","lanes":0,"name":"","oneway":false},"geometry":{"type":"LineString","coordinates":[[127.01688,37.44304],[127.01685,37.44328],[127.01682,37.44334]]}},{"type":"Feature","properties":{"class":"minor","highway":"residential","sidewalk":"unknown","lanes":0,"name":"","oneway":false},"geometry":{"type":"LineString","coordinates":[[127.0163,37.44336],[127.01626,37.44344],[127.0162,37.44347],[127.01585,37.44359],[127.01501,37.44379]]}},{"type":"Feature","properties":{"class":"minor","highway":"residential","sidewalk":"unknown","lanes":0,"name":"","oneway":false},"geometry":{"type":"LineString","coordinates":[[127.0163,37.44405],[127.0163,37.4439],[127.01629,37.44387],[127.01621,37.44383],[127.01606,37.44378],[127.01593,37.44373],[127.01589,37.44366],[127.01585,37.44359]]}},{"type":"Feature","properties":{"class":"minor","highway":"residential","sidewalk":"unknown","lanes":0,"name":"뒷골로","oneway":false},"geometry":{"type":"LineString","coordinates":[[127.00087,37.45282],[127.00071,37.45325],[127.00036,37.45374],[127.00031,37.45382],[127.0003,37.45391],[127.0003,37.45413],[127.0003,37.45415],[127.0003,37.45441],[127.00032,37.45452],[127.00036,37.45463],[127.00044,37.45483],[127.00049,37.45495],[127.0005,37.45507],[127.00049,37.45516],[127.00032,37.45555],[127.00016,37.4559],[127.0001,37.45605],[127.00009,37.45614],[127.00008,37.45626],[127.00007,37.45629],[127.00011,37.45644],[127.00018,37.45657],[127.00018,37.4566],[127.0002,37.4567],[127.00023,37.45682],[127.00025,37.45704],[127.00024,37.45724],[127.00024,37.45747],[127.00029,37.45779],[127.00029,37.45787],[127.00062,37.45815],[127.00073,37.45822],[127.00082,37.45845],[127.00087,37.45859],[127.00096,37.45883],[127.00043,37.45931],[127.00045,37.45943],[127.00028,37.45976],[127.00012,37.46022],[127.00029,37.46026],[127.00048,37.46029],[127.00047,37.46035],[127.00069,37.46066],[127.00057,37.4609],[127.00051,37.46104],[127.00053,37.46122],[127.00057,37.46164]]}},{"type":"Feature","properties":{"class":"major","highway":"tertiary","sidewalk":"likely","lanes":0,"name":"경마공원대로","oneway":true},"geometry":{"type":"LineString","coordinates":[[127.0049,37.44813],[127.00493,37.44797],[127.0058,37.44677],[127.00599,37.44649],[127.00618,37.44625],[127.00688,37.44532],[127.00741,37.44459],[127.00761,37.4443],[127.0077,37.44415],[127.00777,37.44399],[127.00788,37.4439],[127.0079,37.44401],[127.00782,37.44419],[127.00774,37.44434],[127.00766,37.44448],[127.00754,37.44466],[127.00711,37.44527],[127.00655,37.44601],[127.00524,37.44773],[127.00503,37.44801],[127.0049,37.44813]]}},{"type":"Feature","properties":{"class":"major","highway":"tertiary","sidewalk":"likely","lanes":0,"name":"경마공원대로","oneway":false},"geometry":{"type":"LineString","coordinates":[[127.00338,37.4502],[127.00361,37.4499]]}},{"type":"Feature","properties":{"class":"minor","highway":"residential","sidewalk":"unknown","lanes":0,"name":"뒷골2로","oneway":false},"geometry":{"type":"LineString","coordinates":[[127.00202,37.45356],[127.00219,37.45351],[127.00229,37.45346],[127.00241,37.4534],[127.00245,37.45337],[127.00247,37.4533],[127.00244,37.45323],[127.00225,37.45302],[127.00222,37.453],[127.00204,37.45294]]}},{"type":"Feature","properties":{"class":"minor","highway":"residential","sidewalk":"unknown","lanes":0,"name":"뒷골로","oneway":false},"geometry":{"type":"LineString","coordinates":[[127.00147,37.45344],[127.0012,37.45337],[127.00071,37.45325]]}},{"type":"Feature","properties":{"class":"alley","highway":"service","sidewalk":"unknown","lanes":0,"name":"","oneway":false},"geometry":{"type":"LineString","coordinates":[[127.00764,37.44553],[127.00773,37.44557],[127.00781,37.44561],[127.00786,37.44553],[127.00794,37.44543],[127.00801,37.44533],[127.00808,37.44523],[127.00816,37.44513],[127.00823,37.44503],[127.0083,37.44493],[127.00838,37.44482],[127.0084,37.44479],[127.00855,37.44476],[127.00873,37.44473]]}},{"type":"Feature","properties":{"class":"alley","highway":"service","sidewalk":"unknown","lanes":0,"name":"","oneway":false},"geometry":{"type":"LineString","coordinates":[[127.00873,37.44473],[127.00946,37.44507]]}},{"type":"Feature","properties":{"class":"alley","highway":"service","sidewalk":"unknown","lanes":0,"name":"","oneway":false},"geometry":{"type":"LineString","coordinates":[[127.00779,37.44564],[127.00811,37.44579]]}},{"type":"Feature","properties":{"class":"alley","highway":"service","sidewalk":"unknown","lanes":0,"name":"","oneway":false},"geometry":{"type":"LineString","coordinates":[[127.00781,37.44561],[127.00779,37.44564],[127.00769,37.44576]]}},{"type":"Feature","properties":{"class":"alley","highway":"service","sidewalk":"unknown","lanes":0,"name":"","oneway":false},"geometry":{"type":"LineString","coordinates":[[127.00786,37.44553],[127.00841,37.44579]]}},{"type":"Feature","properties":{"class":"alley","highway":"service","sidewalk":"unknown","lanes":0,"name":"","oneway":false},"geometry":{"type":"LineString","coordinates":[[127.00868,37.44579],[127.00794,37.44543]]}},{"type":"Feature","properties":{"class":"alley","highway":"service","sidewalk":"unknown","lanes":0,"name":"","oneway":false},"geometry":{"type":"LineString","coordinates":[[127.00877,37.4457],[127.00801,37.44533]]}},{"type":"Feature","properties":{"class":"alley","highway":"service","sidewalk":"unknown","lanes":0,"name":"","oneway":false},"geometry":{"type":"LineString","coordinates":[[127.00895,37.44567],[127.00808,37.44523]]}},{"type":"Feature","properties":{"class":"alley","highway":"service","sidewalk":"unknown","lanes":0,"name":"","oneway":false},"geometry":{"type":"LineString","coordinates":[[127.00907,37.44557],[127.00816,37.44513]]}},{"type":"Feature","properties":{"class":"alley","highway":"service","sidewalk":"unknown","lanes":0,"name":"","oneway":false},"geometry":{"type":"LineString","coordinates":[[127.00914,37.44548],[127.00823,37.44503]]}},{"type":"Feature","properties":{"class":"alley","highway":"service","sidewalk":"unknown","lanes":0,"name":"","oneway":false},"geometry":{"type":"LineString","coordinates":[[127.00922,37.44538],[127.0083,37.44493]]}},{"type":"Feature","properties":{"class":"alley","highway":"service","sidewalk":"unknown","lanes":0,"name":"","oneway":false},"geometry":{"type":"LineString","coordinates":[[127.00929,37.44528],[127.00838,37.44482]]}},{"type":"Feature","properties":{"class":"alley","highway":"service","sidewalk":"unknown","lanes":0,"name":"","oneway":false},"geometry":{"type":"LineString","coordinates":[[127.00937,37.44518],[127.00855,37.44476]]}},{"type":"Feature","properties":{"class":"alley","highway":"service","sidewalk":"unknown","lanes":0,"name":"","oneway":false},"geometry":{"type":"LineString","coordinates":[[127.00946,37.44507],[127.00937,37.44518],[127.00929,37.44528],[127.00922,37.44538],[127.00914,37.44548],[127.00907,37.44557],[127.00902,37.44565],[127.00895,37.44567],[127.00877,37.4457],[127.00868,37.44579],[127.00841,37.44579],[127.00811,37.44579],[127.00775,37.4458],[127.0077,37.4458],[127.00769,37.44576]]}},{"type":"Feature","properties":{"class":"alley","highway":"service","sidewalk":"unknown","lanes":0,"name":"","oneway":true},"geometry":{"type":"LineString","coordinates":[[127.00764,37.44553],[127.00773,37.44553],[127.00778,37.44552],[127.00785,37.44544],[127.00832,37.44479],[127.0084,37.44472],[127.00878,37.44465],[127.00969,37.44509],[127.00983,37.44516],[127.00997,37.44522],[127.01008,37.44528],[127.01021,37.44534],[127.01034,37.4454],[127.01045,37.44546],[127.01058,37.44552],[127.01071,37.44558],[127.01082,37.44563],[127.01095,37.4457],[127.01108,37.44576]]}},{"type":"Feature","properties":{"class":"alley","highway":"service","sidewalk":"unknown","lanes":0,"name":"","oneway":true},"geometry":{"type":"LineString","coordinates":[[127.01068,37.44624],[127.01057,37.44618],[127.01042,37.44611],[127.01031,37.44605],[127.01019,37.44599],[127.01006,37.44593],[127.00993,37.44587],[127.00983,37.44582],[127.0097,37.44576],[127.00961,37.44571],[127.00946,37.44564],[127.00931,37.44556],[127.00914,37.44548]]}},{"type":"Feature","properties":{"class":"alley","highway":"service","sidewalk":"unknown","lanes":0,"name":"","oneway":false},"geometry":{"type":"LineString","coordinates":[[127.01068,37.44624],[127.01108,37.44576]]}},{"type":"Feature","properties":{"class":"alley","highway":"service","sidewalk":"unknown","lanes":0,"name":"","oneway":true},"geometry":{"type":"LineString","coordinates":[[127.01095,37.4457],[127.01057,37.44618]]}},{"type":"Feature","properties":{"class":"alley","highway":"service","sidewalk":"unknown","lanes":0,"name":"","oneway":true},"geometry":{"type":"LineString","coordinates":[[127.01082,37.44563],[127.01042,37.44611]]}},{"type":"Feature","properties":{"class":"alley","highway":"service","sidewalk":"unknown","lanes":0,"name":"","oneway":true},"geometry":{"type":"LineString","coordinates":[[127.01071,37.44558],[127.01031,37.44605]]}},{"type":"Feature","properties":{"class":"alley","highway":"service","sidewalk":"unknown","lanes":0,"name":"","oneway":true},"geometry":{"type":"LineString","coordinates":[[127.01058,37.44552],[127.01019,37.44599]]}},{"type":"Feature","properties":{"class":"alley","highway":"service","sidewalk":"unknown","lanes":0,"name":"","oneway":true},"geometry":{"type":"LineString","coordinates":[[127.01045,37.44546],[127.01006,37.44593]]}},{"type":"Feature","properties":{"class":"alley","highway":"service","sidewalk":"unknown","lanes":0,"name":"","oneway":true},"geometry":{"type":"LineString","coordinates":[[127.00997,37.44522],[127.00961,37.44571],[127.00939,37.44599],[127.00924,37.44592],[127.00927,37.44588],[127.00913,37.44581],[127.00931,37.44556]]}},{"type":"Feature","properties":{"class":"alley","highway":"service","sidewalk":"unknown","lanes":0,"name":"","oneway":true},"geometry":{"type":"LineString","coordinates":[[127.00983,37.44516],[127.00946,37.44564]]}},{"type":"Feature","properties":{"class":"alley","highway":"service","sidewalk":"unknown","lanes":0,"name":"","oneway":false},"geometry":{"type":"LineString","coordinates":[[127.00969,37.44509],[127.00931,37.44556]]}},{"type":"Feature","properties":{"class":"alley","highway":"service","sidewalk":"unknown","lanes":0,"name":"","oneway":true},"geometry":{"type":"LineString","coordinates":[[127.01034,37.4454],[127.00993,37.44587]]}},{"type":"Feature","properties":{"class":"alley","highway":"service","sidewalk":"unknown","lanes":0,"name":"","oneway":true},"geometry":{"type":"LineString","coordinates":[[127.00946,37.44564],[127.00927,37.44588]]}},{"type":"Feature","properties":{"class":"alley","highway":"service","sidewalk":"unknown","lanes":0,"name":"","oneway":true},"geometry":{"type":"LineString","coordinates":[[127.01008,37.44528],[127.0097,37.44576]]}},{"type":"Feature","properties":{"class":"alley","highway":"service","sidewalk":"unknown","lanes":0,"name":"","oneway":true},"geometry":{"type":"LineString","coordinates":[[127.01021,37.44534],[127.00983,37.44582]]}},{"type":"Feature","properties":{"class":"alley","highway":"service","sidewalk":"unknown","lanes":0,"name":"","oneway":false},"geometry":{"type":"LineString","coordinates":[[127.01102,37.44463],[127.01093,37.44476],[127.01059,37.44521]]}},{"type":"Feature","properties":{"class":"alley","highway":"service","sidewalk":"unknown","lanes":0,"name":"","oneway":false},"geometry":{"type":"LineString","coordinates":[[127.00952,37.44434],[127.00935,37.44458],[127.00935,37.4446],[127.00945,37.44465],[127.00958,37.44472],[127.00971,37.44478],[127.00983,37.44484],[127.00995,37.4449],[127.01008,37.44496],[127.0102,37.44502],[127.01032,37.44508],[127.01046,37.44515],[127.01059,37.44521],[127.01069,37.44525],[127.01085,37.44532],[127.011,37.44539],[127.01116,37.44546],[127.01131,37.44553]]}},{"type":"Feature","properties":{"class":"alley","highway":"service","sidewalk":"unknown","lanes":0,"name":"","oneway":true},"geometry":{"type":"LineString","coordinates":[[127.01075,37.44475],[127.01074,37.4447],[127.01065,37.44466],[127.01052,37.4446],[127.0104,37.44455],[127.01027,37.44449],[127.01016,37.44444],[127.01013,37.44443],[127.00998,37.4444],[127.00983,37.44437],[127.00967,37.44434],[127.00962,37.44433],[127.00952,37.44434]]}},{"type":"Feature","properties":{"class":"alley","highway":"service","sidewalk":"unknown","lanes":0,"name":"","oneway":true},"geometry":{"type":"LineString","coordinates":[[127.01046,37.44515],[127.01075,37.44475]]}},{"type":"Feature","properties":{"class":"alley","highway":"service","sidewalk":"unknown","lanes":0,"name":"","oneway":true},"geometry":{"type":"LineString","coordinates":[[127.01032,37.44508],[127.01065,37.44466]]}},{"type":"Feature","properties":{"class":"alley","highway":"service","sidewalk":"unknown","lanes":0,"name":"","oneway":true},"geometry":{"type":"LineString","coordinates":[[127.0102,37.44502],[127.01052,37.4446]]}},{"type":"Feature","properties":{"class":"alley","highway":"service","sidewalk":"unknown","lanes":0,"name":"","oneway":true},"geometry":{"type":"LineString","coordinates":[[127.01008,37.44496],[127.0104,37.44455]]}},{"type":"Feature","properties":{"class":"alley","highway":"service","sidewalk":"unknown","lanes":0,"name":"","oneway":true},"geometry":{"type":"LineString","coordinates":[[127.00995,37.4449],[127.01027,37.44449]]}},{"type":"Feature","properties":{"class":"alley","highway":"service","sidewalk":"unknown","lanes":0,"name":"","oneway":true},"geometry":{"type":"LineString","coordinates":[[127.00983,37.44484],[127.01013,37.44443]]}},{"type":"Feature","properties":{"class":"alley","highway":"service","sidewalk":"unknown","lanes":0,"name":"","oneway":true},"geometry":{"type":"LineString","coordinates":[[127.00971,37.44478],[127.00998,37.4444]]}},{"type":"Feature","properties":{"class":"alley","highway":"service","sidewalk":"unknown","lanes":0,"name":"","oneway":true},"geometry":{"type":"LineString","coordinates":[[127.00958,37.44472],[127.00983,37.44437]]}},{"type":"Feature","properties":{"class":"alley","highway":"service","sidewalk":"unknown","lanes":0,"name":"","oneway":false},"geometry":{"type":"LineString","coordinates":[[127.00945,37.44465],[127.00967,37.44434]]}},{"type":"Feature","properties":{"class":"alley","highway":"service","sidewalk":"unknown","lanes":0,"name":"","oneway":false},"geometry":{"type":"LineString","coordinates":[[127.01131,37.44553],[127.0116,37.44513]]}},{"type":"Feature","properties":{"class":"alley","highway":"service","sidewalk":"unknown","lanes":0,"name":"","oneway":false},"geometry":{"type":"LineString","coordinates":[[127.01116,37.44546],[127.01145,37.44506]]}},{"type":"Feature","properties":{"class":"alley","highway":"service","sidewalk":"unknown","lanes":0,"name":"","oneway":false},"geometry":{"type":"LineString","coordinates":[[127.011,37.44539],[127.01129,37.44498]]}},{"type":"Feature","properties":{"class":"alley","highway":"service","sidewalk":"unknown","lanes":0,"name":"","oneway":false},"geometry":{"type":"LineString","coordinates":[[127.01085,37.44532],[127.01115,37.44491]]}},{"type":"Feature","properties":{"class":"alley","highway":"service","sidewalk":"unknown","lanes":0,"name":"","oneway":false},"geometry":{"type":"LineString","coordinates":[[127.01069,37.44525],[127.01101,37.44483]]}},{"type":"Feature","properties":{"class":"alley","highway":"service","sidewalk":"unknown","lanes":0,"name":"","oneway":true},"geometry":{"type":"LineString","coordinates":[[127.01201,37.44519],[127.01183,37.44511],[127.01177,37.44508],[127.01164,37.44497]]}},{"type":"Feature","properties":{"class":"alley","highway":"service","sidewalk":"unknown","lanes":0,"name":"","oneway":true},"geometry":{"type":"LineString","coordinates":[[127.01164,37.44497],[127.01191,37.445],[127.01215,37.44498]]}},{"type":"Feature","properties":{"class":"alley","highway":"service","sidewalk":"unknown","lanes":0,"name":"","oneway":false},"geometry":{"type":"LineString","coordinates":[[127.01215,37.44498],[127.01204,37.44511],[127.01201,37.44519]]}},{"type":"Feature","properties":{"class":"alley","highway":"service","sidewalk":"unknown","lanes":0,"name":"","oneway":false},"geometry":{"type":"LineString","coordinates":[[127.01263,37.4445],[127.01247,37.44432],[127.01227,37.44416],[127.01191,37.444],[127.01176,37.4437],[127.01165,37.44346],[127.01157,37.44336],[127.0115,37.44333],[127.0114,37.4433],[127.0104,37.44331],[127.01026,37.44325],[127.01022,37.44323]]}},{"type":"Feature","properties":{"class":"alley","highway":"service","sidewalk":"unknown","lanes":4,"name":"","oneway":false},"geometry":{"type":"LineString","coordinates":[[127.01017,37.44425],[127.0104,37.44331]]}},{"type":"Feature","properties":{"class":"alley","highway":"service","sidewalk":"unknown","lanes":0,"name":"","oneway":false},"geometry":{"type":"LineString","coordinates":[[127.01191,37.444],[127.01163,37.44386],[127.01176,37.4437]]}},{"type":"Feature","properties":{"class":"alley","highway":"service","sidewalk":"unknown","lanes":0,"name":"","oneway":false},"geometry":{"type":"LineString","coordinates":[[127.01191,37.444],[127.01184,37.44401],[127.01169,37.44419],[127.01148,37.44409],[127.01128,37.44399],[127.01112,37.44392]]}},{"type":"Feature","properties":{"class":"alley","highway":"service","sidewalk":"unknown","lanes":0,"name":"","oneway":false},"geometry":{"type":"LineString","coordinates":[[127.01128,37.44399],[127.01144,37.44376]]}},{"type":"Feature","properties":{"class":"alley","highway":"service","sidewalk":"unknown","lanes":0,"name":"","oneway":false},"geometry":{"type":"LineString","coordinates":[[127.01112,37.44392],[127.0113,37.44368],[127.01144,37.44376],[127.01163,37.44386]]}},{"type":"Feature","properties":{"class":"alley","highway":"service","sidewalk":"unknown","lanes":0,"name":"","oneway":true},"geometry":{"type":"LineString","coordinates":[[127.01002,37.4432],[127.00996,37.44324],[127.00995,37.44329],[127.00992,37.44341],[127.0099,37.44352],[127.00987,37.44363],[127.00984,37.44374],[127.00981,37.44386],[127.00979,37.44395],[127.00901,37.44384],[127.00893,37.44374],[127.0087,37.44371],[127.00872,37.44358],[127.00873,37.44345],[127.00874,37.44334],[127.00875,37.44323],[127.00876,37.44311],[127.00877,37.443],[127.0089,37.44302],[127.01002,37.4432]]}},{"type":"Feature","properties":{"class":"alley","highway":"service","sidewalk":"unknown","lanes":0,"name":"","oneway":false},"geometry":{"type":"LineString","coordinates":[[127.01022,37.44323],[127.01002,37.4432]]}},{"type":"Feature","properties":{"class":"alley","highway":"service","sidewalk":"unknown","lanes":0,"name":"","oneway":true},"geometry":{"type":"LineString","coordinates":[[127.00877,37.443],[127.0088,37.4427],[127.00882,37.44253],[127.009,37.44255],[127.00908,37.44245]]}},{"type":"Feature","properties":{"class":"alley","highway":"service","sidewalk":"unknown","lanes":0,"name":"","oneway":true},"geometry":{"type":"LineString","coordinates":[[127.009,37.44255],[127.0089,37.44302]]}},{"type":"Feature","properties":{"class":"alley","highway":"service","sidewalk":"unknown","lanes":0,"name":"","oneway":false},"geometry":{"type":"LineString","coordinates":[[127.00908,37.44245],[127.01028,37.44263],[127.01018,37.44308],[127.01022,37.44323]]}},{"type":"Feature","properties":{"class":"alley","highway":"service","sidewalk":"unknown","lanes":0,"name":"","oneway":false},"geometry":{"type":"LineString","coordinates":[[127.00908,37.44245],[127.00911,37.44231],[127.00973,37.4424]]}},{"type":"Feature","properties":{"class":"alley","highway":"service","sidewalk":"unknown","lanes":0,"name":"","oneway":false},"geometry":{"type":"LineString","coordinates":[[127.01013,37.44331],[127.00996,37.44398],[127.00979,37.44395]]}},{"type":"Feature","properties":{"class":"alley","highway":"service","sidewalk":"unknown","lanes":0,"name":"","oneway":true},"geometry":{"type":"LineString","coordinates":[[127.00981,37.44386],[127.00893,37.44374]]}},{"type":"Feature","properties":{"class":"alley","highway":"service","sidewalk":"unknown","lanes":0,"name":"","oneway":true},"geometry":{"type":"LineString","coordinates":[[127.00984,37.44374],[127.00872,37.44358]]}},{"type":"Feature","properties":{"class":"alley","highway":"service","sidewalk":"unknown","lanes":0,"name":"","oneway":true},"geometry":{"type":"LineString","coordinates":[[127.00987,37.44363],[127.00873,37.44345]]}},{"type":"Feature","properties":{"class":"alley","highway":"service","sidewalk":"unknown","lanes":0,"name":"","oneway":true},"geometry":{"type":"LineString","coordinates":[[127.0099,37.44352],[127.00874,37.44334]]}},{"type":"Feature","properties":{"class":"alley","highway":"service","sidewalk":"unknown","lanes":0,"name":"","oneway":true},"geometry":{"type":"LineString","coordinates":[[127.00992,37.44341],[127.00875,37.44323]]}},{"type":"Feature","properties":{"class":"alley","highway":"service","sidewalk":"unknown","lanes":0,"name":"","oneway":true},"geometry":{"type":"LineString","coordinates":[[127.00995,37.44329],[127.00876,37.44311]]}},{"type":"Feature","properties":{"class":"alley","highway":"service","sidewalk":"unknown","lanes":0,"name":"","oneway":false},"geometry":{"type":"LineString","coordinates":[[127.01296,37.44419],[127.01282,37.44401],[127.01265,37.44378],[127.01256,37.44367],[127.01251,37.4436]]}},{"type":"Feature","properties":{"class":"alley","highway":"service","sidewalk":"unknown","lanes":0,"name":"","oneway":true},"geometry":{"type":"LineString","coordinates":[[127.01157,37.44336],[127.01194,37.44355],[127.01206,37.44361],[127.01209,37.44363],[127.01223,37.44371],[127.01236,37.44373],[127.01242,37.44373],[127.01247,37.44371],[127.01256,37.44367]]}},{"type":"Feature","properties":{"class":"alley","highway":"service","sidewalk":"unknown","lanes":0,"name":"","oneway":true},"geometry":{"type":"LineString","coordinates":[[127.01176,37.4437],[127.01183,37.44365],[127.01193,37.44362],[127.01206,37.44361]]}},{"type":"Feature","properties":{"class":"minor","highway":"residential","sidewalk":"unknown","lanes":0,"name":"","oneway":false},"geometry":{"type":"LineString","coordinates":[[127.00889,37.43978],[127.00896,37.4398],[127.00928,37.43993],[127.00947,37.44009],[127.0096,37.44017],[127.00977,37.44028],[127.00984,37.44036],[127.00988,37.44046],[127.00991,37.4406],[127.00979,37.44093],[127.00965,37.44113],[127.0088,37.44165],[127.00875,37.44169]]}},{"type":"Feature","properties":{"class":"minor","highway":"residential","sidewalk":"unknown","lanes":0,"name":"","oneway":false},"geometry":{"type":"LineString","coordinates":[[127.00845,37.44168],[127.00833,37.44168],[127.00817,37.44167]]}},{"type":"Feature","properties":{"class":"minor","highway":"residential","sidewalk":"unknown","lanes":0,"name":"","oneway":false},"geometry":{"type":"LineString","coordinates":[[127.00875,37.44169],[127.00845,37.44168]]}},{"type":"Feature","properties":{"class":"alley","highway":"service","sidewalk":"unknown","lanes":0,"name":"","oneway":true},"geometry":{"type":"LineString","coordinates":[[127.00833,37.44168],[127.00832,37.44171],[127.00827,37.44244],[127.00823,37.4429],[127.00822,37.44299],[127.0082,37.443],[127.00805,37.443]]}},{"type":"Feature","properties":{"class":"alley","highway":"service","sidewalk":"unknown","lanes":0,"name":"","oneway":true},"geometry":{"type":"LineString","coordinates":[[127.00833,37.44168],[127.00833,37.44162],[127.00842,37.44053],[127.00847,37.43964]]}},{"type":"Feature","properties":{"class":"minor","highway":"residential","sidewalk":"unknown","lanes":0,"name":"","oneway":false},"geometry":{"type":"LineString","coordinates":[[127.00965,37.44113],[127.00989,37.44161],[127.00995,37.44192],[127.01013,37.44183],[127.01029,37.44172],[127.01029,37.4416],[127.01005,37.44104]]}},{"type":"Feature","properties":{"class":"minor","highway":"residential","sidewalk":"unknown","lanes":0,"name":"","oneway":false},"geometry":{"type":"LineString","coordinates":[[127.00991,37.4406],[127.01005,37.44076],[127.01014,37.44091],[127.01014,37.44096],[127.01011,37.441],[127.01005,37.44104],[127.00965,37.44113]]}},{"type":"Feature","properties":{"class":"alley","highway":"service","sidewalk":"unknown","lanes":0,"name":"","oneway":false},"geometry":{"type":"LineString","coordinates":[[127.0088,37.44165],[127.00881,37.44154],[127.00895,37.43986],[127.00896,37.4398]]}},{"type":"Feature","properties":{"class":"alley","highway":"service","sidewalk":"unknown","lanes":0,"name":"","oneway":false},"geometry":{"type":"LineString","coordinates":[[127.00788,37.4439],[127.00819,37.44394]]}},{"type":"Feature","properties":{"class":"alley","highway":"service","sidewalk":"unknown","lanes":0,"name":"","oneway":true},"geometry":{"type":"LineString","coordinates":[[127.00757,37.44],[127.00768,37.44002],[127.00771,37.44008],[127.00769,37.44094],[127.0075,37.44094],[127.00729,37.44094],[127.00707,37.44094],[127.00689,37.44093],[127.00668,37.44093],[127.00648,37.44093],[127.00628,37.44093],[127.00606,37.44093],[127.00587,37.44093]]}},{"type":"Feature","properties":{"class":"alley","highway":"service","sidewalk":"unknown","lanes":0,"name":"","oneway":true},"geometry":{"type":"LineString","coordinates":[[127.00587,37.44093],[127.00586,37.44057]]}},{"type":"Feature","properties":{"class":"alley","highway":"service","sidewalk":"unknown","lanes":0,"name":"","oneway":true},"geometry":{"type":"LineString","coordinates":[[127.0075,37.44094],[127.00749,37.44004]]}},{"type":"Feature","properties":{"class":"alley","highway":"service","sidewalk":"unknown","lanes":0,"name":"","oneway":true},"geometry":{"type":"LineString","coordinates":[[127.00728,37.44017],[127.00729,37.44094]]}},{"type":"Feature","properties":{"class":"alley","highway":"service","sidewalk":"unknown","lanes":0,"name":"","oneway":true},"geometry":{"type":"LineString","coordinates":[[127.00707,37.44094],[127.00709,37.44026]]}},{"type":"Feature","properties":{"class":"alley","highway":"service","sidewalk":"unknown","lanes":0,"name":"","oneway":true},"geometry":{"type":"LineString","coordinates":[[127.00688,37.44035],[127.00689,37.44093]]}},{"type":"Feature","properties":{"class":"alley","highway":"service","sidewalk":"unknown","lanes":0,"name":"","oneway":true},"geometry":{"type":"LineString","coordinates":[[127.00668,37.44093],[127.00668,37.44041]]}},{"type":"Feature","properties":{"class":"alley","highway":"service","sidewalk":"unknown","lanes":0,"name":"","oneway":true},"geometry":{"type":"LineString","coordinates":[[127.00647,37.44046],[127.00648,37.44093]]}},{"type":"Feature","properties":{"class":"alley","highway":"service","sidewalk":"unknown","lanes":0,"name":"","oneway":true},"geometry":{"type":"LineString","coordinates":[[127.00628,37.44093],[127.00626,37.4405]]}},{"type":"Feature","properties":{"class":"alley","highway":"service","sidewalk":"unknown","lanes":0,"name":"","oneway":true},"geometry":{"type":"LineString","coordinates":[[127.00607,37.44054],[127.00606,37.44093]]}},{"type":"Feature","properties":{"class":"alley","highway":"service","sidewalk":"unknown","lanes":0,"name":"","oneway":true},"geometry":{"type":"LineString","coordinates":[[127.00826,37.44044],[127.00801,37.44023],[127.00783,37.44007],[127.00781,37.44003],[127.00781,37.43998],[127.00784,37.43987],[127.00783,37.43975]]}},{"type":"Feature","properties":{"class":"major","highway":"tertiary","sidewalk":"likely","lanes":0,"name":"경마공원대로","oneway":false},"geometry":{"type":"LineString","coordinates":[[127.00826,37.44044],[127.00833,37.43962],[127.00836,37.43884]]}},{"type":"Feature","properties":{"class":"alley","highway":"pedestrian","sidewalk":"unknown","lanes":0,"name":"","oneway":false},"geometry":{"type":"LineString","coordinates":[[127.00846,37.44435],[127.00807,37.44431]]}},{"type":"Feature","properties":{"class":"minor","highway":"residential","sidewalk":"unknown","lanes":0,"name":"광창로","oneway":false},"geometry":{"type":"LineString","coordinates":[[127.00554,37.44843],[127.00566,37.44845],[127.00646,37.44839],[127.00706,37.44835],[127.00779,37.44837],[127.00817,37.44836],[127.00878,37.44829],[127.009,37.44829],[127.00945,37.44837],[127.00963,37.44842],[127.00994,37.44851],[127.01042,37.44856],[127.0111,37.44866],[127.01154,37.44881],[127.01192,37.44897],[127.01208,37.449]]}},{"type":"Feature","properties":{"class":"minor","highway":"residential","sidewalk":"unknown","lanes":0,"name":"광창로","oneway":false},"geometry":{"type":"LineString","coordinates":[[127.00515,37.44821],[127.00548,37.44836]]}},{"type":"Feature","properties":{"class":"minor","highway":"residential","sidewalk":"unknown","lanes":0,"name":"","oneway":false},"geometry":{"type":"LineString","coordinates":[[127.00637,37.45471],[127.00603,37.45507],[127.00596,37.45521],[127.00583,37.45535],[127.00573,37.45543],[127.00576,37.45554],[127.00574,37.45564],[127.00571,37.45569],[127.00566,37.4558],[127.00563,37.45592],[127.00558,37.456],[127.00549,37.45607],[127.0053,37.4562],[127.00522,37.45636],[127.00519,37.45651],[127.00513,37.45664],[127.00505,37.45677],[127.00497,37.4569],[127.00486,37.45701],[127.00482,37.45704],[127.00478,37.4571],[127.00476,37.45716],[127.00475,37.45723],[127.00475,37.4573],[127.00474,37.45737],[127.00467,37.45754],[127.00462,37.45765],[127.00457,37.45771],[127.00451,37.45775],[127.00445,37.4578],[127.00441,37.45786],[127.00438,37.45794],[127.00437,37.45811],[127.00438,37.45827],[127.00438,37.45834],[127.00438,37.45841],[127.00436,37.45847],[127.00433,37.45852]]}},{"type":"Feature","properties":{"class":"minor","highway":"residential","sidewalk":"unknown","lanes":0,"name":"","oneway":false},"geometry":{"type":"LineString","coordinates":[[127.00113,37.45518],[127.00175,37.45523]]}},{"type":"Feature","properties":{"class":"minor","highway":"residential","sidewalk":"unknown","lanes":0,"name":"광창1로","oneway":false},"geometry":{"type":"LineString","coordinates":[[127.009,37.44829],[127.00922,37.44799],[127.00925,37.44792],[127.00913,37.44756],[127.00907,37.44724],[127.00903,37.44692],[127.00872,37.44618],[127.00864,37.4459]]}},{"type":"Feature","properties":{"class":"minor","highway":"residential","sidewalk":"unknown","lanes":0,"name":"광창4로","oneway":false},"geometry":{"type":"LineString","coordinates":[[127.01042,37.44856],[127.01047,37.44838],[127.01048,37.44813],[127.01049,37.44799],[127.01057,37.4478],[127.0109,37.44719]]}},{"type":"Feature","properties":{"class":"alley","highway":"service","sidewalk":"unknown","lanes":0,"name":"","oneway":false},"geometry":{"type":"LineString","coordinates":[[127.01105,37.44917],[127.0113,37.4495],[127.0114,37.44945],[127.01116,37.44912],[127.01105,37.44917]]}},{"type":"Feature","properties":{"class":"alley","highway":"service","sidewalk":"unknown","lanes":0,"name":"","oneway":false},"geometry":{"type":"LineString","coordinates":[[127.01116,37.44912],[127.01118,37.44907],[127.0112,37.44903]]}},{"type":"Feature","properties":{"class":"alley","highway":"service","sidewalk":"unknown","lanes":0,"name":"","oneway":false},"geometry":{"type":"LineString","coordinates":[[127.0114,37.44945],[127.01142,37.44944],[127.01146,37.44944],[127.01149,37.44951],[127.01152,37.44954],[127.01155,37.44954],[127.01159,37.44954],[127.01164,37.44949],[127.01169,37.44945],[127.01174,37.44943],[127.01179,37.4494],[127.01186,37.44931],[127.01192,37.4492],[127.01195,37.4491],[127.01193,37.44903],[127.01192,37.44897]]}},{"type":"Feature","properties":{"class":"alley","highway":"service","sidewalk":"unknown","lanes":0,"name":"","oneway":false},"geometry":{"type":"LineString","coordinates":[[127.01146,37.45125],[127.01149,37.45112],[127.01152,37.45103],[127.01158,37.45092],[127.01169,37.45082],[127.01173,37.45077],[127.01179,37.45068],[127.01179,37.45062],[127.01175,37.45053]]}},{"type":"Feature","properties":{"class":"alley","highway":"service","sidewalk":"unknown","lanes":0,"name":"","oneway":false},"geometry":{"type":"LineString","coordinates":[[127.01152,37.44954],[127.01153,37.44961],[127.01153,37.44968],[127.01151,37.44975],[127.01147,37.44981],[127.0114,37.44986],[127.01131,37.44988],[127.01124,37.44991],[127.01118,37.44993],[127.01119,37.44997],[127.0112,37.45001],[127.01123,37.45012]]}},{"type":"Feature","properties":{"class":"alley","highway":"service","sidewalk":"unknown","lanes":0,"name":"","oneway":false},"geometry":{"type":"LineString","coordinates":[[127.00826,37.44999],[127.0086,37.44978],[127.00896,37.44961],[127.00929,37.44937],[127.00944,37.44927],[127.0096,37.44911],[127.00962,37.4486],[127.00963,37.44842]]}},{"type":"Feature","properties":{"class":"minor","highway":"unclassified","sidewalk":"unknown","lanes":0,"name":"","oneway":false},"geometry":{"type":"LineString","coordinates":[[127.01366,37.45104],[127.01358,37.45117],[127.01322,37.45099],[127.01275,37.4509]]}},{"type":"Feature","properties":{"class":"minor","highway":"unclassified","sidewalk":"unknown","lanes":0,"name":"","oneway":false},"geometry":{"type":"LineString","coordinates":[[127.00102,37.44795],[127.00137,37.448],[127.00169,37.44806],[127.00179,37.44808],[127.00243,37.44822],[127.00268,37.44828],[127.00277,37.44829],[127.00284,37.44829],[127.0029,37.44826],[127.00299,37.4482],[127.00317,37.44807],[127.00336,37.44797],[127.00357,37.44791],[127.00367,37.44789],[127.00373,37.44787]]}},{"type":"Feature","properties":{"class":"minor","highway":"unclassified","sidewalk":"unknown","lanes":0,"name":"","oneway":false},"geometry":{"type":"LineString","coordinates":[[127.00373,37.44787],[127.00387,37.44778],[127.00402,37.44768],[127.00419,37.44754],[127.00419,37.44754],[127.0044,37.4474],[127.00452,37.4473]]}},{"type":"Feature","properties":{"class":"minor","highway":"unclassified","sidewalk":"unknown","lanes":0,"name":"","oneway":false},"geometry":{"type":"LineString","coordinates":[[127.00419,37.44754],[127.00409,37.44741],[127.0039,37.44719],[127.00386,37.44714],[127.00385,37.4471],[127.00387,37.44705],[127.00406,37.44684]]}},{"type":"Feature","properties":{"class":"minor","highway":"residential","sidewalk":"unknown","lanes":0,"name":"","oneway":false},"geometry":{"type":"LineString","coordinates":[[127.00331,37.44454],[127.00346,37.44462],[127.00351,37.44467],[127.00356,37.44478],[127.00366,37.44504],[127.00376,37.4453],[127.00387,37.4456],[127.00391,37.44572]]}},{"type":"Feature","properties":{"class":"minor","highway":"unclassified","sidewalk":"unknown","lanes":0,"name":"","oneway":false},"geometry":{"type":"LineString","coordinates":[[127.00265,37.44445],[127.00275,37.44435],[127.0028,37.44429],[127.0028,37.44424],[127.00277,37.4442],[127.00277,37.44416],[127.0028,37.44411],[127.00294,37.444],[127.00298,37.44398],[127.00304,37.44399],[127.00312,37.44401]]}},{"type":"Feature","properties":{"class":"alley","highway":"pedestrian","sidewalk":"unknown","lanes":0,"name":"","oneway":false},"geometry":{"type":"LineString","coordinates":[[127.00011,37.44916],[127.00028,37.4492],[127.00104,37.44939],[127.00152,37.44952],[127.00217,37.44968],[127.00241,37.44975],[127.00268,37.44983],[127.00288,37.44992],[127.00301,37.45],[127.00314,37.45008],[127.00318,37.45013]]}},{"type":"Feature","properties":{"class":"alley","highway":"pedestrian","sidewalk":"unknown","lanes":0,"name":"","oneway":false},"geometry":{"type":"LineString","coordinates":[[127.00011,37.44916],[126.99997,37.4491],[126.99977,37.44898],[126.99954,37.44887],[126.99937,37.44875],[126.99916,37.44859],[126.99893,37.44839],[126.99877,37.44816],[126.99868,37.44812]]}},{"type":"Feature","properties":{"class":"alley","highway":"service","sidewalk":"unknown","lanes":0,"name":"","oneway":false},"geometry":{"type":"LineString","coordinates":[[127.00826,37.44999],[127.00804,37.44987],[127.00781,37.44979],[127.00764,37.44976],[127.00747,37.44971],[127.00721,37.44962],[127.00708,37.44946],[127.00697,37.44929],[127.00646,37.44839]]}},{"type":"Feature","properties":{"class":"minor","highway":"unclassified","sidewalk":"unknown","lanes":0,"name":"","oneway":false},"geometry":{"type":"LineString","coordinates":[[127.00758,37.45044],[127.00775,37.45061],[127.00789,37.4507],[127.00805,37.45076],[127.00819,37.45084],[127.00826,37.4509],[127.00834,37.45102]]}},{"type":"Feature","properties":{"class":"minor","highway":"unclassified","sidewalk":"unknown","lanes":0,"name":"","oneway":false},"geometry":{"type":"LineString","coordinates":[[127.00573,37.45543],[127.00547,37.45554],[127.00531,37.45561]]}},{"type":"Feature","properties":{"class":"minor","highway":"residential","sidewalk":"unknown","lanes":0,"name":"","oneway":false},"geometry":{"type":"LineString","coordinates":[[127.00588,37.45441],[127.00563,37.45447],[127.00554,37.45454],[127.00549,37.45462],[127.00547,37.45474],[127.00544,37.45493],[127.00545,37.45496]]}},{"type":"Feature","properties":{"class":"alley","highway":"service","sidewalk":"unknown","lanes":0,"name":"","oneway":false},"geometry":{"type":"LineString","coordinates":[[127.00918,37.44409],[127.00916,37.44421],[127.00909,37.44449]]}},{"type":"Feature","properties":{"class":"alley","highway":"service","sidewalk":"unknown","lanes":0,"name":"","oneway":false},"geometry":{"type":"LineString","coordinates":[[127.00819,37.44394],[127.00861,37.444]]}},{"type":"Feature","properties":{"class":"alley","highway":"pedestrian","sidewalk":"unknown","lanes":0,"name":"","oneway":false},"geometry":{"type":"LineString","coordinates":[[127.00807,37.44431],[127.00791,37.4443]]}},{"type":"Feature","properties":{"class":"major","highway":"primary","sidewalk":"likely","lanes":0,"name":"중앙로","oneway":true},"geometry":{"type":"LineString","coordinates":[[127.00187,37.45256],[127.00168,37.45248]]}},{"type":"Feature","properties":{"class":"major","highway":"primary","sidewalk":"likely","lanes":0,"name":"중앙로","oneway":true},"geometry":{"type":"LineString","coordinates":[[127.00637,37.45471],[127.00613,37.45458],[127.00588,37.45441],[127.0046,37.45351],[127.00433,37.45334],[127.00391,37.45316],[127.00365,37.45306],[127.0032,37.45295],[127.00284,37.45286],[127.00217,37.45267],[127.00211,37.45265],[127.00187,37.45256]]}},{"type":"Feature","properties":{"class":"minor","highway":"residential","sidewalk":"unknown","lanes":0,"name":"광창로","oneway":false},"geometry":{"type":"LineString","coordinates":[[127.0049,37.44813],[127.00507,37.44821]]}},{"type":"Feature","properties":{"class":"major","highway":"tertiary","sidewalk":"likely","lanes":0,"name":"경마공원대로","oneway":false},"geometry":{"type":"LineString","coordinates":[[127.00361,37.4499],[127.00479,37.44828],[127.0049,37.44813]]}},{"type":"Feature","properties":{"class":"minor","highway":"residential","sidewalk":"unknown","lanes":1,"name":"광창로","oneway":true},"geometry":{"type":"LineString","coordinates":[[127.00543,37.44844],[127.0051,37.44829]]}},{"type":"Feature","properties":{"class":"minor","highway":"residential","sidewalk":"unknown","lanes":1,"name":"광창로","oneway":true},"geometry":{"type":"LineString","coordinates":[[127.0051,37.44829],[127.00507,37.44821]]}},{"type":"Feature","properties":{"class":"minor","highway":"residential","sidewalk":"unknown","lanes":0,"name":"광창로","oneway":false},"geometry":{"type":"LineString","coordinates":[[127.00548,37.44836],[127.00554,37.44843]]}},{"type":"Feature","properties":{"class":"minor","highway":"residential","sidewalk":"unknown","lanes":0,"name":"광창로","oneway":false},"geometry":{"type":"LineString","coordinates":[[127.00507,37.44821],[127.00515,37.44821]]}},{"type":"Feature","properties":{"class":"minor","highway":"residential","sidewalk":"unknown","lanes":1,"name":"광창로","oneway":true},"geometry":{"type":"LineString","coordinates":[[127.00554,37.44843],[127.00543,37.44844]]}},{"type":"Feature","properties":{"class":"major","highway":"primary","sidewalk":"likely","lanes":0,"name":"중앙로","oneway":true},"geometry":{"type":"LineString","coordinates":[[126.99715,37.44805],[126.99793,37.44846],[126.99826,37.44864],[126.99847,37.44879],[126.99866,37.44895],[126.99877,37.44907],[126.99906,37.44948],[126.99935,37.44988],[127.0001,37.45078],[127.00097,37.45173]]}},{"type":"Feature","properties":{"class":"minor","highway":"residential","sidewalk":"unknown","lanes":0,"name":"","oneway":false},"geometry":{"type":"LineString","coordinates":[[127.00105,37.45416],[127.0012,37.45337]]}}]}