{"type":"FeatureCollection","features":[{"type":"Feature","properties":{"class":"major","highway":"motorway","sidewalk":"likely","lanes":5,"name":"경부고속도로","oneway":true},"geometry":{"type":"LineString","coordinates":[[127.04046,37.46278],[127.0418,37.46134],[127.0439,37.45911],[127.04465,37.45831],[127.0448,37.45814],[127.04545,37.45746],[127.04758,37.45525],[127.04909,37.45361],[127.05118,37.45131],[127.05197,37.45042],[127.05293,37.44935],[127.05373,37.44848],[127.05456,37.44758],[127.05547,37.44654],[127.05596,37.44597],[127.05641,37.44543],[127.0569,37.44483],[127.05733,37.44425],[127.05823,37.44299],[127.05917,37.44164],[127.06004,37.44047],[127.06082,37.43935],[127.0613,37.43876],[127.06202,37.438],[127.06275,37.43727],[127.06393,37.43606],[127.06515,37.43481],[127.06699,37.43302],[127.06756,37.43246],[127.06946,37.43058],[127.07029,37.42977],[127.0708,37.42927],[127.07111,37.42897]]}},{"type":"Feature","properties":{"class":"major","highway":"motorway","sidewalk":"likely","lanes":5,"name":"경부고속도로","oneway":true},"geometry":{"type":"LineString","coordinates":[[127.07118,37.42915],[127.06961,37.43068],[127.0674,37.4329],[127.06537,37.43493],[127.06375,37.43654],[127.06258,37.4377],[127.06216,37.43813],[127.06132,37.43909],[127.06093,37.43959],[127.06019,37.44061],[127.05932,37.44179],[127.05845,37.44302],[127.05755,37.44425],[127.05708,37.44492],[127.05672,37.44536],[127.0555,37.44681],[127.05409,37.44838],[127.05355,37.44898],[127.05286,37.44975],[127.05216,37.45053],[127.04859,37.45457],[127.04565,37.45761],[127.04477,37.45855],[127.04424,37.45907],[127.04335,37.46001],[127.04291,37.46055],[127.0418,37.46172]]}},{"type":"Feature","properties":{"class":"major","highway":"secondary","sidewalk":"likely","lanes":0,"name":"청계산지하차도","oneway":true},"geometry":{"type":"LineString","coordinates":[[127.04,37.45818],[127.03976,37.45822],[127.03958,37.45826],[127.03939,37.45831],[127.03933,37.45834],[127.03916,37.4584],[127.03913,37.45843],[127.03891,37.45857]]}},{"type":"Feature","properties":{"class":"alley","highway":"service","sidewalk":"unknown","lanes":0,"name":"","oneway":true},"geometry":{"type":"LineString","coordinates":[[127.04214,37.46076],[127.04208,37.46049],[127.04275,37.45977]]}},{"type":"Feature","properties":{"class":"alley","highway":"service","sidewalk":"unknown","lanes":0,"name":"","oneway":true},"geometry":{"type":"LineString","coordinates":[[127.04214,37.46076],[127.04217,37.46067],[127.04289,37.45983],[127.04312,37.45964]]}},{"type":"Feature","properties":{"class":"alley","highway":"service","sidewalk":"unknown","lanes":0,"name":"","oneway":true},"geometry":{"type":"LineString","coordinates":[[127.04101,37.46116],[127.04128,37.46097],[127.04153,37.4608],[127.0417,37.46063],[127.04245,37.45982],[127.04275,37.45977],[127.04312,37.45964]]}},{"type":"Feature","properties":{"class":"minor","highway":"residential","sidewalk":"unknown","lanes":0,"name":"청계산로","oneway":false},"geometry":{"type":"LineString","coordinates":[[127.04792,37.45728],[127.04735,37.45695],[127.04726,37.45691],[127.04691,37.45675]]}},{"type":"Feature","properties":{"class":"minor","highway":"residential","sidewalk":"unknown","lanes":0,"name":"개나리골 연결통로","oneway":false},"geometry":{"type":"LineString","coordinates":[[127.04691,37.45675],[127.04623,37.45638]]}},{"type":"Feature","properties":{"class":"minor","highway":"residential","sidewalk":"unknown","lanes":0,"name":"","oneway":false},"geometry":{"type":"LineString","coordinates":[[127.04623,37.45638],[127.04476,37.45791],[127.04412,37.45851]]}},{"type":"Feature","properties":{"class":"major","highway":"motorway_link","sidewalk":"likely","lanes":0,"name":"","oneway":true},"geometry":{"type":"LineString","coordinates":[[127.04245,37.45982],[127.04242,37.45966],[127.04247,37.45958],[127.04251,37.45954],[127.04258,37.45951],[127.04267,37.45947],[127.04343,37.45921],[127.04351,37.4592],[127.04361,37.4592]]}},{"type":"Feature","properties":{"class":"major","highway":"motorway_link","sidewalk":"likely","lanes":0,"name":"","oneway":true},"geometry":{"type":"LineString","coordinates":[[127.0441,37.45949],[127.04412,37.45951],[127.04411,37.45954],[127.04409,37.45958],[127.04333,37.46032],[127.04291,37.46055]]}},{"type":"Feature","properties":{"class":"major","highway":"motorway_link","sidewalk":"likely","lanes":0,"name":"","oneway":true},"geometry":{"type":"LineString","coordinates":[[127.04361,37.4592],[127.04367,37.45921],[127.04373,37.45923],[127.04398,37.45939],[127.04401,37.45941],[127.0441,37.45949]]}},{"type":"Feature","properties":{"class":"alley","highway":"service","sidewalk":"unknown","lanes":0,"name":"헌화터널","oneway":false},"geometry":{"type":"LineString","coordinates":[[127.03993,37.45715],[127.04079,37.45602],[127.04153,37.45515],[127.04186,37.45486],[127.04206,37.45472],[127.04229,37.45459]]}},{"type":"Feature","properties":{"class":"alley","highway":"service","sidewalk":"unknown","lanes":0,"name":"","oneway":false},"geometry":{"type":"LineString","coordinates":[[127.04229,37.45459],[127.04262,37.45441],[127.04271,37.45435],[127.04277,37.45429],[127.04288,37.45418],[127.04298,37.45404],[127.04305,37.45391]]}},{"type":"Feature","properties":{"class":"major","highway":"primary_link","sidewalk":"likely","lanes":0,"name":"","oneway":true},"geometry":{"type":"LineString","coordinates":[[127.05019,37.45942],[127.05109,37.45973],[127.05192,37.46003],[127.05202,37.46007],[127.0521,37.46008],[127.05219,37.46009],[127.05231,37.4601],[127.05243,37.46009],[127.05276,37.46008]]}},{"type":"Feature","properties":{"class":"major","highway":"primary_link","sidewalk":"likely","lanes":0,"name":"","oneway":true},"geometry":{"type":"LineString","coordinates":[[127.05629,37.45877],[127.05603,37.459],[127.05585,37.45914],[127.05573,37.45922],[127.05564,37.45931],[127.05558,37.45938],[127.05553,37.45945],[127.05545,37.45956],[127.05538,37.45971],[127.05534,37.45984],[127.05531,37.45997],[127.05526,37.46025],[127.05525,37.46037],[127.05522,37.46049],[127.05516,37.46066],[127.05511,37.46074],[127.05503,37.46082],[127.0549,37.46091],[127.05483,37.46095],[127.05474,37.461]]}},{"type":"Feature","properties":{"class":"major","highway":"primary_link","sidewalk":"likely","lanes":0,"name":"","oneway":true},"geometry":{"type":"LineString","coordinates":[[127.05019,37.45942],[127.05122,37.4597],[127.05194,37.45997]]}},{"type":"Feature","properties":{"class":"major","highway":"primary_link","sidewalk":"likely","lanes":0,"name":"","oneway":true},"geometry":{"type":"LineString","coordinates":[[127.05194,37.45997],[127.05332,37.46053],[127.0536,37.46062],[127.05392,37.4607],[127.05416,37.46072],[127.0544,37.46073],[127.05457,37.4607]]}},{"type":"Feature","properties":{"class":"major","highway":"primary_link","sidewalk":"likely","lanes":0,"name":"","oneway":true},"geometry":{"type":"LineString","coordinates":[[127.05457,37.4607],[127.05476,37.46064],[127.05484,37.46061],[127.05492,37.46055],[127.05499,37.46048],[127.05504,37.4604],[127.05509,37.46029],[127.05509,37.46017],[127.05506,37.46005],[127.05499,37.45995],[127.05491,37.45989],[127.05481,37.4598],[127.05469,37.45975],[127.05455,37.45973],[127.05443,37.45973],[127.05434,37.45974],[127.0542,37.45976],[127.05394,37.45979]]}},{"type":"Feature","properties":{"class":"major","highway":"primary_link","sidewalk":"likely","lanes":0,"name":"","oneway":true},"geometry":{"type":"LineString","coordinates":[[127.0509,37.46087],[127.05101,37.46069],[127.05113,37.46055],[127.05116,37.46041],[127.05116,37.46028],[127.05111,37.46016],[127.05099,37.46001],[127.05083,37.4599],[127.05061,37.45976]]}},{"type":"Feature","properties":{"class":"major","highway":"primary_link","sidewalk":"likely","lanes":0,"name":"","oneway":true},"geometry":{"type":"LineString","coordinates":[[127.05178,37.46024],[127.05131,37.46006],[127.05084,37.45985],[127.05061,37.45976]]}},{"type":"Feature","properties":{"class":"major","highway":"secondary_link","sidewalk":"likely","lanes":0,"name":"","oneway":true},"geometry":{"type":"LineString","coordinates":[[127.04231,37.45841],[127.04202,37.45846],[127.04184,37.45849],[127.04159,37.45852],[127.04139,37.45851]]}},{"type":"Feature","properties":{"class":"major","highway":"secondary_link","sidewalk":"likely","lanes":0,"name":"","oneway":true},"geometry":{"type":"LineString","coordinates":[[127.04139,37.45851],[127.0399,37.45843],[127.03982,37.45841],[127.0397,37.45836],[127.03965,37.45835],[127.03954,37.45839]]}},{"type":"Feature","properties":{"class":"major","highway":"secondary","sidewalk":"likely","lanes":0,"name":"양재대로12길","oneway":true},"geometry":{"type":"LineString","coordinates":[[127.04906,37.45919],[127.04832,37.45898]]}},{"type":"Feature","properties":{"class":"major","highway":"motorway_link","sidewalk":"likely","lanes":0,"name":"","oneway":true},"geometry":{"type":"LineString","coordinates":[[127.04504,37.45857],[127.04488,37.45886],[127.04487,37.459],[127.04489,37.45912],[127.04496,37.45923],[127.04504,37.45932],[127.04512,37.45939],[127.04523,37.45944],[127.04535,37.45948],[127.04548,37.45949],[127.04561,37.45949],[127.04572,37.45947],[127.04588,37.4594],[127.04605,37.45926],[127.04611,37.45908],[127.04608,37.45892],[127.046,37.45878],[127.04589,37.45869],[127.04569,37.45859],[127.0456,37.45855]]}},{"type":"Feature","properties":{"class":"major","highway":"secondary","sidewalk":"likely","lanes":0,"name":"신원지하차도","oneway":true},"geometry":{"type":"LineString","coordinates":[[127.04622,37.45857],[127.0456,37.45855],[127.04324,37.45837]]}},{"type":"Feature","properties":{"class":"major","highway":"secondary","sidewalk":"likely","lanes":0,"name":"양재대로12길","oneway":true},"geometry":{"type":"LineString","coordinates":[[127.0473,37.45866],[127.04839,37.4589]]}},{"type":"Feature","properties":{"class":"major","highway":"secondary","sidewalk":"likely","lanes":0,"name":"신원지하차도","oneway":true},"geometry":{"type":"LineString","coordinates":[[127.04325,37.45831],[127.04624,37.45849]]}},{"type":"Feature","properties":{"class":"major","highway":"secondary","sidewalk":"likely","lanes":0,"name":"양재대로12길","oneway":true},"geometry":{"type":"LineString","coordinates":[[127.04324,37.45837],[127.04268,37.45833],[127.04201,37.45829],[127.04056,37.45819],[127.0403,37.45818],[127.04,37.45818]]}},{"type":"Feature","properties":{"class":"major","highway":"motorway_link","sidewalk":"likely","lanes":0,"name":"","oneway":true},"geometry":{"type":"LineString","coordinates":[[127.04672,37.45676],[127.04633,37.45722],[127.04617,37.4575],[127.04609,37.45764],[127.04608,37.45779],[127.0461,37.45798],[127.04615,37.45809],[127.04622,37.45819],[127.04633,37.45828],[127.04645,37.45836],[127.04661,37.45843],[127.04682,37.45849],[127.04704,37.45854]]}},{"type":"Feature","properties":{"class":"major","highway":"secondary","sidewalk":"likely","lanes":0,"name":"청계산로","oneway":false},"geometry":{"type":"LineString","coordinates":[[127.04706,37.45888],[127.04706,37.45889],[127.04675,37.45972],[127.0464,37.46066],[127.04628,37.46101],[127.04623,37.46116],[127.04621,37.46121]]}},{"type":"Feature","properties":{"class":"major","highway":"secondary","sidewalk":"likely","lanes":0,"name":"청계산로","oneway":false},"geometry":{"type":"LineString","coordinates":[[127.04723,37.45848],[127.04706,37.45888]]}},{"type":"Feature","properties":{"class":"major","highway":"secondary","sidewalk":"likely","lanes":0,"name":"양재대로12길","oneway":true},"geometry":{"type":"LineString","coordinates":[[127.04832,37.45898],[127.04728,37.45873]]}},{"type":"Feature","properties":{"class":"major","highway":"secondary","sidewalk":"likely","lanes":0,"name":"양재대로12길","oneway":true},"geometry":{"type":"LineString","coordinates":[[127.04914,37.45911],[127.04955,37.45923],[127.05019,37.45942]]}},{"type":"Feature","properties":{"class":"major","highway":"secondary","sidewalk":"likely","lanes":0,"name":"양재대로12길","oneway":true},"geometry":{"type":"LineString","coordinates":[[127.04839,37.4589],[127.04914,37.45911]]}},{"type":"Feature","properties":{"class":"major","highway":"secondary","sidewalk":"likely","lanes":0,"name":"","oneway":true},"geometry":{"type":"LineString","coordinates":[[127.03999,37.45811],[127.04027,37.45809],[127.04064,37.45811],[127.04247,37.45824],[127.04325,37.45831]]}},{"type":"Feature","properties":{"class":"minor","highway":"residential","sidewalk":"unknown","lanes":0,"name":"본마을길","oneway":false},"geometry":{"type":"LineString","coordinates":[[127.05626,37.4517],[127.05625,37.45183],[127.05621,37.45195],[127.05617,37.45205],[127.05603,37.45224],[127.05571,37.45256],[127.05547,37.45279],[127.05544,37.45283],[127.05506,37.45334],[127.05478,37.45359],[127.05461,37.45371],[127.05427,37.4539],[127.0542,37.45393],[127.05372,37.4541],[127.05319,37.45439],[127.05276,37.45464]]}},{"type":"Feature","properties":{"class":"minor","highway":"residential","sidewalk":"unknown","lanes":0,"name":"","oneway":false},"geometry":{"type":"LineString","coordinates":[[127.05274,37.45457],[127.05262,37.45434]]}},{"type":"Feature","properties":{"class":"minor","highway":"residential","sidewalk":"unknown","lanes":0,"name":"본마을2길","oneway":false},"geometry":{"type":"LineString","coordinates":[[127.05319,37.45439],[127.05341,37.45461],[127.05346,37.45464],[127.05381,37.45466],[127.05394,37.45463],[127.05419,37.45456],[127.05447,37.45435]]}},{"type":"Feature","properties":{"class":"minor","highway":"residential","sidewalk":"unknown","lanes":0,"name":"헌릉로8길","oneway":false},"geometry":{"type":"LineString","coordinates":[[127.05912,37.45615],[127.05905,37.45613],[127.05881,37.45605]]}},{"type":"Feature","properties":{"class":"minor","highway":"residential","sidewalk":"unknown","lanes":0,"name":"헌릉로8길","oneway":false},"geometry":{"type":"LineString","coordinates":[[127.05771,37.45556],[127.05754,37.45551],[127.05719,37.45548],[127.05651,37.45545],[127.05581,37.4554],[127.05562,37.4554]]}},{"type":"Feature","properties":{"class":"minor","highway":"residential","sidewalk":"unknown","lanes":0,"name":"본마을2길","oneway":false},"geometry":{"type":"LineString","coordinates":[[127.05562,37.4554],[127.05516,37.45539],[127.05476,37.45539],[127.05459,37.45539],[127.05443,37.4554],[127.05432,37.45543],[127.05427,37.45544]]}},{"type":"Feature","properties":{"class":"minor","highway":"residential","sidewalk":"unknown","lanes":0,"name":"본마을2길","oneway":false},"geometry":{"type":"LineString","coordinates":[[127.05413,37.45513],[127.0541,37.45507],[127.05406,37.45499],[127.05394,37.45463]]}},{"type":"Feature","properties":{"class":"minor","highway":"residential","sidewalk":"unknown","lanes":0,"name":"본마을1길","oneway":false},"geometry":{"type":"LineString","coordinates":[[127.05406,37.45499],[127.05392,37.45499],[127.05364,37.45504],[127.0534,37.45506],[127.05335,37.45505],[127.05306,37.45504],[127.05301,37.455],[127.05289,37.4549],[127.05285,37.45483],[127.05277,37.45468],[127.05276,37.45464]]}},{"type":"Feature","properties":{"class":"minor","highway":"residential","sidewalk":"unknown","lanes":0,"name":"탑성말길","oneway":false},"geometry":{"type":"LineString","coordinates":[[127.05606,37.45886],[127.05597,37.45872]]}},{"type":"Feature","properties":{"class":"major","highway":"motorway_link","sidewalk":"likely","lanes":0,"name":"","oneway":true},"geometry":{"type":"LineString","coordinates":[[127.04859,37.45457],[127.04815,37.45516],[127.04688,37.45659],[127.04672,37.45676]]}},{"type":"Feature","properties":{"class":"minor","highway":"residential","sidewalk":"unknown","lanes":0,"name":"","oneway":false},"geometry":{"type":"LineString","coordinates":[[127.03944,37.45846],[127.03951,37.45858],[127.03966,37.45872],[127.04035,37.45939]]}},{"type":"Feature","properties":{"class":"major","highway":"secondary_link","sidewalk":"likely","lanes":0,"name":"","oneway":true},"geometry":{"type":"LineString","coordinates":[[127.03947,37.45819],[127.03954,37.45821],[127.03957,37.4582],[127.03962,37.45819],[127.03968,37.45817],[127.03972,37.45814],[127.0398,37.45807],[127.0399,37.45804],[127.03994,37.45803],[127.04012,37.45802],[127.04049,37.45803],[127.04177,37.45812],[127.04247,37.45824]]}},{"type":"Feature","properties":{"class":"minor","highway":"residential","sidewalk":"unknown","lanes":0,"name":"","oneway":true},"geometry":{"type":"LineString","coordinates":[[127.03966,37.45872],[127.04037,37.45861],[127.04051,37.4586],[127.04064,37.45861],[127.04079,37.45864],[127.04091,37.45869],[127.041,37.45875],[127.04128,37.45905],[127.0416,37.45938],[127.04164,37.45943],[127.04175,37.45949],[127.04184,37.45952],[127.04193,37.45952],[127.04202,37.45949],[127.04216,37.4594],[127.04235,37.45926],[127.0426,37.45916],[127.04308,37.45904],[127.04349,37.45893],[127.04363,37.45887],[127.04389,37.45873],[127.0441,37.45852],[127.04412,37.45851]]}},{"type":"Feature","properties":{"class":"alley","highway":"service","sidewalk":"unknown","lanes":0,"name":"","oneway":false},"geometry":{"type":"LineString","coordinates":[[127.04288,37.45418],[127.04313,37.4543],[127.04314,37.45432],[127.04315,37.45434],[127.04316,37.45447],[127.04314,37.45451],[127.04311,37.45453],[127.04289,37.45462],[127.04276,37.45473],[127.04265,37.45485]]}},{"type":"Feature","properties":{"class":"major","highway":"secondary","sidewalk":"likely","lanes":0,"name":"청계산로","oneway":false},"geometry":{"type":"LineString","coordinates":[[127.05139,37.45314],[127.05105,37.4539],[127.0507,37.45454],[127.05051,37.45489],[127.05042,37.455],[127.04999,37.45539],[127.04983,37.45554],[127.04945,37.45588],[127.04917,37.45613],[127.04797,37.45722],[127.04792,37.45728],[127.04775,37.45748],[127.04759,37.4577],[127.0475,37.45784],[127.04723,37.45848]]}},{"type":"Feature","properties":{"class":"minor","highway":"residential","sidewalk":"unknown","lanes":0,"name":"청계산로9길","oneway":false},"geometry":{"type":"LineString","coordinates":[[127.05871,37.45289],[127.05881,37.45323],[127.05984,37.45406],[127.06023,37.45439],[127.06032,37.4545],[127.06036,37.45455]]}},{"type":"Feature","properties":{"class":"major","highway":"secondary","sidewalk":"likely","lanes":0,"name":"양재대로12길","oneway":true},"geometry":{"type":"LineString","coordinates":[[127.05061,37.45976],[127.0495,37.45934],[127.04906,37.45919]]}},{"type":"Feature","properties":{"class":"major","highway":"primary","sidewalk":"likely","lanes":0,"name":"헌릉로","oneway":true},"geometry":{"type":"LineString","coordinates":[[127.06495,37.45541],[127.0647,37.45542],[127.06457,37.45545],[127.06434,37.45548],[127.06409,37.45553],[127.06383,37.4556],[127.06372,37.45563],[127.06359,37.45568],[127.0628,37.456],[127.06226,37.45618],[127.06191,37.45633],[127.06077,37.45684],[127.05967,37.45731]]}},{"type":"Feature","properties":{"class":"major","highway":"primary","sidewalk":"likely","lanes":0,"name":"헌릉로","oneway":true},"geometry":{"type":"LineString","coordinates":[[127.05967,37.45731],[127.05941,37.45747],[127.05808,37.45802],[127.05729,37.45837]]}},{"type":"Feature","properties":{"class":"major","highway":"primary","sidewalk":"likely","lanes":0,"name":"헌릉로","oneway":true},"geometry":{"type":"LineString","coordinates":[[127.05597,37.45872],[127.05685,37.45833],[127.05747,37.45808],[127.05798,37.45782],[127.05926,37.45727],[127.0596,37.45717]]}},{"type":"Feature","properties":{"class":"minor","highway":"residential","sidewalk":"unknown","lanes":0,"name":"탑성말길","oneway":false},"geometry":{"type":"LineString","coordinates":[[127.05597,37.45872],[127.05595,37.45855],[127.05596,37.45849],[127.05609,37.45842],[127.05638,37.45831],[127.05647,37.45823],[127.05662,37.45797],[127.05667,37.45788],[127.05682,37.45775],[127.05686,37.45773],[127.0573,37.45748],[127.05794,37.45711],[127.05828,37.45688],[127.0584,37.45675],[127.05852,37.45659],[127.05881,37.45605]]}},{"type":"Feature","properties":{"class":"minor","highway":"residential","sidewalk":"unknown","lanes":0,"name":"헌릉로8길","oneway":false},"geometry":{"type":"LineString","coordinates":[[127.05967,37.45731],[127.0596,37.45717]]}},{"type":"Feature","properties":{"class":"minor","highway":"residential","sidewalk":"unknown","lanes":0,"name":"헌릉로8길","oneway":false},"geometry":{"type":"LineString","coordinates":[[127.05924,37.45586],[127.05953,37.45516],[127.05966,37.45503],[127.05987,37.4549],[127.06011,37.45479],[127.06029,37.45472]]}},{"type":"Feature","properties":{"class":"minor","highway":"residential","sidewalk":"unknown","lanes":0,"name":"헌릉로8길","oneway":false},"geometry":{"type":"LineString","coordinates":[[127.05881,37.45605],[127.0585,37.45593],[127.05792,37.45565],[127.05771,37.45556]]}},{"type":"Feature","properties":{"class":"major","highway":"primary","sidewalk":"likely","lanes":0,"name":"헌릉로","oneway":true},"geometry":{"type":"LineString","coordinates":[[127.05606,37.45886],[127.05394,37.45979],[127.052,37.4606],[127.05141,37.4609],[127.05013,37.46142]]}},{"type":"Feature","properties":{"class":"major","highway":"secondary_link","sidewalk":"likely","lanes":0,"name":"","oneway":true},"geometry":{"type":"LineString","coordinates":[[127.0398,37.45807],[127.03983,37.45802],[127.03988,37.45799],[127.03999,37.45797],[127.04058,37.45797],[127.04163,37.45804],[127.04329,37.45823],[127.04333,37.45828],[127.04333,37.45835],[127.04332,37.45841],[127.0433,37.45843],[127.04327,37.45846],[127.04319,37.45847],[127.04187,37.45845],[127.04005,37.45836],[127.03989,37.45838],[127.03982,37.45838],[127.0397,37.45836]]}},{"type":"Feature","properties":{"class":"minor","highway":"residential","sidewalk":"unknown","lanes":0,"name":"탑성말1길","oneway":false},"geometry":{"type":"LineString","coordinates":[[127.05686,37.45773],[127.05676,37.45757],[127.05647,37.45715]]}},{"type":"Feature","properties":{"class":"minor","highway":"residential","sidewalk":"unknown","lanes":0,"name":"탑성말1길","oneway":false},"geometry":{"type":"LineString","coordinates":[[127.05676,37.45757],[127.0563,37.45776],[127.05582,37.45796],[127.05545,37.45811]]}},{"type":"Feature","properties":{"class":"minor","highway":"residential","sidewalk":"unknown","lanes":0,"name":"탑성말1길","oneway":false},"geometry":{"type":"LineString","coordinates":[[127.05561,37.45766],[127.05582,37.45796]]}},{"type":"Feature","properties":{"class":"minor","highway":"residential","sidewalk":"unknown","lanes":0,"name":"탑성말1길","oneway":false},"geometry":{"type":"LineString","coordinates":[[127.05602,37.45735],[127.0563,37.45776]]}},{"type":"Feature","properties":{"class":"minor","highway":"residential","sidewalk":"unknown","lanes":0,"name":"탑성말길","oneway":false},"geometry":{"type":"LineString","coordinates":[[127.0569,37.45694],[127.0573,37.45748]]}},{"type":"Feature","properties":{"class":"minor","highway":"residential","sidewalk":"unknown","lanes":0,"name":"","oneway":false},"geometry":{"type":"LineString","coordinates":[[127.05214,37.45589],[127.05208,37.45594],[127.05205,37.456],[127.05201,37.45608],[127.05194,37.45624],[127.05185,37.45638],[127.05174,37.45648],[127.05148,37.45672],[127.05124,37.45688],[127.051,37.45706],[127.05073,37.45725],[127.05049,37.45745]]}},{"type":"Feature","properties":{"class":"alley","highway":"service","sidewalk":"unknown","lanes":0,"name":"헌릉로","oneway":false},"geometry":{"type":"LineString","coordinates":[[127.0498,37.45965],[127.04993,37.45983],[127.05,37.46001],[127.05002,37.46017],[127.05006,37.46025],[127.05015,37.46033],[127.0502,37.46038],[127.05015,37.46052],[127.05012,37.46062],[127.05012,37.4607],[127.05013,37.46079],[127.0501,37.46087],[127.05002,37.46097],[127.04995,37.46116]]}},{"type":"Feature","properties":{"class":"alley","highway":"service","sidewalk":"unknown","lanes":0,"name":"헌릉로","oneway":false},"geometry":{"type":"LineString","coordinates":[[127.04894,37.46055],[127.04892,37.45952]]}},{"type":"Feature","properties":{"class":"alley","highway":"service","sidewalk":"unknown","lanes":0,"name":"","oneway":false},"geometry":{"type":"LineString","coordinates":[[127.04922,37.45898],[127.05001,37.45922],[127.05096,37.45953],[127.05141,37.45968],[127.05166,37.45979]]}},{"type":"Feature","properties":{"class":"minor","highway":"residential","sidewalk":"unknown","lanes":0,"name":"","oneway":false},"geometry":{"type":"LineString","coordinates":[[127.04947,37.45865],[127.04895,37.4584]]}},{"type":"Feature","properties":{"class":"minor","highway":"residential","sidewalk":"unknown","lanes":0,"name":"본마을길","oneway":false},"geometry":{"type":"LineString","coordinates":[[127.05216,37.4552],[127.05219,37.45511],[127.05225,37.45504],[127.05245,37.45486],[127.05261,37.45474],[127.05271,37.45467],[127.05276,37.45464]]}},{"type":"Feature","properties":{"class":"minor","highway":"residential","sidewalk":"unknown","lanes":0,"name":"새원4길","oneway":false},"geometry":{"type":"LineString","coordinates":[[127.04983,37.45554],[127.04975,37.45545],[127.04957,37.45526],[127.04948,37.45509],[127.04944,37.45497],[127.04947,37.45487],[127.04967,37.45455],[127.04989,37.45424]]}},{"type":"Feature","properties":{"class":"minor","highway":"residential","sidewalk":"unknown","lanes":0,"name":"새원길","oneway":false},"geometry":{"type":"LineString","coordinates":[[127.04936,37.45397],[127.04989,37.45424],[127.05036,37.45441],[127.0507,37.45454]]}},{"type":"Feature","properties":{"class":"alley","highway":"service","sidewalk":"unknown","lanes":0,"name":"","oneway":false},"geometry":{"type":"LineString","coordinates":[[127.05737,37.45852],[127.05729,37.45837]]}},{"type":"Feature","properties":{"class":"major","highway":"primary","sidewalk":"likely","lanes":0,"name":"헌릉로","oneway":true},"geometry":{"type":"LineString","coordinates":[[127.05729,37.45837],[127.05718,37.45839],[127.05629,37.45877],[127.05606,37.45886]]}},{"type":"Feature","properties":{"class":"minor","highway":"residential","sidewalk":"unknown","lanes":0,"name":"본마을길","oneway":false},"geometry":{"type":"LineString","coordinates":[[127.05276,37.45464],[127.05274,37.45457]]}},{"type":"Feature","properties":{"class":"alley","highway":"service","sidewalk":"unknown","lanes":0,"name":"청계산로","oneway":false},"geometry":{"type":"LineString","coordinates":[[127.04623,37.45638],[127.04595,37.45624],[127.04568,37.456],[127.04557,37.45589],[127.04543,37.45581],[127.04513,37.45546],[127.04495,37.45517],[127.04472,37.45492],[127.04443,37.4548],[127.04414,37.45462],[127.044,37.45446],[127.04389,37.4543],[127.04383,37.45409],[127.04385,37.45353],[127.04384,37.4533],[127.04389,37.45313],[127.04385,37.45301],[127.04379,37.4529],[127.04368,37.45276],[127.04369,37.45252],[127.04365,37.45236],[127.04358,37.45213],[127.04354,37.45202],[127.04327,37.4513],[127.04319,37.45125]]}},{"type":"Feature","properties":{"class":"alley","highway":"service","sidewalk":"unknown","lanes":0,"name":"","oneway":false},"geometry":{"type":"LineString","coordinates":[[127.04867,37.45952],[127.04875,37.45955],[127.04881,37.45956],[127.04888,37.45954],[127.04892,37.45952],[127.04895,37.45949],[127.04902,37.45943],[127.04907,37.45941],[127.04914,37.45941],[127.04923,37.45943],[127.04972,37.4596],[127.0498,37.45965]]}},{"type":"Feature","properties":{"class":"minor","highway":"residential","sidewalk":"unknown","lanes":0,"name":"청계산로","oneway":false},"geometry":{"type":"LineString","coordinates":[[127.05049,37.45745],[127.05023,37.45774],[127.05008,37.45791],[127.04995,37.45813],[127.04988,37.45821],[127.04978,37.45831],[127.04947,37.45865],[127.04922,37.45898],[127.04877,37.45942],[127.04867,37.45952],[127.04865,37.45954],[127.04855,37.45966],[127.04847,37.45982],[127.04836,37.46008]]}},{"type":"Feature","properties":{"class":"minor","highway":"residential","sidewalk":"unknown","lanes":0,"name":"새원2길","oneway":false},"geometry":{"type":"LineString","coordinates":[[127.05036,37.45441],[127.05012,37.45476],[127.04979,37.45532],[127.04976,37.45539],[127.04975,37.45545]]}},{"type":"Feature","properties":{"class":"major","highway":"primary","sidewalk":"likely","lanes":0,"name":"헌릉로","oneway":true},"geometry":{"type":"LineString","coordinates":[[127.0596,37.45717],[127.06078,37.45663],[127.06207,37.45608],[127.06265,37.45579],[127.06335,37.4555],[127.06351,37.45545],[127.0636,37.45541],[127.06398,37.45533],[127.06425,37.45531],[127.06449,37.45528],[127.065,37.45527]]}},{"type":"Feature","properties":{"class":"minor","highway":"unclassified","sidewalk":"unknown","lanes":0,"name":"","oneway":false},"geometry":{"type":"LineString","coordinates":[[127.05078,37.45141],[127.05056,37.45169],[127.04976,37.45266],[127.04883,37.45359],[127.04813,37.45441],[127.04795,37.45461],[127.04739,37.45524],[127.04634,37.45624],[127.04623,37.45638]]}},{"type":"Feature","properties":{"class":"minor","highway":"residential","sidewalk":"unknown","lanes":0,"name":"","oneway":false},"geometry":{"type":"LineString","coordinates":[[127.05917,37.45604],[127.05924,37.45586]]}},{"type":"Feature","properties":{"class":"minor","highway":"residential","sidewalk":"unknown","lanes":0,"name":"헌릉로8길","oneway":false},"geometry":{"type":"LineString","coordinates":[[127.05912,37.45615],[127.05917,37.45604]]}},{"type":"Feature","properties":{"class":"major","highway":"secondary_link","sidewalk":"likely","lanes":0,"name":"양재대로12길","oneway":true},"geometry":{"type":"LineString","coordinates":[[127.04261,37.45838],[127.04231,37.45841]]}},{"type":"Feature","properties":{"class":"alley","highway":"service","sidewalk":"unknown","lanes":0,"name":"","oneway":true},"geometry":{"type":"LineString","coordinates":[[127.04312,37.45964],[127.04342,37.45946],[127.0439,37.45911]]}},{"type":"Feature","properties":{"class":"alley","highway":"service","sidewalk":"unknown","lanes":0,"name":"","oneway":false},"geometry":{"type":"LineString","coordinates":[[127.03939,37.46057],[127.04007,37.45998]]}},{"type":"Feature","properties":{"class":"major","highway":"motorway_link","sidewalk":"likely","lanes":0,"name":"","oneway":true},"geometry":{"type":"LineString","coordinates":[[127.04672,37.45676],[127.0459,37.45761],[127.04569,37.45782],[127.04507,37.45853],[127.04504,37.45857]]}},{"type":"Feature","properties":{"class":"alley","highway":"service","sidewalk":"unknown","lanes":0,"name":"","oneway":false},"geometry":{"type":"LineString","coordinates":[[127.0459,37.45761],[127.04593,37.45772],[127.04595,37.45779],[127.046,37.45825],[127.04602,37.45838],[127.04601,37.4586],[127.046,37.45864],[127.04606,37.45873],[127.04623,37.45879],[127.04654,37.45883],[127.04706,37.45889]]}},{"type":"Feature","properties":{"class":"alley","highway":"service","sidewalk":"unknown","lanes":0,"name":"","oneway":false},"geometry":{"type":"LineString","coordinates":[[127.04601,37.4586],[127.04593,37.4586],[127.04583,37.45853]]}},{"type":"Feature","properties":{"class":"major","highway":"primary","sidewalk":"likely","lanes":4,"name":"헌릉로","oneway":true},"geometry":{"type":"LineString","coordinates":[[127.05001,37.46124],[127.0509,37.46087],[127.05183,37.4605],[127.05276,37.46008],[127.05597,37.45872]]}},{"type":"Feature","properties":{"class":"major","highway":"motorway_link","sidewalk":"likely","lanes":0,"name":"","oneway":true},"geometry":{"type":"LineString","coordinates":[[127.04101,37.46116],[127.04114,37.46102],[127.0412,37.46096],[127.04124,37.46089],[127.04129,37.46082],[127.04133,37.46076],[127.04136,37.46071],[127.04139,37.46063],[127.04141,37.46052],[127.04143,37.46043],[127.04145,37.46035],[127.04149,37.46027],[127.04155,37.46019],[127.04201,37.4597],[127.04209,37.45963],[127.04215,37.45959],[127.04224,37.45954],[127.04231,37.4595],[127.04241,37.45946],[127.04272,37.45935],[127.04343,37.4591],[127.04357,37.45905],[127.04366,37.45901],[127.04376,37.45896],[127.04385,37.45891],[127.04398,37.45883],[127.04412,37.45873],[127.04465,37.45831]]}},{"type":"Feature","properties":{"class":"alley","highway":"service","sidewalk":"unknown","lanes":0,"name":"","oneway":false},"geometry":{"type":"LineString","coordinates":[[127.04795,37.45461],[127.04773,37.45447],[127.04775,37.45444],[127.04778,37.45437],[127.04779,37.45431],[127.04779,37.45426],[127.04772,37.45412],[127.04765,37.4539],[127.04763,37.45382],[127.04759,37.45375],[127.04748,37.45366],[127.04742,37.45359],[127.04731,37.45346],[127.04727,37.45336],[127.04723,37.45323],[127.0472,37.45311]]}},{"type":"Feature","properties":{"class":"alley","highway":"service","sidewalk":"unknown","lanes":0,"name":"","oneway":false},"geometry":{"type":"LineString","coordinates":[[127.04773,37.45447],[127.04756,37.45453],[127.04736,37.45464],[127.04707,37.45488],[127.04696,37.45495]]}},{"type":"Feature","properties":{"class":"minor","highway":"residential","sidewalk":"unknown","lanes":0,"name":"","oneway":false},"geometry":{"type":"LineString","coordinates":[[127.04675,37.45972],[127.04742,37.45987],[127.04775,37.45994]]}},{"type":"Feature","properties":{"class":"minor","highway":"residential","sidewalk":"unknown","lanes":0,"name":"","oneway":false},"geometry":{"type":"LineString","coordinates":[[127.04775,37.45994],[127.04824,37.46006]]}},{"type":"Feature","properties":{"class":"minor","highway":"residential","sidewalk":"unknown","lanes":0,"name":"","oneway":false},"geometry":{"type":"LineString","coordinates":[[127.05427,37.45544],[127.0541,37.4555],[127.05395,37.4556],[127.05384,37.4557],[127.05372,37.45578],[127.05358,37.45583],[127.05341,37.45587],[127.05328,37.45588],[127.05311,37.45586],[127.05293,37.4558],[127.05275,37.45575],[127.0526,37.45574],[127.05246,37.45575],[127.05235,37.45578]]}},{"type":"Feature","properties":{"class":"minor","highway":"residential","sidewalk":"unknown","lanes":0,"name":"","oneway":true},"geometry":{"type":"LineString","coordinates":[[127.05235,37.45578],[127.05236,37.45582],[127.05236,37.45585],[127.05234,37.45588],[127.0523,37.45591],[127.05226,37.45592],[127.05224,37.45592],[127.05222,37.45592],[127.05218,37.45592],[127.05214,37.4559],[127.05214,37.45589],[127.05212,37.45587],[127.0521,37.45584],[127.0521,37.45581],[127.05211,37.45577],[127.05213,37.45575],[127.05217,37.45573],[127.05221,37.45572],[127.05226,37.45572],[127.0523,37.45573],[127.05233,37.45575],[127.05235,37.45578]]}},{"type":"Feature","properties":{"class":"minor","highway":"residential","sidewalk":"unknown","lanes":0,"name":"","oneway":false},"geometry":{"type":"LineString","coordinates":[[127.05244,37.4539],[127.05231,37.45408],[127.05208,37.4544],[127.05187,37.45467],[127.05176,37.45485],[127.0517,37.45504],[127.05168,37.45513],[127.05163,37.45544],[127.05161,37.45556],[127.05158,37.45574],[127.05155,37.45594],[127.05152,37.456],[127.05147,37.45614],[127.05136,37.45632],[127.05124,37.45645],[127.05104,37.45658],[127.05102,37.45659],[127.05093,37.45663],[127.05079,37.45672]]}},{"type":"Feature","properties":{"class":"minor","highway":"residential","sidewalk":"unknown","lanes":0,"name":"","oneway":false},"geometry":{"type":"LineString","coordinates":[[127.05204,37.45573],[127.05211,37.45577]]}},{"type":"Feature","properties":{"class":"minor","highway":"residential","sidewalk":"unknown","lanes":0,"name":"","oneway":false},"geometry":{"type":"LineString","coordinates":[[127.05161,37.45556],[127.05171,37.45559]]}},{"type":"Feature","properties":{"class":"minor","highway":"residential","sidewalk":"unknown","lanes":0,"name":"","oneway":false},"geometry":{"type":"LineString","coordinates":[[127.05171,37.45559],[127.05204,37.45573]]}},{"type":"Feature","properties":{"class":"minor","highway":"residential","sidewalk":"unknown","lanes":0,"name":"","oneway":false},"geometry":{"type":"LineString","coordinates":[[127.05037,37.45648],[127.05082,37.45628],[127.05108,37.45615],[127.05132,37.45603],[127.05141,37.456],[127.05147,37.45599],[127.05152,37.456]]}},{"type":"Feature","properties":{"class":"minor","highway":"residential","sidewalk":"unknown","lanes":0,"name":"","oneway":false},"geometry":{"type":"LineString","coordinates":[[127.04999,37.45539],[127.05014,37.45549],[127.05079,37.45594],[127.05108,37.45615]]}},{"type":"Feature","properties":{"class":"minor","highway":"residential","sidewalk":"unknown","lanes":0,"name":"","oneway":false},"geometry":{"type":"LineString","coordinates":[[127.04945,37.45588],[127.04953,37.45598],[127.04957,37.45602],[127.04964,37.45608],[127.04982,37.45618],[127.04998,37.45624],[127.05016,37.4563],[127.05027,37.45637],[127.05032,37.45642],[127.05037,37.45648],[127.05039,37.45655],[127.05036,37.45663],[127.05029,37.45678],[127.05021,37.45693],[127.05008,37.45714],[127.04998,37.45729],[127.04987,37.45745],[127.04968,37.45762],[127.04945,37.45784],[127.04916,37.45813],[127.04898,37.45835],[127.04895,37.4584],[127.04883,37.45857],[127.04882,37.45859],[127.04866,37.45883],[127.04842,37.45908],[127.04826,37.45927],[127.04811,37.45949],[127.04794,37.45971],[127.04783,37.45989],[127.04769,37.4601],[127.04755,37.46033],[127.04744,37.46053],[127.04732,37.46071],[127.04723,37.46078],[127.04708,37.46089],[127.04689,37.46098],[127.04673,37.46106],[127.0465,37.46114],[127.04636,37.46117],[127.04623,37.46116]]}},{"type":"Feature","properties":{"class":"minor","highway":"residential","sidewalk":"unknown","lanes":0,"name":"","oneway":false},"geometry":{"type":"LineString","coordinates":[[127.04726,37.45691],[127.04713,37.45712],[127.04697,37.45741],[127.04682,37.45762],[127.04677,37.45776]]}},{"type":"Feature","properties":{"class":"minor","highway":"residential","sidewalk":"unknown","lanes":0,"name":"","oneway":false},"geometry":{"type":"LineString","coordinates":[[127.04957,37.45602],[127.0494,37.45616],[127.04924,37.4563],[127.04915,37.45644],[127.04913,37.45655],[127.04907,37.45663],[127.04901,37.45668],[127.04891,37.45673]]}},{"type":"Feature","properties":{"class":"minor","highway":"unclassified","sidewalk":"unknown","lanes":0,"name":"","oneway":false},"geometry":{"type":"LineString","coordinates":[[127.04945,37.45588],[127.04934,37.45575],[127.04929,37.45567],[127.04927,37.45556],[127.04927,37.4554],[127.04919,37.45527],[127.04903,37.45516],[127.04898,37.45515],[127.04894,37.45516],[127.04884,37.45522],[127.04881,37.45526],[127.04882,37.45529],[127.04888,37.45536],[127.04895,37.45544],[127.049,37.45552],[127.04901,37.45561],[127.04894,37.45573],[127.04885,37.45583],[127.04875,37.45589],[127.04858,37.45593],[127.04844,37.45597],[127.04835,37.45602]]}},{"type":"Feature","properties":{"class":"minor","highway":"residential","sidewalk":"unknown","lanes":0,"name":"","oneway":false},"geometry":{"type":"LineString","coordinates":[[127.04654,37.45883],[127.04642,37.45892],[127.04631,37.45907],[127.04625,37.45919],[127.04611,37.45936],[127.04605,37.45952],[127.04598,37.45962],[127.04594,37.4597],[127.04589,37.45991],[127.04583,37.46009],[127.04572,37.46055],[127.04565,37.4607],[127.04559,37.4608],[127.04553,37.46081],[127.04542,37.46079],[127.04523,37.46072],[127.0451,37.46064],[127.04504,37.46058]]}},{"type":"Feature","properties":{"class":"minor","highway":"residential","sidewalk":"unknown","lanes":0,"name":"","oneway":false},"geometry":{"type":"LineString","coordinates":[[127.04503,37.45944],[127.04524,37.45953],[127.04554,37.45958],[127.04582,37.45959],[127.04598,37.45962]]}},{"type":"Feature","properties":{"class":"minor","highway":"residential","sidewalk":"unknown","lanes":0,"name":"","oneway":false},"geometry":{"type":"LineString","coordinates":[[127.05212,37.45519],[127.05216,37.4552],[127.0529,37.45544],[127.05323,37.45555],[127.05341,37.45556],[127.05362,37.4555],[127.05379,37.45538],[127.05413,37.45513]]}},{"type":"Feature","properties":{"class":"minor","highway":"residential","sidewalk":"unknown","lanes":0,"name":"","oneway":false},"geometry":{"type":"LineString","coordinates":[[127.0517,37.45504],[127.05177,37.45506],[127.0518,37.45507]]}},{"type":"Feature","properties":{"class":"minor","highway":"residential","sidewalk":"unknown","lanes":0,"name":"","oneway":false},"geometry":{"type":"LineString","coordinates":[[127.0518,37.45507],[127.05212,37.45519]]}},{"type":"Feature","properties":{"class":"minor","highway":"residential","sidewalk":"unknown","lanes":0,"name":"","oneway":false},"geometry":{"type":"LineString","coordinates":[[127.05967,37.45731],[127.0597,37.45746],[127.05971,37.45747],[127.05976,37.45752],[127.05993,37.45758],[127.06002,37.45764],[127.06011,37.45778],[127.06022,37.45786],[127.06029,37.45799],[127.06037,37.45806],[127.06056,37.45813],[127.06071,37.4582],[127.06078,37.45827],[127.06086,37.45839],[127.06099,37.45851],[127.06116,37.4587],[127.06133,37.45897],[127.06138,37.45906],[127.06135,37.45914],[127.06135,37.45928],[127.06135,37.45942],[127.0613,37.45953],[127.0612,37.45963],[127.06111,37.45969],[127.06105,37.45969],[127.06099,37.45972],[127.06096,37.45976],[127.06091,37.45985],[127.06085,37.45995],[127.06085,37.46003],[127.0609,37.46015],[127.06097,37.46026],[127.061,37.46034],[127.06106,37.4604],[127.06108,37.46048],[127.06104,37.46062],[127.06099,37.46076],[127.06087,37.46085],[127.06083,37.4609],[127.06082,37.46097],[127.06086,37.46108]]}},{"type":"Feature","properties":{"class":"minor","highway":"unclassified","sidewalk":"unknown","lanes":0,"name":"","oneway":false},"geometry":{"type":"LineString","coordinates":[[127.05971,37.45747],[127.05961,37.45756],[127.0595,37.45763],[127.05941,37.45775],[127.05933,37.45782],[127.05921,37.45789],[127.05914,37.45792]]}},{"type":"Feature","properties":{"class":"minor","highway":"unclassified","sidewalk":"unknown","lanes":0,"name":"","oneway":false},"geometry":{"type":"LineString","coordinates":[[127.05585,37.45914],[127.05585,37.45924],[127.05583,37.45931],[127.05577,37.45937],[127.05566,37.45945],[127.05562,37.4595],[127.05557,37.4596],[127.05549,37.4598],[127.05542,37.46],[127.05538,37.46016],[127.05537,37.46028],[127.05535,37.46044],[127.05532,37.46055],[127.05528,37.46065],[127.05519,37.46079],[127.05506,37.46092],[127.05491,37.46106],[127.05478,37.46115],[127.05462,37.46122],[127.05441,37.46126],[127.05418,37.46128],[127.05412,37.46127]]}},{"type":"Feature","properties":{"class":"major","highway":"secondary_link","sidewalk":"likely","lanes":0,"name":"","oneway":true},"geometry":{"type":"LineString","coordinates":[[127.04005,37.45836],[127.03998,37.45833],[127.03993,37.45829],[127.03989,37.45822],[127.03989,37.45815],[127.03992,37.45806],[127.03994,37.45803]]}},{"type":"Feature","properties":{"class":"major","highway":"secondary_link","sidewalk":"likely","lanes":0,"name":"","oneway":true},"geometry":{"type":"LineString","coordinates":[[127.04324,37.45837],[127.04261,37.45838],[127.04219,37.45835],[127.04166,37.45838],[127.04027,37.45829],[127.04002,37.4583]]}},{"type":"Feature","properties":{"class":"major","highway":"secondary_link","sidewalk":"likely","lanes":0,"name":"","oneway":true},"geometry":{"type":"LineString","coordinates":[[127.04002,37.4583],[127.03964,37.45833],[127.03946,37.45836],[127.03926,37.4584],[127.03913,37.45843]]}},{"type":"Feature","properties":{"class":"minor","highway":"residential","sidewalk":"unknown","lanes":0,"name":"","oneway":true},"geometry":{"type":"LineString","coordinates":[[127.04412,37.45851],[127.0433,37.45843]]}},{"type":"Feature","properties":{"class":"alley","highway":"service","sidewalk":"unknown","lanes":0,"name":"","oneway":false},"geometry":{"type":"LineString","coordinates":[[127.0416,37.45938],[127.04171,37.45934],[127.04182,37.4593],[127.04171,37.45907]]}},{"type":"Feature","properties":{"class":"major","highway":"secondary","sidewalk":"likely","lanes":0,"name":"양재대로12길","oneway":true},"geometry":{"type":"LineString","coordinates":[[127.04699,37.45868],[127.04622,37.45857]]}},{"type":"Feature","properties":{"class":"major","highway":"secondary","sidewalk":"likely","lanes":0,"name":"양재대로12길","oneway":true},"geometry":{"type":"LineString","coordinates":[[127.04728,37.45873],[127.04699,37.45868]]}},{"type":"Feature","properties":{"class":"major","highway":"secondary","sidewalk":"likely","lanes":0,"name":"양재대로12길","oneway":true},"geometry":{"type":"LineString","coordinates":[[127.04624,37.45849],[127.04702,37.45861]]}},{"type":"Feature","properties":{"class":"major","highway":"secondary","sidewalk":"likely","lanes":0,"name":"양재대로12길","oneway":true},"geometry":{"type":"LineString","coordinates":[[127.04702,37.45861],[127.0473,37.45866]]}},{"type":"Feature","properties":{"class":"major","highway":"motorway_link","sidewalk":"likely","lanes":0,"name":"","oneway":true},"geometry":{"type":"LineString","coordinates":[[127.04733,37.45859],[127.04762,37.45865],[127.04839,37.4589]]}},{"type":"Feature","properties":{"class":"major","highway":"motorway_link","sidewalk":"likely","lanes":0,"name":"","oneway":true},"geometry":{"type":"LineString","coordinates":[[127.04704,37.45854],[127.04733,37.45859]]}},{"type":"Feature","properties":{"class":"minor","highway":"residential","sidewalk":"unknown","lanes":0,"name":"헌릉로8길","oneway":false},"geometry":{"type":"LineString","coordinates":[[127.0596,37.45717],[127.05918,37.45658],[127.05911,37.45637],[127.05912,37.45615]]}},{"type":"Feature","properties":{"class":"alley","highway":"service","sidewalk":"unknown","lanes":0,"name":"","oneway":false},"geometry":{"type":"LineString","coordinates":[[127.05224,37.45592],[127.05226,37.45607]]}},{"type":"Feature","properties":{"class":"minor","highway":"residential","sidewalk":"unknown","lanes":0,"name":"","oneway":false},"geometry":{"type":"LineString","coordinates":[[127.0543,37.4554],[127.05432,37.45543]]}},{"type":"Feature","properties":{"class":"minor","highway":"residential","sidewalk":"unknown","lanes":0,"name":"","oneway":false},"geometry":{"type":"LineString","coordinates":[[127.05413,37.45513],[127.0543,37.4554]]}},{"type":"Feature","properties":{"class":"alley","highway":"pedestrian","sidewalk":"unknown","lanes":0,"name":"","oneway":false},"geometry":{"type":"LineString","coordinates":[[127.05607,37.45536],[127.05607,37.45533]]}},{"type":"Feature","properties":{"class":"alley","highway":"pedestrian","sidewalk":"unknown","lanes":0,"name":"","oneway":false},"geometry":{"type":"LineString","coordinates":[[127.05607,37.45514],[127.05607,37.45512],[127.056,37.455]]}},{"type":"Feature","properties":{"class":"alley","highway":"pedestrian","sidewalk":"unknown","lanes":0,"name":"","oneway":false},"geometry":{"type":"LineString","coordinates":[[127.05607,37.45533],[127.05607,37.45514]]}},{"type":"Feature","properties":{"class":"minor","highway":"residential","sidewalk":"unknown","lanes":0,"name":"청계산로11길","oneway":false},"geometry":{"type":"LineString","coordinates":[[127.05613,37.44697],[127.05625,37.44704],[127.05677,37.44739],[127.05744,37.44784],[127.05755,37.44794],[127.05763,37.44884],[127.05801,37.44897],[127.05863,37.44921]]}},{"type":"Feature","properties":{"class":"minor","highway":"residential","sidewalk":"unknown","lanes":0,"name":"청계산로11길","oneway":false},"geometry":{"type":"LineString","coordinates":[[127.05725,37.44969],[127.0573,37.44966],[127.05762,37.44943],[127.05767,37.4493],[127.05763,37.44884]]}},{"type":"Feature","properties":{"class":"minor","highway":"residential","sidewalk":"unknown","lanes":0,"name":"청계산로9길","oneway":false},"geometry":{"type":"LineString","coordinates":[[127.05782,37.45033],[127.05785,37.45039],[127.058,37.45074],[127.05813,37.45123],[127.05827,37.45149],[127.05848,37.45192],[127.0585,37.45195],[127.05858,37.45214],[127.05863,37.45236]]}},{"type":"Feature","properties":{"class":"minor","highway":"residential","sidewalk":"unknown","lanes":0,"name":"청계산로9길","oneway":false},"geometry":{"type":"LineString","coordinates":[[127.05555,37.44865],[127.05398,37.45024]]}},{"type":"Feature","properties":{"class":"alley","highway":"service","sidewalk":"unknown","lanes":0,"name":"","oneway":false},"geometry":{"type":"LineString","coordinates":[[127.05669,37.44644],[127.05659,37.44637],[127.05647,37.44627],[127.05658,37.44618]]}},{"type":"Feature","properties":{"class":"alley","highway":"service","sidewalk":"unknown","lanes":0,"name":"","oneway":false},"geometry":{"type":"LineString","coordinates":[[127.05647,37.44627],[127.05642,37.44633]]}},{"type":"Feature","properties":{"class":"alley","highway":"living_street","sidewalk":"unknown","lanes":0,"name":"원터길","oneway":false},"geometry":{"type":"LineString","coordinates":[[127.05757,37.44496],[127.0574,37.44486],[127.05738,37.44484]]}},{"type":"Feature","properties":{"class":"alley","highway":"living_street","sidewalk":"unknown","lanes":0,"name":"원터길","oneway":false},"geometry":{"type":"LineString","coordinates":[[127.05693,37.44433],[127.05679,37.44417],[127.05675,37.44411],[127.05672,37.44406],[127.05664,37.44394],[127.05625,37.44343],[127.05621,37.44338],[127.05598,37.44306]]}},{"type":"Feature","properties":{"class":"alley","highway":"living_street","sidewalk":"unknown","lanes":0,"name":"원터골 연결통로","oneway":false},"geometry":{"type":"LineString","coordinates":[[127.05738,37.44484],[127.05693,37.44433]]}},{"type":"Feature","properties":{"class":"alley","highway":"living_street","sidewalk":"unknown","lanes":0,"name":"원터2길","oneway":false},"geometry":{"type":"LineString","coordinates":[[127.05675,37.44411],[127.0567,37.44412],[127.05657,37.44413],[127.05647,37.44412],[127.0563,37.44413],[127.05609,37.4441],[127.05583,37.44403],[127.05572,37.44398],[127.05532,37.44377]]}},{"type":"Feature","properties":{"class":"major","highway":"tertiary","sidewalk":"likely","lanes":2,"name":"청계산로","oneway":false},"geometry":{"type":"LineString","coordinates":[[127.0709,37.43061],[127.07072,37.43069],[127.07029,37.43093],[127.06961,37.43132],[127.06934,37.43151],[127.0691,37.43173],[127.06862,37.43221],[127.06771,37.43311],[127.06601,37.4348],[127.06359,37.43714],[127.06344,37.43729],[127.06342,37.43731],[127.06259,37.43815],[127.06215,37.43863],[127.06174,37.43913],[127.06037,37.44085],[127.05998,37.44134],[127.05937,37.44215],[127.05876,37.44303],[127.05869,37.44313],[127.05845,37.44348],[127.0579,37.44432],[127.05777,37.44454],[127.05763,37.44479],[127.05759,37.44486],[127.05757,37.44496],[127.05755,37.44508],[127.05749,37.44525],[127.05745,37.44536],[127.0574,37.44547],[127.0573,37.44567],[127.05724,37.44578],[127.05717,37.44593],[127.05709,37.44605],[127.05679,37.44635],[127.05669,37.44644],[127.0565,37.44662],[127.05625,37.44685],[127.05613,37.44697],[127.05604,37.44706],[127.05483,37.44821],[127.05444,37.44859],[127.05345,37.44958],[127.05334,37.44971],[127.05325,37.44982],[127.05316,37.44993],[127.05308,37.45003]]}},{"type":"Feature","properties":{"class":"alley","highway":"living_street","sidewalk":"unknown","lanes":0,"name":"원터5길","oneway":false},"geometry":{"type":"LineString","coordinates":[[127.05598,37.44306],[127.05615,37.44299],[127.05702,37.44295],[127.05751,37.44313]]}},{"type":"Feature","properties":{"class":"minor","highway":"residential","sidewalk":"unknown","lanes":0,"name":"청룡마을길","oneway":false},"geometry":{"type":"LineString","coordinates":[[127.05873,37.44653],[127.05858,37.44658],[127.05844,37.44663],[127.05827,37.44675],[127.05813,37.44684],[127.05803,37.4469]]}},{"type":"Feature","properties":{"class":"minor","highway":"unclassified","sidewalk":"unknown","lanes":0,"name":"원터길","oneway":false},"geometry":{"type":"LineString","coordinates":[[127.05693,37.44433],[127.05692,37.44439],[127.05689,37.44446],[127.05682,37.44459],[127.05673,37.44471],[127.0566,37.44488],[127.05645,37.44508],[127.05635,37.44523],[127.05623,37.44539],[127.05597,37.44569],[127.05584,37.44584],[127.05557,37.44617],[127.05528,37.44648],[127.05474,37.44709],[127.05458,37.44728],[127.05403,37.44788],[127.05377,37.44816],[127.05355,37.44838],[127.05335,37.44859],[127.05315,37.4488],[127.05273,37.44927],[127.05255,37.44952]]}},{"type":"Feature","properties":{"class":"minor","highway":"residential","sidewalk":"unknown","lanes":0,"name":"청룡마을길","oneway":false},"geometry":{"type":"LineString","coordinates":[[127.05849,37.4472],[127.05855,37.44803]]}},{"type":"Feature","properties":{"class":"alley","highway":"service","sidewalk":"unknown","lanes":0,"name":"","oneway":false},"geometry":{"type":"LineString","coordinates":[[127.05972,37.44638],[127.05972,37.44614]]}},{"type":"Feature","properties":{"class":"minor","highway":"unclassified","sidewalk":"unknown","lanes":0,"name":"","oneway":false},"geometry":{"type":"LineString","coordinates":[[127.0596,37.44607],[127.05994,37.44607],[127.06026,37.44607]]}},{"type":"Feature","properties":{"class":"alley","highway":"service","sidewalk":"unknown","lanes":0,"name":"","oneway":false},"geometry":{"type":"LineString","coordinates":[[127.04644,37.44757],[127.04629,37.44763],[127.04621,37.44763],[127.04608,37.44758],[127.04606,37.44754],[127.04606,37.44748],[127.04604,37.44736],[127.04603,37.44729]]}},{"type":"Feature","properties":{"class":"minor","highway":"residential","sidewalk":"unknown","lanes":0,"name":"청룡마을길","oneway":false},"geometry":{"type":"LineString","coordinates":[[127.05895,37.44805],[127.05888,37.44816],[127.05879,37.44839],[127.05873,37.44859],[127.05867,37.44869]]}},{"type":"Feature","properties":{"class":"alley","highway":"service","sidewalk":"unknown","lanes":0,"name":"","oneway":false},"geometry":{"type":"LineString","coordinates":[[127.05902,37.44336],[127.05908,37.44336],[127.05922,37.44335],[127.05934,37.44333],[127.05937,37.44333],[127.0595,37.44331],[127.05961,37.44327],[127.05972,37.44323]]}},{"type":"Feature","properties":{"class":"alley","highway":"service","sidewalk":"unknown","lanes":0,"name":"","oneway":false},"geometry":{"type":"LineString","coordinates":[[127.05961,37.44638],[127.05972,37.44638],[127.05973,37.44654]]}},{"type":"Feature","properties":{"class":"minor","highway":"residential","sidewalk":"unknown","lanes":0,"name":"청룡마을길","oneway":false},"geometry":{"type":"LineString","coordinates":[[127.05887,37.44716],[127.05849,37.4472]]}},{"type":"Feature","properties":{"class":"minor","highway":"residential","sidewalk":"unknown","lanes":0,"name":"청계산로15길","oneway":false},"geometry":{"type":"LineString","coordinates":[[127.05876,37.44303],[127.0588,37.44307],[127.05888,37.44319],[127.05902,37.44336],[127.05912,37.4435],[127.05917,37.44363],[127.05917,37.44374],[127.05918,37.44392],[127.05922,37.44418],[127.05931,37.44445],[127.05937,37.44471],[127.05936,37.44498],[127.05925,37.44536],[127.05921,37.44557],[127.05923,37.44573],[127.05931,37.446],[127.05933,37.44618],[127.05933,37.44639],[127.05934,37.4465],[127.05935,37.44667],[127.0594,37.44684],[127.05949,37.44702],[127.05963,37.4472],[127.05984,37.44741],[127.05993,37.44754],[127.05996,37.44762],[127.05997,37.44772],[127.05994,37.44782],[127.05983,37.44791],[127.05973,37.44798],[127.05939,37.44817],[127.05931,37.44822],[127.05924,37.44828],[127.05917,37.44837],[127.05902,37.44858],[127.05886,37.44883],[127.05874,37.44904],[127.05863,37.44921],[127.05848,37.44948],[127.05835,37.44962],[127.05822,37.44972],[127.05808,37.4498],[127.05793,37.44986],[127.05777,37.44992],[127.05764,37.44996],[127.05754,37.45]]}},{"type":"Feature","properties":{"class":"minor","highway":"residential","sidewalk":"unknown","lanes":0,"name":"청룡마을3길","oneway":false},"geometry":{"type":"LineString","coordinates":[[127.05933,37.44639],[127.05925,37.44639],[127.05916,37.44633],[127.05905,37.44627],[127.05891,37.4462],[127.05879,37.44617],[127.0587,37.44615]]}},{"type":"Feature","properties":{"class":"minor","highway":"residential","sidewalk":"unknown","lanes":0,"name":"청룡마을3길","oneway":false},"geometry":{"type":"LineString","coordinates":[[127.05864,37.44631],[127.05868,37.44621],[127.0587,37.44615],[127.05872,37.44607],[127.05873,37.44586],[127.05876,37.44565],[127.0587,37.4455],[127.05849,37.44522],[127.05841,37.4451],[127.05834,37.44498],[127.05827,37.44486]]}},{"type":"Feature","properties":{"class":"minor","highway":"residential","sidewalk":"unknown","lanes":0,"name":"","oneway":false},"geometry":{"type":"LineString","coordinates":[[127.05845,37.44348],[127.0586,37.44355],[127.05817,37.44416],[127.05799,37.4444],[127.05777,37.44454]]}},{"type":"Feature","properties":{"class":"minor","highway":"unclassified","sidewalk":"unknown","lanes":0,"name":"바람골 연결통로","oneway":false},"geometry":{"type":"LineString","coordinates":[[127.05083,37.45147],[127.05139,37.45165],[127.05161,37.45171]]}},{"type":"Feature","properties":{"class":"minor","highway":"residential","sidewalk":"unknown","lanes":0,"name":"청룡마을길","oneway":false},"geometry":{"type":"LineString","coordinates":[[127.05864,37.44631],[127.05866,37.44641],[127.05873,37.44653],[127.0588,37.44669],[127.05882,37.44683],[127.05886,37.44702],[127.05887,37.44716],[127.05888,37.44722],[127.05892,37.44742],[127.05895,37.44764],[127.05896,37.44779],[127.059,37.44797],[127.05895,37.44805]]}},{"type":"Feature","properties":{"class":"alley","highway":"service","sidewalk":"unknown","lanes":0,"name":"청계산로","oneway":false},"geometry":{"type":"LineString","coordinates":[[127.05078,37.45141],[127.05068,37.45133],[127.05062,37.45124],[127.05056,37.45118],[127.0505,37.45113],[127.05044,37.45109],[127.05036,37.45107],[127.05025,37.45106],[127.05015,37.45106],[127.05006,37.45107],[127.04997,37.4511],[127.04992,37.45112],[127.04985,37.45113],[127.04977,37.45112],[127.04969,37.45109],[127.04963,37.45106],[127.04952,37.451],[127.04944,37.45094],[127.04938,37.4509],[127.04924,37.45085],[127.04914,37.45081],[127.04899,37.45078],[127.04882,37.45075],[127.04873,37.45073],[127.04846,37.45068],[127.04834,37.45064],[127.04823,37.4506],[127.04818,37.45057],[127.04811,37.45052],[127.04806,37.45046],[127.04802,37.45039],[127.04797,37.45033],[127.04793,37.45029],[127.04788,37.45022],[127.04783,37.45016],[127.04778,37.4501],[127.04774,37.45005],[127.04771,37.45002],[127.04764,37.44999],[127.04759,37.44998],[127.04753,37.44998],[127.04746,37.44998],[127.04736,37.44998],[127.04731,37.44997],[127.04724,37.44994],[127.04721,37.44988],[127.04717,37.44978],[127.04713,37.44967],[127.04709,37.44955],[127.04704,37.44942],[127.04697,37.44931],[127.04688,37.44919],[127.04681,37.44905],[127.04676,37.44892],[127.04673,37.44885],[127.04674,37.44872],[127.04673,37.44859],[127.04668,37.44844],[127.04664,37.44836],[127.04663,37.44824],[127.04663,37.44812],[127.04659,37.44798],[127.04658,37.4479],[127.04654,37.44782],[127.04648,37.44774],[127.04643,37.44764],[127.04644,37.44757]]}},{"type":"Feature","properties":{"class":"minor","highway":"unclassified","sidewalk":"unknown","lanes":0,"name":"","oneway":false},"geometry":{"type":"LineString","coordinates":[[127.05954,37.44375],[127.05946,37.44384],[127.05944,37.44397],[127.05948,37.44411],[127.05953,37.44426],[127.0596,37.44442],[127.05963,37.44457],[127.05965,37.44473],[127.05962,37.44484],[127.05962,37.445],[127.05958,37.44511],[127.05953,37.44523],[127.05949,37.44536],[127.05946,37.44551],[127.05949,37.44565],[127.05956,37.44584],[127.0596,37.44607],[127.0596,37.44618],[127.05961,37.44638],[127.05961,37.4465],[127.05961,37.44665],[127.05967,37.44681],[127.05976,37.44696],[127.05988,37.44708],[127.06003,37.44721],[127.06012,37.44733],[127.06015,37.44741],[127.06018,37.44751],[127.0602,37.44765],[127.06019,37.44775],[127.06016,37.44784],[127.0601,37.44794],[127.06001,37.44803],[127.05992,37.4481],[127.05978,37.44818],[127.05958,37.44825],[127.05945,37.44834],[127.0593,37.44852],[127.05925,37.44864],[127.05921,37.44866]]}},{"type":"Feature","properties":{"class":"minor","highway":"unclassified","sidewalk":"unknown","lanes":0,"name":"","oneway":false},"geometry":{"type":"LineString","coordinates":[[127.05921,37.44866],[127.05902,37.44858]]}},{"type":"Feature","properties":{"class":"alley","highway":"service","sidewalk":"unknown","lanes":0,"name":"","oneway":false},"geometry":{"type":"LineString","coordinates":[[127.05789,37.4457],[127.05762,37.44583]]}},{"type":"Feature","properties":{"class":"alley","highway":"service","sidewalk":"unknown","lanes":0,"name":"","oneway":false},"geometry":{"type":"LineString","coordinates":[[127.05994,37.44607],[127.05994,37.44594]]}},{"type":"Feature","properties":{"class":"alley","highway":"service","sidewalk":"unknown","lanes":0,"name":"","oneway":false},"geometry":{"type":"LineString","coordinates":[[127.05933,37.44639],[127.05961,37.44638]]}},{"type":"Feature","properties":{"class":"alley","highway":"service","sidewalk":"unknown","lanes":0,"name":"","oneway":false},"geometry":{"type":"LineString","coordinates":[[127.04673,37.44885],[127.04666,37.44885],[127.04659,37.4488],[127.04653,37.44876],[127.04648,37.4487],[127.04642,37.44863],[127.04633,37.4485],[127.04626,37.44841],[127.04617,37.44832],[127.04613,37.44826],[127.04602,37.44818],[127.04593,37.44809],[127.04583,37.448],[127.0458,37.44797],[127.04576,37.44788],[127.04577,37.4478],[127.04576,37.44771],[127.04571,37.44761],[127.04567,37.44755],[127.04557,37.44747],[127.04546,37.44742],[127.04535,37.44737],[127.04531,37.44728],[127.04532,37.44718],[127.04534,37.44711],[127.04541,37.44701]]}},{"type":"Feature","properties":{"class":"minor","highway":"residential","sidewalk":"unknown","lanes":0,"name":"청룡마을1길","oneway":false},"geometry":{"type":"LineString","coordinates":[[127.05817,37.44416],[127.05823,37.44419],[127.05857,37.44437],[127.0586,37.44442],[127.05827,37.44486],[127.05803,37.44515],[127.05795,37.44523],[127.05782,37.44527],[127.05763,37.44531],[127.05756,37.44533],[127.05745,37.44536]]}},{"type":"Feature","properties":{"class":"minor","highway":"residential","sidewalk":"unknown","lanes":0,"name":"청룡마을2길","oneway":false},"geometry":{"type":"LineString","coordinates":[[127.0587,37.44615],[127.05859,37.4461],[127.05854,37.44601],[127.05845,37.44589],[127.05838,37.44576],[127.05827,37.44553],[127.05819,37.44533],[127.0581,37.44519],[127.05803,37.44515]]}},{"type":"Feature","properties":{"class":"alley","highway":"service","sidewalk":"unknown","lanes":0,"name":"청계산로","oneway":false},"geometry":{"type":"LineString","coordinates":[[127.05943,37.44368],[127.05954,37.44375],[127.05962,37.44369],[127.0597,37.44362],[127.05979,37.44358],[127.05993,37.4436],[127.06006,37.44363],[127.0602,37.44373],[127.0603,37.44375],[127.06044,37.44372],[127.06052,37.44365],[127.06058,37.44357],[127.06069,37.44352],[127.06098,37.44357],[127.06099,37.44365]]}},{"type":"Feature","properties":{"class":"minor","highway":"residential","sidewalk":"unknown","lanes":0,"name":"청계산로7길","oneway":false},"geometry":{"type":"LineString","coordinates":[[127.05398,37.45024],[127.05485,37.45078],[127.05503,37.45098],[127.05555,37.45153],[127.05568,37.45161],[127.05586,37.45164],[127.05592,37.45165]]}},{"type":"Feature","properties":{"class":"minor","highway":"residential","sidewalk":"unknown","lanes":0,"name":"본마을길","oneway":false},"geometry":{"type":"LineString","coordinates":[[127.05262,37.45434],[127.05259,37.45422],[127.05256,37.45408],[127.05244,37.4539],[127.05235,37.45377],[127.05219,37.45361],[127.05139,37.45314]]}},{"type":"Feature","properties":{"class":"minor","highway":"residential","sidewalk":"unknown","lanes":0,"name":"본마을3길","oneway":false},"geometry":{"type":"LineString","coordinates":[[127.05422,37.45395],[127.05445,37.45431],[127.05447,37.45435],[127.05462,37.45437],[127.05488,37.4544]]}},{"type":"Feature","properties":{"class":"minor","highway":"residential","sidewalk":"unknown","lanes":0,"name":"","oneway":false},"geometry":{"type":"LineString","coordinates":[[127.05422,37.45395],[127.0542,37.45393]]}},{"type":"Feature","properties":{"class":"minor","highway":"residential","sidewalk":"unknown","lanes":0,"name":"청계산로7길","oneway":false},"geometry":{"type":"LineString","coordinates":[[127.05626,37.4517],[127.05633,37.45152],[127.05651,37.45119],[127.05678,37.45092],[127.05679,37.45091],[127.05685,37.45087],[127.05716,37.45063],[127.0575,37.4505],[127.05777,37.45041],[127.05785,37.45039]]}},{"type":"Feature","properties":{"class":"minor","highway":"residential","sidewalk":"unknown","lanes":0,"name":"본마을3길","oneway":false},"geometry":{"type":"LineString","coordinates":[[127.05488,37.4544],[127.05535,37.45447],[127.0554,37.45429],[127.05543,37.4541],[127.05548,37.45385],[127.05553,37.45361]]}},{"type":"Feature","properties":{"class":"minor","highway":"residential","sidewalk":"unknown","lanes":0,"name":"본마을4길","oneway":false},"geometry":{"type":"LineString","coordinates":[[127.05553,37.45361],[127.05555,37.45353],[127.05506,37.45334]]}},{"type":"Feature","properties":{"class":"minor","highway":"residential","sidewalk":"unknown","lanes":0,"name":"본마을4길","oneway":false},"geometry":{"type":"LineString","coordinates":[[127.05555,37.45353],[127.05623,37.4531],[127.05647,37.45296],[127.0567,37.45287],[127.05693,37.45271],[127.05707,37.45262]]}},{"type":"Feature","properties":{"class":"minor","highway":"residential","sidewalk":"unknown","lanes":0,"name":"청계산로9길","oneway":false},"geometry":{"type":"LineString","coordinates":[[127.05707,37.45262],[127.05737,37.45251],[127.05749,37.45236],[127.05763,37.45228],[127.0579,37.4522],[127.05814,37.45212],[127.05825,37.45201],[127.05842,37.45194],[127.05848,37.45192]]}},{"type":"Feature","properties":{"class":"major","highway":"secondary","sidewalk":"likely","lanes":0,"name":"청계산로","oneway":false},"geometry":{"type":"LineString","coordinates":[[127.05308,37.45003],[127.05161,37.45171],[127.05086,37.45253],[127.05078,37.45263],[127.05077,37.45269],[127.05079,37.45274],[127.05082,37.45279],[127.05139,37.45314]]}},{"type":"Feature","properties":{"class":"alley","highway":"service","sidewalk":"unknown","lanes":0,"name":"","oneway":true},"geometry":{"type":"LineString","coordinates":[[127.04286,37.45286],[127.04273,37.45274],[127.04262,37.45265],[127.04241,37.45251],[127.04238,37.45248],[127.04237,37.45245],[127.04236,37.45242],[127.04237,37.45238],[127.04238,37.45236],[127.0424,37.45234],[127.04245,37.45232],[127.04251,37.45232],[127.0426,37.45234],[127.0427,37.45237],[127.04274,37.4524],[127.04277,37.45244],[127.04278,37.45248],[127.04278,37.45252],[127.04276,37.45258],[127.04275,37.45261],[127.04276,37.45264],[127.0428,37.45271],[127.04283,37.45275],[127.04286,37.45286]]}},{"type":"Feature","properties":{"class":"minor","highway":"residential","sidewalk":"unknown","lanes":0,"name":"청계산로7길","oneway":false},"geometry":{"type":"LineString","coordinates":[[127.05398,37.45024],[127.05339,37.4499],[127.05325,37.44982]]}},{"type":"Feature","properties":{"class":"minor","highway":"residential","sidewalk":"unknown","lanes":0,"name":"청룡마을4길","oneway":false},"geometry":{"type":"LineString","coordinates":[[127.05801,37.44897],[127.05821,37.44896],[127.05822,37.4489],[127.05821,37.44843],[127.05817,37.44827],[127.05815,37.44808],[127.05815,37.44803],[127.05813,37.44779],[127.05807,37.44724],[127.05805,37.44705],[127.05803,37.4469],[127.05802,37.44679],[127.05799,37.4466],[127.05797,37.44647],[127.05795,37.44634],[127.05796,37.44621],[127.058,37.44612],[127.05806,37.44606],[127.05811,37.44603]]}},{"type":"Feature","properties":{"class":"minor","highway":"residential","sidewalk":"unknown","lanes":0,"name":"청계산로11길","oneway":false},"geometry":{"type":"LineString","coordinates":[[127.05756,37.44708],[127.05739,37.44709],[127.05704,37.44714],[127.05685,37.44732],[127.05677,37.44739],[127.05562,37.44858],[127.05555,37.44865]]}},{"type":"Feature","properties":{"class":"minor","highway":"residential","sidewalk":"unknown","lanes":0,"name":"청계산로9길","oneway":false},"geometry":{"type":"LineString","coordinates":[[127.05863,37.45236],[127.05871,37.45289]]}},{"type":"Feature","properties":{"class":"minor","highway":"residential","sidewalk":"unknown","lanes":0,"name":"","oneway":false},"geometry":{"type":"LineString","coordinates":[[127.05744,37.44784],[127.05751,37.44776],[127.05757,37.44768]]}},{"type":"Feature","properties":{"class":"minor","highway":"residential","sidewalk":"unknown","lanes":0,"name":"","oneway":false},"geometry":{"type":"LineString","coordinates":[[127.05925,37.44639],[127.05917,37.44651],[127.05912,37.44666],[127.05908,37.44684],[127.05911,37.44705],[127.05912,37.44721],[127.05904,37.44736],[127.05892,37.44742]]}},{"type":"Feature","properties":{"class":"minor","highway":"residential","sidewalk":"unknown","lanes":0,"name":"새원1길","oneway":false},"geometry":{"type":"LineString","coordinates":[[127.05041,37.45312],[127.05049,37.45322],[127.05054,37.45334],[127.05064,37.45351],[127.05071,37.45371],[127.05071,37.45384],[127.05067,37.45395],[127.05036,37.45441]]}},{"type":"Feature","properties":{"class":"alley","highway":"living_street","sidewalk":"unknown","lanes":0,"name":"원터6길","oneway":false},"geometry":{"type":"LineString","coordinates":[[127.05598,37.44306],[127.05586,37.4431],[127.05576,37.44315],[127.05567,37.44322],[127.05551,37.44348],[127.05532,37.44377]]}},{"type":"Feature","properties":{"class":"alley","highway":"living_street","sidewalk":"unknown","lanes":0,"name":"원터3길","oneway":false},"geometry":{"type":"LineString","coordinates":[[127.05625,37.44343],[127.0566,37.44328],[127.05721,37.44355]]}},{"type":"Feature","properties":{"class":"alley","highway":"living_street","sidewalk":"unknown","lanes":0,"name":"원터4길","oneway":false},"geometry":{"type":"LineString","coordinates":[[127.05625,37.44343],[127.05605,37.44354],[127.05585,37.44396],[127.05583,37.44403]]}},{"type":"Feature","properties":{"class":"minor","highway":"unclassified","sidewalk":"unknown","lanes":0,"name":"원터길","oneway":false},"geometry":{"type":"LineString","coordinates":[[127.05693,37.44433],[127.05703,37.4442],[127.05713,37.44412],[127.05727,37.44396],[127.05812,37.44274],[127.0587,37.44197],[127.05951,37.44083],[127.05983,37.44042],[127.06021,37.43993],[127.06057,37.43938],[127.0607,37.43922],[127.0609,37.43897],[127.06111,37.43875],[127.06161,37.43819],[127.06236,37.43733]]}},{"type":"Feature","properties":{"class":"alley","highway":"service","sidewalk":"unknown","lanes":0,"name":"원터길","oneway":false},"geometry":{"type":"LineString","coordinates":[[127.05983,37.44042],[127.05949,37.43959],[127.05945,37.43942],[127.05943,37.43927],[127.05943,37.43892],[127.05941,37.43883],[127.05936,37.43872],[127.05909,37.43827],[127.0589,37.43805],[127.0588,37.43807],[127.05865,37.43809],[127.05853,37.43806],[127.05838,37.43797],[127.05813,37.43776]]}},{"type":"Feature","properties":{"class":"minor","highway":"residential","sidewalk":"unknown","lanes":2,"name":"청계산로7길","oneway":false},"geometry":{"type":"LineString","coordinates":[[127.05398,37.45024],[127.05402,37.45051],[127.05421,37.45123],[127.05419,37.45152],[127.05401,37.45206],[127.05391,37.4522],[127.05375,37.45236],[127.05351,37.45251],[127.0532,37.45267],[127.05308,37.45279],[127.05298,37.45295],[127.05293,37.45325],[127.05283,37.45345],[127.05259,37.45374],[127.05254,37.45379],[127.05253,37.4538]]}},{"type":"Feature","properties":{"class":"minor","highway":"residential","sidewalk":"unknown","lanes":0,"name":"본마을길","oneway":false},"geometry":{"type":"LineString","coordinates":[[127.05488,37.4544],[127.05503,37.45374],[127.05478,37.45359]]}},{"type":"Feature","properties":{"class":"minor","highway":"residential","sidewalk":"unknown","lanes":0,"name":"본마을길","oneway":false},"geometry":{"type":"LineString","coordinates":[[127.05623,37.4531],[127.05544,37.45283]]}},{"type":"Feature","properties":{"class":"minor","highway":"residential","sidewalk":"unknown","lanes":0,"name":"청계산로9길","oneway":false},"geometry":{"type":"LineString","coordinates":[[127.05707,37.45262],[127.05701,37.45259],[127.05688,37.4525],[127.05682,37.45246],[127.05677,37.45245],[127.05672,37.45246],[127.05646,37.45267],[127.05641,37.45269],[127.05634,37.45272],[127.0563,37.45272],[127.05624,37.45273],[127.05616,37.45272],[127.05571,37.45256]]}},{"type":"Feature","properties":{"class":"alley","highway":"service","sidewalk":"unknown","lanes":0,"name":"","oneway":false},"geometry":{"type":"LineString","coordinates":[[127.04644,37.44757],[127.04645,37.44752],[127.04646,37.44743],[127.04646,37.44731],[127.04646,37.44718],[127.04646,37.44708],[127.04646,37.44694],[127.04647,37.44686],[127.04651,37.44676],[127.04656,37.44665],[127.04664,37.4466],[127.04674,37.44656],[127.04683,37.44652],[127.04693,37.44647],[127.04701,37.4464],[127.04711,37.44634],[127.04719,37.4463],[127.04727,37.44626],[127.04735,37.44619],[127.0474,37.44616],[127.04745,37.44611]]}},{"type":"Feature","properties":{"class":"minor","highway":"unclassified","sidewalk":"unknown","lanes":0,"name":"청계산로","oneway":false},"geometry":{"type":"LineString","coordinates":[[127.05255,37.44952],[127.05238,37.44969],[127.05224,37.44986],[127.05202,37.4501],[127.05188,37.45027],[127.05175,37.45042],[127.05149,37.45073],[127.05127,37.45095],[127.05111,37.45114],[127.05101,37.45124],[127.05091,37.45133],[127.05078,37.45141],[127.05083,37.45147]]}},{"type":"Feature","properties":{"class":"minor","highway":"residential","sidewalk":"unknown","lanes":0,"name":"청계산로","oneway":false},"geometry":{"type":"LineString","coordinates":[[127.05803,37.44515],[127.05798,37.44513],[127.05777,37.44511],[127.05769,37.44512],[127.05755,37.44508]]}},{"type":"Feature","properties":{"class":"minor","highway":"residential","sidewalk":"unknown","lanes":0,"name":"청계산로11길","oneway":false},"geometry":{"type":"LineString","coordinates":[[127.05757,37.44768],[127.05714,37.44739],[127.05718,37.44734],[127.05721,37.44733],[127.05759,37.44729]]}},{"type":"Feature","properties":{"class":"minor","highway":"residential","sidewalk":"unknown","lanes":0,"name":"청계산로11길","oneway":false},"geometry":{"type":"LineString","coordinates":[[127.05757,37.44768],[127.05763,37.4476],[127.05759,37.44729],[127.05756,37.44708]]}},{"type":"Feature","properties":{"class":"minor","highway":"residential","sidewalk":"unknown","lanes":0,"name":"청룡마을길","oneway":false},"geometry":{"type":"LineString","coordinates":[[127.05805,37.44705],[127.05756,37.44708]]}},{"type":"Feature","properties":{"class":"minor","highway":"residential","sidewalk":"unknown","lanes":0,"name":"청룡마을4길","oneway":false},"geometry":{"type":"LineString","coordinates":[[127.05849,37.4472],[127.05807,37.44724]]}},{"type":"Feature","properties":{"class":"minor","highway":"residential","sidewalk":"unknown","lanes":0,"name":"청룡마을4길","oneway":false},"geometry":{"type":"LineString","coordinates":[[127.05855,37.44803],[127.05837,37.44804],[127.05815,37.44808]]}},{"type":"Feature","properties":{"class":"minor","highway":"residential","sidewalk":"unknown","lanes":0,"name":"청룡마을길","oneway":false},"geometry":{"type":"LineString","coordinates":[[127.05895,37.44805],[127.05874,37.44805],[127.05855,37.44803]]}},{"type":"Feature","properties":{"class":"minor","highway":"residential","sidewalk":"unknown","lanes":0,"name":"청룡마을길","oneway":false},"geometry":{"type":"LineString","coordinates":[[127.05811,37.44603],[127.05824,37.44616],[127.05835,37.4462],[127.05851,37.44627],[127.05864,37.44631]]}},{"type":"Feature","properties":{"class":"minor","highway":"residential","sidewalk":"unknown","lanes":0,"name":"청룡마을길","oneway":false},"geometry":{"type":"LineString","coordinates":[[127.05811,37.44603],[127.05794,37.44576],[127.05789,37.4457],[127.0578,37.44559],[127.05763,37.4454],[127.05756,37.44533]]}},{"type":"Feature","properties":{"class":"alley","highway":"living_street","sidewalk":"unknown","lanes":0,"name":"원터1길","oneway":false},"geometry":{"type":"LineString","coordinates":[[127.05751,37.44313],[127.05721,37.44355],[127.05683,37.44406],[127.05675,37.44411]]}},{"type":"Feature","properties":{"class":"alley","highway":"service","sidewalk":"unknown","lanes":0,"name":"청계산로","oneway":false},"geometry":{"type":"LineString","coordinates":[[127.05939,37.44367],[127.05943,37.44368]]}},{"type":"Feature","properties":{"class":"alley","highway":"service","sidewalk":"unknown","lanes":0,"name":"청계산로","oneway":false},"geometry":{"type":"LineString","coordinates":[[127.05917,37.44363],[127.05923,37.44363],[127.05932,37.44363],[127.05939,37.44367]]}},{"type":"Feature","properties":{"class":"minor","highway":"residential","sidewalk":"unknown","lanes":0,"name":"새원3길","oneway":false},"geometry":{"type":"LineString","coordinates":[[127.04989,37.45424],[127.05035,37.45357],[127.05041,37.45355],[127.05049,37.45353],[127.05064,37.45351]]}},{"type":"Feature","properties":{"class":"alley","highway":"service","sidewalk":"unknown","lanes":0,"name":"새원길","oneway":false},"geometry":{"type":"LineString","coordinates":[[127.04888,37.45364],[127.04883,37.45359],[127.04848,37.45317],[127.04834,37.45305],[127.04813,37.4529],[127.048,37.4527],[127.04788,37.45249],[127.04775,37.45235],[127.0474,37.45212],[127.04731,37.45194],[127.04727,37.45182],[127.04724,37.45173],[127.04688,37.45141],[127.04672,37.45134],[127.0465,37.45123],[127.0465,37.45123],[127.04637,37.45108],[127.04614,37.45078],[127.04614,37.45063],[127.0462,37.45045],[127.04619,37.45041],[127.04603,37.45035]]}},{"type":"Feature","properties":{"class":"minor","highway":"residential","sidewalk":"unknown","lanes":0,"name":"새원마을 연결통로","oneway":false},"geometry":{"type":"LineString","coordinates":[[127.04936,37.45397],[127.04888,37.45364]]}},{"type":"Feature","properties":{"class":"alley","highway":"service","sidewalk":"unknown","lanes":0,"name":"","oneway":false},"geometry":{"type":"LineString","coordinates":[[127.05739,37.44709],[127.05733,37.44671]]}},{"type":"Feature","properties":{"class":"minor","highway":"residential","sidewalk":"unknown","lanes":0,"name":"","oneway":false},"geometry":{"type":"LineString","coordinates":[[127.05756,37.45004],[127.05782,37.45033]]}},{"type":"Feature","properties":{"class":"minor","highway":"residential","sidewalk":"unknown","lanes":0,"name":"청계산로9길","oneway":false},"geometry":{"type":"LineString","coordinates":[[127.05555,37.44865],[127.05704,37.44956],[127.05725,37.44969],[127.05754,37.45],[127.05756,37.45004]]}},{"type":"Feature","properties":{"class":"alley","highway":"service","sidewalk":"unknown","lanes":0,"name":"","oneway":false},"geometry":{"type":"LineString","coordinates":[[127.05716,37.45138],[127.0572,37.45141]]}},{"type":"Feature","properties":{"class":"alley","highway":"service","sidewalk":"unknown","lanes":0,"name":"","oneway":false},"geometry":{"type":"LineString","coordinates":[[127.05685,37.45087],[127.05701,37.451],[127.05705,37.45105],[127.05718,37.45133],[127.05716,37.45138],[127.05708,37.45143],[127.05699,37.45153],[127.0569,37.45167],[127.05687,37.45179],[127.05688,37.45184],[127.05691,37.45187]]}},{"type":"Feature","properties":{"class":"minor","highway":"residential","sidewalk":"unknown","lanes":0,"name":"청계산로7길","oneway":false},"geometry":{"type":"LineString","coordinates":[[127.05618,37.45169],[127.05626,37.4517]]}},{"type":"Feature","properties":{"class":"minor","highway":"residential","sidewalk":"unknown","lanes":0,"name":"청계산로7길","oneway":false},"geometry":{"type":"LineString","coordinates":[[127.05592,37.45165],[127.05618,37.45169]]}},{"type":"Feature","properties":{"class":"minor","highway":"residential","sidewalk":"unknown","lanes":2,"name":"청계산로7길","oneway":false},"geometry":{"type":"LineString","coordinates":[[127.05247,37.45387],[127.05244,37.4539]]}},{"type":"Feature","properties":{"class":"minor","highway":"residential","sidewalk":"unknown","lanes":2,"name":"청계산로7길","oneway":false},"geometry":{"type":"LineString","coordinates":[[127.05253,37.4538],[127.05247,37.45387]]}},{"type":"Feature","properties":{"class":"alley","highway":"service","sidewalk":"unknown","lanes":0,"name":"","oneway":false},"geometry":{"type":"LineString","coordinates":[[127.04305,37.45391],[127.04309,37.45378],[127.04309,37.45365],[127.0431,37.45353],[127.04308,37.45335],[127.04304,37.45323],[127.04294,37.453],[127.04286,37.45286]]}},{"type":"Feature","properties":{"class":"alley","highway":"service","sidewalk":"unknown","lanes":0,"name":"","oneway":true},"geometry":{"type":"LineString","coordinates":[[127.04286,37.45286],[127.04292,37.45281],[127.04299,37.45277]]}},{"type":"Feature","properties":{"class":"alley","highway":"service","sidewalk":"unknown","lanes":0,"name":"","oneway":true},"geometry":{"type":"LineString","coordinates":[[127.04315,37.45314],[127.04311,37.45317],[127.04304,37.45323]]}}]}