{"type":"FeatureCollection","features":[{"type":"Feature","properties":{"class":"major","highway":"trunk","sidewalk":"likely","lanes":3,"name":"분당수서로","oneway":true},"geometry":{"type":"LineString","coordinates":[[127.12529,37.44769],[127.12535,37.44785],[127.12543,37.44811],[127.12557,37.44878],[127.1256,37.44933],[127.12556,37.45108],[127.12554,37.4517],[127.12551,37.4529],[127.12545,37.45388],[127.12536,37.45478],[127.12508,37.45668],[127.12501,37.45755],[127.12497,37.45803]]}},{"type":"Feature","properties":{"class":"major","highway":"trunk","sidewalk":"likely","lanes":3,"name":"분당수서로","oneway":true},"geometry":{"type":"LineString","coordinates":[[127.12282,37.4712],[127.12352,37.47025],[127.12381,37.46982],[127.1242,37.46914],[127.12447,37.46857],[127.1247,37.46798],[127.12478,37.46776],[127.125,37.46696],[127.12509,37.46652],[127.1252,37.46567],[127.12521,37.4649],[127.12517,37.46397],[127.12487,37.46036],[127.12481,37.45943],[127.12482,37.45849],[127.12484,37.45802]]}},{"type":"Feature","properties":{"class":"major","highway":"trunk","sidewalk":"likely","lanes":3,"name":"분당수서로","oneway":true},"geometry":{"type":"LineString","coordinates":[[127.12497,37.45803],[127.12496,37.45891],[127.12497,37.45952],[127.12504,37.46044],[127.1253,37.46377],[127.12535,37.4649],[127.12534,37.46566],[127.12527,37.46627],[127.12515,37.46697],[127.12492,37.46772],[127.12483,37.46802],[127.1246,37.46863],[127.12429,37.46926],[127.12399,37.46978],[127.12364,37.47029],[127.12295,37.47125]]}},{"type":"Feature","properties":{"class":"major","highway":"trunk","sidewalk":"likely","lanes":3,"name":"분당수서로","oneway":true},"geometry":{"type":"LineString","coordinates":[[127.12484,37.45802],[127.12494,37.45662],[127.12504,37.45584],[127.12526,37.45429],[127.12539,37.45275],[127.12539,37.45193],[127.12542,37.45146],[127.12545,37.44937],[127.1254,37.44882],[127.12527,37.44815],[127.12516,37.44771]]}},{"type":"Feature","properties":{"class":"major","highway":"secondary","sidewalk":"yes","lanes":4,"name":"탄천로","oneway":false},"geometry":{"type":"LineString","coordinates":[[127.11968,37.44194],[127.1197,37.44217],[127.11969,37.44234],[127.11969,37.44339],[127.11973,37.44372],[127.11991,37.44439],[127.11997,37.44489],[127.11999,37.44539],[127.11996,37.44678],[127.12001,37.44737],[127.12012,37.44798],[127.12032,37.44867],[127.12045,37.44907],[127.12069,37.44982],[127.12089,37.45048],[127.12103,37.45103],[127.12107,37.45141],[127.12104,37.45184],[127.12092,37.45225],[127.12066,37.45272],[127.12013,37.45329],[127.1198,37.45368],[127.11954,37.45412],[127.11944,37.45461],[127.11942,37.45543],[127.11949,37.45727],[127.1195,37.45743],[127.1195,37.45776],[127.1195,37.45789],[127.11985,37.45814],[127.11987,37.45816],[127.12005,37.45829],[127.12048,37.45859],[127.12087,37.45882],[127.12146,37.45914],[127.12181,37.45939],[127.12258,37.4601],[127.12298,37.46047],[127.12322,37.46058],[127.1235,37.46062],[127.12378,37.46059],[127.12407,37.46044],[127.12431,37.46031],[127.12445,37.46023],[127.12471,37.46009],[127.12509,37.46001],[127.1256,37.46],[127.12565,37.45999]]}},{"type":"Feature","properties":{"class":"alley","highway":"service","sidewalk":"unknown","lanes":0,"name":"","oneway":false},"geometry":{"type":"LineString","coordinates":[[127.12086,37.46152],[127.12068,37.45945],[127.12143,37.45939]]}},{"type":"Feature","properties":{"class":"alley","highway":"service","sidewalk":"unknown","lanes":0,"name":"","oneway":false},"geometry":{"type":"LineString","coordinates":[[127.12068,37.45945],[127.11968,37.4595],[127.11982,37.46076],[127.11985,37.4612],[127.1197,37.46121],[127.11961,37.46111]]}},{"type":"Feature","properties":{"class":"alley","highway":"service","sidewalk":"unknown","lanes":0,"name":"","oneway":false},"geometry":{"type":"LineString","coordinates":[[127.11942,37.45893],[127.12004,37.45891],[127.12016,37.45897],[127.12036,37.45899],[127.12063,37.45899],[127.12081,37.45903],[127.1211,37.45919],[127.12143,37.45939],[127.12165,37.45952],[127.1217,37.45956],[127.12176,37.45962],[127.12181,37.45967],[127.12184,37.45973],[127.12185,37.45979],[127.12186,37.45985],[127.12187,37.45993],[127.12194,37.46064],[127.12199,37.46118],[127.12201,37.46146],[127.12201,37.46153],[127.12202,37.46163],[127.12207,37.4622],[127.12211,37.46265],[127.12212,37.4628],[127.12216,37.46323],[127.12217,37.46334],[127.1222,37.4637],[127.1222,37.46373],[127.1222,37.46379],[127.12223,37.46383],[127.12229,37.46384],[127.12238,37.46384],[127.12263,37.46383],[127.12318,37.4638]]}},{"type":"Feature","properties":{"class":"alley","highway":"service","sidewalk":"unknown","lanes":0,"name":"","oneway":false},"geometry":{"type":"LineString","coordinates":[[127.12438,37.45973],[127.12425,37.45971],[127.1242,37.45968],[127.12421,37.4596],[127.12425,37.45957]]}},{"type":"Feature","properties":{"class":"minor","highway":"residential","sidewalk":"unknown","lanes":0,"name":"","oneway":false},"geometry":{"type":"LineString","coordinates":[[127.12445,37.46023],[127.1244,37.46],[127.12438,37.45985],[127.12438,37.45973],[127.12438,37.45954],[127.12436,37.45921],[127.12427,37.45917],[127.12415,37.45914]]}},{"type":"Feature","properties":{"class":"alley","highway":"service","sidewalk":"unknown","lanes":0,"name":"","oneway":false},"geometry":{"type":"LineString","coordinates":[[127.12595,37.45547],[127.12493,37.45541]]}},{"type":"Feature","properties":{"class":"alley","highway":"service","sidewalk":"unknown","lanes":0,"name":"","oneway":false},"geometry":{"type":"LineString","coordinates":[[127.12493,37.45541],[127.12481,37.45543],[127.12483,37.45559],[127.12447,37.45556]]}},{"type":"Feature","properties":{"class":"major","highway":"secondary_link","sidewalk":"likely","lanes":0,"name":"","oneway":true},"geometry":{"type":"LineString","coordinates":[[127.1195,37.45743],[127.11961,37.45766],[127.11969,37.45787],[127.11981,37.45803],[127.11992,37.45815],[127.12005,37.45829]]}},{"type":"Feature","properties":{"class":"alley","highway":"service","sidewalk":"unknown","lanes":0,"name":"","oneway":false},"geometry":{"type":"LineString","coordinates":[[127.12004,37.45891],[127.12024,37.45889],[127.12036,37.45888],[127.12044,37.45888],[127.12075,37.45884],[127.12087,37.45882]]}},{"type":"Feature","properties":{"class":"major","highway":"secondary_link","sidewalk":"likely","lanes":0,"name":"","oneway":true},"geometry":{"type":"LineString","coordinates":[[127.12036,37.45888],[127.1205,37.45879],[127.12052,37.45873],[127.12048,37.45859]]}},{"type":"Feature","properties":{"class":"major","highway":"tertiary","sidewalk":"likely","lanes":2,"name":"복정로","oneway":false},"geometry":{"type":"LineString","coordinates":[[127.12757,37.45304],[127.12751,37.4531],[127.12747,37.45405],[127.12744,37.45441],[127.12741,37.45477],[127.12737,37.45587],[127.12735,37.45608],[127.12733,37.45633],[127.12731,37.45644],[127.12719,37.45679],[127.127,37.45733],[127.12685,37.45778],[127.12682,37.45796],[127.12674,37.45826],[127.12669,37.45872],[127.12668,37.4591],[127.12668,37.45936],[127.1267,37.45962],[127.12669,37.45973],[127.12677,37.46046],[127.12686,37.46157],[127.1269,37.46199],[127.12694,37.46239],[127.127,37.46316],[127.12703,37.46357],[127.12705,37.46412],[127.12709,37.46494],[127.12713,37.4654]]}},{"type":"Feature","properties":{"class":"major","highway":"primary","sidewalk":"yes","lanes":5,"name":"성남대로","oneway":true},"geometry":{"type":"LineString","coordinates":[[127.12617,37.4657],[127.12615,37.46545],[127.12592,37.46291],[127.12571,37.46],[127.12571,37.45993],[127.12572,37.45901],[127.12577,37.45795],[127.12588,37.45731],[127.12605,37.45669],[127.1262,37.45622],[127.12627,37.45585],[127.12632,37.45549],[127.12635,37.45533],[127.12638,37.45469]]}},{"type":"Feature","properties":{"class":"major","highway":"primary","sidewalk":"yes","lanes":5,"name":"성남대로","oneway":true},"geometry":{"type":"LineString","coordinates":[[127.12593,37.45982],[127.12592,37.45997],[127.12593,37.46005],[127.12595,37.46055],[127.12609,37.46204],[127.12615,37.46289],[127.1262,37.46344],[127.12638,37.46544],[127.12641,37.46569],[127.12656,37.46714],[127.12657,37.46741],[127.12658,37.46761],[127.12661,37.46791],[127.12666,37.46854]]}}]}