{"type":"FeatureCollection","features":[{"type":"Feature","properties":{"class":"alley","highway":"service","sidewalk":"unknown","lanes":0,"name":"","oneway":false},"geometry":{"type":"LineString","coordinates":[[126.9841,37.46479],[126.98487,37.46418],[126.98615,37.46313],[126.98631,37.46299],[126.98633,37.46148],[126.98633,37.46083],[126.98635,37.46041],[126.98641,37.45967],[126.98647,37.45957],[126.98656,37.45947],[126.98671,37.45928],[126.98673,37.45921],[126.98698,37.45911],[126.98725,37.45897],[126.9874,37.45889],[126.98752,37.45884],[126.98754,37.45883],[126.9876,37.45881],[126.98769,37.45879],[126.98781,37.45872]]}},{"type":"Feature","properties":{"class":"alley","highway":"service","sidewalk":"unknown","lanes":0,"name":"","oneway":false},"geometry":{"type":"LineString","coordinates":[[126.98233,37.46228],[126.98272,37.46232],[126.98299,37.46227],[126.98365,37.46207],[126.98386,37.46201],[126.98414,37.46186],[126.98418,37.46182],[126.98437,37.46166],[126.98452,37.46144],[126.98468,37.46096],[126.9848,37.46054],[126.98488,37.46037],[126.98522,37.45986],[126.98553,37.45947],[126.98586,37.45915],[126.98625,37.45923]]}},{"type":"Feature","properties":{"class":"alley","highway":"service","sidewalk":"unknown","lanes":0,"name":"","oneway":false},"geometry":{"type":"LineString","coordinates":[[126.98625,37.45923],[126.98661,37.4592],[126.98673,37.45921]]}},{"type":"Feature","properties":{"class":"alley","highway":"service","sidewalk":"unknown","lanes":0,"name":"","oneway":true},"geometry":{"type":"LineString","coordinates":[[126.98781,37.45872],[126.98798,37.45849],[126.98825,37.45819]]}},{"type":"Feature","properties":{"class":"major","highway":"primary","sidewalk":"likely","lanes":0,"name":"과천대로","oneway":true},"geometry":{"type":"LineString","coordinates":[[126.98846,37.45815],[126.98956,37.4566]]}},{"type":"Feature","properties":{"class":"alley","highway":"service","sidewalk":"unknown","lanes":0,"name":"","oneway":false},"geometry":{"type":"LineString","coordinates":[[126.98488,37.45789],[126.98541,37.45794],[126.98555,37.45794],[126.98571,37.45789],[126.98587,37.45778],[126.98601,37.45773],[126.98614,37.45774],[126.98632,37.45764],[126.98621,37.45749],[126.98622,37.45745],[126.98627,37.45742],[126.98636,37.45741],[126.98651,37.45743],[126.98676,37.45754],[126.98694,37.4577],[126.98695,37.45776],[126.98692,37.45783],[126.98685,37.4579],[126.98661,37.45803],[126.98643,37.45818],[126.98635,37.45829],[126.98636,37.4584],[126.98636,37.45856],[126.98632,37.45864],[126.98613,37.45884],[126.98603,37.45897],[126.98586,37.45915]]}},{"type":"Feature","properties":{"class":"alley","highway":"service","sidewalk":"unknown","lanes":0,"name":"","oneway":false},"geometry":{"type":"LineString","coordinates":[[126.98747,37.45561],[126.98788,37.45575],[126.98872,37.45601],[126.98878,37.45605],[126.98878,37.45616],[126.9885,37.4572]]}},{"type":"Feature","properties":{"class":"alley","highway":"service","sidewalk":"unknown","lanes":0,"name":"","oneway":false},"geometry":{"type":"LineString","coordinates":[[126.98788,37.45575],[126.98745,37.45663],[126.98743,37.45669],[126.98747,37.45682],[126.98827,37.45716],[126.9885,37.4572],[126.98858,37.45727],[126.98859,37.45737],[126.98857,37.45746],[126.98854,37.45758],[126.98838,37.45784],[126.98825,37.45819]]}},{"type":"Feature","properties":{"class":"alley","highway":"service","sidewalk":"unknown","lanes":0,"name":"","oneway":false},"geometry":{"type":"LineString","coordinates":[[126.98747,37.45682],[126.98704,37.45679]]}},{"type":"Feature","properties":{"class":"alley","highway":"service","sidewalk":"unknown","lanes":0,"name":"","oneway":true},"geometry":{"type":"LineString","coordinates":[[126.98744,37.46091],[126.98733,37.46078],[126.98728,37.46056],[126.98727,37.46045],[126.98728,37.46031],[126.98728,37.4601],[126.9873,37.4599],[126.98732,37.45978],[126.98736,37.45959],[126.98742,37.45942],[126.98751,37.45922],[126.98758,37.45906],[126.98765,37.45896],[126.98781,37.45872]]}},{"type":"Feature","properties":{"class":"alley","highway":"service","sidewalk":"unknown","lanes":0,"name":"","oneway":false},"geometry":{"type":"LineString","coordinates":[[126.989,37.44902],[126.98909,37.44887],[126.98918,37.44878],[126.98928,37.44872],[126.98944,37.44871],[126.98978,37.44878],[126.98993,37.44881],[126.99003,37.44884],[126.99014,37.44888],[126.99021,37.44891],[126.99034,37.44891],[126.99046,37.44893],[126.99053,37.44898],[126.9906,37.44905],[126.99064,37.44908],[126.99078,37.44911],[126.99096,37.44913],[126.99104,37.44915],[126.99117,37.4492],[126.99122,37.4492],[126.99149,37.44911]]}},{"type":"Feature","properties":{"class":"major","highway":"primary","sidewalk":"likely","lanes":0,"name":"과천대로","oneway":true},"geometry":{"type":"LineString","coordinates":[[126.98856,37.45833],[126.9879,37.45927],[126.98757,37.46032],[126.98809,37.46274],[126.98821,37.46334],[126.98835,37.46405]]}},{"type":"Feature","properties":{"class":"alley","highway":"service","sidewalk":"unknown","lanes":0,"name":"","oneway":false},"geometry":{"type":"LineString","coordinates":[[126.98858,37.45727],[126.98875,37.45721],[126.98956,37.4566]]}},{"type":"Feature","properties":{"class":"minor","highway":"unclassified","sidewalk":"unknown","lanes":0,"name":"","oneway":false},"geometry":{"type":"LineString","coordinates":[[126.98838,37.46258],[126.98868,37.46229],[126.98883,37.46224],[126.98887,37.46217],[126.98911,37.46151],[126.98866,37.46119],[126.98849,37.46106],[126.98842,37.46092],[126.98843,37.46005],[126.9881,37.45984],[126.98821,37.4593],[126.98838,37.45926],[126.98854,37.45942],[126.98869,37.45939]]}},{"type":"Feature","properties":{"class":"minor","highway":"unclassified","sidewalk":"unknown","lanes":0,"name":"","oneway":false},"geometry":{"type":"LineString","coordinates":[[126.98843,37.46005],[126.98874,37.45998]]}},{"type":"Feature","properties":{"class":"major","highway":"primary","sidewalk":"likely","lanes":0,"name":"","oneway":true},"geometry":{"type":"LineString","coordinates":[[126.99274,37.45188],[126.99264,37.45202],[126.9908,37.45423],[126.98968,37.45677]]}},{"type":"Feature","properties":{"class":"major","highway":"primary","sidewalk":"likely","lanes":0,"name":"","oneway":true},"geometry":{"type":"LineString","coordinates":[[126.98956,37.4566],[126.99063,37.45419],[126.9925,37.45189]]}},{"type":"Feature","properties":{"class":"major","highway":"primary","sidewalk":"likely","lanes":0,"name":"","oneway":true},"geometry":{"type":"LineString","coordinates":[[126.98968,37.45677],[126.98856,37.45833]]}},{"type":"Feature","properties":{"class":"major","highway":"primary","sidewalk":"likely","lanes":0,"name":"","oneway":true},"geometry":{"type":"LineString","coordinates":[[126.98788,37.46277],[126.98775,37.46219],[126.98745,37.46097],[126.98744,37.46091],[126.98735,37.46035],[126.98747,37.45959],[126.98767,37.45916],[126.98846,37.45815]]}},{"type":"Feature","properties":{"class":"minor","highway":"residential","sidewalk":"unknown","lanes":0,"name":"용마로","oneway":false},"geometry":{"type":"LineString","coordinates":[[126.99474,37.44822],[126.99457,37.44807],[126.99445,37.44801],[126.99421,37.44788],[126.99381,37.44772],[126.99362,37.44765],[126.99351,37.44759],[126.99345,37.44753],[126.99318,37.44718]]}},{"type":"Feature","properties":{"class":"major","highway":"trunk","sidewalk":"likely","lanes":0,"name":"과천대로","oneway":true},"geometry":{"type":"LineString","coordinates":[[127.00277,37.43391],[127.00267,37.43428],[127.00251,37.43463],[127.00229,37.43509],[127.00223,37.43519],[127.0015,37.43651],[127.00072,37.4379],[127.00038,37.4385],[127.00026,37.43872],[127.00006,37.43905],[126.99961,37.43986],[126.9989,37.44112],[126.99874,37.44139],[126.99872,37.44144]]}},{"type":"Feature","properties":{"class":"major","highway":"trunk","sidewalk":"likely","lanes":0,"name":"","oneway":true},"geometry":{"type":"LineString","coordinates":[[126.99712,37.44384],[126.99839,37.44161],[126.99845,37.44138]]}},{"type":"Feature","properties":{"class":"major","highway":"primary","sidewalk":"likely","lanes":0,"name":"중앙로","oneway":true},"geometry":{"type":"LineString","coordinates":[[126.99713,37.44817],[126.9968,37.44799],[126.99668,37.44791],[126.99654,37.44782],[126.99643,37.44774],[126.99633,37.44767],[126.99622,37.44757],[126.99612,37.44747],[126.99603,37.44737],[126.99592,37.44723]]}},{"type":"Feature","properties":{"class":"major","highway":"primary_link","sidewalk":"likely","lanes":0,"name":"","oneway":true},"geometry":{"type":"LineString","coordinates":[[126.99713,37.44817],[126.99677,37.44805],[126.99651,37.4479]]}},{"type":"Feature","properties":{"class":"major","highway":"tertiary","sidewalk":"likely","lanes":0,"name":"중앙로","oneway":true},"geometry":{"type":"LineString","coordinates":[[126.99592,37.44723],[126.99591,37.44721],[126.99588,37.44717],[126.99585,37.44711],[126.99581,37.44704],[126.99578,37.44696],[126.99546,37.44603]]}},{"type":"Feature","properties":{"class":"major","highway":"primary","sidewalk":"likely","lanes":0,"name":"","oneway":true},"geometry":{"type":"LineString","coordinates":[[126.99464,37.44841],[126.99382,37.44998],[126.9938,37.45003],[126.99374,37.45012],[126.99287,37.45172],[126.99274,37.45188]]}},{"type":"Feature","properties":{"class":"major","highway":"tertiary_link","sidewalk":"likely","lanes":0,"name":"중앙로","oneway":true},"geometry":{"type":"LineString","coordinates":[[126.99508,37.44443],[126.99522,37.44469],[126.99542,37.44512],[126.99551,37.44539],[126.99558,37.44579],[126.99562,37.44592],[126.99563,37.44601],[126.99564,37.44616],[126.99563,37.44645]]}},{"type":"Feature","properties":{"class":"major","highway":"trunk_link","sidewalk":"likely","lanes":0,"name":"대공원고가교","oneway":true},"geometry":{"type":"LineString","coordinates":[[126.99879,37.44081],[126.99894,37.44073],[126.99911,37.44044],[126.99926,37.44017]]}},{"type":"Feature","properties":{"class":"minor","highway":"residential","sidewalk":"unknown","lanes":0,"name":"양지마을1로","oneway":false},"geometry":{"type":"LineString","coordinates":[[126.99382,37.44998],[126.99388,37.44993],[126.9941,37.44994],[126.99425,37.44988],[126.99524,37.44955],[126.99534,37.44952],[126.99545,37.44953],[126.99564,37.4496],[126.99595,37.44991],[126.99624,37.45017],[126.99638,37.45024],[126.9965,37.4503],[126.99661,37.45037],[126.99697,37.4504],[126.99719,37.45036],[126.99793,37.45022],[126.99808,37.45017],[126.99817,37.45008],[126.99822,37.44995]]}},{"type":"Feature","properties":{"class":"major","highway":"trunk","sidewalk":"likely","lanes":0,"name":"과천대로","oneway":true},"geometry":{"type":"LineString","coordinates":[[126.99719,37.44388],[126.99448,37.44852]]}},{"type":"Feature","properties":{"class":"major","highway":"trunk","sidewalk":"likely","lanes":0,"name":"과천대로","oneway":true},"geometry":{"type":"LineString","coordinates":[[126.99441,37.4485],[126.99712,37.44384]]}},{"type":"Feature","properties":{"class":"major","highway":"trunk_link","sidewalk":"likely","lanes":0,"name":"","oneway":true},"geometry":{"type":"LineString","coordinates":[[126.99608,37.44595],[126.99584,37.4463],[126.99568,37.44661]]}},{"type":"Feature","properties":{"class":"minor","highway":"residential","sidewalk":"unknown","lanes":0,"name":"용마로","oneway":false},"geometry":{"type":"LineString","coordinates":[[126.99318,37.44718],[126.99281,37.44675],[126.99265,37.44655],[126.9923,37.44623],[126.99224,37.44618],[126.992,37.44601],[126.99187,37.4459],[126.9918,37.44579],[126.99174,37.44569],[126.99166,37.44555],[126.99154,37.44548],[126.99141,37.44512]]}},{"type":"Feature","properties":{"class":"major","highway":"trunk","sidewalk":"likely","lanes":0,"name":"","oneway":true},"geometry":{"type":"LineString","coordinates":[[126.99872,37.44144],[126.99852,37.44162],[126.99792,37.44264],[126.99766,37.44307],[126.99719,37.44388]]}},{"type":"Feature","properties":{"class":"minor","highway":"residential","sidewalk":"unknown","lanes":0,"name":"","oneway":false},"geometry":{"type":"LineString","coordinates":[[126.99224,37.44618],[126.99206,37.44634],[126.99191,37.44643],[126.99169,37.44647],[126.99148,37.44646],[126.99132,37.44673]]}},{"type":"Feature","properties":{"class":"major","highway":"primary_link","sidewalk":"likely","lanes":0,"name":"","oneway":true},"geometry":{"type":"LineString","coordinates":[[126.99485,37.44763],[126.99487,37.44741],[126.99499,37.44706],[126.99503,37.44697],[126.99507,37.44684],[126.9951,37.44673],[126.99513,37.44659],[126.99515,37.4465],[126.99516,37.44639],[126.99517,37.44638],[126.9952,37.44611]]}},{"type":"Feature","properties":{"class":"major","highway":"trunk_link","sidewalk":"likely","lanes":0,"name":"","oneway":true},"geometry":{"type":"LineString","coordinates":[[126.99542,37.44512],[126.9955,37.44521],[126.99557,37.44531],[126.99561,37.44535],[126.99564,37.44537],[126.99568,37.4454],[126.99571,37.44541],[126.99575,37.44542],[126.99578,37.44543],[126.99583,37.44544],[126.99587,37.44544],[126.99592,37.44543],[126.99596,37.44542],[126.99601,37.4454],[126.99605,37.44537],[126.99607,37.44534],[126.99622,37.44521]]}},{"type":"Feature","properties":{"class":"major","highway":"trunk_link","sidewalk":"likely","lanes":0,"name":"과천대로","oneway":true},"geometry":{"type":"LineString","coordinates":[[126.99872,37.44144],[126.99772,37.44316],[126.99672,37.44485],[126.99652,37.44519],[126.99608,37.44595]]}},{"type":"Feature","properties":{"class":"major","highway":"primary","sidewalk":"likely","lanes":0,"name":"중앙로","oneway":true},"geometry":{"type":"LineString","coordinates":[[127.00087,37.4518],[127.00051,37.4514],[126.99993,37.45079],[126.99924,37.44994],[126.99914,37.44979],[126.99895,37.44952],[126.99863,37.44911],[126.9985,37.44898],[126.99833,37.44886],[126.99808,37.4487],[126.99765,37.44848],[126.99713,37.44817]]}},{"type":"Feature","properties":{"class":"major","highway":"trunk_link","sidewalk":"likely","lanes":0,"name":"","oneway":true},"geometry":{"type":"LineString","coordinates":[[126.99608,37.44595],[126.99602,37.44611],[126.99599,37.44622],[126.99597,37.44635],[126.99597,37.44643],[126.99596,37.4465],[126.99597,37.44659],[126.99599,37.44669],[126.99601,37.44677],[126.99603,37.44685],[126.99608,37.44697],[126.99615,37.44719]]}},{"type":"Feature","properties":{"class":"major","highway":"tertiary","sidewalk":"likely","lanes":4,"name":"중앙로","oneway":true},"geometry":{"type":"LineString","coordinates":[[126.99546,37.44603],[126.99542,37.44584],[126.99534,37.44551],[126.99528,37.44528],[126.99525,37.44518],[126.9952,37.44505],[126.99513,37.44488],[126.9951,37.44482]]}},{"type":"Feature","properties":{"class":"minor","highway":"residential","sidewalk":"unknown","lanes":0,"name":"","oneway":false},"geometry":{"type":"LineString","coordinates":[[126.99536,37.44062],[126.99538,37.4406],[126.99569,37.44043],[126.99589,37.44032],[126.99622,37.44013],[126.9963,37.44006],[126.99639,37.44001],[126.99644,37.43999],[126.99664,37.43983],[126.99675,37.43976],[126.99691,37.43971],[126.99763,37.43971],[126.99808,37.43972],[126.99874,37.43996],[126.99917,37.44012]]}},{"type":"Feature","properties":{"class":"minor","highway":"residential","sidewalk":"unknown","lanes":0,"name":"산마을길","oneway":false},"geometry":{"type":"LineString","coordinates":[[126.99405,37.43955],[126.99386,37.43955],[126.99355,37.43971],[126.9932,37.43995],[126.99297,37.44014],[126.99286,37.44033],[126.99291,37.44078],[126.99218,37.44087],[126.99212,37.44043],[126.99286,37.44033]]}},{"type":"Feature","properties":{"class":"major","highway":"primary_link","sidewalk":"likely","lanes":0,"name":"","oneway":true},"geometry":{"type":"LineString","coordinates":[[126.99651,37.4479],[126.99642,37.44783],[126.99631,37.44777],[126.99619,37.44769],[126.99615,37.44766],[126.99608,37.4476],[126.99601,37.44753],[126.99592,37.44744],[126.99582,37.44733],[126.99577,37.44726],[126.99576,37.44725],[126.99572,37.44718],[126.99571,37.44714],[126.99569,37.44709],[126.99568,37.44705],[126.99567,37.44702],[126.99567,37.44693],[126.99568,37.44684],[126.99568,37.44661]]}},{"type":"Feature","properties":{"class":"major","highway":"primary_link","sidewalk":"likely","lanes":0,"name":"","oneway":true},"geometry":{"type":"LineString","coordinates":[[126.99576,37.44725],[126.99577,37.44719],[126.99577,37.44716],[126.99577,37.44714],[126.99578,37.44713],[126.99579,37.4471],[126.9958,37.44708],[126.99582,37.44706],[126.99584,37.44704],[126.99587,37.44703],[126.9959,37.44702],[126.99593,37.44702],[126.99596,37.44702],[126.99598,37.44703],[126.99601,37.44704],[126.99606,37.44707],[126.9961,37.44711]]}},{"type":"Feature","properties":{"class":"major","highway":"tertiary_link","sidewalk":"likely","lanes":0,"name":"","oneway":true},"geometry":{"type":"LineString","coordinates":[[126.99564,37.44616],[126.9956,37.44622],[126.99556,37.4463],[126.99551,37.44638],[126.9955,37.4464],[126.99549,37.44641],[126.99547,37.44642],[126.99546,37.44642],[126.99544,37.44643],[126.9954,37.44643],[126.99537,37.44642],[126.99534,37.44641],[126.99532,37.4464],[126.99531,37.44639],[126.99529,37.44638],[126.99529,37.44637],[126.99527,37.44635],[126.99526,37.44631],[126.99523,37.44625],[126.9952,37.44611]]}},{"type":"Feature","properties":{"class":"major","highway":"trunk_link","sidewalk":"likely","lanes":0,"name":"","oneway":true},"geometry":{"type":"LineString","coordinates":[[126.99563,37.44645],[126.99576,37.4462],[126.99585,37.44593],[126.99591,37.44577],[126.99606,37.44549],[126.99617,37.4453],[126.99622,37.44521],[126.99632,37.44504],[126.99645,37.44482],[126.99661,37.44456],[126.99684,37.44414],[126.99704,37.44377],[126.99737,37.44321],[126.99761,37.44276],[126.99788,37.44232],[126.99807,37.44199],[126.99827,37.44161],[126.99845,37.44138]]}},{"type":"Feature","properties":{"class":"alley","highway":"pedestrian","sidewalk":"unknown","lanes":0,"name":"","oneway":false},"geometry":{"type":"LineString","coordinates":[[126.99458,37.43971],[126.99469,37.43971],[126.9953,37.43971],[126.99605,37.43972],[126.99622,37.43986],[126.99639,37.44001]]}},{"type":"Feature","properties":{"class":"alley","highway":"pedestrian","sidewalk":"unknown","lanes":0,"name":"","oneway":false},"geometry":{"type":"LineString","coordinates":[[126.99441,37.44282],[126.99465,37.44275],[126.99581,37.44241],[126.99586,37.4424]]}},{"type":"Feature","properties":{"class":"alley","highway":"pedestrian","sidewalk":"unknown","lanes":0,"name":"관문보도1교","oneway":false},"geometry":{"type":"LineString","coordinates":[[126.99586,37.4424],[126.99627,37.44227]]}},{"type":"Feature","properties":{"class":"alley","highway":"pedestrian","sidewalk":"unknown","lanes":0,"name":"","oneway":false},"geometry":{"type":"LineString","coordinates":[[126.99644,37.43999],[126.99642,37.44051],[126.99611,37.44059],[126.9961,37.44171],[126.99633,37.44221],[126.99639,37.44223],[126.99649,37.44228],[126.99671,37.44235],[126.99704,37.44241],[126.99713,37.44258],[126.99761,37.44276]]}},{"type":"Feature","properties":{"class":"alley","highway":"pedestrian","sidewalk":"unknown","lanes":0,"name":"","oneway":false},"geometry":{"type":"LineString","coordinates":[[126.99627,37.44227],[126.9963,37.44226],[126.99639,37.44223]]}},{"type":"Feature","properties":{"class":"minor","highway":"residential","sidewalk":"unknown","lanes":0,"name":"상하벌로","oneway":false},"geometry":{"type":"LineString","coordinates":[[126.99906,37.44948],[127.00011,37.44916],[127.00015,37.44915]]}},{"type":"Feature","properties":{"class":"minor","highway":"residential","sidewalk":"unknown","lanes":0,"name":"양지마을로","oneway":false},"geometry":{"type":"LineString","coordinates":[[126.99474,37.44822],[126.99483,37.44827],[126.99508,37.44842],[126.99509,37.44848],[126.99531,37.44871],[126.99553,37.44884],[126.99636,37.44909],[126.99651,37.44915],[126.9966,37.44924],[126.99662,37.44937],[126.99642,37.44971],[126.99641,37.44983],[126.99661,37.45],[126.99664,37.45006],[126.99667,37.45015],[126.99663,37.45032],[126.99661,37.45037]]}},{"type":"Feature","properties":{"class":"minor","highway":"residential","sidewalk":"unknown","lanes":0,"name":"상하벌1로","oneway":false},"geometry":{"type":"LineString","coordinates":[[126.9989,37.44112],[126.99911,37.44132],[127.00032,37.44356],[127.00067,37.44433],[127.00086,37.44456],[127.00259,37.44592],[127.00287,37.44637],[127.00345,37.44758],[127.00373,37.44787],[127.00378,37.44791],[127.00418,37.44803],[127.00462,37.44822],[127.00479,37.44828]]}},{"type":"Feature","properties":{"class":"minor","highway":"residential","sidewalk":"unknown","lanes":0,"name":"향나무로","oneway":false},"geometry":{"type":"LineString","coordinates":[[126.9963,37.44738],[126.99651,37.44731],[126.99683,37.44721],[126.99716,37.44711],[126.99735,37.44712],[126.99751,37.44715],[126.99758,37.44727],[126.9977,37.4474],[126.99804,37.4478],[126.99818,37.44796],[126.99829,37.4481],[126.99833,37.4482],[126.99835,37.44825],[126.9984,37.44854]]}},{"type":"Feature","properties":{"class":"minor","highway":"residential","sidewalk":"unknown","lanes":0,"name":"","oneway":false},"geometry":{"type":"LineString","coordinates":[[126.9977,37.4474],[126.99748,37.44755],[126.99729,37.44767],[126.99714,37.44783],[126.99702,37.44795]]}},{"type":"Feature","properties":{"class":"minor","highway":"residential","sidewalk":"unknown","lanes":0,"name":"향나무1로","oneway":false},"geometry":{"type":"LineString","coordinates":[[126.9977,37.4474],[126.99814,37.44719],[126.99845,37.4476],[126.99868,37.44812],[126.99833,37.4482]]}},{"type":"Feature","properties":{"class":"minor","highway":"residential","sidewalk":"unknown","lanes":0,"name":"","oneway":false},"geometry":{"type":"LineString","coordinates":[[126.99661,37.45],[126.99703,37.44996],[126.99733,37.45005],[126.99766,37.45005],[126.99822,37.44995]]}},{"type":"Feature","properties":{"class":"alley","highway":"living_street","sidewalk":"unknown","lanes":0,"name":"","oneway":false},"geometry":{"type":"LineString","coordinates":[[126.99564,37.4496],[126.9955,37.44976],[126.99557,37.4501],[126.99556,37.45043],[126.99555,37.45072],[126.99556,37.45098]]}},{"type":"Feature","properties":{"class":"alley","highway":"service","sidewalk":"unknown","lanes":0,"name":"양지마을2로","oneway":false},"geometry":{"type":"LineString","coordinates":[[126.9938,37.45003],[126.99382,37.45003],[126.99395,37.45008],[126.99452,37.45036],[126.99502,37.45068]]}},{"type":"Feature","properties":{"class":"minor","highway":"residential","sidewalk":"unknown","lanes":0,"name":"양지마을3로","oneway":false},"geometry":{"type":"LineString","coordinates":[[126.99502,37.45068],[126.99489,37.45081],[126.99478,37.45097],[126.99473,37.45103],[126.99461,37.45125],[126.99471,37.45145],[126.99471,37.45154],[126.9948,37.45158],[126.99496,37.45173]]}},{"type":"Feature","properties":{"class":"alley","highway":"living_street","sidewalk":"unknown","lanes":0,"name":"","oneway":false},"geometry":{"type":"LineString","coordinates":[[126.99478,37.45097],[126.99496,37.45108],[126.99509,37.45114],[126.99543,37.45124],[126.99562,37.45137]]}},{"type":"Feature","properties":{"class":"minor","highway":"residential","sidewalk":"unknown","lanes":0,"name":"양지마을4로","oneway":false},"geometry":{"type":"LineString","coordinates":[[126.99697,37.4504],[126.99701,37.45059],[126.99697,37.45074],[126.99689,37.45084],[126.99683,37.45089],[126.99666,37.45102],[126.99646,37.45111],[126.99631,37.45115],[126.99604,37.45121],[126.9958,37.45128],[126.99562,37.45137],[126.99554,37.4514],[126.99524,37.45156],[126.99496,37.45173],[126.99452,37.45208],[126.99434,37.45219],[126.99414,37.45234],[126.99395,37.45251],[126.99373,37.45267],[126.99349,37.45283],[126.99343,37.45281],[126.99321,37.45278],[126.99295,37.45273]]}},{"type":"Feature","properties":{"class":"minor","highway":"residential","sidewalk":"unknown","lanes":0,"name":"남태령옛길","oneway":false},"geometry":{"type":"LineString","coordinates":[[126.99226,37.45356],[126.99253,37.45326],[126.99272,37.453],[126.99295,37.45273],[126.99301,37.45257],[126.99302,37.45253],[126.99307,37.45247],[126.99311,37.45236],[126.99346,37.45138],[126.99377,37.45033],[126.99377,37.45015],[126.99374,37.45012]]}},{"type":"Feature","properties":{"class":"alley","highway":"living_street","sidewalk":"unknown","lanes":0,"name":"","oneway":false},"geometry":{"type":"LineString","coordinates":[[126.99434,37.45219],[126.99425,37.45209],[126.99413,37.452],[126.9938,37.45205],[126.99368,37.4521],[126.99358,37.45245],[126.99332,37.4524],[126.99321,37.45278]]}},{"type":"Feature","properties":{"class":"minor","highway":"residential","sidewalk":"unknown","lanes":0,"name":"용마1로","oneway":false},"geometry":{"type":"LineString","coordinates":[[126.99318,37.44718],[126.99301,37.44724],[126.99283,37.44733],[126.99274,37.44736],[126.99227,37.44707],[126.99202,37.44697],[126.99191,37.44693],[126.99177,37.44687],[126.99132,37.44673],[126.99108,37.44668],[126.99082,37.447],[126.99058,37.44737],[126.99055,37.44743],[126.99056,37.44752],[126.99063,37.44764],[126.99078,37.44784],[126.99078,37.4479],[126.99075,37.44801],[126.99119,37.44851],[126.99124,37.4487],[126.99126,37.44882],[126.99149,37.44911],[126.9917,37.44939],[126.99212,37.44961],[126.99246,37.44973],[126.9931,37.44996],[126.99343,37.45007]]}},{"type":"Feature","properties":{"class":"minor","highway":"residential","sidewalk":"unknown","lanes":0,"name":"용마2로","oneway":false},"geometry":{"type":"LineString","coordinates":[[126.99301,37.44724],[126.99279,37.44707],[126.99243,37.44679],[126.99191,37.44643]]}},{"type":"Feature","properties":{"class":"minor","highway":"residential","sidewalk":"unknown","lanes":0,"name":"","oneway":false},"geometry":{"type":"LineString","coordinates":[[126.99571,37.45461],[126.99562,37.45439],[126.99574,37.45428],[126.9959,37.45417],[126.99595,37.454],[126.99598,37.45394],[126.99632,37.45385],[126.99665,37.45372],[126.99689,37.45351],[126.99707,37.45348],[126.99768,37.45311],[126.9978,37.45291],[126.99804,37.45263],[126.99865,37.45195],[126.99878,37.45181],[126.99935,37.45132],[126.99954,37.45099],[126.99993,37.45079]]}},{"type":"Feature","properties":{"class":"major","highway":"primary_link","sidewalk":"likely","lanes":0,"name":"","oneway":true},"geometry":{"type":"LineString","coordinates":[[126.99485,37.44763],[126.99501,37.44735],[126.99525,37.44697],[126.99542,37.44672]]}},{"type":"Feature","properties":{"class":"major","highway":"primary_link","sidewalk":"likely","lanes":0,"name":"중앙로","oneway":true},"geometry":{"type":"LineString","coordinates":[[126.99568,37.44661],[126.99581,37.44673],[126.99589,37.44681],[126.99591,37.44683],[126.99594,37.44686],[126.99598,37.44692],[126.9961,37.44711],[126.99615,37.44719]]}},{"type":"Feature","properties":{"class":"major","highway":"trunk","sidewalk":"likely","lanes":0,"name":"과천대로","oneway":true},"geometry":{"type":"LineString","coordinates":[[126.99448,37.44852],[126.99379,37.44987],[126.99274,37.45188]]}},{"type":"Feature","properties":{"class":"major","highway":"primary","sidewalk":"likely","lanes":0,"name":"","oneway":true},"geometry":{"type":"LineString","coordinates":[[126.99343,37.45007],[126.99348,37.44997],[126.99411,37.44883],[126.99424,37.44859],[126.99437,37.44836],[126.99457,37.44807],[126.99485,37.44763]]}},{"type":"Feature","properties":{"class":"major","highway":"trunk","sidewalk":"likely","lanes":0,"name":"과천대로","oneway":true},"geometry":{"type":"LineString","coordinates":[[126.9925,37.45189],[126.99298,37.45119],[126.9937,37.44983],[126.99441,37.4485]]}},{"type":"Feature","properties":{"class":"major","highway":"primary_link","sidewalk":"likely","lanes":0,"name":"","oneway":true},"geometry":{"type":"LineString","coordinates":[[126.99651,37.4479],[126.99639,37.44786],[126.99612,37.44773],[126.99586,37.44762],[126.99575,37.44757],[126.99567,37.44755],[126.99562,37.44754],[126.99556,37.44754],[126.99549,37.44754],[126.99545,37.44754],[126.99542,37.44754],[126.99538,37.44755],[126.99533,37.44756],[126.99529,37.44758],[126.99526,37.4476],[126.9952,37.44763],[126.99516,37.44766],[126.99508,37.4477],[126.99499,37.44775]]}},{"type":"Feature","properties":{"class":"major","highway":"tertiary","sidewalk":"likely","lanes":4,"name":"중앙로","oneway":true},"geometry":{"type":"LineString","coordinates":[[126.99447,37.4388],[126.99436,37.43906],[126.99416,37.43955],[126.99413,37.4397],[126.99409,37.44003],[126.99406,37.44093],[126.99406,37.44119],[126.99412,37.44186],[126.99424,37.44234],[126.99441,37.44282],[126.99448,37.44299],[126.99508,37.44443]]}},{"type":"Feature","properties":{"class":"major","highway":"primary","sidewalk":"likely","lanes":0,"name":"중앙로","oneway":false},"geometry":{"type":"LineString","coordinates":[[126.99563,37.44645],[126.99568,37.44661]]}},{"type":"Feature","properties":{"class":"major","highway":"primary_link","sidewalk":"likely","lanes":0,"name":"","oneway":true},"geometry":{"type":"LineString","coordinates":[[126.99542,37.44672],[126.99555,37.44663],[126.99568,37.44661]]}},{"type":"Feature","properties":{"class":"major","highway":"tertiary_link","sidewalk":"likely","lanes":0,"name":"","oneway":true},"geometry":{"type":"LineString","coordinates":[[126.99563,37.44645],[126.9956,37.44646],[126.99557,37.44646],[126.99553,37.44646],[126.99551,37.44646],[126.99548,37.44646],[126.99546,37.44646],[126.99544,37.44645],[126.9954,37.44643]]}},{"type":"Feature","properties":{"class":"major","highway":"trunk_link","sidewalk":"likely","lanes":0,"name":"","oneway":true},"geometry":{"type":"LineString","coordinates":[[126.99672,37.44485],[126.99663,37.44494],[126.99659,37.44499],[126.99658,37.44499],[126.99657,37.445],[126.99656,37.445],[126.99655,37.445],[126.99655,37.445],[126.99654,37.445],[126.99652,37.445],[126.99651,37.445],[126.9965,37.445],[126.9965,37.445],[126.99649,37.44499],[126.99648,37.44499],[126.99647,37.44498],[126.99647,37.44497],[126.99646,37.44497],[126.99646,37.44496],[126.99645,37.44495],[126.99645,37.44495],[126.99645,37.44494],[126.99645,37.44493],[126.99645,37.44492],[126.99645,37.44482]]}},{"type":"Feature","properties":{"class":"major","highway":"trunk_link","sidewalk":"likely","lanes":0,"name":"대공원고가교","oneway":true},"geometry":{"type":"LineString","coordinates":[[126.99926,37.44017],[127.0,37.43884],[127.00015,37.43859],[127.00025,37.43847],[127.00035,37.43836],[127.00049,37.43824],[127.00066,37.4381],[127.00081,37.43801],[127.00153,37.43769]]}},{"type":"Feature","properties":{"class":"major","highway":"tertiary","sidewalk":"likely","lanes":2,"name":"중앙로","oneway":true},"geometry":{"type":"LineString","coordinates":[[126.9951,37.44482],[126.99457,37.44358]]}},{"type":"Feature","properties":{"class":"major","highway":"tertiary","sidewalk":"likely","lanes":0,"name":"중앙로","oneway":true},"geometry":{"type":"LineString","coordinates":[[126.99508,37.44443],[126.99521,37.44484],[126.99535,37.44521],[126.99542,37.44541],[126.99547,37.4456],[126.99555,37.44602]]}},{"type":"Feature","properties":{"class":"major","highway":"tertiary","sidewalk":"likely","lanes":3,"name":"중앙로","oneway":true},"geometry":{"type":"LineString","coordinates":[[126.99457,37.44358],[126.99428,37.44285],[126.99416,37.44253],[126.99398,37.44187],[126.99397,37.44169],[126.99393,37.4412],[126.99394,37.44083],[126.99398,37.44003],[126.99401,37.43969],[126.99405,37.43955],[126.99428,37.43903],[126.99447,37.4388]]}},{"type":"Feature","properties":{"class":"minor","highway":"residential","sidewalk":"unknown","lanes":0,"name":"관문차도교","oneway":false},"geometry":{"type":"LineString","coordinates":[[126.99492,37.44081],[126.99536,37.44062]]}},{"type":"Feature","properties":{"class":"minor","highway":"residential","sidewalk":"unknown","lanes":0,"name":"","oneway":false},"geometry":{"type":"LineString","coordinates":[[126.99406,37.44093],[126.99466,37.4409],[126.9948,37.44085],[126.99488,37.44082],[126.99492,37.44081]]}},{"type":"Feature","properties":{"class":"major","highway":"trunk","sidewalk":"likely","lanes":0,"name":"과천대로","oneway":true},"geometry":{"type":"LineString","coordinates":[[126.99845,37.44138],[126.99879,37.44081],[126.99901,37.44042],[126.99917,37.44012],[127.00049,37.43769],[127.00096,37.43674],[127.00162,37.43554],[127.00212,37.43463],[127.00231,37.4343],[127.00241,37.43408],[127.00251,37.43386]]}},{"type":"Feature","properties":{"class":"major","highway":"primary_link","sidewalk":"likely","lanes":0,"name":"","oneway":true},"geometry":{"type":"LineString","coordinates":[[126.99615,37.44719],[126.99618,37.44725],[126.99623,37.44732],[126.9963,37.44738],[126.99634,37.44744],[126.99645,37.44755],[126.99663,37.4477],[126.99679,37.44781],[126.99688,37.44787],[126.99702,37.44795],[126.99715,37.44805]]}},{"type":"Feature","properties":{"class":"alley","highway":"service","sidewalk":"unknown","lanes":0,"name":"","oneway":false},"geometry":{"type":"LineString","coordinates":[[126.99274,37.45188],[126.99278,37.45194],[126.99282,37.45205],[126.993,37.45249],[126.99302,37.45253]]}},{"type":"Feature","properties":{"class":"alley","highway":"living_street","sidewalk":"unknown","lanes":0,"name":"","oneway":false},"geometry":{"type":"LineString","coordinates":[[126.99349,37.45283],[126.99344,37.453],[126.9933,37.45315],[126.99316,37.45325],[126.99306,37.45319],[126.99297,37.45327]]}},{"type":"Feature","properties":{"class":"alley","highway":"living_street","sidewalk":"unknown","lanes":0,"name":"","oneway":false},"geometry":{"type":"LineString","coordinates":[[126.99413,37.452],[126.99471,37.45154]]}},{"type":"Feature","properties":{"class":"alley","highway":"service","sidewalk":"unknown","lanes":0,"name":"","oneway":false},"geometry":{"type":"LineString","coordinates":[[126.99865,37.45195],[126.99837,37.45195],[126.99785,37.45198],[126.99749,37.45196],[126.99705,37.4519],[126.99695,37.45186],[126.99675,37.45181],[126.99662,37.4517],[126.99658,37.45156],[126.9966,37.45154],[126.99669,37.45151],[126.99677,37.45144],[126.99683,37.45136],[126.99728,37.45109],[126.99762,37.4509],[126.99777,37.45107]]}},{"type":"Feature","properties":{"class":"alley","highway":"service","sidewalk":"unknown","lanes":0,"name":"","oneway":false},"geometry":{"type":"LineString","coordinates":[[126.99448,37.44299],[126.99521,37.44279],[126.99571,37.44265],[126.99575,37.44279],[126.99526,37.44292],[126.99521,37.44279]]}},{"type":"Feature","properties":{"class":"alley","highway":"service","sidewalk":"unknown","lanes":0,"name":"","oneway":false},"geometry":{"type":"LineString","coordinates":[[126.99763,37.43971],[126.99761,37.4399],[126.9976,37.44004],[126.99755,37.44022],[126.99752,37.44034]]}},{"type":"Feature","properties":{"class":"alley","highway":"service","sidewalk":"unknown","lanes":0,"name":"","oneway":false},"geometry":{"type":"LineString","coordinates":[[126.99761,37.4399],[126.99781,37.43996],[126.99809,37.44012],[126.99832,37.44033],[126.99841,37.44051],[126.99844,37.44058],[126.99835,37.44075],[126.99823,37.44093],[126.99819,37.44093],[126.99799,37.44093],[126.99795,37.44078],[126.99785,37.4406],[126.99769,37.44045],[126.99752,37.44034]]}},{"type":"Feature","properties":{"class":"alley","highway":"service","sidewalk":"unknown","lanes":0,"name":"","oneway":false},"geometry":{"type":"LineString","coordinates":[[126.9976,37.44004],[126.99774,37.44009],[126.99791,37.44018],[126.99804,37.4403],[126.9982,37.44046],[126.99829,37.44062],[126.99835,37.44075]]}},{"type":"Feature","properties":{"class":"alley","highway":"service","sidewalk":"unknown","lanes":0,"name":"","oneway":false},"geometry":{"type":"LineString","coordinates":[[126.99755,37.44022],[126.99768,37.44025],[126.99788,37.44039],[126.99802,37.44054],[126.99814,37.44073],[126.99819,37.44093]]}},{"type":"Feature","properties":{"class":"major","highway":"trunk_link","sidewalk":"likely","lanes":0,"name":"","oneway":true},"geometry":{"type":"LineString","coordinates":[[126.99542,37.44672],[126.99563,37.44645]]}},{"type":"Feature","properties":{"class":"alley","highway":"living_street","sidewalk":"unknown","lanes":0,"name":"","oneway":false},"geometry":{"type":"LineString","coordinates":[[126.99531,37.45098],[126.99556,37.45098],[126.99599,37.45098]]}},{"type":"Feature","properties":{"class":"alley","highway":"living_street","sidewalk":"unknown","lanes":0,"name":"양지마을2로","oneway":false},"geometry":{"type":"LineString","coordinates":[[126.99555,37.45072],[126.9964,37.45073],[126.99669,37.45077],[126.99689,37.45084]]}},{"type":"Feature","properties":{"class":"alley","highway":"living_street","sidewalk":"unknown","lanes":0,"name":"","oneway":false},"geometry":{"type":"LineString","coordinates":[[126.9964,37.45073],[126.99644,37.45056],[126.99657,37.45039],[126.99661,37.45037]]}},{"type":"Feature","properties":{"class":"alley","highway":"living_street","sidewalk":"unknown","lanes":0,"name":"","oneway":false},"geometry":{"type":"LineString","coordinates":[[126.99556,37.45043],[126.9959,37.45042],[126.99624,37.45017]]}},{"type":"Feature","properties":{"class":"minor","highway":"residential","sidewalk":"unknown","lanes":0,"name":"양지마을1로","oneway":false},"geometry":{"type":"LineString","coordinates":[[126.99822,37.44995],[126.99834,37.44977],[126.99853,37.44966],[126.99874,37.44961],[126.99895,37.44952]]}},{"type":"Feature","properties":{"class":"alley","highway":"living_street","sidewalk":"unknown","lanes":0,"name":"","oneway":false},"geometry":{"type":"LineString","coordinates":[[126.99854,37.45005],[126.99876,37.4501],[126.99904,37.45023]]}},{"type":"Feature","properties":{"class":"minor","highway":"residential","sidewalk":"unknown","lanes":0,"name":"","oneway":false},"geometry":{"type":"LineString","coordinates":[[126.99822,37.44995],[126.99854,37.45005]]}},{"type":"Feature","properties":{"class":"alley","highway":"living_street","sidewalk":"unknown","lanes":0,"name":"","oneway":false},"geometry":{"type":"LineString","coordinates":[[126.99605,37.44968],[126.99636,37.44909]]}},{"type":"Feature","properties":{"class":"major","highway":"primary_link","sidewalk":"likely","lanes":0,"name":"","oneway":true},"geometry":{"type":"LineString","coordinates":[[126.99568,37.44661],[126.99499,37.44775]]}},{"type":"Feature","properties":{"class":"major","highway":"primary","sidewalk":"likely","lanes":0,"name":"","oneway":true},"geometry":{"type":"LineString","coordinates":[[126.99499,37.44775],[126.99483,37.44806],[126.99474,37.44822],[126.99464,37.44841]]}},{"type":"Feature","properties":{"class":"minor","highway":"residential","sidewalk":"unknown","lanes":0,"name":"남태령옛길","oneway":false},"geometry":{"type":"LineString","coordinates":[[126.99136,37.45506],[126.99142,37.45485],[126.99143,37.45469],[126.99147,37.45449],[126.99156,37.45429],[126.99167,37.45415],[126.99187,37.45394],[126.99226,37.45356]]}},{"type":"Feature","properties":{"class":"alley","highway":"service","sidewalk":"unknown","lanes":0,"name":"","oneway":false},"geometry":{"type":"LineString","coordinates":[[126.99301,37.45257],[126.99296,37.45256],[126.9929,37.45254],[126.99279,37.45269],[126.99289,37.45272],[126.99295,37.45273]]}},{"type":"Feature","properties":{"class":"alley","highway":"service","sidewalk":"unknown","lanes":0,"name":"","oneway":false},"geometry":{"type":"LineString","coordinates":[[126.99311,37.45236],[126.99314,37.45237],[126.99331,37.4524],[126.99332,37.4524]]}},{"type":"Feature","properties":{"class":"alley","highway":"living_street","sidewalk":"unknown","lanes":0,"name":"양지마을2로","oneway":false},"geometry":{"type":"LineString","coordinates":[[126.99502,37.45068],[126.99506,37.45072],[126.99555,37.45072]]}},{"type":"Feature","properties":{"class":"alley","highway":"service","sidewalk":"unknown","lanes":0,"name":"","oneway":false},"geometry":{"type":"LineString","coordinates":[[126.99452,37.45208],[126.99455,37.4521],[126.99459,37.45213]]}},{"type":"Feature","properties":{"class":"alley","highway":"service","sidewalk":"unknown","lanes":0,"name":"","oneway":false},"geometry":{"type":"LineString","coordinates":[[126.99785,37.45198],[126.99783,37.45185],[126.99794,37.45171],[126.99792,37.4514]]}},{"type":"Feature","properties":{"class":"major","highway":"tertiary_link","sidewalk":"likely","lanes":0,"name":"","oneway":true},"geometry":{"type":"LineString","coordinates":[[126.9952,37.44611],[126.9952,37.44597],[126.99517,37.44573],[126.99515,37.44555],[126.99495,37.4449],[126.99483,37.44451],[126.99457,37.44358]]}},{"type":"Feature","properties":{"class":"alley","highway":"pedestrian","sidewalk":"unknown","lanes":0,"name":"","oneway":false},"geometry":{"type":"LineString","coordinates":[[126.99704,37.44241],[126.99711,37.4424],[126.99726,37.44236],[126.99738,37.44232],[126.99751,37.44226],[126.99764,37.44214],[126.9977,37.44197],[126.99774,37.44185],[126.99777,37.44098],[126.99772,37.44081],[126.99762,37.44069],[126.9975,37.4406],[126.99727,37.44051],[126.99715,37.44048],[126.99699,37.44048],[126.99677,37.4405],[126.99642,37.44051]]}},{"type":"Feature","properties":{"class":"alley","highway":"service","sidewalk":"unknown","lanes":0,"name":"","oneway":false},"geometry":{"type":"LineString","coordinates":[[126.99518,37.44022],[126.9956,37.44022]]}},{"type":"Feature","properties":{"class":"alley","highway":"service","sidewalk":"unknown","lanes":0,"name":"","oneway":false},"geometry":{"type":"LineString","coordinates":[[126.99506,37.44005],[126.9956,37.44006],[126.99602,37.44007]]}},{"type":"Feature","properties":{"class":"alley","highway":"service","sidewalk":"unknown","lanes":0,"name":"","oneway":false},"geometry":{"type":"LineString","coordinates":[[126.9956,37.44036],[126.9956,37.44022],[126.9956,37.44006],[126.9956,37.43992]]}},{"type":"Feature","properties":{"class":"alley","highway":"service","sidewalk":"unknown","lanes":0,"name":"","oneway":false},"geometry":{"type":"LineString","coordinates":[[126.99562,37.44036],[126.99569,37.44043]]}},{"type":"Feature","properties":{"class":"alley","highway":"service","sidewalk":"unknown","lanes":0,"name":"","oneway":false},"geometry":{"type":"LineString","coordinates":[[126.99622,37.44013],[126.9961,37.44],[126.99602,37.43992],[126.9956,37.43992],[126.99499,37.43991],[126.99497,37.43993],[126.99506,37.44005],[126.99518,37.44022],[126.99528,37.44036],[126.9956,37.44036],[126.99562,37.44036],[126.99602,37.44007],[126.9961,37.44]]}},{"type":"Feature","properties":{"class":"alley","highway":"pedestrian","sidewalk":"unknown","lanes":0,"name":"","oneway":false},"geometry":{"type":"LineString","coordinates":[[127.00011,37.44916],[126.99997,37.4491],[126.99977,37.44898],[126.99954,37.44887],[126.99937,37.44875],[126.99916,37.44859],[126.99893,37.44839],[126.99877,37.44816],[126.99868,37.44812]]}},{"type":"Feature","properties":{"class":"alley","highway":"service","sidewalk":"unknown","lanes":0,"name":"","oneway":false},"geometry":{"type":"LineString","coordinates":[[126.99349,37.4475],[126.9936,37.44743]]}},{"type":"Feature","properties":{"class":"alley","highway":"service","sidewalk":"unknown","lanes":0,"name":"","oneway":false},"geometry":{"type":"LineString","coordinates":[[126.99345,37.44753],[126.99349,37.4475]]}},{"type":"Feature","properties":{"class":"alley","highway":"service","sidewalk":"unknown","lanes":0,"name":"","oneway":false},"geometry":{"type":"LineString","coordinates":[[126.99323,37.44716],[126.99318,37.44718]]}},{"type":"Feature","properties":{"class":"alley","highway":"service","sidewalk":"unknown","lanes":0,"name":"","oneway":false},"geometry":{"type":"LineString","coordinates":[[126.99334,37.4471],[126.99323,37.44716]]}},{"type":"Feature","properties":{"class":"alley","highway":"service","sidewalk":"unknown","lanes":0,"name":"","oneway":false},"geometry":{"type":"LineString","coordinates":[[126.9936,37.44743],[126.99369,37.44736],[126.99344,37.44705],[126.99338,37.44708],[126.99334,37.4471]]}},{"type":"Feature","properties":{"class":"minor","highway":"residential","sidewalk":"unknown","lanes":0,"name":"","oneway":false},"geometry":{"type":"LineString","coordinates":[[126.99312,37.45073],[126.99295,37.45082],[126.99279,37.45099],[126.99257,37.4512],[126.99245,37.45133],[126.99235,37.45147],[126.99235,37.45156],[126.99237,37.45172],[126.99239,37.45176],[126.9925,37.45189]]}},{"type":"Feature","properties":{"class":"major","highway":"primary","sidewalk":"likely","lanes":0,"name":"","oneway":true},"geometry":{"type":"LineString","coordinates":[[126.9925,37.45189],[126.99302,37.45098],[126.99312,37.45073],[126.99343,37.45007]]}},{"type":"Feature","properties":{"class":"alley","highway":"service","sidewalk":"unknown","lanes":0,"name":"","oneway":false},"geometry":{"type":"LineString","coordinates":[[126.99513,37.44838],[126.99508,37.44842]]}},{"type":"Feature","properties":{"class":"alley","highway":"service","sidewalk":"unknown","lanes":0,"name":"","oneway":false},"geometry":{"type":"LineString","coordinates":[[126.99523,37.44831],[126.99513,37.44838]]}},{"type":"Feature","properties":{"class":"alley","highway":"service","sidewalk":"unknown","lanes":0,"name":"","oneway":false},"geometry":{"type":"LineString","coordinates":[[126.99586,37.44762],[126.99558,37.448],[126.99533,37.44825],[126.99523,37.44831]]}},{"type":"Feature","properties":{"class":"major","highway":"tertiary","sidewalk":"likely","lanes":0,"name":"중앙로","oneway":true},"geometry":{"type":"LineString","coordinates":[[126.99555,37.44602],[126.99584,37.44694],[126.9959,37.44708],[126.99599,37.4472]]}},{"type":"Feature","properties":{"class":"major","highway":"primary","sidewalk":"likely","lanes":0,"name":"중앙로","oneway":true},"geometry":{"type":"LineString","coordinates":[[126.99715,37.44805],[126.99793,37.44846],[126.99826,37.44864],[126.99847,37.44879],[126.99866,37.44895],[126.99877,37.44907],[126.99906,37.44948],[126.99935,37.44988],[127.0001,37.45078],[127.00097,37.45173]]}},{"type":"Feature","properties":{"class":"major","highway":"primary","sidewalk":"likely","lanes":0,"name":"중앙로","oneway":true},"geometry":{"type":"LineString","coordinates":[[126.99599,37.4472],[126.9961,37.44733],[126.99622,37.44747],[126.99637,37.44759],[126.9965,37.4477],[126.99663,37.4478],[126.99715,37.44805]]}}]}