{"type":"FeatureCollection","features":[{"type":"Feature","properties":{"class":"alley","highway":"service","sidewalk":"unknown","lanes":0,"name":"","oneway":false},"geometry":{"type":"LineString","coordinates":[[126.95338,37.45338],[126.95324,37.45335],[126.95309,37.45329],[126.95295,37.45326],[126.95283,37.45325],[126.95271,37.45325],[126.95257,37.45327],[126.95245,37.45331],[126.95234,37.45335],[126.95224,37.45343],[126.95209,37.45357],[126.95196,37.45369],[126.95182,37.45377],[126.95172,37.45381],[126.9516,37.45385],[126.95146,37.45387],[126.95128,37.45388],[126.9509,37.45388],[126.95023,37.45388]]}},{"type":"Feature","properties":{"class":"alley","highway":"service","sidewalk":"unknown","lanes":0,"name":"","oneway":false},"geometry":{"type":"LineString","coordinates":[[126.95101,37.45523],[126.95105,37.45523],[126.95185,37.45531]]}},{"type":"Feature","properties":{"class":"alley","highway":"living_street","sidewalk":"unknown","lanes":0,"name":"","oneway":false},"geometry":{"type":"LineString","coordinates":[[126.95207,37.45853],[126.95194,37.45842],[126.9518,37.4581],[126.95175,37.45802],[126.95152,37.45754],[126.95139,37.45731]]}},{"type":"Feature","properties":{"class":"alley","highway":"service","sidewalk":"unknown","lanes":0,"name":"","oneway":false},"geometry":{"type":"LineString","coordinates":[[126.9504,37.45604],[126.9505,37.45546]]}},{"type":"Feature","properties":{"class":"alley","highway":"service","sidewalk":"unknown","lanes":0,"name":"","oneway":true},"geometry":{"type":"LineString","coordinates":[[126.95214,37.45708],[126.95227,37.45698],[126.95231,37.45689],[126.95237,37.45665],[126.95239,37.45653],[126.9524,37.45641],[126.9524,37.4564],[126.95241,37.4563],[126.9524,37.45622],[126.95237,37.45616],[126.95234,37.45609],[126.95228,37.45602]]}},{"type":"Feature","properties":{"class":"alley","highway":"pedestrian","sidewalk":"unknown","lanes":0,"name":"","oneway":false},"geometry":{"type":"LineString","coordinates":[[126.95159,37.45879],[126.9515,37.45863],[126.95138,37.45838],[126.95133,37.45827],[126.95114,37.45788],[126.95113,37.45786],[126.95108,37.45775],[126.95089,37.45734]]}},{"type":"Feature","properties":{"class":"alley","highway":"service","sidewalk":"yes","lanes":0,"name":"","oneway":false},"geometry":{"type":"LineString","coordinates":[[126.95691,37.46029],[126.95685,37.46024],[126.95671,37.46014],[126.95655,37.45999],[126.95648,37.45993],[126.95565,37.45911],[126.95539,37.45891],[126.95524,37.45884]]}},{"type":"Feature","properties":{"class":"alley","highway":"service","sidewalk":"unknown","lanes":0,"name":"","oneway":false},"geometry":{"type":"LineString","coordinates":[[126.94949,37.45938],[126.94979,37.4599],[126.94988,37.46007],[126.94992,37.46014],[126.94995,37.46018],[126.95,37.46024]]}},{"type":"Feature","properties":{"class":"alley","highway":"service","sidewalk":"unknown","lanes":0,"name":"","oneway":false},"geometry":{"type":"LineString","coordinates":[[126.95487,37.45907],[126.95495,37.45898],[126.95507,37.45886]]}},{"type":"Feature","properties":{"class":"alley","highway":"service","sidewalk":"unknown","lanes":0,"name":"","oneway":false},"geometry":{"type":"LineString","coordinates":[[126.95289,37.45984],[126.95305,37.45967],[126.95319,37.45946]]}},{"type":"Feature","properties":{"class":"alley","highway":"pedestrian","sidewalk":"unknown","lanes":0,"name":"","oneway":false},"geometry":{"type":"LineString","coordinates":[[126.95207,37.45853],[126.95303,37.45927],[126.95313,37.45928],[126.95402,37.45961]]}},{"type":"Feature","properties":{"class":"alley","highway":"service","sidewalk":"unknown","lanes":0,"name":"","oneway":false},"geometry":{"type":"LineString","coordinates":[[126.9542,37.45969],[126.95447,37.45954]]}},{"type":"Feature","properties":{"class":"alley","highway":"service","sidewalk":"unknown","lanes":0,"name":"","oneway":false},"geometry":{"type":"LineString","coordinates":[[126.95498,37.45925],[126.95478,37.45917]]}},{"type":"Feature","properties":{"class":"alley","highway":"pedestrian","sidewalk":"unknown","lanes":0,"name":"","oneway":false},"geometry":{"type":"LineString","coordinates":[[126.95289,37.45984],[126.95259,37.4596]]}},{"type":"Feature","properties":{"class":"alley","highway":"service","sidewalk":"unknown","lanes":0,"name":"","oneway":false},"geometry":{"type":"LineString","coordinates":[[126.95447,37.45954],[126.95461,37.45938]]}},{"type":"Feature","properties":{"class":"alley","highway":"service","sidewalk":"unknown","lanes":0,"name":"","oneway":false},"geometry":{"type":"LineString","coordinates":[[126.95051,37.45982],[126.95062,37.45974]]}},{"type":"Feature","properties":{"class":"alley","highway":"service","sidewalk":"unknown","lanes":0,"name":"","oneway":false},"geometry":{"type":"LineString","coordinates":[[126.94921,37.45747],[126.9493,37.45746],[126.94945,37.45745],[126.94982,37.45744],[126.94999,37.45744],[126.9501,37.45743],[126.95025,37.4574],[126.95033,37.45738],[126.95052,37.45735],[126.9506,37.45733],[126.95089,37.45734]]}},{"type":"Feature","properties":{"class":"alley","highway":"service","sidewalk":"unknown","lanes":0,"name":"","oneway":false},"geometry":{"type":"LineString","coordinates":[[126.95289,37.45984],[126.95344,37.46028]]}},{"type":"Feature","properties":{"class":"alley","highway":"service","sidewalk":"unknown","lanes":0,"name":"","oneway":false},"geometry":{"type":"LineString","coordinates":[[126.95081,37.45886],[126.95061,37.45851],[126.95098,37.45838],[126.9508,37.45802],[126.95066,37.45773],[126.95054,37.45748]]}},{"type":"Feature","properties":{"class":"alley","highway":"service","sidewalk":"unknown","lanes":0,"name":"","oneway":false},"geometry":{"type":"LineString","coordinates":[[126.95334,37.4567],[126.95353,37.45674],[126.95367,37.45691],[126.95375,37.45712],[126.95397,37.45731],[126.95437,37.45758],[126.95443,37.4575],[126.95468,37.45726],[126.95479,37.45714],[126.95489,37.457],[126.95496,37.45685],[126.955,37.45674],[126.95498,37.45662],[126.95491,37.45646],[126.95485,37.45631],[126.95485,37.45623],[126.95488,37.45616],[126.95498,37.45611],[126.95508,37.45605],[126.95513,37.45603],[126.95521,37.45599]]}},{"type":"Feature","properties":{"class":"alley","highway":"service","sidewalk":"unknown","lanes":0,"name":"","oneway":false},"geometry":{"type":"LineString","coordinates":[[126.95451,37.45502],[126.95444,37.45506],[126.95374,37.45539],[126.95367,37.45554],[126.95357,37.45562],[126.95359,37.45568],[126.9536,37.45576],[126.95357,37.4559],[126.95347,37.45613],[126.9534,37.45638],[126.95334,37.4567],[126.95321,37.45682],[126.95294,37.45756],[126.95287,37.45773],[126.95281,37.4578],[126.95268,37.45786],[126.95262,37.4578],[126.95255,37.45774],[126.95251,37.45768],[126.95247,37.45761],[126.95238,37.45744]]}},{"type":"Feature","properties":{"class":"alley","highway":"service","sidewalk":"unknown","lanes":0,"name":"","oneway":true},"geometry":{"type":"LineString","coordinates":[[126.94886,37.45611],[126.94884,37.45646],[126.94883,37.45651],[126.94881,37.45688],[126.94881,37.45693],[126.94883,37.45696],[126.94885,37.45699],[126.94892,37.45702],[126.94904,37.45704],[126.9493,37.45708]]}},{"type":"Feature","properties":{"class":"alley","highway":"service","sidewalk":"unknown","lanes":0,"name":"","oneway":false},"geometry":{"type":"LineString","coordinates":[[126.95198,37.44997],[126.95158,37.44987],[126.951,37.44969],[126.95084,37.4496],[126.95074,37.44949],[126.95053,37.44914],[126.9503,37.4489],[126.95002,37.4487],[126.94959,37.4485],[126.9493,37.4484]]}},{"type":"Feature","properties":{"class":"alley","highway":"pedestrian","sidewalk":"unknown","lanes":0,"name":"","oneway":false},"geometry":{"type":"LineString","coordinates":[[126.95167,37.45888],[126.95159,37.45879]]}},{"type":"Feature","properties":{"class":"alley","highway":"pedestrian","sidewalk":"unknown","lanes":0,"name":"","oneway":false},"geometry":{"type":"LineString","coordinates":[[126.95259,37.4596],[126.95167,37.45888]]}},{"type":"Feature","properties":{"class":"alley","highway":"service","sidewalk":"unknown","lanes":0,"name":"","oneway":false},"geometry":{"type":"LineString","coordinates":[[126.95089,37.45734],[126.95099,37.45724]]}},{"type":"Feature","properties":{"class":"alley","highway":"service","sidewalk":"unknown","lanes":0,"name":"","oneway":false},"geometry":{"type":"LineString","coordinates":[[126.94981,37.45821],[126.94956,37.4583],[126.94939,37.45836],[126.94925,37.45835]]}},{"type":"Feature","properties":{"class":"alley","highway":"service","sidewalk":"unknown","lanes":0,"name":"","oneway":false},"geometry":{"type":"LineString","coordinates":[[126.94956,37.4583],[126.94999,37.45917],[126.95006,37.45933],[126.95026,37.45975],[126.95051,37.45982]]}},{"type":"Feature","properties":{"class":"alley","highway":"service","sidewalk":"unknown","lanes":0,"name":"","oneway":false},"geometry":{"type":"LineString","coordinates":[[126.94982,37.45744],[126.95,37.45734]]}},{"type":"Feature","properties":{"class":"alley","highway":"service","sidewalk":"unknown","lanes":0,"name":"","oneway":true},"geometry":{"type":"LineString","coordinates":[[126.95525,37.45875],[126.95526,37.45878],[126.95526,37.45882],[126.95524,37.45884],[126.95523,37.45886],[126.95521,37.45887],[126.95517,37.45888],[126.95513,37.45888],[126.95511,37.45888],[126.95509,37.45887],[126.95507,37.45886],[126.95505,37.45884],[126.95503,37.45881],[126.95503,37.45878],[126.95504,37.45876],[126.95506,37.45873],[126.95509,37.45872],[126.95512,37.45871],[126.95516,37.4587],[126.95519,37.45871],[126.95523,37.45873],[126.95525,37.45875]]}},{"type":"Feature","properties":{"class":"alley","highway":"pedestrian","sidewalk":"unknown","lanes":0,"name":"","oneway":false},"geometry":{"type":"LineString","coordinates":[[126.94871,37.45653],[126.94896,37.45654]]}},{"type":"Feature","properties":{"class":"alley","highway":"pedestrian","sidewalk":"unknown","lanes":0,"name":"","oneway":false},"geometry":{"type":"LineString","coordinates":[[126.95503,37.45976],[126.95534,37.46015],[126.95506,37.46028],[126.95504,37.46029],[126.95474,37.4599],[126.95477,37.45988],[126.95503,37.45976]]}},{"type":"Feature","properties":{"class":"alley","highway":"pedestrian","sidewalk":"unknown","lanes":0,"name":"","oneway":false},"geometry":{"type":"LineString","coordinates":[[126.94999,37.45917],[126.95028,37.45908],[126.95036,37.45924],[126.95006,37.45933]]}},{"type":"Feature","properties":{"class":"alley","highway":"pedestrian","sidewalk":"unknown","lanes":0,"name":"","oneway":false},"geometry":{"type":"LineString","coordinates":[[126.95464,37.45973],[126.95477,37.45988]]}},{"type":"Feature","properties":{"class":"alley","highway":"service","sidewalk":"unknown","lanes":2,"name":"","oneway":false},"geometry":{"type":"LineString","coordinates":[[126.94972,37.45552],[126.94982,37.45523]]}},{"type":"Feature","properties":{"class":"alley","highway":"service","sidewalk":"unknown","lanes":2,"name":"","oneway":false},"geometry":{"type":"LineString","coordinates":[[126.94941,37.4566],[126.94944,37.45648],[126.94956,37.45605]]}},{"type":"Feature","properties":{"class":"alley","highway":"service","sidewalk":"unknown","lanes":0,"name":"","oneway":false},"geometry":{"type":"LineString","coordinates":[[126.95199,37.45044],[126.9521,37.45047],[126.95215,37.45048],[126.95232,37.45057],[126.95246,37.45058],[126.95268,37.45057],[126.95305,37.45085],[126.95336,37.45095],[126.95349,37.45091],[126.95351,37.45072],[126.95339,37.45062],[126.95333,37.45049],[126.95347,37.45035],[126.95353,37.45013],[126.9535,37.44973],[126.95366,37.44961],[126.9537,37.44952],[126.95365,37.44942]]}},{"type":"Feature","properties":{"class":"alley","highway":"pedestrian","sidewalk":"unknown","lanes":0,"name":"","oneway":false},"geometry":{"type":"LineString","coordinates":[[126.94894,37.45648],[126.94894,37.45649],[126.94896,37.4565],[126.94896,37.45654],[126.94896,37.45658],[126.94903,37.45658],[126.94902,37.4567],[126.94902,37.45671],[126.94899,37.45671],[126.94898,37.45682],[126.94909,37.45683],[126.94911,37.45683],[126.94918,37.45683],[126.94926,37.45665],[126.94927,37.45665],[126.94929,37.45665],[126.9493,37.45665],[126.94932,37.45658],[126.94933,37.45652],[126.94932,37.45652],[126.94923,37.4565],[126.94925,37.45634],[126.94915,37.45633],[126.94915,37.45631],[126.94908,37.45631],[126.94907,37.45646],[126.94902,37.45646],[126.94901,37.45648],[126.94897,37.45648],[126.94894,37.45648]]}},{"type":"Feature","properties":{"class":"alley","highway":"pedestrian","sidewalk":"unknown","lanes":0,"name":"","oneway":false},"geometry":{"type":"LineString","coordinates":[[126.94909,37.45683],[126.94911,37.45671],[126.94913,37.45656]]}},{"type":"Feature","properties":{"class":"alley","highway":"service","sidewalk":"unknown","lanes":0,"name":"","oneway":false},"geometry":{"type":"LineString","coordinates":[[126.95228,37.45602],[126.95233,37.45602],[126.95238,37.45604],[126.95246,37.4561],[126.95256,37.45618],[126.95254,37.45648]]}},{"type":"Feature","properties":{"class":"alley","highway":"service","sidewalk":"unknown","lanes":0,"name":"","oneway":false},"geometry":{"type":"LineString","coordinates":[[126.95468,37.45726],[126.95479,37.45733],[126.95478,37.45735],[126.95454,37.45755],[126.9545,37.45754],[126.95443,37.4575]]}},{"type":"Feature","properties":{"class":"alley","highway":"service","sidewalk":"unknown","lanes":0,"name":"","oneway":false},"geometry":{"type":"LineString","coordinates":[[126.95437,37.45758],[126.95428,37.45773],[126.95401,37.45796]]}},{"type":"Feature","properties":{"class":"minor","highway":"residential","sidewalk":"unknown","lanes":0,"name":"","oneway":false},"geometry":{"type":"LineString","coordinates":[[126.95101,37.45523],[126.95108,37.45474],[126.9511,37.45457],[126.95114,37.45428],[126.95159,37.45431]]}},{"type":"Feature","properties":{"class":"minor","highway":"residential","sidewalk":"unknown","lanes":0,"name":"","oneway":false},"geometry":{"type":"LineString","coordinates":[[126.94902,37.45822],[126.9489,37.4582],[126.94822,37.45809],[126.94798,37.45804],[126.94809,37.45752],[126.94815,37.45725]]}},{"type":"Feature","properties":{"class":"alley","highway":"pedestrian","sidewalk":"unknown","lanes":0,"name":"","oneway":false},"geometry":{"type":"LineString","coordinates":[[126.94932,37.45658],[126.9493,37.45658],[126.94913,37.45656],[126.94897,37.45654],[126.94896,37.45654]]}},{"type":"Feature","properties":{"class":"alley","highway":"service","sidewalk":"yes","lanes":2,"name":"","oneway":false},"geometry":{"type":"LineString","coordinates":[[126.95338,37.45338],[126.95357,37.45368],[126.95363,37.45379],[126.95394,37.45421],[126.95399,37.45429],[126.95412,37.45448],[126.95451,37.45502],[126.95521,37.45599],[126.95595,37.45683],[126.95608,37.45696],[126.9562,37.45712],[126.9563,37.45733],[126.95635,37.45752],[126.95655,37.45826],[126.95661,37.45844],[126.95666,37.45858],[126.95708,37.45918],[126.95717,37.45933],[126.95721,37.45947],[126.95721,37.4596],[126.95718,37.4597],[126.95714,37.45983],[126.9571,37.45995],[126.957,37.46014],[126.95691,37.46029],[126.95673,37.46062]]}},{"type":"Feature","properties":{"class":"minor","highway":"residential","sidewalk":"unknown","lanes":0,"name":"","oneway":false},"geometry":{"type":"LineString","coordinates":[[126.9511,37.45457],[126.95052,37.45452],[126.95051,37.45459],[126.95024,37.45457]]}},{"type":"Feature","properties":{"class":"alley","highway":"service","sidewalk":"unknown","lanes":0,"name":"","oneway":false},"geometry":{"type":"LineString","coordinates":[[126.95539,37.45471],[126.95547,37.45478],[126.95559,37.4549],[126.95562,37.45503],[126.9556,37.45514],[126.95566,37.45524],[126.95575,37.45534],[126.95584,37.4554],[126.95591,37.4555],[126.9559,37.45563],[126.95582,37.4558],[126.95583,37.45597],[126.95583,37.45605],[126.95581,37.45616],[126.95578,37.45627],[126.9558,37.45637],[126.95584,37.45643],[126.9559,37.4565],[126.95603,37.45661],[126.95633,37.45686],[126.95608,37.45696]]}},{"type":"Feature","properties":{"class":"alley","highway":"service","sidewalk":"unknown","lanes":0,"name":"","oneway":false},"geometry":{"type":"LineString","coordinates":[[126.95203,37.44857],[126.95127,37.44853],[126.95127,37.44844],[126.95115,37.44845],[126.95114,37.44858],[126.95115,37.44865],[126.95118,37.44865],[126.95126,37.44865],[126.95127,37.44853]]}},{"type":"Feature","properties":{"class":"alley","highway":"service","sidewalk":"unknown","lanes":0,"name":"","oneway":false},"geometry":{"type":"LineString","coordinates":[[126.95118,37.44865],[126.95118,37.44899]]}},{"type":"Feature","properties":{"class":"alley","highway":"service","sidewalk":"unknown","lanes":0,"name":"","oneway":false},"geometry":{"type":"LineString","coordinates":[[126.95126,37.44899],[126.95126,37.44865]]}},{"type":"Feature","properties":{"class":"alley","highway":"service","sidewalk":"unknown","lanes":0,"name":"","oneway":false},"geometry":{"type":"LineString","coordinates":[[126.9516,37.44844],[126.95127,37.44844]]}},{"type":"Feature","properties":{"class":"alley","highway":"service","sidewalk":"unknown","lanes":0,"name":"","oneway":false},"geometry":{"type":"LineString","coordinates":[[126.95319,37.45946],[126.95319,37.4596],[126.95321,37.4597],[126.95337,37.45988]]}},{"type":"Feature","properties":{"class":"alley","highway":"service","sidewalk":"unknown","lanes":0,"name":"","oneway":false},"geometry":{"type":"LineString","coordinates":[[126.95331,37.4541],[126.95325,37.45404],[126.95357,37.45383],[126.95363,37.45379]]}},{"type":"Feature","properties":{"class":"alley","highway":"service","sidewalk":"unknown","lanes":0,"name":"","oneway":false},"geometry":{"type":"LineString","coordinates":[[126.95357,37.45472],[126.95371,37.45467],[126.95406,37.45451],[126.95412,37.45448]]}},{"type":"Feature","properties":{"class":"alley","highway":"service","sidewalk":"unknown","lanes":0,"name":"","oneway":false},"geometry":{"type":"LineString","coordinates":[[126.95235,37.45106],[126.95238,37.45106],[126.95255,37.45102]]}},{"type":"Feature","properties":{"class":"alley","highway":"service","sidewalk":"unknown","lanes":0,"name":"신약개발로","oneway":true},"geometry":{"type":"LineString","coordinates":[[126.95256,37.45813],[126.95226,37.45741],[126.95214,37.45717],[126.95214,37.45708]]}},{"type":"Feature","properties":{"class":"alley","highway":"service","sidewalk":"unknown","lanes":0,"name":"신약개발로","oneway":true},"geometry":{"type":"LineString","coordinates":[[126.95335,37.45884],[126.95262,37.45825],[126.95256,37.45813]]}},{"type":"Feature","properties":{"class":"alley","highway":"service","sidewalk":"unknown","lanes":0,"name":"","oneway":true},"geometry":{"type":"LineString","coordinates":[[126.9547,37.45925],[126.95445,37.45927]]}},{"type":"Feature","properties":{"class":"alley","highway":"service","sidewalk":"unknown","lanes":0,"name":"","oneway":false},"geometry":{"type":"LineString","coordinates":[[126.95268,37.45786],[126.95274,37.45793],[126.95282,37.45791],[126.95288,37.45799],[126.95291,37.45802],[126.95306,37.45821]]}},{"type":"Feature","properties":{"class":"alley","highway":"service","sidewalk":"unknown","lanes":0,"name":"","oneway":false},"geometry":{"type":"LineString","coordinates":[[126.95433,37.45639],[126.95436,37.45652],[126.95441,37.45674]]}},{"type":"Feature","properties":{"class":"alley","highway":"service","sidewalk":"unknown","lanes":0,"name":"","oneway":false},"geometry":{"type":"LineString","coordinates":[[126.95436,37.45652],[126.95411,37.45656],[126.95408,37.45643],[126.95433,37.45639]]}},{"type":"Feature","properties":{"class":"alley","highway":"pedestrian","sidewalk":"unknown","lanes":0,"name":"","oneway":false},"geometry":{"type":"LineString","coordinates":[[126.95328,37.4535],[126.95331,37.45349],[126.9535,37.45375],[126.95354,37.45381],[126.95355,37.45383],[126.95354,37.45384],[126.95328,37.4535]]}},{"type":"Feature","properties":{"class":"alley","highway":"service","sidewalk":"unknown","lanes":0,"name":"","oneway":false},"geometry":{"type":"LineString","coordinates":[[126.95,37.46024],[126.95006,37.46019],[126.95051,37.45982]]}},{"type":"Feature","properties":{"class":"alley","highway":"pedestrian","sidewalk":"unknown","lanes":0,"name":"","oneway":false},"geometry":{"type":"LineString","coordinates":[[126.95062,37.45974],[126.95095,37.45952],[126.95103,37.45939]]}},{"type":"Feature","properties":{"class":"alley","highway":"service","sidewalk":"unknown","lanes":4,"name":"","oneway":false},"geometry":{"type":"LineString","coordinates":[[126.94899,37.45834],[126.94902,37.45822],[126.94909,37.45793],[126.94914,37.45771],[126.94921,37.45747],[126.94923,37.45736],[126.9493,37.45708]]}},{"type":"Feature","properties":{"class":"alley","highway":"pedestrian","sidewalk":"unknown","lanes":0,"name":"","oneway":false},"geometry":{"type":"LineString","coordinates":[[126.94992,37.45841],[126.95006,37.45837]]}},{"type":"Feature","properties":{"class":"alley","highway":"pedestrian","sidewalk":"unknown","lanes":0,"name":"","oneway":false},"geometry":{"type":"LineString","coordinates":[[126.95018,37.45882],[126.95014,37.45884]]}},{"type":"Feature","properties":{"class":"alley","highway":"pedestrian","sidewalk":"unknown","lanes":0,"name":"","oneway":false},"geometry":{"type":"LineString","coordinates":[[126.95182,37.46015],[126.95152,37.45994],[126.95127,37.45975],[126.95095,37.45952]]}},{"type":"Feature","properties":{"class":"alley","highway":"service","sidewalk":"unknown","lanes":0,"name":"","oneway":false},"geometry":{"type":"LineString","coordinates":[[126.95182,37.46015],[126.95225,37.46006],[126.9526,37.45997],[126.95289,37.45984]]}},{"type":"Feature","properties":{"class":"alley","highway":"service","sidewalk":"unknown","lanes":0,"name":"","oneway":false},"geometry":{"type":"LineString","coordinates":[[126.95319,37.45946],[126.95316,37.45937],[126.95303,37.45927]]}},{"type":"Feature","properties":{"class":"alley","highway":"service","sidewalk":"unknown","lanes":0,"name":"","oneway":false},"geometry":{"type":"LineString","coordinates":[[126.95319,37.45946],[126.95326,37.45949]]}},{"type":"Feature","properties":{"class":"alley","highway":"service","sidewalk":"unknown","lanes":0,"name":"","oneway":false},"geometry":{"type":"LineString","coordinates":[[126.95054,37.45748],[126.95025,37.4574]]}},{"type":"Feature","properties":{"class":"alley","highway":"service","sidewalk":"unknown","lanes":0,"name":"","oneway":false},"geometry":{"type":"LineString","coordinates":[[126.95099,37.45724],[126.95105,37.45712],[126.95107,37.45701],[126.95108,37.45693],[126.95109,37.4569],[126.95121,37.45616]]}},{"type":"Feature","properties":{"class":"alley","highway":"service","sidewalk":"unknown","lanes":0,"name":"","oneway":false},"geometry":{"type":"LineString","coordinates":[[126.95121,37.45616],[126.95091,37.45612],[126.95083,37.45611]]}},{"type":"Feature","properties":{"class":"alley","highway":"service","sidewalk":"unknown","lanes":0,"name":"","oneway":false},"geometry":{"type":"LineString","coordinates":[[126.95505,37.4607],[126.95496,37.46061],[126.95486,37.4605],[126.95467,37.46027],[126.95435,37.45987],[126.95429,37.4598],[126.9542,37.45969],[126.95402,37.45961],[126.95326,37.45949]]}},{"type":"Feature","properties":{"class":"alley","highway":"pedestrian","sidewalk":"unknown","lanes":0,"name":"","oneway":false},"geometry":{"type":"LineString","coordinates":[[126.95464,37.45973],[126.9545,37.45957],[126.95447,37.45954]]}},{"type":"Feature","properties":{"class":"alley","highway":"service","sidewalk":"unknown","lanes":0,"name":"","oneway":true},"geometry":{"type":"LineString","coordinates":[[126.95445,37.45927],[126.95341,37.45888]]}},{"type":"Feature","properties":{"class":"alley","highway":"service","sidewalk":"unknown","lanes":0,"name":"","oneway":false},"geometry":{"type":"LineString","coordinates":[[126.95461,37.45938],[126.9547,37.45925],[126.95478,37.45917]]}},{"type":"Feature","properties":{"class":"alley","highway":"service","sidewalk":"unknown","lanes":0,"name":"","oneway":false},"geometry":{"type":"LineString","coordinates":[[126.95478,37.45917],[126.95487,37.45907]]}},{"type":"Feature","properties":{"class":"alley","highway":"service","sidewalk":"unknown","lanes":0,"name":"","oneway":true},"geometry":{"type":"LineString","coordinates":[[126.95341,37.45888],[126.95335,37.45884]]}},{"type":"Feature","properties":{"class":"alley","highway":"service","sidewalk":"unknown","lanes":0,"name":"","oneway":false},"geometry":{"type":"LineString","coordinates":[[126.95498,37.45925],[126.95508,37.45938],[126.95544,37.45986],[126.95564,37.46013],[126.95574,37.46027],[126.95577,37.4603]]}},{"type":"Feature","properties":{"class":"alley","highway":"service","sidewalk":"unknown","lanes":0,"name":"","oneway":false},"geometry":{"type":"LineString","coordinates":[[126.95185,37.45531],[126.95195,37.45546],[126.95226,37.45597],[126.95228,37.45602]]}},{"type":"Feature","properties":{"class":"alley","highway":"service","sidewalk":"unknown","lanes":2,"name":"","oneway":false},"geometry":{"type":"LineString","coordinates":[[126.94986,37.45509],[126.94992,37.4549],[126.95003,37.45452],[126.95017,37.4541],[126.95023,37.45388]]}},{"type":"Feature","properties":{"class":"alley","highway":"service","sidewalk":"unknown","lanes":4,"name":"","oneway":true},"geometry":{"type":"LineString","coordinates":[[126.95033,37.4527],[126.95032,37.45264],[126.95029,37.45254],[126.95007,37.45208],[126.95002,37.45197],[126.94998,37.45185],[126.9498,37.4509],[126.94979,37.45071],[126.94985,37.45016],[126.94985,37.44999],[126.94984,37.4498],[126.94982,37.44963],[126.94978,37.44943],[126.94969,37.44921]]}},{"type":"Feature","properties":{"class":"alley","highway":"service","sidewalk":"unknown","lanes":0,"name":"","oneway":false},"geometry":{"type":"LineString","coordinates":[[126.95101,37.45523],[126.95078,37.45521],[126.95056,37.45519],[126.95053,37.45518],[126.95049,37.45518],[126.95002,37.45514],[126.94997,37.45512],[126.94986,37.45509]]}},{"type":"Feature","properties":{"class":"alley","highway":"service","sidewalk":"unknown","lanes":2,"name":"","oneway":false},"geometry":{"type":"LineString","coordinates":[[126.9493,37.45708],[126.94941,37.4566]]}},{"type":"Feature","properties":{"class":"alley","highway":"service","sidewalk":"unknown","lanes":2,"name":"","oneway":false},"geometry":{"type":"LineString","coordinates":[[126.94956,37.45605],[126.94972,37.45552]]}},{"type":"Feature","properties":{"class":"alley","highway":"service","sidewalk":"unknown","lanes":0,"name":"","oneway":true},"geometry":{"type":"LineString","coordinates":[[126.94944,37.45648],[126.94934,37.45644],[126.94929,37.45639],[126.94933,37.45591],[126.94933,37.45588],[126.94931,37.45585],[126.94927,37.45584],[126.94918,37.45582],[126.94906,37.4558],[126.94898,37.4558],[126.94893,37.4558],[126.9489,37.45581],[126.94887,37.45584],[126.94887,37.45588],[126.94886,37.456]]}},{"type":"Feature","properties":{"class":"alley","highway":"service","sidewalk":"unknown","lanes":0,"name":"","oneway":false},"geometry":{"type":"LineString","coordinates":[[126.94944,37.45648],[126.94956,37.45642],[126.94966,37.45638],[126.94976,37.45635]]}},{"type":"Feature","properties":{"class":"alley","highway":"service","sidewalk":"unknown","lanes":0,"name":"","oneway":false},"geometry":{"type":"LineString","coordinates":[[126.9504,37.45604],[126.94996,37.4561],[126.94994,37.45624]]}},{"type":"Feature","properties":{"class":"alley","highway":"service","sidewalk":"unknown","lanes":0,"name":"","oneway":false},"geometry":{"type":"LineString","coordinates":[[126.9505,37.45546],[126.95055,37.45523],[126.95056,37.45519]]}},{"type":"Feature","properties":{"class":"alley","highway":"service","sidewalk":"unknown","lanes":0,"name":"","oneway":false},"geometry":{"type":"LineString","coordinates":[[126.95056,37.45519],[126.95066,37.45529],[126.95103,37.45533],[126.9511,37.45534]]}},{"type":"Feature","properties":{"class":"alley","highway":"service","sidewalk":"unknown","lanes":2,"name":"","oneway":false},"geometry":{"type":"LineString","coordinates":[[126.94982,37.45523],[126.94986,37.45509]]}},{"type":"Feature","properties":{"class":"alley","highway":"service","sidewalk":"unknown","lanes":0,"name":"","oneway":false},"geometry":{"type":"LineString","coordinates":[[126.95,37.45734],[126.95027,37.45729],[126.95038,37.45729],[126.95051,37.45726],[126.95057,37.45723],[126.95058,37.45714]]}},{"type":"Feature","properties":{"class":"alley","highway":"living_street","sidewalk":"unknown","lanes":0,"name":"","oneway":false},"geometry":{"type":"LineString","coordinates":[[126.95139,37.45731],[126.95137,37.45705]]}},{"type":"Feature","properties":{"class":"alley","highway":"living_street","sidewalk":"unknown","lanes":0,"name":"","oneway":false},"geometry":{"type":"LineString","coordinates":[[126.95137,37.45705],[126.95142,37.45694],[126.9515,37.45684],[126.95156,37.45674],[126.95159,37.45668],[126.95171,37.45645],[126.95175,37.45626]]}},{"type":"Feature","properties":{"class":"alley","highway":"service","sidewalk":"unknown","lanes":0,"name":"","oneway":true},"geometry":{"type":"LineString","coordinates":[[126.95189,37.45723],[126.95185,37.4573],[126.95182,37.45745],[126.95186,37.45762],[126.95194,37.45777],[126.95201,37.45792],[126.95228,37.45838],[126.9532,37.45907],[126.95326,37.45913],[126.95433,37.4595],[126.95445,37.45927]]}},{"type":"Feature","properties":{"class":"alley","highway":"service","sidewalk":"unknown","lanes":0,"name":"","oneway":true},"geometry":{"type":"LineString","coordinates":[[126.95214,37.45708],[126.95204,37.45709],[126.95192,37.45716],[126.95189,37.45723]]}},{"type":"Feature","properties":{"class":"alley","highway":"living_street","sidewalk":"unknown","lanes":0,"name":"","oneway":false},"geometry":{"type":"LineString","coordinates":[[126.95175,37.45626],[126.95179,37.45601],[126.9518,37.45587],[126.95183,37.45569]]}},{"type":"Feature","properties":{"class":"alley","highway":"service","sidewalk":"unknown","lanes":0,"name":"","oneway":false},"geometry":{"type":"LineString","coordinates":[[126.95183,37.45569],[126.9518,37.45558],[126.95184,37.45546],[126.95185,37.45531],[126.95197,37.45434],[126.95204,37.45397],[126.95207,37.45379],[126.95208,37.45367],[126.95209,37.45357],[126.95213,37.45321],[126.95214,37.45297],[126.95204,37.4526],[126.95203,37.45245],[126.9521,37.45233],[126.95223,37.45221],[126.95266,37.4521],[126.9528,37.45207]]}},{"type":"Feature","properties":{"class":"alley","highway":"service","sidewalk":"unknown","lanes":0,"name":"","oneway":false},"geometry":{"type":"LineString","coordinates":[[126.95214,37.45708],[126.95222,37.45713],[126.95227,37.45723],[126.95232,37.45733],[126.95238,37.45744]]}},{"type":"Feature","properties":{"class":"alley","highway":"service","sidewalk":"unknown","lanes":0,"name":"","oneway":false},"geometry":{"type":"LineString","coordinates":[[126.95256,37.45664],[126.9525,37.4571],[126.95247,37.45722],[126.95254,37.45746],[126.95268,37.4575],[126.95294,37.45756]]}},{"type":"Feature","properties":{"class":"alley","highway":"service","sidewalk":"unknown","lanes":0,"name":"","oneway":false},"geometry":{"type":"LineString","coordinates":[[126.95254,37.45648],[126.95255,37.45654],[126.95256,37.45664]]}},{"type":"Feature","properties":{"class":"alley","highway":"service","sidewalk":"unknown","lanes":4,"name":"","oneway":false},"geometry":{"type":"LineString","coordinates":[[126.94811,37.46672],[126.94812,37.46658],[126.94812,37.46647],[126.94813,37.46634],[126.94816,37.46628],[126.94839,37.46583],[126.94851,37.46557],[126.9486,37.46513],[126.94872,37.4646],[126.94875,37.46443],[126.94887,37.46389],[126.94908,37.4629],[126.94912,37.46274],[126.9493,37.46193],[126.9493,37.46189],[126.94933,37.46176],[126.94934,37.46169],[126.94936,37.4616],[126.94936,37.46149],[126.94935,37.4614],[126.94933,37.46128],[126.94921,37.46094],[126.94906,37.46055],[126.94902,37.46043],[126.94883,37.4599],[126.94875,37.45971],[126.94873,37.45962],[126.94872,37.45954],[126.94872,37.45943],[126.94875,37.45932],[126.94882,37.45902],[126.94895,37.45847],[126.94899,37.45834]]}},{"type":"Feature","properties":{"class":"alley","highway":"service","sidewalk":"unknown","lanes":4,"name":"","oneway":false},"geometry":{"type":"LineString","coordinates":[[126.95235,37.45106],[126.95241,37.45123],[126.95245,37.45131],[126.95266,37.45176],[126.95267,37.45178],[126.95268,37.45181],[126.9528,37.45207],[126.95334,37.45325],[126.95338,37.45338]]}},{"type":"Feature","properties":{"class":"alley","highway":"service","sidewalk":"unknown","lanes":0,"name":"","oneway":false},"geometry":{"type":"LineString","coordinates":[[126.95154,37.45114],[126.95142,37.45126],[126.9515,37.45148],[126.95225,37.45133],[126.95227,37.45133],[126.95239,37.45145],[126.95251,37.45168],[126.95267,37.45178]]}},{"type":"Feature","properties":{"class":"alley","highway":"service","sidewalk":"unknown","lanes":4,"name":"","oneway":false},"geometry":{"type":"LineString","coordinates":[[126.95201,37.4489],[126.95201,37.44908],[126.952,37.44927],[126.95199,37.44954],[126.95198,37.44997],[126.95197,37.45029],[126.95199,37.45044],[126.95199,37.45048],[126.95207,37.45061],[126.95221,37.4508],[126.9523,37.45097],[126.95231,37.451],[126.95235,37.45106]]}},{"type":"Feature","properties":{"class":"alley","highway":"service","sidewalk":"unknown","lanes":4,"name":"","oneway":true},"geometry":{"type":"LineString","coordinates":[[126.9498,37.44725],[126.95018,37.44718],[126.95053,37.44711],[126.95064,37.44709],[126.95084,37.44706],[126.95107,37.44707],[126.95124,37.44709],[126.95138,37.44712],[126.95144,37.44715],[126.9515,37.44718],[126.95158,37.44722],[126.95165,37.44727],[126.9518,37.44739],[126.95192,37.44754],[126.95197,37.44763],[126.952,37.4477],[126.95202,37.44776],[126.95204,37.44789],[126.95204,37.44806],[126.95204,37.44824]]}},{"type":"Feature","properties":{"class":"alley","highway":"service","sidewalk":"unknown","lanes":4,"name":"","oneway":true},"geometry":{"type":"LineString","coordinates":[[126.94969,37.44921],[126.9493,37.4484],[126.94919,37.44814],[126.94916,37.44799],[126.94916,37.44784],[126.9492,37.44772],[126.94927,37.44758],[126.94933,37.44751],[126.94938,37.44744],[126.9495,37.44736],[126.94968,37.44728],[126.9498,37.44725]]}},{"type":"Feature","properties":{"class":"alley","highway":"service","sidewalk":"unknown","lanes":0,"name":"","oneway":true},"geometry":{"type":"LineString","coordinates":[[126.95204,37.44824],[126.95211,37.44824],[126.95215,37.44824],[126.95222,37.44824],[126.95275,37.44815],[126.95273,37.44844],[126.95222,37.44841],[126.95222,37.44824]]}},{"type":"Feature","properties":{"class":"alley","highway":"service","sidewalk":"unknown","lanes":0,"name":"","oneway":false},"geometry":{"type":"LineString","coordinates":[[126.95433,37.45639],[126.95449,37.45632],[126.95455,37.45613],[126.95488,37.45616]]}},{"type":"Feature","properties":{"class":"minor","highway":"unclassified","sidewalk":"unknown","lanes":0,"name":"","oneway":false},"geometry":{"type":"LineString","coordinates":[[126.95138,37.44712],[126.951,37.44762],[126.95094,37.44773],[126.95094,37.44777],[126.95094,37.44779],[126.95098,37.44781],[126.9511,37.44785],[126.95123,37.44785]]}},{"type":"Feature","properties":{"class":"alley","highway":"service","sidewalk":"unknown","lanes":0,"name":"","oneway":false},"geometry":{"type":"LineString","coordinates":[[126.95242,37.45418],[126.9528,37.45413]]}},{"type":"Feature","properties":{"class":"alley","highway":"service","sidewalk":"unknown","lanes":0,"name":"","oneway":false},"geometry":{"type":"LineString","coordinates":[[126.95289,37.45539],[126.9532,37.45541],[126.95324,37.45512]]}},{"type":"Feature","properties":{"class":"alley","highway":"service","sidewalk":"unknown","lanes":0,"name":"","oneway":false},"geometry":{"type":"LineString","coordinates":[[126.95197,37.45102],[126.95212,37.45099]]}},{"type":"Feature","properties":{"class":"alley","highway":"service","sidewalk":"unknown","lanes":0,"name":"","oneway":false},"geometry":{"type":"LineString","coordinates":[[126.95225,37.45133],[126.95212,37.45099],[126.95204,37.4508]]}},{"type":"Feature","properties":{"class":"alley","highway":"service","sidewalk":"unknown","lanes":0,"name":"관악산나들길","oneway":false},"geometry":{"type":"LineString","coordinates":[[126.94792,37.46381],[126.948,37.46371],[126.948,37.46359],[126.948,37.46339],[126.948,37.46325],[126.94771,37.4629],[126.94768,37.46285],[126.94752,37.46256],[126.94748,37.46242],[126.94746,37.46226],[126.94743,37.46194],[126.94741,37.46163],[126.94743,37.46123],[126.94767,37.46078],[126.94773,37.46064],[126.94778,37.46049],[126.94777,37.4604],[126.94769,37.4602],[126.94762,37.4601],[126.94741,37.45976],[126.94725,37.45942],[126.94719,37.45932],[126.94684,37.45881],[126.94643,37.45829],[126.94635,37.45812],[126.94635,37.4581],[126.94632,37.45766],[126.94628,37.45744],[126.94619,37.45725],[126.94614,37.45687],[126.94603,37.45671],[126.94596,37.45662],[126.9458,37.45638],[126.94567,37.4561],[126.94565,37.45606]]}},{"type":"Feature","properties":{"class":"alley","highway":"pedestrian","sidewalk":"unknown","lanes":0,"name":"","oneway":false},"geometry":{"type":"LineString","coordinates":[[126.95132,37.45971],[126.95127,37.45975]]}},{"type":"Feature","properties":{"class":"alley","highway":"pedestrian","sidewalk":"unknown","lanes":0,"name":"","oneway":false},"geometry":{"type":"LineString","coordinates":[[126.95158,37.45989],[126.95152,37.45994]]}},{"type":"Feature","properties":{"class":"alley","highway":"pedestrian","sidewalk":"unknown","lanes":0,"name":"","oneway":false},"geometry":{"type":"LineString","coordinates":[[126.95122,37.45918],[126.95137,37.45901]]}},{"type":"Feature","properties":{"class":"alley","highway":"service","sidewalk":"unknown","lanes":0,"name":"","oneway":false},"geometry":{"type":"LineString","coordinates":[[126.95033,37.4527],[126.95039,37.45265],[126.95047,37.45244]]}},{"type":"Feature","properties":{"class":"alley","highway":"service","sidewalk":"unknown","lanes":0,"name":"","oneway":false},"geometry":{"type":"LineString","coordinates":[[126.95047,37.45244],[126.95042,37.45225],[126.95038,37.45212]]}},{"type":"Feature","properties":{"class":"alley","highway":"service","sidewalk":"unknown","lanes":0,"name":"","oneway":false},"geometry":{"type":"LineString","coordinates":[[126.95042,37.45225],[126.95045,37.45221],[126.95051,37.45212]]}},{"type":"Feature","properties":{"class":"alley","highway":"service","sidewalk":"unknown","lanes":0,"name":"관악산나들길","oneway":false},"geometry":{"type":"LineString","coordinates":[[126.94565,37.45606],[126.9456,37.45597]]}},{"type":"Feature","properties":{"class":"alley","highway":"service","sidewalk":"unknown","lanes":4,"name":"","oneway":false},"geometry":{"type":"LineString","coordinates":[[126.95204,37.44824],[126.95203,37.44857],[126.95201,37.44885],[126.95201,37.4489]]}},{"type":"Feature","properties":{"class":"alley","highway":"service","sidewalk":"unknown","lanes":4,"name":"","oneway":false},"geometry":{"type":"LineString","coordinates":[[126.95023,37.45388],[126.95033,37.45274],[126.95033,37.4527]]}},{"type":"Feature","properties":{"class":"alley","highway":"service","sidewalk":"unknown","lanes":0,"name":"","oneway":false},"geometry":{"type":"LineString","coordinates":[[126.94925,37.45835],[126.94909,37.45834],[126.94899,37.45834]]}},{"type":"Feature","properties":{"class":"alley","highway":"pedestrian","sidewalk":"unknown","lanes":0,"name":"","oneway":false},"geometry":{"type":"LineString","coordinates":[[126.94911,37.45671],[126.94902,37.4567]]}},{"type":"Feature","properties":{"class":"alley","highway":"service","sidewalk":"unknown","lanes":0,"name":"","oneway":true},"geometry":{"type":"LineString","coordinates":[[126.94886,37.456],[126.94886,37.45611]]}},{"type":"Feature","properties":{"class":"alley","highway":"service","sidewalk":"unknown","lanes":0,"name":"관악산나들길","oneway":false},"geometry":{"type":"LineString","coordinates":[[126.9456,37.45597],[126.94554,37.45585]]}}]}