{"type":"FeatureCollection","features":[{"type":"Feature","properties":{"class":"major","highway":"tertiary","sidewalk":"likely","lanes":0,"name":"","oneway":false},"geometry":{"type":"LineString","coordinates":[[126.81223,37.47793],[126.81199,37.47826]]}},{"type":"Feature","properties":{"class":"major","highway":"tertiary","sidewalk":"likely","lanes":0,"name":"안곡로","oneway":false},"geometry":{"type":"LineString","coordinates":[[126.81187,37.47842],[126.81151,37.47835],[126.81111,37.47832],[126.81056,37.47839],[126.81041,37.47841],[126.81017,37.47844],[126.80996,37.47847],[126.80949,37.47858],[126.80944,37.4786],[126.80877,37.4788],[126.80802,37.47905],[126.80769,37.47912],[126.80735,37.47916]]}},{"type":"Feature","properties":{"class":"alley","highway":"service","sidewalk":"unknown","lanes":0,"name":"범안로21번길","oneway":false},"geometry":{"type":"LineString","coordinates":[[126.80852,37.47993],[126.80858,37.47993],[126.80903,37.47976],[126.80961,37.47893],[126.81017,37.47889],[126.81058,37.47889],[126.81073,37.47889],[126.81106,37.47891]]}},{"type":"Feature","properties":{"class":"alley","highway":"service","sidewalk":"unknown","lanes":0,"name":"안곡로79번길","oneway":false},"geometry":{"type":"LineString","coordinates":[[126.81104,37.47933],[126.81152,37.47935],[126.8116,37.47933],[126.81174,37.47922]]}},{"type":"Feature","properties":{"class":"alley","highway":"service","sidewalk":"unknown","lanes":0,"name":"범안로35번길","oneway":false},"geometry":{"type":"LineString","coordinates":[[126.80723,37.47859],[126.80749,37.47862],[126.80761,37.47862],[126.80771,37.47862],[126.80779,37.4786],[126.80855,37.47836],[126.80865,37.47833],[126.80971,37.47799],[126.81012,37.47793],[126.81106,37.47778]]}},{"type":"Feature","properties":{"class":"alley","highway":"service","sidewalk":"unknown","lanes":0,"name":"부광로42번길","oneway":false},"geometry":{"type":"LineString","coordinates":[[126.81454,37.48121],[126.81399,37.48093],[126.8138,37.48082],[126.81374,37.48077],[126.81335,37.48008],[126.81323,37.47993],[126.81315,37.47987],[126.81202,37.47922]]}},{"type":"Feature","properties":{"class":"alley","highway":"service","sidewalk":"unknown","lanes":0,"name":"범안로129번길","oneway":false},"geometry":{"type":"LineString","coordinates":[[126.80913,37.47031],[126.8096,37.47028],[126.80981,37.4704],[126.81001,37.4705],[126.81008,37.47056],[126.81014,37.47064],[126.8102,37.47075],[126.81021,37.47082],[126.8102,37.47105],[126.81022,37.47122],[126.81027,37.47135],[126.81035,37.47146],[126.81043,37.47154],[126.81054,37.4716],[126.81066,37.47164],[126.81079,37.47165],[126.8111,37.47168],[126.81124,37.4717],[126.81134,37.47174],[126.81141,37.47179],[126.81146,37.47185],[126.81151,37.47194],[126.81158,37.47213],[126.8118,37.47328],[126.81182,37.47337],[126.81187,37.47366]]}},{"type":"Feature","properties":{"class":"minor","highway":"residential","sidewalk":"unknown","lanes":0,"name":"경인로498번길","oneway":false},"geometry":{"type":"LineString","coordinates":[[126.81371,37.47956],[126.81335,37.48008],[126.81278,37.48094],[126.81235,37.48159],[126.81233,37.48162]]}},{"type":"Feature","properties":{"class":"major","highway":"secondary","sidewalk":"likely","lanes":0,"name":"서해안로","oneway":true},"geometry":{"type":"LineString","coordinates":[[126.81627,37.47424],[126.81746,37.47529]]}},{"type":"Feature","properties":{"class":"major","highway":"secondary","sidewalk":"likely","lanes":0,"name":"서해안로","oneway":true},"geometry":{"type":"LineString","coordinates":[[126.81535,37.4728],[126.81575,37.4735],[126.81603,37.47396]]}},{"type":"Feature","properties":{"class":"minor","highway":"residential","sidewalk":"unknown","lanes":0,"name":"양지로40번길","oneway":false},"geometry":{"type":"LineString","coordinates":[[126.81318,37.47628],[126.81313,37.4766],[126.81307,37.47676],[126.81298,37.47689],[126.81285,37.47707],[126.81264,37.47736],[126.81223,37.47793]]}},{"type":"Feature","properties":{"class":"major","highway":"secondary","sidewalk":"likely","lanes":0,"name":"서해안로","oneway":true},"geometry":{"type":"LineString","coordinates":[[126.81461,37.47127],[126.81515,37.47236]]}},{"type":"Feature","properties":{"class":"alley","highway":"living_street","sidewalk":"unknown","lanes":0,"name":"","oneway":false},"geometry":{"type":"LineString","coordinates":[[126.81007,37.4734],[126.81019,37.47351],[126.81031,37.47357],[126.81098,37.47355],[126.81107,37.47358],[126.81127,37.47358]]}},{"type":"Feature","properties":{"class":"alley","highway":"living_street","sidewalk":"unknown","lanes":0,"name":"","oneway":false},"geometry":{"type":"LineString","coordinates":[[126.81097,37.47293],[126.81101,37.47281],[126.81108,37.47274],[126.81123,37.47273],[126.81134,37.47278],[126.81139,37.47284],[126.81139,37.47316],[126.81154,37.47316],[126.81153,37.47296]]}},{"type":"Feature","properties":{"class":"alley","highway":"living_street","sidewalk":"unknown","lanes":0,"name":"","oneway":false},"geometry":{"type":"LineString","coordinates":[[126.81019,37.47294],[126.81019,37.47273],[126.81014,37.47264],[126.81023,37.47228],[126.81028,37.4722],[126.81064,37.47219],[126.81082,37.47219],[126.81093,37.4722],[126.81158,37.47213]]}},{"type":"Feature","properties":{"class":"alley","highway":"living_street","sidewalk":"unknown","lanes":0,"name":"","oneway":false},"geometry":{"type":"LineString","coordinates":[[126.81103,37.47372],[126.81121,37.47392],[126.81122,37.47404],[126.81113,37.47417],[126.81065,37.4745],[126.81054,37.47471],[126.81044,37.47475],[126.80854,37.47476]]}},{"type":"Feature","properties":{"class":"minor","highway":"residential","sidewalk":"unknown","lanes":0,"name":"양지로67번길","oneway":false},"geometry":{"type":"LineString","coordinates":[[126.81467,37.47263],[126.81345,37.47325],[126.81242,37.47381],[126.81231,37.47389],[126.8123,37.47391],[126.81224,37.474],[126.81222,37.4741],[126.81214,37.47451],[126.81209,37.47456],[126.81201,37.47459],[126.81192,37.47459],[126.81176,37.47459]]}},{"type":"Feature","properties":{"class":"major","highway":"secondary","sidewalk":"likely","lanes":0,"name":"서해안로","oneway":true},"geometry":{"type":"LineString","coordinates":[[126.81322,37.46827],[126.81461,37.47127]]}},{"type":"Feature","properties":{"class":"minor","highway":"residential","sidewalk":"unknown","lanes":0,"name":"범안로95번길","oneway":false},"geometry":{"type":"LineString","coordinates":[[126.80893,37.4734],[126.80985,37.47368],[126.80995,37.4737],[126.81006,37.47371],[126.81103,37.47372],[126.81134,37.47372],[126.81146,37.47371],[126.81187,37.47366]]}},{"type":"Feature","properties":{"class":"minor","highway":"residential","sidewalk":"unknown","lanes":0,"name":"양지남로","oneway":false},"geometry":{"type":"LineString","coordinates":[[126.81374,37.46791],[126.81268,37.46829],[126.81247,37.46843],[126.81234,37.46855],[126.81231,37.46859],[126.81224,37.46865],[126.81205,37.46893],[126.81195,37.46926],[126.81193,37.46957],[126.81196,37.4698],[126.81205,37.47003],[126.81222,37.47025],[126.81242,37.47043],[126.81265,37.47061],[126.81291,37.47078],[126.81318,37.47096],[126.81349,37.47115],[126.81352,37.47117],[126.81398,37.47148],[126.8141,37.47158],[126.81419,37.47171],[126.81429,37.47186],[126.81454,37.47237]]}},{"type":"Feature","properties":{"class":"major","highway":"tertiary","sidewalk":"likely","lanes":0,"name":"양지로","oneway":false},"geometry":{"type":"LineString","coordinates":[[126.81666,37.4782],[126.81629,37.47803],[126.81597,37.47784],[126.81567,37.47758],[126.81561,37.47753],[126.81539,37.4773],[126.8152,37.47709],[126.81502,37.47687],[126.8148,37.47669],[126.81453,37.47653],[126.81426,37.47642],[126.81394,37.47635],[126.81375,37.47633],[126.81357,37.47631],[126.81318,37.47628]]}},{"type":"Feature","properties":{"class":"major","highway":"secondary","sidewalk":"likely","lanes":0,"name":"부광로","oneway":false},"geometry":{"type":"LineString","coordinates":[[126.81974,37.47516],[126.82009,37.47467],[126.82074,37.47374],[126.821,37.47338],[126.82121,37.47312],[126.8219,37.47234]]}},{"type":"Feature","properties":{"class":"minor","highway":"residential","sidewalk":"unknown","lanes":0,"name":"","oneway":false},"geometry":{"type":"LineString","coordinates":[[126.81462,37.47144],[126.81483,37.47138],[126.81489,37.47137],[126.81508,37.47128],[126.81517,37.47122],[126.81524,37.47113],[126.81533,37.47096],[126.8154,37.47087],[126.81556,37.47075],[126.81571,37.47066],[126.81629,37.47048],[126.81638,37.47043],[126.81645,37.47037],[126.81654,37.47026],[126.81668,37.47015],[126.81682,37.47007],[126.81698,37.47],[126.81723,37.46995],[126.81746,37.46991],[126.81774,37.46992],[126.81797,37.46991],[126.81815,37.46986],[126.8183,37.46978],[126.81843,37.46969],[126.81859,37.4695],[126.81869,37.46937],[126.819,37.46891],[126.81911,37.46869]]}},{"type":"Feature","properties":{"class":"minor","highway":"residential","sidewalk":"unknown","lanes":0,"name":"양지로92번길","oneway":false},"geometry":{"type":"LineString","coordinates":[[126.81318,37.47096],[126.81291,37.47133],[126.81282,37.47175],[126.81281,37.47192],[126.81282,37.47206],[126.81284,37.47221],[126.81289,37.47237],[126.81294,37.47251],[126.81301,37.47263],[126.81326,37.47299]]}},{"type":"Feature","properties":{"class":"alley","highway":"service","sidewalk":"unknown","lanes":0,"name":"","oneway":false},"geometry":{"type":"LineString","coordinates":[[126.81379,37.47226],[126.81385,37.47221],[126.81386,37.47216],[126.81384,37.47211],[126.81369,37.47186],[126.8136,37.47176],[126.81346,37.47165],[126.81291,37.47133]]}},{"type":"Feature","properties":{"class":"major","highway":"tertiary_link","sidewalk":"likely","lanes":0,"name":"소사동로","oneway":true},"geometry":{"type":"LineString","coordinates":[[126.81138,37.47747],[126.81098,37.47734],[126.8102,37.47691],[126.80882,37.4762],[126.8084,37.47598],[126.80834,37.47595],[126.80817,37.47586]]}},{"type":"Feature","properties":{"class":"major","highway":"tertiary","sidewalk":"likely","lanes":0,"name":"소사동로","oneway":false},"geometry":{"type":"LineString","coordinates":[[126.81557,37.47975],[126.81839,37.48104],[126.81868,37.48129],[126.81894,37.48166]]}},{"type":"Feature","properties":{"class":"major","highway":"tertiary_link","sidewalk":"likely","lanes":0,"name":"소사동로","oneway":true},"geometry":{"type":"LineString","coordinates":[[126.80826,37.47564],[126.80847,37.47574],[126.80854,37.47578],[126.80878,37.47588],[126.80895,37.47597],[126.8096,37.4763],[126.81047,37.47684],[126.81077,37.47702],[126.81094,37.47712],[126.81119,37.47727],[126.81138,37.47747]]}},{"type":"Feature","properties":{"class":"major","highway":"tertiary","sidewalk":"likely","lanes":0,"name":"양지로","oneway":false},"geometry":{"type":"LineString","coordinates":[[126.81498,37.47222],[126.8152,37.47214],[126.81529,37.47211],[126.81543,37.47206],[126.81687,37.47156],[126.81721,37.47144],[126.81758,37.47131],[126.81867,37.47095],[126.81904,37.47076],[126.81943,37.47053],[126.81986,37.47014],[126.82008,37.46993],[126.82044,37.4696],[126.82084,37.46927],[126.82102,37.4691],[126.82121,37.46896],[126.82131,37.46888],[126.82174,37.46867],[126.82208,37.46851],[126.82243,37.46836],[126.82293,37.46814]]}},{"type":"Feature","properties":{"class":"major","highway":"tertiary","sidewalk":"likely","lanes":0,"name":"양지로","oneway":false},"geometry":{"type":"LineString","coordinates":[[126.81181,37.47529],[126.81175,37.47503]]}},{"type":"Feature","properties":{"class":"minor","highway":"residential","sidewalk":"unknown","lanes":0,"name":"양지로91번길","oneway":false},"geometry":{"type":"LineString","coordinates":[[126.81326,37.47299],[126.81345,37.47325],[126.81369,37.47353],[126.81398,37.47384]]}},{"type":"Feature","properties":{"class":"major","highway":"tertiary_link","sidewalk":"likely","lanes":0,"name":"","oneway":true},"geometry":{"type":"LineString","coordinates":[[126.81251,37.47342],[126.81216,37.47367],[126.81203,37.47377],[126.81195,37.47386],[126.81189,37.47399],[126.81181,37.4742]]}},{"type":"Feature","properties":{"class":"minor","highway":"residential","sidewalk":"unknown","lanes":0,"name":"범안로95번길","oneway":true},"geometry":{"type":"LineString","coordinates":[[126.81146,37.47371],[126.81158,37.47366],[126.81168,37.4736],[126.81176,37.47353],[126.81179,37.47348],[126.81182,37.47337]]}},{"type":"Feature","properties":{"class":"major","highway":"tertiary_link","sidewalk":"likely","lanes":0,"name":"","oneway":true},"geometry":{"type":"LineString","coordinates":[[126.81184,37.47394],[126.81181,37.47384],[126.81175,37.47378],[126.81164,37.47374],[126.81146,37.47371]]}},{"type":"Feature","properties":{"class":"alley","highway":"pedestrian","sidewalk":"unknown","lanes":0,"name":"","oneway":false},"geometry":{"type":"LineString","coordinates":[[126.81203,37.47377],[126.8123,37.47391]]}},{"type":"Feature","properties":{"class":"minor","highway":"residential","sidewalk":"unknown","lanes":0,"name":"양지로105번길","oneway":false},"geometry":{"type":"LineString","coordinates":[[126.81454,37.47237],[126.81467,37.47263],[126.81473,37.47281],[126.81477,37.47299],[126.81475,37.4734],[126.81472,37.47346],[126.81398,37.47384]]}},{"type":"Feature","properties":{"class":"minor","highway":"residential","sidewalk":"unknown","lanes":0,"name":"양지로91번길","oneway":false},"geometry":{"type":"LineString","coordinates":[[126.81369,37.47353],[126.81477,37.47299]]}},{"type":"Feature","properties":{"class":"alley","highway":"service","sidewalk":"unknown","lanes":0,"name":"양지로","oneway":false},"geometry":{"type":"LineString","coordinates":[[126.81543,37.47206],[126.81569,37.47258]]}},{"type":"Feature","properties":{"class":"alley","highway":"service","sidewalk":"unknown","lanes":0,"name":"양지로","oneway":false},"geometry":{"type":"LineString","coordinates":[[126.81569,37.47258],[126.81616,37.47246],[126.81717,37.47199]]}},{"type":"Feature","properties":{"class":"minor","highway":"residential","sidewalk":"unknown","lanes":0,"name":"","oneway":false},"geometry":{"type":"LineString","coordinates":[[126.81758,37.47131],[126.81748,37.47109]]}},{"type":"Feature","properties":{"class":"minor","highway":"residential","sidewalk":"unknown","lanes":0,"name":"","oneway":false},"geometry":{"type":"LineString","coordinates":[[126.81748,37.47109],[126.81582,37.47164],[126.81577,37.47164],[126.81572,37.47163],[126.81568,37.4716],[126.81554,37.47135],[126.81554,37.47132],[126.81558,37.47129],[126.81581,37.47122],[126.81588,37.47118],[126.81622,37.4708]]}},{"type":"Feature","properties":{"class":"minor","highway":"residential","sidewalk":"unknown","lanes":0,"name":"양지로48번길","oneway":false},"geometry":{"type":"LineString","coordinates":[[126.81235,37.47596],[126.81198,37.47625],[126.81158,37.47652],[126.81124,37.47681]]}},{"type":"Feature","properties":{"class":"minor","highway":"residential","sidewalk":"unknown","lanes":0,"name":"양지로48번길","oneway":false},"geometry":{"type":"LineString","coordinates":[[126.81124,37.47681],[126.81195,37.47723],[126.81211,37.4773]]}},{"type":"Feature","properties":{"class":"alley","highway":"pedestrian","sidewalk":"unknown","lanes":0,"name":"","oneway":false},"geometry":{"type":"LineString","coordinates":[[126.8119,37.47757],[126.81211,37.4773]]}},{"type":"Feature","properties":{"class":"minor","highway":"residential","sidewalk":"unknown","lanes":0,"name":"","oneway":false},"geometry":{"type":"LineString","coordinates":[[126.81211,37.4773],[126.81238,37.47694],[126.8125,37.47676],[126.81259,37.47658],[126.81275,37.47617]]}},{"type":"Feature","properties":{"class":"minor","highway":"residential","sidewalk":"unknown","lanes":0,"name":"양지로48번길","oneway":false},"geometry":{"type":"LineString","coordinates":[[126.81158,37.47652],[126.81201,37.47678],[126.81238,37.47694]]}},{"type":"Feature","properties":{"class":"minor","highway":"residential","sidewalk":"unknown","lanes":0,"name":"","oneway":false},"geometry":{"type":"LineString","coordinates":[[126.81174,37.47611],[126.81198,37.47625]]}},{"type":"Feature","properties":{"class":"alley","highway":"living_street","sidewalk":"unknown","lanes":0,"name":"","oneway":false},"geometry":{"type":"LineString","coordinates":[[126.81285,37.47707],[126.81343,37.47734]]}},{"type":"Feature","properties":{"class":"alley","highway":"living_street","sidewalk":"unknown","lanes":0,"name":"","oneway":false},"geometry":{"type":"LineString","coordinates":[[126.81343,37.47734],[126.81349,37.47728],[126.81354,37.47725],[126.81361,37.47723],[126.8137,37.4772],[126.81377,37.47719],[126.81386,37.47719],[126.81395,37.47721],[126.81403,37.47724],[126.81412,37.47729],[126.81418,37.47737],[126.81427,37.47745],[126.81439,37.47754],[126.81449,37.47761],[126.8148,37.4778],[126.81493,37.47795],[126.81511,37.47818],[126.81526,37.47832],[126.81538,37.47839],[126.81552,37.47847],[126.8156,37.4785],[126.81568,37.47851],[126.81574,37.47848]]}},{"type":"Feature","properties":{"class":"alley","highway":"living_street","sidewalk":"unknown","lanes":0,"name":"","oneway":false},"geometry":{"type":"LineString","coordinates":[[126.81538,37.47839],[126.81509,37.47863],[126.81489,37.47879],[126.81481,37.47884],[126.81475,37.47886],[126.81467,37.47887],[126.8146,37.47887],[126.81453,37.47884],[126.81386,37.47847],[126.81375,37.4784],[126.81366,37.47832],[126.81359,37.47825],[126.81354,37.47815],[126.81347,37.47799],[126.81343,37.47789],[126.8134,37.47779],[126.81338,37.47768],[126.81338,37.47758],[126.81339,37.47747],[126.81341,37.4774],[126.81343,37.47734]]}},{"type":"Feature","properties":{"class":"alley","highway":"living_street","sidewalk":"unknown","lanes":0,"name":"","oneway":false},"geometry":{"type":"LineString","coordinates":[[126.81509,37.47863],[126.81534,37.47885]]}},{"type":"Feature","properties":{"class":"alley","highway":"living_street","sidewalk":"unknown","lanes":0,"name":"","oneway":false},"geometry":{"type":"LineString","coordinates":[[126.81301,37.47768],[126.81338,37.47768],[126.81366,37.47767]]}},{"type":"Feature","properties":{"class":"alley","highway":"living_street","sidewalk":"unknown","lanes":0,"name":"","oneway":false},"geometry":{"type":"LineString","coordinates":[[126.8148,37.4778],[126.81506,37.47754],[126.81539,37.4773]]}},{"type":"Feature","properties":{"class":"alley","highway":"service","sidewalk":"unknown","lanes":0,"name":"","oneway":false},"geometry":{"type":"LineString","coordinates":[[126.81401,37.47936],[126.81379,37.47953],[126.81371,37.47956]]}},{"type":"Feature","properties":{"class":"minor","highway":"residential","sidewalk":"unknown","lanes":0,"name":"","oneway":false},"geometry":{"type":"LineString","coordinates":[[126.81974,37.47516],[126.81956,37.47509],[126.81946,37.47507],[126.81937,37.47507],[126.81931,37.47509],[126.81925,37.47512],[126.81919,37.47516],[126.8191,37.47531],[126.81906,37.47536],[126.81901,37.4754],[126.81889,37.47545],[126.81861,37.47553],[126.8185,37.47555],[126.8184,37.47555],[126.81834,37.47554],[126.81825,37.4755],[126.81814,37.47539],[126.81811,37.47534],[126.81808,37.47528],[126.81806,37.47523],[126.81797,37.47516],[126.81807,37.47508],[126.8181,37.47504],[126.8182,37.4748],[126.8182,37.47477],[126.81819,37.47473],[126.81801,37.47458],[126.81765,37.47425]]}},{"type":"Feature","properties":{"class":"alley","highway":"service","sidewalk":"unknown","lanes":0,"name":"","oneway":false},"geometry":{"type":"LineString","coordinates":[[126.81801,37.47458],[126.81786,37.47473],[126.81786,37.47475],[126.81766,37.47489],[126.81759,37.47483],[126.8178,37.47468],[126.81786,37.47473]]}},{"type":"Feature","properties":{"class":"alley","highway":"service","sidewalk":"unknown","lanes":0,"name":"안곡로79번길","oneway":false},"geometry":{"type":"LineString","coordinates":[[126.81127,37.48033],[126.81111,37.48026],[126.81103,37.4802],[126.811,37.48014],[126.81104,37.47933],[126.81106,37.47891],[126.81111,37.47832]]}},{"type":"Feature","properties":{"class":"major","highway":"tertiary","sidewalk":"likely","lanes":0,"name":"안곡로86번길","oneway":false},"geometry":{"type":"LineString","coordinates":[[126.81199,37.47826],[126.81187,37.47842]]}},{"type":"Feature","properties":{"class":"alley","highway":"service","sidewalk":"unknown","lanes":0,"name":"안곡로86번길","oneway":false},"geometry":{"type":"LineString","coordinates":[[126.81024,37.47736],[126.81106,37.47778],[126.81199,37.47826]]}},{"type":"Feature","properties":{"class":"minor","highway":"residential","sidewalk":"unknown","lanes":0,"name":"","oneway":false},"geometry":{"type":"LineString","coordinates":[[126.81106,37.4767],[126.81124,37.47681]]}},{"type":"Feature","properties":{"class":"minor","highway":"residential","sidewalk":"unknown","lanes":0,"name":"양지로48번길","oneway":false},"geometry":{"type":"LineString","coordinates":[[126.81198,37.47625],[126.81259,37.47658]]}},{"type":"Feature","properties":{"class":"alley","highway":"service","sidewalk":"unknown","lanes":0,"name":"양지로92번길","oneway":false},"geometry":{"type":"LineString","coordinates":[[126.81301,37.47263],[126.81379,37.47226]]}},{"type":"Feature","properties":{"class":"alley","highway":"service","sidewalk":"unknown","lanes":0,"name":"","oneway":false},"geometry":{"type":"LineString","coordinates":[[126.81569,37.47258],[126.81594,37.47312]]}},{"type":"Feature","properties":{"class":"alley","highway":"service","sidewalk":"unknown","lanes":0,"name":"부광로","oneway":false},"geometry":{"type":"LineString","coordinates":[[126.81752,37.47715],[126.81739,37.47704],[126.81697,37.4767],[126.81638,37.4762],[126.81634,37.47616],[126.81637,37.4761],[126.81735,37.47538]]}},{"type":"Feature","properties":{"class":"alley","highway":"service","sidewalk":"unknown","lanes":0,"name":"","oneway":false},"geometry":{"type":"LineString","coordinates":[[126.81634,37.47616],[126.8163,37.47613],[126.81617,37.47603],[126.8161,37.47596],[126.81606,37.47581],[126.81602,37.47569],[126.81598,37.47565],[126.8159,37.47558],[126.81583,37.47551],[126.81581,37.47548],[126.81581,37.47545],[126.81585,37.47541],[126.81606,37.47525],[126.81607,37.47524],[126.81609,37.47518],[126.81635,37.47524]]}},{"type":"Feature","properties":{"class":"alley","highway":"service","sidewalk":"unknown","lanes":0,"name":"","oneway":false},"geometry":{"type":"LineString","coordinates":[[126.81598,37.47565],[126.81599,37.47562],[126.81627,37.47542],[126.81628,37.4754],[126.81635,37.47524]]}},{"type":"Feature","properties":{"class":"alley","highway":"service","sidewalk":"unknown","lanes":0,"name":"","oneway":false},"geometry":{"type":"LineString","coordinates":[[126.8148,37.47669],[126.8152,37.47633]]}},{"type":"Feature","properties":{"class":"alley","highway":"service","sidewalk":"unknown","lanes":0,"name":"","oneway":false},"geometry":{"type":"LineString","coordinates":[[126.8161,37.47596],[126.8166,37.47558]]}},{"type":"Feature","properties":{"class":"alley","highway":"service","sidewalk":"unknown","lanes":0,"name":"","oneway":false},"geometry":{"type":"LineString","coordinates":[[126.8159,37.47558],[126.81596,37.47554]]}},{"type":"Feature","properties":{"class":"major","highway":"secondary","sidewalk":"likely","lanes":0,"name":"서해안로","oneway":false},"geometry":{"type":"LineString","coordinates":[[126.81858,37.47637],[126.81873,37.47651],[126.81887,37.47663],[126.81888,37.47664],[126.81927,37.47699],[126.82045,37.47804],[126.8213,37.47879]]}},{"type":"Feature","properties":{"class":"minor","highway":"residential","sidewalk":"unknown","lanes":0,"name":"","oneway":false},"geometry":{"type":"LineString","coordinates":[[126.81916,37.47099],[126.81924,37.47106],[126.8197,37.4714],[126.81977,37.47139],[126.81975,37.47125],[126.8197,37.47121]]}},{"type":"Feature","properties":{"class":"alley","highway":"service","sidewalk":"unknown","lanes":0,"name":"","oneway":true},"geometry":{"type":"LineString","coordinates":[[126.8152,37.47214],[126.81483,37.47138]]}},{"type":"Feature","properties":{"class":"alley","highway":"service","sidewalk":"unknown","lanes":0,"name":"","oneway":false},"geometry":{"type":"LineString","coordinates":[[126.81825,37.4755],[126.81852,37.47572],[126.81868,37.47561],[126.81861,37.47553]]}},{"type":"Feature","properties":{"class":"minor","highway":"residential","sidewalk":"unknown","lanes":0,"name":"","oneway":false},"geometry":{"type":"LineString","coordinates":[[126.81797,37.47516],[126.8179,37.4751]]}},{"type":"Feature","properties":{"class":"major","highway":"secondary","sidewalk":"likely","lanes":0,"name":"서해안로","oneway":true},"geometry":{"type":"LineString","coordinates":[[126.81603,37.47396],[126.81627,37.47424]]}},{"type":"Feature","properties":{"class":"major","highway":"tertiary","sidewalk":"likely","lanes":0,"name":"부광로","oneway":false},"geometry":{"type":"LineString","coordinates":[[126.81557,37.47975],[126.81666,37.4782]]}},{"type":"Feature","properties":{"class":"major","highway":"tertiary","sidewalk":"likely","lanes":0,"name":"양지로","oneway":false},"geometry":{"type":"LineString","coordinates":[[126.81175,37.47503],[126.81173,37.47488],[126.81174,37.47473],[126.81176,37.47459],[126.8118,37.47426],[126.81181,37.4742]]}},{"type":"Feature","properties":{"class":"major","highway":"tertiary","sidewalk":"likely","lanes":0,"name":"양지로","oneway":false},"geometry":{"type":"LineString","coordinates":[[126.81187,37.47366],[126.81208,37.47362],[126.81231,37.47354],[126.81251,37.47342]]}},{"type":"Feature","properties":{"class":"major","highway":"tertiary","sidewalk":"likely","lanes":0,"name":"소사동로","oneway":false},"geometry":{"type":"LineString","coordinates":[[126.80892,37.47608],[126.81103,37.47727],[126.81138,37.47747]]}},{"type":"Feature","properties":{"class":"major","highway":"tertiary","sidewalk":"likely","lanes":0,"name":"양지로","oneway":false},"geometry":{"type":"LineString","coordinates":[[126.81181,37.4742],[126.81182,37.47413],[126.81184,37.47394],[126.81187,37.47366]]}},{"type":"Feature","properties":{"class":"major","highway":"tertiary","sidewalk":"likely","lanes":0,"name":"양지로","oneway":false},"geometry":{"type":"LineString","coordinates":[[126.81251,37.47342],[126.81326,37.47299],[126.81407,37.4726],[126.81414,37.47256],[126.81454,37.47237]]}},{"type":"Feature","properties":{"class":"major","highway":"tertiary","sidewalk":"likely","lanes":0,"name":"부광로","oneway":false},"geometry":{"type":"LineString","coordinates":[[126.81666,37.4782],[126.81689,37.4779]]}},{"type":"Feature","properties":{"class":"major","highway":"tertiary","sidewalk":"likely","lanes":0,"name":"소사동로","oneway":false},"geometry":{"type":"LineString","coordinates":[[126.81223,37.47793],[126.81332,37.47853],[126.81346,37.4786],[126.81514,37.47951],[126.81557,37.47975]]}},{"type":"Feature","properties":{"class":"major","highway":"tertiary","sidewalk":"likely","lanes":0,"name":"부광로","oneway":false},"geometry":{"type":"LineString","coordinates":[[126.81486,37.48073],[126.81557,37.47975]]}},{"type":"Feature","properties":{"class":"major","highway":"tertiary","sidewalk":"likely","lanes":0,"name":"안곡로","oneway":false},"geometry":{"type":"LineString","coordinates":[[126.81486,37.48073],[126.8144,37.48048],[126.81417,37.48029],[126.81407,37.4801],[126.81377,37.47963],[126.81371,37.47956],[126.81341,37.47931],[126.81317,37.47917],[126.81283,37.47896],[126.81238,37.47868]]}},{"type":"Feature","properties":{"class":"minor","highway":"residential","sidewalk":"unknown","lanes":0,"name":"경인로484번길","oneway":false},"geometry":{"type":"LineString","coordinates":[[126.81127,37.48033],[126.81202,37.47922],[126.81238,37.47868]]}},{"type":"Feature","properties":{"class":"minor","highway":"residential","sidewalk":"unknown","lanes":0,"name":"","oneway":false},"geometry":{"type":"LineString","coordinates":[[126.8141,37.47158],[126.81424,37.47154],[126.81462,37.47144]]}},{"type":"Feature","properties":{"class":"major","highway":"tertiary","sidewalk":"likely","lanes":0,"name":"양지로","oneway":false},"geometry":{"type":"LineString","coordinates":[[126.81454,37.47237],[126.81498,37.47222]]}},{"type":"Feature","properties":{"class":"major","highway":"tertiary","sidewalk":"likely","lanes":0,"name":"양지로","oneway":false},"geometry":{"type":"LineString","coordinates":[[126.81318,37.47628],[126.81298,37.47625],[126.81275,37.47617],[126.81253,37.47607],[126.81235,37.47596],[126.81219,37.47584],[126.81215,37.47581],[126.812,37.47565],[126.81194,37.47557],[126.81191,37.47553],[126.81186,37.47542],[126.81181,37.47529]]}},{"type":"Feature","properties":{"class":"major","highway":"tertiary","sidewalk":"likely","lanes":0,"name":"안곡로","oneway":false},"geometry":{"type":"LineString","coordinates":[[126.81238,37.47868],[126.81187,37.47842]]}},{"type":"Feature","properties":{"class":"major","highway":"tertiary","sidewalk":"likely","lanes":0,"name":"부광로","oneway":false},"geometry":{"type":"LineString","coordinates":[[126.81689,37.4779],[126.81716,37.47754],[126.81721,37.47749],[126.81722,37.47748],[126.81746,37.47722],[126.81752,37.47715],[126.81761,37.47708],[126.81797,37.4768],[126.81841,37.47649],[126.81858,37.47637]]}},{"type":"Feature","properties":{"class":"major","highway":"secondary","sidewalk":"likely","lanes":0,"name":"서해안로","oneway":false},"geometry":{"type":"LineString","coordinates":[[126.81808,37.47595],[126.81843,37.47625],[126.81858,37.47637]]}},{"type":"Feature","properties":{"class":"major","highway":"secondary","sidewalk":"likely","lanes":0,"name":"부광로","oneway":false},"geometry":{"type":"LineString","coordinates":[[126.81858,37.47637],[126.81893,37.4761],[126.81907,37.47598],[126.8191,37.47595]]}},{"type":"Feature","properties":{"class":"major","highway":"secondary","sidewalk":"likely","lanes":0,"name":"부광로","oneway":false},"geometry":{"type":"LineString","coordinates":[[126.8191,37.47595],[126.81922,37.47583],[126.81937,37.47566],[126.81953,37.47547],[126.81974,37.47516]]}},{"type":"Feature","properties":{"class":"major","highway":"tertiary","sidewalk":"likely","lanes":0,"name":"소사동로","oneway":false},"geometry":{"type":"LineString","coordinates":[[126.81138,37.47747],[126.81223,37.47793]]}},{"type":"Feature","properties":{"class":"major","highway":"secondary","sidewalk":"likely","lanes":0,"name":"서해안로","oneway":true},"geometry":{"type":"LineString","coordinates":[[126.81515,37.47236],[126.81535,37.4728]]}},{"type":"Feature","properties":{"class":"major","highway":"secondary","sidewalk":"likely","lanes":0,"name":"서해안로","oneway":true},"geometry":{"type":"LineString","coordinates":[[126.81808,37.47595],[126.81793,37.4759],[126.81776,37.47576],[126.81735,37.47538]]}},{"type":"Feature","properties":{"class":"major","highway":"secondary","sidewalk":"likely","lanes":0,"name":"서해안로","oneway":true},"geometry":{"type":"LineString","coordinates":[[126.81746,37.47529],[126.81792,37.47571],[126.81802,37.4758],[126.81808,37.47595]]}},{"type":"Feature","properties":{"class":"major","highway":"secondary","sidewalk":"likely","lanes":0,"name":"서해안로","oneway":true},"geometry":{"type":"LineString","coordinates":[[126.81735,37.47538],[126.81616,37.47432]]}},{"type":"Feature","properties":{"class":"major","highway":"secondary","sidewalk":"likely","lanes":0,"name":"서해안로","oneway":true},"geometry":{"type":"LineString","coordinates":[[126.81616,37.47432],[126.81584,37.47399]]}},{"type":"Feature","properties":{"class":"major","highway":"secondary","sidewalk":"likely","lanes":0,"name":"서해안로","oneway":true},"geometry":{"type":"LineString","coordinates":[[126.81584,37.47399],[126.81569,37.47379],[126.81555,37.47357],[126.81518,37.47283]]}},{"type":"Feature","properties":{"class":"major","highway":"secondary","sidewalk":"likely","lanes":0,"name":"서해안로","oneway":true},"geometry":{"type":"LineString","coordinates":[[126.81518,37.47283],[126.81501,37.47242]]}},{"type":"Feature","properties":{"class":"major","highway":"secondary","sidewalk":"likely","lanes":0,"name":"서해안로","oneway":true},"geometry":{"type":"LineString","coordinates":[[126.81501,37.47242],[126.8145,37.47133]]}},{"type":"Feature","properties":{"class":"major","highway":"secondary","sidewalk":"likely","lanes":0,"name":"서해안로","oneway":true},"geometry":{"type":"LineString","coordinates":[[126.8145,37.47133],[126.81309,37.46831]]}}]}