{"type":"FeatureCollection","features":[{"type":"Feature","properties":{"class":"major","highway":"secondary","sidewalk":"likely","lanes":0,"name":"남한산성로","oneway":false},"geometry":{"type":"LineString","coordinates":[[127.15516,37.46231],[127.15514,37.46242],[127.15516,37.46247],[127.15521,37.46259],[127.15527,37.46269],[127.15534,37.46278],[127.15546,37.46288],[127.15556,37.46295],[127.15573,37.46303],[127.15591,37.46311],[127.15623,37.46323],[127.15644,37.4633],[127.15656,37.46332],[127.15669,37.46334],[127.15712,37.46339],[127.15732,37.46344],[127.15752,37.46353],[127.1576,37.46356],[127.15856,37.46365],[127.15869,37.46369],[127.15879,37.46375],[127.15915,37.46413],[127.15931,37.46427],[127.15965,37.46439],[127.16012,37.46456],[127.16039,37.46462],[127.16088,37.46465],[127.16098,37.46464],[127.16108,37.46462],[127.16117,37.46456],[127.1615,37.46421],[127.16159,37.46414],[127.16167,37.46412],[127.16172,37.46412],[127.16178,37.46413],[127.16193,37.46422],[127.16196,37.46426],[127.16196,37.46429],[127.16196,37.46434],[127.16186,37.46446],[127.16168,37.46475],[127.16163,37.46487],[127.16159,37.46497],[127.16154,37.46516],[127.16151,37.46523],[127.16147,37.46527],[127.16143,37.46531],[127.16137,37.46534],[127.16123,37.46539],[127.16103,37.46544],[127.16085,37.46549],[127.16077,37.46554],[127.16072,37.46559],[127.16068,37.46567],[127.16068,37.46574],[127.16071,37.4658],[127.16074,37.46585],[127.1609,37.46602],[127.16108,37.46619],[127.16125,37.46631],[127.16145,37.4664],[127.16176,37.46652],[127.16245,37.46676],[127.16274,37.46686],[127.1628,37.46689],[127.16285,37.46693],[127.16289,37.46698],[127.16293,37.46705],[127.16299,37.4672],[127.16306,37.4673],[127.16315,37.46737],[127.16325,37.46742],[127.16393,37.46762],[127.16399,37.46765],[127.16404,37.46768],[127.16408,37.46771],[127.16453,37.46807],[127.16496,37.46841],[127.16505,37.4685],[127.16511,37.46858],[127.16516,37.46866],[127.16521,37.4687],[127.16527,37.46872],[127.16536,37.46872],[127.1655,37.46874],[127.16561,37.46878],[127.16572,37.46885],[127.16585,37.46898],[127.16606,37.46916],[127.16613,37.46923],[127.16619,37.46926],[127.16626,37.46929],[127.16634,37.4693],[127.16641,37.46929],[127.16643,37.46929],[127.16651,37.46926],[127.16671,37.46917],[127.16679,37.46911],[127.16685,37.46903],[127.16689,37.46887],[127.16693,37.46881],[127.16697,37.46878],[127.16704,37.46873],[127.16715,37.46865],[127.16725,37.46856],[127.1673,37.46851],[127.16734,37.46846],[127.16742,37.46824],[127.16756,37.46797],[127.16772,37.4677],[127.16779,37.46762],[127.16787,37.46759],[127.16798,37.46759],[127.16809,37.46763],[127.16816,37.4677],[127.16821,37.46777],[127.16821,37.46782],[127.16818,37.46789],[127.16814,37.46796],[127.16806,37.46804],[127.168,37.46812],[127.16798,37.46817],[127.16794,37.46823],[127.16792,37.46829],[127.1679,37.46844],[127.16788,37.46861],[127.16784,37.4687],[127.16776,37.46882],[127.16774,37.46888],[127.16775,37.46893],[127.16778,37.46898],[127.16783,37.46901],[127.16792,37.46903],[127.16803,37.46904],[127.1681,37.46902],[127.16815,37.46899],[127.16819,37.46893],[127.16819,37.46888],[127.16818,37.46884],[127.16814,37.46876],[127.16811,37.46865],[127.16813,37.46856],[127.16814,37.46852],[127.16818,37.46847],[127.16826,37.46841],[127.16834,37.46838],[127.16839,37.46837],[127.16847,37.46837],[127.16855,37.46839],[127.16864,37.46844],[127.16887,37.46867],[127.16902,37.46882],[127.16921,37.46894],[127.16931,37.46899],[127.17047,37.46947],[127.17065,37.46956],[127.17071,37.46961],[127.17079,37.4697],[127.17086,37.46975],[127.17092,37.4698],[127.17103,37.46984],[127.17113,37.4699],[127.17123,37.46996],[127.1713,37.47007],[127.17134,37.47022],[127.17139,37.47037],[127.1714,37.47042],[127.17143,37.47046],[127.17149,37.47052],[127.17156,37.47057],[127.17185,37.47073],[127.17213,37.47092],[127.17221,37.47096],[127.17235,37.47102],[127.17252,37.47106],[127.17262,37.4711],[127.17283,37.47123],[127.17296,37.47132],[127.17304,37.47137],[127.17317,37.47141],[127.17329,37.47144],[127.17344,37.47147],[127.17361,37.47147],[127.17375,37.47148],[127.17387,37.4715],[127.17401,37.47157],[127.17416,37.47163],[127.17433,37.47169],[127.17446,37.47174],[127.17464,37.47179],[127.17477,37.47182],[127.17499,37.47185],[127.17515,37.47186],[127.17526,37.47187],[127.17538,37.47189],[127.1755,37.47193],[127.17562,37.47198],[127.17583,37.47212],[127.1759,37.47216],[127.17598,37.47222],[127.17606,37.47231],[127.17622,37.47243],[127.17633,37.47253],[127.17647,37.47266],[127.17657,37.47274],[127.1766,37.47276],[127.17666,37.47281],[127.17672,37.47284],[127.1768,37.47287],[127.17687,37.4729],[127.17701,37.47291],[127.1772,37.4729],[127.17727,37.47293],[127.17734,37.47298],[127.1775,37.47319],[127.17762,37.47334],[127.17769,37.47339],[127.17777,37.47341],[127.17784,37.47339],[127.17791,37.47335],[127.17801,37.47327],[127.17808,37.47322],[127.17815,37.47319],[127.17822,37.4732],[127.17827,37.47322],[127.17833,37.47328],[127.17836,37.47333],[127.17842,37.47341],[127.17847,37.47344],[127.17852,37.47346],[127.17859,37.47346],[127.17863,37.47345],[127.17884,37.47335],[127.17895,37.47332],[127.17904,37.47332],[127.17911,37.47333],[127.17924,37.47334],[127.17936,37.47339],[127.17943,37.47343],[127.17948,37.47347],[127.17952,37.47352],[127.17959,37.47361],[127.17968,37.47374]]}}]}