{"type":"FeatureCollection","features":[{"type":"Feature","properties":{"class":"minor","highway":"residential","sidewalk":"unknown","lanes":0,"name":"연동로","oneway":false},"geometry":{"type":"LineString","coordinates":[[126.82636,37.4715],[126.82614,37.47172],[126.82603,37.47183],[126.82495,37.47289],[126.8248,37.47307],[126.82476,37.47313],[126.82468,37.47324],[126.82457,37.47344],[126.82448,37.47365],[126.8244,37.4739],[126.82432,37.47416],[126.82424,37.47436],[126.82413,37.47456],[126.82395,37.47474],[126.82389,37.4748],[126.82373,37.47495],[126.82361,37.4751],[126.82348,37.47531],[126.82341,37.47547],[126.82329,37.47574],[126.82322,37.47597],[126.82322,37.47618],[126.82323,37.47638],[126.82325,37.47645],[126.82325,37.47661],[126.82325,37.47681],[126.82325,37.4769],[126.82325,37.47696],[126.82322,37.47747],[126.82319,37.47783],[126.82312,37.47846],[126.82307,37.47873],[126.82305,37.47883],[126.82303,37.47892],[126.82296,37.47907],[126.82287,37.47925],[126.82276,37.47942],[126.82267,37.47955],[126.82258,37.47967],[126.82243,37.47982]]}},{"type":"Feature","properties":{"class":"minor","highway":"residential","sidewalk":"unknown","lanes":0,"name":"옥길로","oneway":false},"geometry":{"type":"LineString","coordinates":[[126.82507,37.47056],[126.82636,37.4715]]}},{"type":"Feature","properties":{"class":"minor","highway":"residential","sidewalk":"unknown","lanes":0,"name":"연동로131번길","oneway":false},"geometry":{"type":"LineString","coordinates":[[126.82468,37.47324],[126.82444,37.47331],[126.82433,37.47334],[126.82427,37.47336],[126.8242,37.4734],[126.82414,37.47341],[126.82407,37.47343],[126.82398,37.47343],[126.82391,37.47343],[126.82384,37.47342],[126.8238,37.47339],[126.82375,37.47336],[126.82341,37.47299],[126.82336,37.47296],[126.82331,37.47294],[126.82324,37.47293],[126.82314,37.47293]]}},{"type":"Feature","properties":{"class":"alley","highway":"service","sidewalk":"unknown","lanes":0,"name":"","oneway":false},"geometry":{"type":"LineString","coordinates":[[126.81962,37.4832],[126.81961,37.48318],[126.81961,37.48315],[126.81963,37.48312],[126.81967,37.48305],[126.81969,37.48302],[126.81969,37.48299],[126.81969,37.48294],[126.8197,37.48291],[126.81973,37.48276],[126.81975,37.48271],[126.81977,37.48253],[126.81979,37.48247],[126.8198,37.48243],[126.81983,37.48239],[126.81986,37.48234],[126.81989,37.4823],[126.81998,37.4822],[126.82001,37.48217],[126.82004,37.48214],[126.82011,37.4821],[126.82014,37.48207],[126.82016,37.48203],[126.82019,37.48197],[126.82026,37.48176],[126.82025,37.4817],[126.82025,37.48166],[126.82023,37.48162],[126.82015,37.48145],[126.81983,37.48082],[126.81981,37.48077],[126.8198,37.48073],[126.81981,37.48068],[126.81982,37.48063],[126.81984,37.48058],[126.81988,37.48053],[126.81992,37.48049],[126.82001,37.48041],[126.82073,37.47981],[126.82112,37.47949],[126.82143,37.47921],[126.82173,37.47894],[126.82178,37.47888],[126.82181,37.47884],[126.82184,37.47878],[126.82187,37.47871],[126.8219,37.47862],[126.82196,37.47828],[126.82198,37.47819],[126.82198,37.47812],[126.82198,37.47799],[126.82199,37.4779],[126.82197,37.47779],[126.82196,37.47773],[126.82196,37.47767],[126.82196,37.47762],[126.82192,37.47741],[126.82189,37.47737],[126.82185,37.47733],[126.82181,37.4773],[126.82179,37.47726],[126.82166,37.47691],[126.82163,37.47682],[126.82162,37.47677],[126.82162,37.4767],[126.82162,37.47664],[126.82163,37.47657],[126.82166,37.4765],[126.82169,37.47644],[126.82172,37.47637],[126.82176,37.47625],[126.82178,37.47616],[126.82179,37.47606],[126.82179,37.47598],[126.82178,37.4759],[126.82173,37.47547],[126.82173,37.47543],[126.82174,37.47538],[126.82199,37.47435],[126.82202,37.47425],[126.82213,37.47401],[126.82218,37.47391],[126.82223,37.47384],[126.8223,37.47376],[126.82314,37.47293],[126.82335,37.47268],[126.82348,37.47248],[126.8239,37.47153],[126.82395,37.47147],[126.82414,37.47126],[126.82411,37.47121],[126.82411,37.47114],[126.82413,37.47108],[126.82417,37.47102],[126.82424,37.47095],[126.82428,37.47089],[126.82431,37.47083],[126.82433,37.4708],[126.82445,37.47076],[126.82457,37.47069],[126.82505,37.4704],[126.82662,37.46947],[126.82779,37.4689],[126.82847,37.46856],[126.82889,37.46836],[126.82969,37.46796],[126.83026,37.46767],[126.83042,37.46761]]}},{"type":"Feature","properties":{"class":"minor","highway":"residential","sidewalk":"unknown","lanes":0,"name":"연동로159번길","oneway":false},"geometry":{"type":"LineString","coordinates":[[126.82341,37.47547],[126.82286,37.47495],[126.8228,37.47493],[126.82269,37.47494],[126.82256,37.47497],[126.8225,37.47497],[126.82245,37.47495],[126.82239,37.47486],[126.82235,37.47473],[126.82232,37.47454],[126.8223,37.47449],[126.82227,37.47445],[126.82218,37.47441],[126.82199,37.47435]]}},{"type":"Feature","properties":{"class":"alley","highway":"service","sidewalk":"unknown","lanes":0,"name":"연동로146번길","oneway":false},"geometry":{"type":"LineString","coordinates":[[126.82382,37.4757],[126.82414,37.47532],[126.82417,37.47511],[126.82418,37.47463],[126.82413,37.47456]]}},{"type":"Feature","properties":{"class":"minor","highway":"residential","sidewalk":"unknown","lanes":0,"name":"연동로131번가길","oneway":false},"geometry":{"type":"LineString","coordinates":[[126.82433,37.47334],[126.8243,37.47308],[126.82428,37.47301],[126.82424,37.47295],[126.82421,37.47291],[126.82411,37.47282],[126.82407,37.47278],[126.82405,37.47272],[126.82404,37.47266],[126.82404,37.47259],[126.82406,37.47247],[126.82414,37.47229],[126.82415,37.47225],[126.82415,37.47222],[126.82413,37.47218],[126.824,37.47196],[126.82397,37.4719],[126.82396,37.47186],[126.82397,37.47183],[126.82398,37.47178],[126.82401,37.47166],[126.82403,37.47161],[126.82405,37.47157],[126.82415,37.47142],[126.82417,37.47138],[126.82417,37.47135],[126.82416,37.47132],[126.82414,37.47126],[126.82452,37.47108],[126.82458,37.47105]]}},{"type":"Feature","properties":{"class":"alley","highway":"service","sidewalk":"unknown","lanes":0,"name":"연동로98번길","oneway":false},"geometry":{"type":"LineString","coordinates":[[126.82743,37.47113],[126.82776,37.4712],[126.82823,37.47129],[126.82878,37.47174],[126.82902,37.472],[126.82917,37.47229],[126.82935,37.47247],[126.82949,37.47261],[126.82961,37.47279],[126.82979,37.47289],[126.83004,37.47298],[126.83034,37.47306]]}},{"type":"Feature","properties":{"class":"alley","highway":"service","sidewalk":"unknown","lanes":0,"name":"연동로72번길","oneway":false},"geometry":{"type":"LineString","coordinates":[[126.82978,37.46981],[126.82974,37.47],[126.82978,37.47033],[126.82985,37.47054],[126.82995,37.47068],[126.83004,37.47093],[126.83011,37.47113],[126.83007,37.47145],[126.83006,37.47175],[126.83006,37.47191],[126.83013,37.47227]]}},{"type":"Feature","properties":{"class":"major","highway":"tertiary","sidewalk":"likely","lanes":0,"name":"두길로","oneway":false},"geometry":{"type":"LineString","coordinates":[[126.8394,37.47174],[126.83956,37.47173],[126.83969,37.47172],[126.83981,37.4717],[126.83995,37.47166],[126.84008,37.47162],[126.84023,37.47156],[126.84032,37.47152],[126.84072,37.47133],[126.84086,37.47127],[126.84102,37.47123],[126.84118,37.47119],[126.84135,37.47117],[126.8415,37.47116],[126.84167,37.47117],[126.8424,37.47125],[126.84273,37.47127],[126.84302,37.4713],[126.8432,37.4713],[126.84339,37.47131],[126.8436,37.47131],[126.84381,37.4713],[126.84397,37.47129]]}},{"type":"Feature","properties":{"class":"major","highway":"secondary","sidewalk":"likely","lanes":0,"name":"부광로","oneway":false},"geometry":{"type":"LineString","coordinates":[[126.81974,37.47516],[126.82009,37.47467],[126.82074,37.47374],[126.821,37.47338],[126.82121,37.47312],[126.8219,37.47234]]}},{"type":"Feature","properties":{"class":"alley","highway":"service","sidewalk":"unknown","lanes":0,"name":"","oneway":false},"geometry":{"type":"LineString","coordinates":[[126.84068,37.47621],[126.84051,37.47633],[126.84015,37.47664],[126.84014,37.47664],[126.84006,37.47672],[126.8398,37.47694],[126.83961,37.4771],[126.83953,37.47718],[126.83937,37.47729],[126.83914,37.47732],[126.839,37.47733],[126.83839,37.47741]]}},{"type":"Feature","properties":{"class":"major","highway":"secondary","sidewalk":"likely","lanes":0,"name":"서해안로","oneway":false},"geometry":{"type":"LineString","coordinates":[[126.8213,37.47879],[126.82165,37.47912]]}},{"type":"Feature","properties":{"class":"major","highway":"secondary","sidewalk":"likely","lanes":0,"name":"서해안로","oneway":false},"geometry":{"type":"LineString","coordinates":[[126.82243,37.47982],[126.82427,37.48122],[126.8244,37.48132],[126.82477,37.4816],[126.82526,37.48198],[126.82602,37.48256]]}},{"type":"Feature","properties":{"class":"major","highway":"tertiary","sidewalk":"likely","lanes":0,"name":"양지로","oneway":false},"geometry":{"type":"LineString","coordinates":[[126.81498,37.47222],[126.8152,37.47214],[126.81529,37.47211],[126.81543,37.47206],[126.81687,37.47156],[126.81721,37.47144],[126.81758,37.47131],[126.81867,37.47095],[126.81904,37.47076],[126.81943,37.47053],[126.81986,37.47014],[126.82008,37.46993],[126.82044,37.4696],[126.82084,37.46927],[126.82102,37.4691],[126.82121,37.46896],[126.82131,37.46888],[126.82174,37.46867],[126.82208,37.46851],[126.82243,37.46836],[126.82293,37.46814]]}},{"type":"Feature","properties":{"class":"alley","highway":"service","sidewalk":"unknown","lanes":0,"name":"","oneway":false},"geometry":{"type":"LineString","coordinates":[[126.84027,37.47674],[126.8402,37.47669],[126.84015,37.47664],[126.84007,37.47658],[126.84005,37.47657],[126.8396,37.47622],[126.83958,37.47618],[126.83955,37.47608],[126.83944,37.47558],[126.83944,37.47556],[126.83897,37.47563],[126.83901,37.47584]]}},{"type":"Feature","properties":{"class":"alley","highway":"service","sidewalk":"unknown","lanes":0,"name":"","oneway":false},"geometry":{"type":"LineString","coordinates":[[126.83914,37.47732],[126.83911,37.47718],[126.83902,37.47682],[126.83894,37.47648],[126.83887,37.47613],[126.83878,37.47577],[126.83874,37.47572],[126.8387,37.47571],[126.83857,37.47566],[126.83838,37.4756],[126.83809,37.47551],[126.83753,37.47531],[126.83718,37.47519]]}},{"type":"Feature","properties":{"class":"alley","highway":"service","sidewalk":"unknown","lanes":0,"name":"","oneway":true},"geometry":{"type":"LineString","coordinates":[[126.83894,37.47648],[126.83889,37.47643],[126.83884,37.4764],[126.83882,37.47638],[126.83879,37.4763],[126.83879,37.47625],[126.83882,37.4762],[126.83887,37.47613]]}},{"type":"Feature","properties":{"class":"major","highway":"secondary","sidewalk":"likely","lanes":0,"name":"금오로","oneway":false},"geometry":{"type":"LineString","coordinates":[[126.83671,37.46696],[126.83694,37.46707],[126.83697,37.46708],[126.8372,37.4672],[126.83747,37.46737],[126.8377,37.46755],[126.8379,37.46771],[126.8381,37.46791],[126.83836,37.4682],[126.83867,37.4686],[126.83899,37.46902],[126.83917,37.46927],[126.83927,37.46944],[126.83936,37.46965],[126.83942,37.46986],[126.83944,37.47001],[126.83945,37.47006],[126.83946,37.47018],[126.83947,37.47029],[126.83947,37.4704],[126.83947,37.47052],[126.83946,37.47074],[126.83945,37.47086],[126.83944,37.47103],[126.83942,37.47133],[126.83941,37.47147],[126.8394,37.47174]]}},{"type":"Feature","properties":{"class":"alley","highway":"service","sidewalk":"unknown","lanes":0,"name":"","oneway":false},"geometry":{"type":"LineString","coordinates":[[126.82552,37.48051],[126.82501,37.48039],[126.8249,37.48035],[126.82485,37.48029],[126.82481,37.48022],[126.82478,37.48011],[126.82478,37.47992],[126.82474,37.47988],[126.82469,37.47986],[126.82437,37.47985],[126.82427,37.47982],[126.8242,37.47976],[126.82416,37.47969],[126.82408,37.47951],[126.82405,37.47943],[126.82396,37.47933],[126.82383,37.47921],[126.8238,37.47911],[126.82383,37.47904],[126.82394,37.47897],[126.82432,37.47885],[126.82463,37.4787],[126.82508,37.47848]]}},{"type":"Feature","properties":{"class":"minor","highway":"residential","sidewalk":"unknown","lanes":0,"name":"","oneway":false},"geometry":{"type":"LineString","coordinates":[[126.82199,37.47435],[126.82167,37.47425]]}},{"type":"Feature","properties":{"class":"alley","highway":"service","sidewalk":"unknown","lanes":0,"name":"항동로3길","oneway":false},"geometry":{"type":"LineString","coordinates":[[126.82276,37.47942],[126.82512,37.48124]]}},{"type":"Feature","properties":{"class":"minor","highway":"residential","sidewalk":"unknown","lanes":0,"name":"항동로","oneway":false},"geometry":{"type":"LineString","coordinates":[[126.82512,37.48124],[126.82523,37.48111],[126.82535,37.48094],[126.82542,37.48083],[126.82546,37.48074],[126.82552,37.48051],[126.82556,37.48036],[126.82559,37.48017],[126.8256,37.48002],[126.82559,37.47967],[126.82554,37.4794],[126.82548,37.47914],[126.82546,37.47909],[126.82533,37.47885],[126.8252,37.47863],[126.82508,37.47848],[126.82504,37.47843],[126.82495,37.47832],[126.82469,37.47809],[126.82434,37.47787],[126.82423,37.47781],[126.82396,37.47767],[126.8236,37.47755],[126.82322,37.47747]]}},{"type":"Feature","properties":{"class":"alley","highway":"service","sidewalk":"unknown","lanes":0,"name":"항동로2길","oneway":false},"geometry":{"type":"LineString","coordinates":[[126.82546,37.47909],[126.82636,37.47891],[126.82683,37.47882],[126.82703,37.47882],[126.82765,37.47878]]}},{"type":"Feature","properties":{"class":"alley","highway":"service","sidewalk":"unknown","lanes":0,"name":"","oneway":false},"geometry":{"type":"LineString","coordinates":[[126.82636,37.47891],[126.82631,37.47878],[126.82632,37.47873],[126.82636,37.47869],[126.82643,37.47866],[126.8266,37.47859]]}},{"type":"Feature","properties":{"class":"alley","highway":"service","sidewalk":"unknown","lanes":0,"name":"","oneway":false},"geometry":{"type":"LineString","coordinates":[[126.82504,37.47843],[126.82525,37.47819],[126.82543,37.47805],[126.82558,37.478]]}},{"type":"Feature","properties":{"class":"alley","highway":"service","sidewalk":"unknown","lanes":0,"name":"연동로8길","oneway":false},"geometry":{"type":"LineString","coordinates":[[126.82325,37.47645],[126.82371,37.47654],[126.82399,37.47658],[126.82436,37.47661],[126.82454,37.47661],[126.82466,37.47664],[126.82477,37.4767],[126.82487,37.47676],[126.82495,37.47681],[126.82527,37.477],[126.82542,37.47706],[126.8255,37.47706],[126.82565,37.47705],[126.82576,37.47702],[126.82597,37.47693]]}},{"type":"Feature","properties":{"class":"alley","highway":"service","sidewalk":"unknown","lanes":0,"name":"","oneway":false},"geometry":{"type":"LineString","coordinates":[[126.82487,37.47676],[126.82484,37.47683]]}},{"type":"Feature","properties":{"class":"alley","highway":"service","sidewalk":"unknown","lanes":0,"name":"","oneway":false},"geometry":{"type":"LineString","coordinates":[[126.82484,37.47683],[126.82481,37.47692]]}},{"type":"Feature","properties":{"class":"minor","highway":"residential","sidewalk":"unknown","lanes":0,"name":"항동로","oneway":false},"geometry":{"type":"LineString","coordinates":[[126.82322,37.47747],[126.82261,37.47743],[126.82235,37.47744],[126.82213,37.47746],[126.82201,37.4775]]}},{"type":"Feature","properties":{"class":"minor","highway":"residential","sidewalk":"unknown","lanes":0,"name":"항동로","oneway":false},"geometry":{"type":"LineString","coordinates":[[126.82201,37.4775],[126.82188,37.47752],[126.82176,37.47754],[126.82166,37.47757],[126.82154,37.4776]]}},{"type":"Feature","properties":{"class":"minor","highway":"residential","sidewalk":"unknown","lanes":0,"name":"항동로","oneway":false},"geometry":{"type":"LineString","coordinates":[[126.82154,37.4776],[126.82148,37.47761],[126.82138,37.47764],[126.82127,37.47763],[126.82118,37.47766],[126.82104,37.47771],[126.82088,37.47779],[126.82045,37.47804]]}},{"type":"Feature","properties":{"class":"alley","highway":"service","sidewalk":"unknown","lanes":0,"name":"연동로","oneway":false},"geometry":{"type":"LineString","coordinates":[[126.82341,37.47547],[126.82382,37.4757]]}},{"type":"Feature","properties":{"class":"alley","highway":"service","sidewalk":"unknown","lanes":0,"name":"","oneway":false},"geometry":{"type":"LineString","coordinates":[[126.83975,37.48023],[126.8394,37.47996],[126.83904,37.47966],[126.839,37.47965],[126.83895,37.47966],[126.83891,37.47968],[126.83877,37.47979],[126.8385,37.48002],[126.83816,37.4803],[126.83779,37.48062],[126.83764,37.48076]]}},{"type":"Feature","properties":{"class":"alley","highway":"service","sidewalk":"unknown","lanes":0,"name":"","oneway":false},"geometry":{"type":"LineString","coordinates":[[126.8394,37.47996],[126.83912,37.4802],[126.83879,37.4805],[126.83869,37.48055],[126.83864,37.48059],[126.83821,37.48096],[126.83818,37.48098],[126.83814,37.48098],[126.83782,37.48098],[126.83777,37.48098],[126.83774,37.48097],[126.83767,37.48092]]}},{"type":"Feature","properties":{"class":"alley","highway":"service","sidewalk":"unknown","lanes":0,"name":"","oneway":false},"geometry":{"type":"LineString","coordinates":[[126.83912,37.4802],[126.83881,37.47995]]}},{"type":"Feature","properties":{"class":"alley","highway":"service","sidewalk":"unknown","lanes":0,"name":"","oneway":false},"geometry":{"type":"LineString","coordinates":[[126.83877,37.47979],[126.83858,37.47962]]}},{"type":"Feature","properties":{"class":"alley","highway":"service","sidewalk":"unknown","lanes":0,"name":"","oneway":false},"geometry":{"type":"LineString","coordinates":[[126.8385,37.48002],[126.83832,37.47987]]}},{"type":"Feature","properties":{"class":"minor","highway":"residential","sidewalk":"unknown","lanes":0,"name":"연동로","oneway":false},"geometry":{"type":"LineString","coordinates":[[126.82243,37.47982],[126.82232,37.47997],[126.82216,37.48021],[126.82196,37.4805],[126.82183,37.48073],[126.82172,37.48099],[126.8217,37.48104],[126.82161,37.48127],[126.82156,37.48138],[126.82152,37.48151],[126.82149,37.48165],[126.82142,37.48185],[126.82141,37.48187],[126.82135,37.48201],[126.82128,37.48214],[126.82114,37.48234],[126.82105,37.48242]]}},{"type":"Feature","properties":{"class":"alley","highway":"service","sidewalk":"unknown","lanes":0,"name":"","oneway":false},"geometry":{"type":"LineString","coordinates":[[126.82138,37.47764],[126.82129,37.47744],[126.82126,37.47735],[126.82123,37.47727],[126.82118,37.47721]]}},{"type":"Feature","properties":{"class":"alley","highway":"service","sidewalk":"unknown","lanes":0,"name":"","oneway":false},"geometry":{"type":"LineString","coordinates":[[126.82765,37.47878],[126.82762,37.47824]]}},{"type":"Feature","properties":{"class":"alley","highway":"service","sidewalk":"unknown","lanes":0,"name":"","oneway":false},"geometry":{"type":"LineString","coordinates":[[126.83175,37.47954],[126.83194,37.47979],[126.83202,37.47992],[126.83207,37.47998],[126.83211,37.48007],[126.83211,37.48013],[126.83209,37.48017],[126.83204,37.48021],[126.83198,37.48023],[126.8319,37.48024],[126.83179,37.48023],[126.83175,37.48021],[126.83131,37.47987]]}},{"type":"Feature","properties":{"class":"alley","highway":"service","sidewalk":"unknown","lanes":0,"name":"","oneway":false},"geometry":{"type":"LineString","coordinates":[[126.83175,37.47954],[126.83128,37.47961],[126.83073,37.47933]]}},{"type":"Feature","properties":{"class":"alley","highway":"service","sidewalk":"unknown","lanes":0,"name":"","oneway":false},"geometry":{"type":"LineString","coordinates":[[126.83114,37.479],[126.83128,37.47883],[126.8313,37.47883],[126.83131,37.47882],[126.83133,37.47883],[126.83134,37.47883],[126.83172,37.47905],[126.83173,37.47906],[126.83173,37.47907],[126.83172,37.47909],[126.83162,37.4792]]}},{"type":"Feature","properties":{"class":"alley","highway":"service","sidewalk":"unknown","lanes":0,"name":"","oneway":false},"geometry":{"type":"LineString","coordinates":[[126.82765,37.47878],[126.82775,37.47876],[126.82794,37.47874],[126.82811,37.47874],[126.82819,37.47874],[126.8283,37.47874],[126.8284,37.47876],[126.82854,37.47877],[126.82857,37.47877],[126.82905,37.47881],[126.82935,37.47874],[126.82943,37.47872],[126.82958,37.47871],[126.8296,37.47871],[126.82965,37.47869],[126.82979,37.47866],[126.82986,37.47865],[126.82989,37.47865],[126.82996,37.47864],[126.82998,37.47864],[126.83007,37.47864],[126.83018,37.47865],[126.83026,37.47866],[126.8303,37.47866],[126.83043,37.4787],[126.83054,37.47873],[126.83066,37.47877],[126.83093,37.47889],[126.83104,37.47895],[126.83111,37.47899],[126.83114,37.479],[126.83119,37.47903],[126.83129,37.47908],[126.83142,37.47913],[126.83157,37.47918],[126.8316,37.47919],[126.83162,37.4792],[126.83165,37.47921],[126.83169,37.47924],[126.83172,37.47927],[126.83174,37.47931],[126.83176,37.47939],[126.83177,37.47945],[126.83175,37.47954]]}},{"type":"Feature","properties":{"class":"minor","highway":"residential","sidewalk":"unknown","lanes":0,"name":"부평말길","oneway":false},"geometry":{"type":"LineString","coordinates":[[126.84,37.47476],[126.83977,37.47474],[126.83962,37.47468],[126.83947,37.4746],[126.83933,37.47455],[126.83843,37.47427],[126.83827,37.47424],[126.83776,37.47417],[126.83764,37.47414],[126.83748,37.47407],[126.83738,37.47404],[126.83691,37.47396],[126.83684,37.47397],[126.83678,37.47399],[126.83672,37.47403],[126.83666,37.47409],[126.8366,37.47418],[126.83656,37.47425],[126.83655,37.47431],[126.83655,37.47438],[126.83661,37.47454],[126.83664,37.47457],[126.83668,37.47459],[126.83675,37.47461],[126.83744,37.47473],[126.83766,37.47481],[126.83786,37.4749],[126.83834,37.47523],[126.83838,37.47528],[126.83844,37.47535],[126.8385,37.47539],[126.83856,37.4754],[126.83867,37.47539],[126.83884,37.47537],[126.83891,37.47536],[126.8392,37.47525],[126.83927,37.47523],[126.83933,37.47523],[126.83953,37.47526],[126.83962,37.47526],[126.83972,37.47526],[126.84003,37.47521]]}},{"type":"Feature","properties":{"class":"alley","highway":"service","sidewalk":"unknown","lanes":0,"name":"","oneway":false},"geometry":{"type":"LineString","coordinates":[[126.8373,37.47925],[126.83746,37.47924],[126.83756,37.4792],[126.83762,37.47916],[126.83782,37.47902],[126.83852,37.4785],[126.83856,37.47845],[126.83856,37.47839],[126.83839,37.47741]]}},{"type":"Feature","properties":{"class":"alley","highway":"service","sidewalk":"unknown","lanes":0,"name":"","oneway":false},"geometry":{"type":"LineString","coordinates":[[126.83875,37.47162],[126.83869,37.47155],[126.83868,37.47149],[126.83867,37.47137],[126.8387,37.47123],[126.83871,37.4711]]}},{"type":"Feature","properties":{"class":"alley","highway":"service","sidewalk":"unknown","lanes":0,"name":"","oneway":false},"geometry":{"type":"LineString","coordinates":[[126.83941,37.47147],[126.83923,37.47149],[126.83898,37.47155],[126.83875,37.47162],[126.83857,37.47176],[126.83847,37.4718],[126.83838,37.47182],[126.83824,37.47183]]}},{"type":"Feature","properties":{"class":"minor","highway":"residential","sidewalk":"unknown","lanes":0,"name":"금오로805번길","oneway":false},"geometry":{"type":"LineString","coordinates":[[126.83946,37.47074],[126.83931,37.47077],[126.83924,37.47081],[126.83917,37.47088],[126.83908,37.47096],[126.83895,37.47103],[126.8388,37.47108],[126.83871,37.4711],[126.8385,37.47114],[126.83826,37.4712],[126.83741,37.47145],[126.83728,37.47151],[126.83706,37.47166],[126.83695,37.47171],[126.83667,37.47184],[126.83625,37.47199],[126.83609,37.47208],[126.83588,37.4722],[126.83571,37.47228],[126.83539,37.47239],[126.83529,37.47245],[126.83507,37.47261],[126.83481,37.47283],[126.83451,37.47315],[126.83442,37.47329],[126.83423,37.47363],[126.83408,37.47388],[126.83394,37.47412]]}},{"type":"Feature","properties":{"class":"minor","highway":"residential","sidewalk":"unknown","lanes":0,"name":"금오로794번길","oneway":false},"geometry":{"type":"LineString","coordinates":[[126.83936,37.46965],[126.83955,37.46965],[126.83969,37.46966],[126.83994,37.46973],[126.84005,37.46975],[126.84018,37.46975],[126.84036,37.46973],[126.84072,37.46975],[126.84078,37.46976],[126.84084,37.46982],[126.8409,37.46987],[126.84119,37.46996],[126.84155,37.47],[126.84187,37.47003],[126.84207,37.47006],[126.84231,37.47012],[126.84246,37.47016],[126.84283,37.47073],[126.84307,37.471],[126.84317,37.47116],[126.8432,37.4713]]}},{"type":"Feature","properties":{"class":"major","highway":"secondary","sidewalk":"likely","lanes":0,"name":"금오로","oneway":false},"geometry":{"type":"LineString","coordinates":[[126.8394,37.47174],[126.83941,37.47201],[126.83943,37.47219],[126.83945,37.4723],[126.83948,37.47245],[126.8395,37.47249],[126.83953,37.47257],[126.83958,37.47276],[126.83986,37.47367],[126.83993,37.4739],[126.83996,37.47401],[126.83998,37.47415],[126.83999,37.47426],[126.83999,37.47433],[126.84,37.47476]]}},{"type":"Feature","properties":{"class":"major","highway":"secondary","sidewalk":"likely","lanes":0,"name":"서해안로","oneway":false},"geometry":{"type":"LineString","coordinates":[[126.81858,37.47637],[126.81873,37.47651],[126.81887,37.47663],[126.81888,37.47664],[126.81927,37.47699],[126.82045,37.47804],[126.8213,37.47879]]}},{"type":"Feature","properties":{"class":"alley","highway":"service","sidewalk":"unknown","lanes":0,"name":"","oneway":false},"geometry":{"type":"LineString","coordinates":[[126.82296,37.47907],[126.82248,37.47894],[126.82208,37.47883],[126.82204,37.47878],[126.82211,37.47841],[126.82217,37.47837],[126.82262,37.47841],[126.82312,37.47846]]}},{"type":"Feature","properties":{"class":"alley","highway":"service","sidewalk":"unknown","lanes":0,"name":"","oneway":false},"geometry":{"type":"LineString","coordinates":[[126.82248,37.47894],[126.82257,37.47872],[126.82262,37.47841]]}},{"type":"Feature","properties":{"class":"minor","highway":"residential","sidewalk":"unknown","lanes":0,"name":"","oneway":false},"geometry":{"type":"LineString","coordinates":[[126.82286,37.47275],[126.82314,37.47293]]}},{"type":"Feature","properties":{"class":"minor","highway":"residential","sidewalk":"unknown","lanes":0,"name":"연동로159번길","oneway":false},"geometry":{"type":"LineString","coordinates":[[126.82167,37.47425],[126.82134,37.47415],[126.82129,37.47413],[126.82126,37.4741],[126.82124,37.47407],[126.82122,37.47398],[126.82118,37.47394],[126.82114,37.47392],[126.82109,37.4739],[126.82092,37.47383],[126.82074,37.47374]]}},{"type":"Feature","properties":{"class":"alley","highway":"service","sidewalk":"unknown","lanes":0,"name":"","oneway":false},"geometry":{"type":"LineString","coordinates":[[126.83678,37.47399],[126.83674,37.47389]]}},{"type":"Feature","properties":{"class":"alley","highway":"service","sidewalk":"unknown","lanes":0,"name":"","oneway":false},"geometry":{"type":"LineString","coordinates":[[126.83986,37.47367],[126.84035,37.47364],[126.8404,37.47362],[126.84044,37.47359],[126.84048,37.47353],[126.84051,37.47337],[126.84054,37.47305],[126.84058,37.47288]]}},{"type":"Feature","properties":{"class":"alley","highway":"service","sidewalk":"unknown","lanes":0,"name":"","oneway":false},"geometry":{"type":"LineString","coordinates":[[126.83953,37.47257],[126.84019,37.47276],[126.84058,37.47288],[126.84193,37.47328]]}},{"type":"Feature","properties":{"class":"alley","highway":"service","sidewalk":"unknown","lanes":0,"name":"","oneway":false},"geometry":{"type":"LineString","coordinates":[[126.83958,37.47276],[126.83919,37.47275],[126.83912,37.47276]]}},{"type":"Feature","properties":{"class":"alley","highway":"service","sidewalk":"unknown","lanes":0,"name":"","oneway":false},"geometry":{"type":"LineString","coordinates":[[126.83943,37.47219],[126.83927,37.47225],[126.83896,37.47239],[126.83887,37.47246],[126.83881,37.47254],[126.83877,37.47261],[126.83874,37.47274],[126.83871,37.47278],[126.83867,37.47281],[126.83837,37.47286]]}},{"type":"Feature","properties":{"class":"alley","highway":"service","sidewalk":"unknown","lanes":0,"name":"","oneway":false},"geometry":{"type":"LineString","coordinates":[[126.83943,37.47219],[126.83971,37.47217],[126.83982,37.47215],[126.83997,37.47212],[126.8401,37.47208],[126.84028,37.472]]}},{"type":"Feature","properties":{"class":"major","highway":"secondary_link","sidewalk":"likely","lanes":0,"name":"","oneway":true},"geometry":{"type":"LineString","coordinates":[[126.84023,37.47156],[126.83977,37.47179],[126.83966,37.47185],[126.83959,37.4719],[126.83954,37.47195],[126.8395,37.47203],[126.83943,37.47219]]}},{"type":"Feature","properties":{"class":"major","highway":"secondary_link","sidewalk":"likely","lanes":0,"name":"","oneway":true},"geometry":{"type":"LineString","coordinates":[[126.83942,37.47133],[126.83949,37.47149],[126.83954,37.47156],[126.83958,37.4716],[126.83964,37.47164],[126.83972,37.47166],[126.8398,37.47167],[126.83995,37.47166]]}},{"type":"Feature","properties":{"class":"alley","highway":"service","sidewalk":"unknown","lanes":0,"name":"","oneway":false},"geometry":{"type":"LineString","coordinates":[[126.83943,37.47219],[126.83923,37.47213],[126.83895,37.4719],[126.8389,37.47183],[126.83882,37.47174],[126.83878,37.47168],[126.83875,37.47162]]}},{"type":"Feature","properties":{"class":"minor","highway":"residential","sidewalk":"unknown","lanes":0,"name":"연동로","oneway":false},"geometry":{"type":"LineString","coordinates":[[126.82778,37.47102],[126.82743,37.47113],[126.82689,37.47129]]}},{"type":"Feature","properties":{"class":"alley","highway":"service","sidewalk":"unknown","lanes":0,"name":"","oneway":true},"geometry":{"type":"LineString","coordinates":[[126.82194,37.47169],[126.82212,37.47145],[126.82267,37.47128],[126.82293,37.47119]]}},{"type":"Feature","properties":{"class":"major","highway":"secondary","sidewalk":"likely","lanes":0,"name":"서해안로","oneway":false},"geometry":{"type":"LineString","coordinates":[[126.82165,37.47912],[126.822,37.47944],[126.82208,37.47951],[126.82243,37.47982]]}},{"type":"Feature","properties":{"class":"minor","highway":"residential","sidewalk":"unknown","lanes":0,"name":"연동로","oneway":false},"geometry":{"type":"LineString","coordinates":[[126.82689,37.47129],[126.8266,37.47139],[126.82636,37.4715]]}},{"type":"Feature","properties":{"class":"alley","highway":"service","sidewalk":"unknown","lanes":0,"name":"","oneway":true},"geometry":{"type":"LineString","coordinates":[[126.8219,37.47234],[126.82179,37.47227],[126.82172,37.47222],[126.8217,37.472],[126.82194,37.47169]]}},{"type":"Feature","properties":{"class":"major","highway":"secondary","sidewalk":"likely","lanes":0,"name":"부광로","oneway":false},"geometry":{"type":"LineString","coordinates":[[126.82293,37.47119],[126.82414,37.46985]]}},{"type":"Feature","properties":{"class":"major","highway":"secondary","sidewalk":"likely","lanes":0,"name":"부광로","oneway":false},"geometry":{"type":"LineString","coordinates":[[126.8219,37.47234],[126.82293,37.47119]]}},{"type":"Feature","properties":{"class":"minor","highway":"residential","sidewalk":"unknown","lanes":0,"name":"","oneway":false},"geometry":{"type":"LineString","coordinates":[[126.82468,37.47324],[126.82472,37.47324],[126.82478,37.47325],[126.82483,37.47327],[126.82489,37.47329],[126.82501,37.47337],[126.82513,37.47345],[126.82524,37.47352],[126.82529,37.47356],[126.82533,37.47358],[126.82538,37.4736],[126.82542,37.47361],[126.82547,37.47362],[126.82552,37.47362],[126.82558,37.47364],[126.82559,37.47365],[126.82561,37.47366],[126.82564,37.47371],[126.82564,37.47375],[126.82567,37.47379],[126.82571,37.47383],[126.82574,37.47387],[126.82577,37.47395],[126.82579,37.47398],[126.8258,37.47401],[126.82581,37.47404],[126.82581,37.47407],[126.8258,37.47409],[126.82578,37.47414],[126.82577,37.47417],[126.82576,37.4742],[126.82576,37.47422],[126.82576,37.47424],[126.82577,37.47432],[126.82584,37.47463],[126.82589,37.47478]]}}]}