{"type":"FeatureCollection","features":[{"type":"Feature","properties":{"class":"major","highway":"motorway","sidewalk":"likely","lanes":2,"name":"용인서울고속도로","oneway":true},"geometry":{"type":"LineString","coordinates":[[127.09319,37.46393],[127.0929,37.46478]]}},{"type":"Feature","properties":{"class":"major","highway":"motorway","sidewalk":"likely","lanes":2,"name":"용인서울고속도로","oneway":true},"geometry":{"type":"LineString","coordinates":[[127.09286,37.46382],[127.0936,37.46177]]}},{"type":"Feature","properties":{"class":"major","highway":"motorway_link","sidewalk":"likely","lanes":0,"name":"","oneway":true},"geometry":{"type":"LineString","coordinates":[[127.09024,37.46543],[127.0901,37.46531],[127.08999,37.46519],[127.08992,37.46505],[127.08978,37.46476],[127.08961,37.46445],[127.08944,37.46419],[127.08937,37.46407]]}},{"type":"Feature","properties":{"class":"major","highway":"motorway","sidewalk":"likely","lanes":2,"name":"용인서울고속도로","oneway":true},"geometry":{"type":"LineString","coordinates":[[127.09388,37.46197],[127.09319,37.46393]]}},{"type":"Feature","properties":{"class":"major","highway":"motorway","sidewalk":"likely","lanes":2,"name":"용인서울고속도로","oneway":true},"geometry":{"type":"LineString","coordinates":[[127.09258,37.46467],[127.09286,37.46382]]}},{"type":"Feature","properties":{"class":"major","highway":"motorway","sidewalk":"likely","lanes":2,"name":"용인서울고속도로","oneway":true},"geometry":{"type":"LineString","coordinates":[[127.09643,37.45218],[127.09635,37.45308],[127.09623,37.4536],[127.09589,37.45479],[127.0953,37.45697],[127.09466,37.45919],[127.09425,37.46067],[127.09388,37.46197]]}},{"type":"Feature","properties":{"class":"major","highway":"motorway","sidewalk":"likely","lanes":2,"name":"용인서울고속도로","oneway":true},"geometry":{"type":"LineString","coordinates":[[127.0936,37.46177],[127.09385,37.46084],[127.09435,37.45918],[127.09494,37.45699],[127.09552,37.45491],[127.09596,37.45315],[127.09603,37.452]]}},{"type":"Feature","properties":{"class":"alley","highway":"service","sidewalk":"unknown","lanes":2,"name":"","oneway":false},"geometry":{"type":"LineString","coordinates":[[127.08356,37.48128],[127.08373,37.48028],[127.08379,37.48012],[127.08384,37.48002],[127.08404,37.48001],[127.08421,37.48],[127.08473,37.48003],[127.08565,37.4801],[127.08566,37.48003]]}},{"type":"Feature","properties":{"class":"major","highway":"motorway_link","sidewalk":"likely","lanes":0,"name":"","oneway":true},"geometry":{"type":"LineString","coordinates":[[127.08985,37.463],[127.0899,37.46394]]}},{"type":"Feature","properties":{"class":"major","highway":"motorway_link","sidewalk":"likely","lanes":0,"name":"","oneway":true},"geometry":{"type":"LineString","coordinates":[[127.08984,37.46393],[127.08979,37.46299]]}},{"type":"Feature","properties":{"class":"major","highway":"primary","sidewalk":"likely","lanes":0,"name":"헌릉로","oneway":true},"geometry":{"type":"LineString","coordinates":[[127.08389,37.46143],[127.08311,37.46116],[127.08236,37.46091],[127.08191,37.46076],[127.08157,37.46066],[127.08043,37.46029],[127.07994,37.46014]]}},{"type":"Feature","properties":{"class":"minor","highway":"residential","sidewalk":"unknown","lanes":0,"name":"헌릉로571길","oneway":false},"geometry":{"type":"LineString","coordinates":[[127.09796,37.46826],[127.09781,37.46738]]}},{"type":"Feature","properties":{"class":"minor","highway":"residential","sidewalk":"unknown","lanes":2,"name":"헌릉로571길","oneway":false},"geometry":{"type":"LineString","coordinates":[[127.10171,37.46704],[127.10176,37.46741],[127.10178,37.46786],[127.10171,37.46783],[127.10154,37.46781],[127.10122,37.46785],[127.10085,37.46784],[127.10029,37.4678],[127.10018,37.46779],[127.0999,37.46775],[127.09941,37.46762],[127.09926,37.4676],[127.09895,37.46754],[127.09841,37.46745],[127.09781,37.46738],[127.09764,37.46738],[127.09726,37.46744],[127.09659,37.46759]]}},{"type":"Feature","properties":{"class":"minor","highway":"residential","sidewalk":"unknown","lanes":0,"name":"헌릉로569길","oneway":false},"geometry":{"type":"LineString","coordinates":[[127.09677,37.4684],[127.09659,37.46759],[127.09655,37.46716]]}},{"type":"Feature","properties":{"class":"minor","highway":"residential","sidewalk":"unknown","lanes":0,"name":"헌릉로569길","oneway":false},"geometry":{"type":"LineString","coordinates":[[127.09586,37.46852],[127.09625,37.46846],[127.09646,37.46844],[127.09677,37.4684],[127.09744,37.4683],[127.09786,37.46824],[127.09796,37.46826],[127.09824,37.4683],[127.09876,37.46837],[127.09912,37.46842],[127.09924,37.4684]]}},{"type":"Feature","properties":{"class":"minor","highway":"unclassified","sidewalk":"unknown","lanes":0,"name":"헌인릉길","oneway":false},"geometry":{"type":"LineString","coordinates":[[127.08198,37.46064],[127.08191,37.46076],[127.08191,37.46091],[127.08191,37.46117],[127.08197,37.46164],[127.082,37.46225],[127.08201,37.46239],[127.08203,37.46253],[127.08208,37.46268],[127.08221,37.46289],[127.0823,37.46307],[127.08232,37.46322],[127.08231,37.46331],[127.08229,37.4634],[127.08222,37.46357],[127.08216,37.46366],[127.08208,37.46375]]}},{"type":"Feature","properties":{"class":"alley","highway":"service","sidewalk":"unknown","lanes":0,"name":"헌인릉1길","oneway":false},"geometry":{"type":"LineString","coordinates":[[127.08175,37.46398],[127.08235,37.46404],[127.08313,37.46411],[127.08357,37.46413],[127.08423,37.46435],[127.08458,37.46436],[127.08543,37.46456]]}},{"type":"Feature","properties":{"class":"alley","highway":"service","sidewalk":"unknown","lanes":0,"name":"헌인릉1길","oneway":false},"geometry":{"type":"LineString","coordinates":[[127.09032,37.46431],[127.09042,37.46436]]}},{"type":"Feature","properties":{"class":"alley","highway":"service","sidewalk":"unknown","lanes":0,"name":"헌인릉1길","oneway":false},"geometry":{"type":"LineString","coordinates":[[127.08949,37.46446],[127.08967,37.4644]]}},{"type":"Feature","properties":{"class":"major","highway":"secondary","sidewalk":"likely","lanes":0,"name":"자곡로","oneway":true},"geometry":{"type":"LineString","coordinates":[[127.09445,37.46704],[127.09423,37.46735],[127.09413,37.46748],[127.09401,37.4676],[127.09385,37.46772],[127.09369,37.46781],[127.09344,37.46795],[127.09292,37.46815],[127.09273,37.46824],[127.09256,37.46834],[127.09231,37.46852],[127.09218,37.46865],[127.09208,37.46877],[127.09199,37.4689],[127.0919,37.46912],[127.09184,37.4693],[127.09182,37.46952],[127.09182,37.46973],[127.09186,37.46992],[127.09191,37.4701],[127.09197,37.47022],[127.09205,37.47041],[127.09215,37.47057],[127.09231,37.47078],[127.09247,37.47096],[127.09263,37.47108],[127.09312,37.47136],[127.09349,37.47153]]}},{"type":"Feature","properties":{"class":"alley","highway":"service","sidewalk":"unknown","lanes":0,"name":"헌인릉1길","oneway":false},"geometry":{"type":"LineString","coordinates":[[127.08949,37.46446],[127.08783,37.46494],[127.08738,37.46507],[127.08676,37.46516],[127.0861,37.46504],[127.08543,37.46456],[127.08422,37.46292],[127.08392,37.46251],[127.08381,37.4624],[127.0836,37.4622],[127.08325,37.46206],[127.08318,37.46204],[127.08247,37.46188],[127.08197,37.46164]]}},{"type":"Feature","properties":{"class":"minor","highway":"residential","sidewalk":"unknown","lanes":0,"name":"자곡로7길","oneway":false},"geometry":{"type":"LineString","coordinates":[[127.09605,37.47302],[127.09615,37.47303],[127.09671,37.47311],[127.09716,37.47317],[127.09783,37.47326],[127.09827,37.47332],[127.09869,37.47337],[127.09903,37.47338],[127.09913,37.47342],[127.09923,37.47339],[127.09955,37.47343],[127.09968,37.47341],[127.09997,37.47344]]}},{"type":"Feature","properties":{"class":"minor","highway":"residential","sidewalk":"unknown","lanes":0,"name":"자곡로7길","oneway":false},"geometry":{"type":"LineString","coordinates":[[127.09595,37.47358],[127.09604,37.47359],[127.09657,37.47367]]}},{"type":"Feature","properties":{"class":"minor","highway":"residential","sidewalk":"unknown","lanes":0,"name":"자곡로7길","oneway":false},"geometry":{"type":"LineString","coordinates":[[127.09703,37.47369],[127.09716,37.47317]]}},{"type":"Feature","properties":{"class":"minor","highway":"residential","sidewalk":"unknown","lanes":0,"name":"자곡로7길","oneway":false},"geometry":{"type":"LineString","coordinates":[[127.10026,37.47485],[127.0998,37.47481]]}},{"type":"Feature","properties":{"class":"minor","highway":"residential","sidewalk":"unknown","lanes":0,"name":"자곡로7길","oneway":false},"geometry":{"type":"LineString","coordinates":[[127.10033,37.47409],[127.0999,37.47406]]}},{"type":"Feature","properties":{"class":"minor","highway":"residential","sidewalk":"unknown","lanes":0,"name":"자곡로7길","oneway":false},"geometry":{"type":"LineString","coordinates":[[127.09758,37.47523],[127.09761,37.47502],[127.0977,37.47426]]}},{"type":"Feature","properties":{"class":"minor","highway":"residential","sidewalk":"unknown","lanes":0,"name":"자곡로7길","oneway":false},"geometry":{"type":"LineString","coordinates":[[127.09801,37.47526],[127.09803,37.47505],[127.09813,37.4743],[127.09827,37.47332]]}},{"type":"Feature","properties":{"class":"alley","highway":"service","sidewalk":"unknown","lanes":0,"name":"헌릉로571길","oneway":false},"geometry":{"type":"LineString","coordinates":[[127.09976,37.46903],[127.09984,37.46902],[127.10007,37.46897]]}},{"type":"Feature","properties":{"class":"minor","highway":"residential","sidewalk":"unknown","lanes":0,"name":"자곡로7길","oneway":false},"geometry":{"type":"LineString","coordinates":[[127.09656,37.47375],[127.09657,37.47367],[127.09671,37.47311]]}},{"type":"Feature","properties":{"class":"minor","highway":"residential","sidewalk":"unknown","lanes":0,"name":"헌릉로571길","oneway":false},"geometry":{"type":"LineString","coordinates":[[127.10092,37.46832],[127.09986,37.46821],[127.09981,37.46826]]}},{"type":"Feature","properties":{"class":"minor","highway":"residential","sidewalk":"unknown","lanes":0,"name":"자곡로7길","oneway":false},"geometry":{"type":"LineString","coordinates":[[127.09894,37.47476],[127.09899,37.47436],[127.09913,37.47342]]}},{"type":"Feature","properties":{"class":"major","highway":"tertiary","sidewalk":"likely","lanes":3,"name":"헌릉로569길","oneway":false},"geometry":{"type":"LineString","coordinates":[[127.10171,37.46704],[127.1004,37.46704],[127.09942,37.46704],[127.09929,37.46704],[127.09824,37.46704],[127.09783,37.46704],[127.09725,37.46705],[127.09707,37.46705],[127.09677,37.46711],[127.09655,37.46716],[127.09645,37.46718],[127.09601,37.46729],[127.0957,37.46733],[127.09535,37.4673],[127.09481,37.46715],[127.09445,37.46704]]}},{"type":"Feature","properties":{"class":"minor","highway":"residential","sidewalk":"unknown","lanes":0,"name":"","oneway":false},"geometry":{"type":"LineString","coordinates":[[127.09622,37.46896],[127.09654,37.46886],[127.09647,37.4685],[127.09646,37.46844]]}},{"type":"Feature","properties":{"class":"minor","highway":"residential","sidewalk":"unknown","lanes":0,"name":"","oneway":false},"geometry":{"type":"LineString","coordinates":[[127.09737,37.475],[127.09761,37.47502],[127.09803,37.47505],[127.09847,37.47509]]}},{"type":"Feature","properties":{"class":"minor","highway":"residential","sidewalk":"unknown","lanes":0,"name":"헌릉로571길","oneway":false},"geometry":{"type":"LineString","coordinates":[[127.0999,37.46775],[127.09981,37.46826],[127.09981,37.46834],[127.09996,37.46872],[127.10007,37.46897],[127.10012,37.46912],[127.10012,37.46917],[127.10011,37.46927],[127.10006,37.46954]]}},{"type":"Feature","properties":{"class":"minor","highway":"residential","sidewalk":"unknown","lanes":0,"name":"","oneway":false},"geometry":{"type":"LineString","coordinates":[[127.09976,37.47518],[127.09939,37.47515],[127.09933,37.47511]]}},{"type":"Feature","properties":{"class":"minor","highway":"residential","sidewalk":"unknown","lanes":0,"name":"자곡로7길","oneway":false},"geometry":{"type":"LineString","coordinates":[[127.09971,37.47559],[127.09974,37.47535],[127.09976,37.47518],[127.0998,37.47481],[127.09985,37.47443],[127.0999,37.47406],[127.09997,37.47344],[127.10008,37.47287],[127.1001,37.47279]]}},{"type":"Feature","properties":{"class":"minor","highway":"residential","sidewalk":"unknown","lanes":0,"name":"","oneway":false},"geometry":{"type":"LineString","coordinates":[[127.09813,37.4743],[127.09856,37.47433],[127.09899,37.47436],[127.09941,37.47439],[127.09985,37.47443]]}},{"type":"Feature","properties":{"class":"alley","highway":"service","sidewalk":"unknown","lanes":0,"name":"","oneway":false},"geometry":{"type":"LineString","coordinates":[[127.09741,37.4631],[127.09732,37.46312],[127.09717,37.46325]]}},{"type":"Feature","properties":{"class":"alley","highway":"service","sidewalk":"unknown","lanes":0,"name":"헌릉로590길","oneway":false},"geometry":{"type":"LineString","coordinates":[[127.10008,37.46411],[127.10005,37.46412],[127.09995,37.46409],[127.09979,37.46399],[127.09969,37.46392],[127.09959,37.46384],[127.09949,37.46381],[127.09944,37.46378],[127.09936,37.46374],[127.09929,37.46371],[127.09913,37.4637],[127.09897,37.46365],[127.09888,37.46357],[127.09878,37.46351],[127.09872,37.46348],[127.09857,37.46344],[127.09848,37.46344],[127.09838,37.46344],[127.0983,37.46344],[127.09823,37.46344],[127.09796,37.46342],[127.09787,37.4634],[127.09777,37.46337],[127.09771,37.46334],[127.09763,37.46328],[127.09751,37.4632],[127.09741,37.4631],[127.09732,37.463],[127.09721,37.46293]]}},{"type":"Feature","properties":{"class":"minor","highway":"residential","sidewalk":"unknown","lanes":0,"name":"헌릉로422길","oneway":false},"geometry":{"type":"LineString","coordinates":[[127.08542,37.46178],[127.0856,37.46159],[127.08595,37.46109],[127.08616,37.46076],[127.08628,37.46054],[127.08637,37.46035],[127.08637,37.46022],[127.08634,37.45997],[127.08626,37.45969],[127.08621,37.45949]]}},{"type":"Feature","properties":{"class":"alley","highway":"service","sidewalk":"unknown","lanes":0,"name":"헌릉로468길","oneway":false},"geometry":{"type":"LineString","coordinates":[[127.09009,37.46152],[127.0902,37.46145],[127.0903,37.46131],[127.09034,37.46124],[127.09042,37.46118],[127.09053,37.46112],[127.09072,37.46103],[127.09094,37.46094],[127.09106,37.4609],[127.09116,37.46085],[127.09141,37.4607],[127.09151,37.46071]]}},{"type":"Feature","properties":{"class":"alley","highway":"service","sidewalk":"unknown","lanes":0,"name":"","oneway":false},"geometry":{"type":"LineString","coordinates":[[127.09151,37.46071],[127.09151,37.46058],[127.09156,37.46049],[127.09163,37.46037],[127.09176,37.46023],[127.09188,37.46012],[127.09196,37.4601],[127.0924,37.46029],[127.09243,37.46038]]}},{"type":"Feature","properties":{"class":"minor","highway":"residential","sidewalk":"unknown","lanes":0,"name":"헌릉로422길","oneway":false},"geometry":{"type":"LineString","coordinates":[[127.09334,37.45992],[127.09327,37.46005],[127.09314,37.4602],[127.09296,37.4604],[127.09275,37.46068],[127.09263,37.46084],[127.09248,37.46099],[127.09236,37.46115],[127.09222,37.4613],[127.09204,37.4615],[127.09185,37.4617],[127.09166,37.46181],[127.09141,37.46187],[127.09121,37.4619],[127.09092,37.46193],[127.09058,37.46192],[127.09037,37.46191],[127.0902,37.46191],[127.09007,37.46193]]}},{"type":"Feature","properties":{"class":"alley","highway":"service","sidewalk":"unknown","lanes":0,"name":"헌인릉2길","oneway":false},"geometry":{"type":"LineString","coordinates":[[127.08676,37.46516],[127.08674,37.46531],[127.08673,37.46547],[127.08679,37.46564],[127.08679,37.46572],[127.08683,37.46583],[127.08677,37.46593],[127.08667,37.46614],[127.08663,37.46619],[127.08656,37.46624],[127.0865,37.46626],[127.08642,37.46632],[127.08635,37.46641],[127.08621,37.46652],[127.08611,37.46663],[127.08602,37.46675],[127.08592,37.46685],[127.08574,37.46704],[127.08558,37.46722],[127.08549,37.46733],[127.08543,37.46742],[127.08536,37.46756],[127.08534,37.46767],[127.08531,37.46784],[127.08531,37.468],[127.08538,37.46814]]}},{"type":"Feature","properties":{"class":"alley","highway":"service","sidewalk":"unknown","lanes":0,"name":"헌인릉2길","oneway":false},"geometry":{"type":"LineString","coordinates":[[127.08656,37.46624],[127.08665,37.46632],[127.08657,37.46648],[127.08649,37.46663],[127.08642,37.46678],[127.08638,37.4669],[127.08637,37.46703],[127.08637,37.46711],[127.08634,37.46719],[127.08628,37.46727],[127.08611,37.46739],[127.08604,37.46751],[127.08597,37.46798]]}},{"type":"Feature","properties":{"class":"minor","highway":"unclassified","sidewalk":"unknown","lanes":0,"name":"","oneway":false},"geometry":{"type":"LineString","coordinates":[[127.08538,37.46814],[127.08523,37.4683],[127.08519,37.46836],[127.08504,37.4685],[127.085,37.46857],[127.08498,37.46868],[127.08495,37.46874],[127.08494,37.46886],[127.08488,37.46896]]}},{"type":"Feature","properties":{"class":"major","highway":"primary","sidewalk":"likely","lanes":0,"name":"헌릉로","oneway":true},"geometry":{"type":"LineString","coordinates":[[127.09541,37.46492],[127.09584,37.46503],[127.09635,37.46517],[127.09695,37.46531],[127.0974,37.4654],[127.09774,37.46545],[127.09805,37.46547],[127.09833,37.46547],[127.09865,37.46545],[127.09949,37.46539],[127.10042,37.46529]]}},{"type":"Feature","properties":{"class":"major","highway":"motorway_link","sidewalk":"likely","lanes":0,"name":"","oneway":true},"geometry":{"type":"LineString","coordinates":[[127.08937,37.46407],[127.08926,37.46391],[127.08912,37.46375]]}},{"type":"Feature","properties":{"class":"major","highway":"secondary","sidewalk":"likely","lanes":0,"name":"자곡로","oneway":true},"geometry":{"type":"LineString","coordinates":[[127.09404,37.47179],[127.09451,37.472],[127.09462,37.47205],[127.09509,37.47214],[127.09618,37.4723],[127.09799,37.47253],[127.09924,37.47269],[127.1001,37.47279],[127.10093,37.47292],[127.10124,37.47298],[127.10143,37.47304],[127.10166,37.47311],[127.10194,37.47324],[127.10228,37.47343],[127.10257,37.47366]]}},{"type":"Feature","properties":{"class":"minor","highway":"residential","sidewalk":"unknown","lanes":0,"name":"자곡로5길","oneway":false},"geometry":{"type":"LineString","coordinates":[[127.09618,37.4723],[127.09617,37.47237],[127.09605,37.47302],[127.09595,37.47358],[127.09584,37.47391],[127.09566,37.47407],[127.09552,37.47421],[127.09533,37.47435],[127.09518,37.47449],[127.09509,37.47463],[127.09504,37.47476],[127.09485,37.47544],[127.09483,37.47555],[127.09482,37.4756]]}},{"type":"Feature","properties":{"class":"alley","highway":"service","sidewalk":"unknown","lanes":0,"name":"","oneway":false},"geometry":{"type":"LineString","coordinates":[[127.09572,37.47309],[127.09569,37.47336],[127.09554,37.47344],[127.09548,37.47345],[127.09528,37.47339],[127.09527,37.47338],[127.09508,37.47337],[127.09501,37.4734],[127.09456,37.47362],[127.09452,37.47364],[127.09409,37.47384],[127.09361,37.47407],[127.09317,37.47424],[127.09314,37.47426],[127.09311,37.47428],[127.09307,37.47433],[127.09305,37.47438],[127.09305,37.47443],[127.09306,37.47446],[127.0932,37.47466],[127.09324,37.47489],[127.09325,37.4749],[127.09345,37.47518],[127.09348,37.47522],[127.09349,37.47528],[127.09347,37.47535],[127.0934,37.47541],[127.09322,37.47557],[127.09319,37.47561],[127.09316,37.47567],[127.09316,37.47575],[127.0932,37.47583],[127.09318,37.47588],[127.09313,37.47593],[127.09306,37.47597],[127.09293,37.47598],[127.09265,37.47593],[127.09256,37.4759],[127.09247,37.47583],[127.09245,37.47576],[127.09247,37.47568],[127.09265,37.47551]]}},{"type":"Feature","properties":{"class":"alley","highway":"service","sidewalk":"unknown","lanes":0,"name":"","oneway":false},"geometry":{"type":"LineString","coordinates":[[127.09361,37.47407],[127.0938,37.47433],[127.09413,37.47477],[127.09429,37.475],[127.09438,37.47512]]}},{"type":"Feature","properties":{"class":"alley","highway":"service","sidewalk":"unknown","lanes":0,"name":"","oneway":false},"geometry":{"type":"LineString","coordinates":[[127.09477,37.47484],[127.09447,37.47439],[127.09424,37.47406],[127.09409,37.47384]]}},{"type":"Feature","properties":{"class":"alley","highway":"service","sidewalk":"unknown","lanes":0,"name":"","oneway":false},"geometry":{"type":"LineString","coordinates":[[127.095,37.47422],[127.09475,37.47387],[127.09456,37.47362]]}},{"type":"Feature","properties":{"class":"alley","highway":"service","sidewalk":"unknown","lanes":0,"name":"","oneway":false},"geometry":{"type":"LineString","coordinates":[[127.09605,37.47302],[127.09592,37.47306],[127.09584,37.47305],[127.09572,37.47309],[127.09567,37.4731]]}},{"type":"Feature","properties":{"class":"minor","highway":"residential","sidewalk":"unknown","lanes":0,"name":"","oneway":false},"geometry":{"type":"LineString","coordinates":[[127.09618,37.4723],[127.09626,37.47205],[127.09621,37.47187],[127.09608,37.47179],[127.09592,37.47177],[127.09565,37.47178],[127.09491,37.47173],[127.09477,37.4718],[127.09462,37.47205]]}},{"type":"Feature","properties":{"class":"minor","highway":"residential","sidewalk":"unknown","lanes":0,"name":"자곡로3길","oneway":false},"geometry":{"type":"LineString","coordinates":[[127.09247,37.47096],[127.0924,37.47101],[127.09151,37.47168],[127.09138,37.47175],[127.09115,37.47181],[127.09083,37.47181],[127.09061,37.47181],[127.09033,37.4718],[127.09009,37.47171],[127.08992,37.47157],[127.08985,37.47144],[127.08982,37.47132],[127.08982,37.47051],[127.08983,37.4701],[127.08995,37.46991],[127.09002,37.46985],[127.09009,37.46979],[127.09014,37.46977],[127.09024,37.46972],[127.09037,37.4697],[127.09109,37.46973],[127.09173,37.46973],[127.09182,37.46973]]}},{"type":"Feature","properties":{"class":"minor","highway":"unclassified","sidewalk":"unknown","lanes":0,"name":"","oneway":false},"geometry":{"type":"LineString","coordinates":[[127.08422,37.46292],[127.08485,37.46258],[127.08486,37.46243],[127.08475,37.4623],[127.08465,37.46208],[127.08452,37.46201]]}},{"type":"Feature","properties":{"class":"minor","highway":"unclassified","sidewalk":"unknown","lanes":0,"name":"","oneway":false},"geometry":{"type":"LineString","coordinates":[[127.08452,37.46201],[127.08442,37.46187],[127.08419,37.46152]]}},{"type":"Feature","properties":{"class":"minor","highway":"unclassified","sidewalk":"unknown","lanes":0,"name":"","oneway":false},"geometry":{"type":"LineString","coordinates":[[127.08442,37.46187],[127.08417,37.46166],[127.084,37.4616],[127.08378,37.46164],[127.0834,37.46184],[127.08325,37.46206]]}},{"type":"Feature","properties":{"class":"minor","highway":"unclassified","sidewalk":"unknown","lanes":0,"name":"","oneway":false},"geometry":{"type":"LineString","coordinates":[[127.08381,37.4624],[127.08452,37.46201]]}},{"type":"Feature","properties":{"class":"alley","highway":"service","sidewalk":"unknown","lanes":0,"name":"","oneway":false},"geometry":{"type":"LineString","coordinates":[[127.08982,37.47051],[127.08971,37.47054],[127.08941,37.47061],[127.08907,37.47071],[127.08896,37.47073],[127.08886,37.47073],[127.08879,37.47073],[127.08852,37.47071],[127.08805,37.47085],[127.08806,37.47138]]}},{"type":"Feature","properties":{"class":"alley","highway":"service","sidewalk":"unknown","lanes":0,"name":"","oneway":false},"geometry":{"type":"LineString","coordinates":[[127.08912,37.472],[127.08936,37.47193],[127.08971,37.47195],[127.09006,37.47209],[127.09006,37.47252],[127.09006,37.47272],[127.08957,37.47285],[127.08878,37.47257],[127.08866,37.4725],[127.08823,37.47226]]}},{"type":"Feature","properties":{"class":"alley","highway":"service","sidewalk":"unknown","lanes":0,"name":"","oneway":false},"geometry":{"type":"LineString","coordinates":[[127.08823,37.47226],[127.08705,37.47154],[127.08693,37.47144],[127.08689,37.47132],[127.08692,37.47121],[127.08748,37.47043],[127.08765,37.47028],[127.08789,37.47014],[127.08862,37.46987],[127.08878,37.46981],[127.08899,37.46978],[127.08933,37.46978],[127.08962,37.46983],[127.08969,37.46988],[127.08971,37.4701],[127.08971,37.47054]]}},{"type":"Feature","properties":{"class":"alley","highway":"service","sidewalk":"unknown","lanes":0,"name":"","oneway":false},"geometry":{"type":"LineString","coordinates":[[127.08852,37.47071],[127.08788,37.47054]]}},{"type":"Feature","properties":{"class":"alley","highway":"service","sidewalk":"unknown","lanes":0,"name":"","oneway":false},"geometry":{"type":"LineString","coordinates":[[127.08806,37.47138],[127.08754,37.47126]]}},{"type":"Feature","properties":{"class":"alley","highway":"service","sidewalk":"unknown","lanes":0,"name":"","oneway":false},"geometry":{"type":"LineString","coordinates":[[127.08936,37.47193],[127.08919,37.47152]]}},{"type":"Feature","properties":{"class":"alley","highway":"service","sidewalk":"unknown","lanes":0,"name":"","oneway":false},"geometry":{"type":"LineString","coordinates":[[127.08956,37.47141],[127.08919,37.47152],[127.08904,37.47155],[127.08894,37.4716]]}},{"type":"Feature","properties":{"class":"alley","highway":"service","sidewalk":"unknown","lanes":0,"name":"","oneway":false},"geometry":{"type":"LineString","coordinates":[[127.08789,37.47014],[127.08789,37.4703],[127.08788,37.47054],[127.08779,37.47052],[127.08769,37.47049],[127.08748,37.47043]]}},{"type":"Feature","properties":{"class":"alley","highway":"service","sidewalk":"unknown","lanes":0,"name":"","oneway":false},"geometry":{"type":"LineString","coordinates":[[127.08956,37.47086],[127.08918,37.47074],[127.08907,37.47071]]}},{"type":"Feature","properties":{"class":"major","highway":"primary","sidewalk":"likely","lanes":0,"name":"헌릉로","oneway":true},"geometry":{"type":"LineString","coordinates":[[127.09062,37.46353],[127.09158,37.46385],[127.09198,37.46398],[127.09247,37.46413],[127.09325,37.46436],[127.09326,37.46436],[127.094,37.46454],[127.09475,37.46475],[127.09541,37.46492]]}},{"type":"Feature","properties":{"class":"major","highway":"secondary","sidewalk":"likely","lanes":0,"name":"자곡로","oneway":true},"geometry":{"type":"LineString","coordinates":[[127.09521,37.46551],[127.09501,37.46596],[127.09445,37.46704]]}},{"type":"Feature","properties":{"class":"minor","highway":"residential","sidewalk":"unknown","lanes":0,"name":"헌릉로569길","oneway":false},"geometry":{"type":"LineString","coordinates":[[127.09601,37.46729],[127.09625,37.46846]]}},{"type":"Feature","properties":{"class":"minor","highway":"residential","sidewalk":"unknown","lanes":0,"name":"헌릉로571길","oneway":false},"geometry":{"type":"LineString","coordinates":[[127.09841,37.46745],[127.09824,37.4683]]}},{"type":"Feature","properties":{"class":"minor","highway":"residential","sidewalk":"unknown","lanes":0,"name":"헌릉로571길","oneway":false},"geometry":{"type":"LineString","coordinates":[[127.09726,37.46744],[127.09736,37.46789],[127.09744,37.4683]]}},{"type":"Feature","properties":{"class":"minor","highway":"residential","sidewalk":"unknown","lanes":0,"name":"헌릉로571길","oneway":false},"geometry":{"type":"LineString","coordinates":[[127.09876,37.46837],[127.09892,37.46762],[127.09895,37.46754]]}},{"type":"Feature","properties":{"class":"minor","highway":"residential","sidewalk":"unknown","lanes":0,"name":"헌릉로422길","oneway":false},"geometry":{"type":"LineString","coordinates":[[127.08685,37.45976],[127.08707,37.45984],[127.08787,37.46017],[127.08831,37.46035],[127.08842,37.46037],[127.08892,37.4605],[127.08954,37.4607],[127.08979,37.46082],[127.09002,37.46092],[127.09008,37.46098]]}},{"type":"Feature","properties":{"class":"minor","highway":"residential","sidewalk":"unknown","lanes":0,"name":"헌릉로468길","oneway":false},"geometry":{"type":"LineString","coordinates":[[127.09009,37.46152],[127.09008,37.46172],[127.09007,37.46193],[127.08999,37.46219],[127.08994,37.46238],[127.08994,37.46252],[127.08995,37.46255],[127.08999,37.46264],[127.09002,37.4627],[127.09008,37.46285],[127.09016,37.46299],[127.09027,37.46318]]}},{"type":"Feature","properties":{"class":"major","highway":"primary","sidewalk":"likely","lanes":0,"name":"헌릉로","oneway":true},"geometry":{"type":"LineString","coordinates":[[127.08811,37.4627],[127.08863,37.46288],[127.08893,37.46298],[127.08953,37.46319],[127.0901,37.46337],[127.09025,37.46341],[127.09032,37.46344],[127.09062,37.46353]]}},{"type":"Feature","properties":{"class":"major","highway":"primary","sidewalk":"likely","lanes":0,"name":"헌릉로","oneway":true},"geometry":{"type":"LineString","coordinates":[[127.08002,37.45998],[127.08086,37.46024],[127.08198,37.46064],[127.08229,37.46073],[127.08312,37.46105],[127.08393,37.46132],[127.08472,37.46155],[127.08487,37.4616]]}},{"type":"Feature","properties":{"class":"major","highway":"primary","sidewalk":"likely","lanes":0,"name":"헌릉로","oneway":true},"geometry":{"type":"LineString","coordinates":[[127.08542,37.46178],[127.08618,37.46202],[127.08676,37.46222],[127.08811,37.4627]]}},{"type":"Feature","properties":{"class":"alley","highway":"service","sidewalk":"unknown","lanes":0,"name":"헌인릉1길","oneway":false},"geometry":{"type":"LineString","coordinates":[[127.09004,37.46429],[127.0902,37.46428],[127.09032,37.46431]]}},{"type":"Feature","properties":{"class":"minor","highway":"residential","sidewalk":"unknown","lanes":0,"name":"헌릉로569길","oneway":false},"geometry":{"type":"LineString","coordinates":[[127.09942,37.46629],[127.09942,37.4666],[127.09942,37.46704]]}},{"type":"Feature","properties":{"class":"major","highway":"primary","sidewalk":"likely","lanes":0,"name":"헌릉로","oneway":true},"geometry":{"type":"LineString","coordinates":[[127.10027,37.46551],[127.09989,37.46555],[127.09923,37.46561],[127.09868,37.46566],[127.09838,37.46569],[127.09808,37.4657],[127.09779,37.46568],[127.09749,37.46564],[127.0962,37.46535],[127.09563,37.46518],[127.09533,37.46509],[127.09314,37.46442],[127.09219,37.46412],[127.09146,37.46389],[127.09025,37.4635]]}},{"type":"Feature","properties":{"class":"major","highway":"primary","sidewalk":"likely","lanes":0,"name":"헌릉로","oneway":true},"geometry":{"type":"LineString","coordinates":[[127.0869,37.46238],[127.0856,37.46196],[127.08506,37.46178]]}},{"type":"Feature","properties":{"class":"minor","highway":"residential","sidewalk":"unknown","lanes":0,"name":"","oneway":true},"geometry":{"type":"LineString","coordinates":[[127.09989,37.46555],[127.0996,37.46565],[127.09942,37.46566],[127.09938,37.46568],[127.09936,37.4657],[127.09935,37.46575]]}},{"type":"Feature","properties":{"class":"minor","highway":"residential","sidewalk":"unknown","lanes":0,"name":"","oneway":true},"geometry":{"type":"LineString","coordinates":[[127.09935,37.46575],[127.0994,37.46614]]}},{"type":"Feature","properties":{"class":"minor","highway":"residential","sidewalk":"unknown","lanes":0,"name":"","oneway":true},"geometry":{"type":"LineString","coordinates":[[127.0994,37.46614],[127.09942,37.46629]]}},{"type":"Feature","properties":{"class":"major","highway":"motorway_link","sidewalk":"likely","lanes":0,"name":"","oneway":true},"geometry":{"type":"LineString","coordinates":[[127.09219,37.46412],[127.09195,37.46406],[127.09185,37.46405],[127.09174,37.46403],[127.09163,37.46402],[127.09153,37.46401],[127.09145,37.46401]]}},{"type":"Feature","properties":{"class":"alley","highway":"service","sidewalk":"unknown","lanes":0,"name":"헌릉로","oneway":false},"geometry":{"type":"LineString","coordinates":[[127.09025,37.4635],[127.09025,37.46363]]}},{"type":"Feature","properties":{"class":"alley","highway":"service","sidewalk":"unknown","lanes":0,"name":"","oneway":false},"geometry":{"type":"LineString","coordinates":[[127.09025,37.46363],[127.09024,37.46391]]}},{"type":"Feature","properties":{"class":"alley","highway":"service","sidewalk":"unknown","lanes":0,"name":"헌릉로","oneway":false},"geometry":{"type":"LineString","coordinates":[[127.09024,37.46391],[127.09024,37.46396],[127.0902,37.46428]]}},{"type":"Feature","properties":{"class":"minor","highway":"unclassified","sidewalk":"unknown","lanes":0,"name":"헌인릉길","oneway":false},"geometry":{"type":"LineString","coordinates":[[127.08208,37.46375],[127.08204,37.46378],[127.08192,37.46387],[127.08175,37.46398],[127.08147,37.46399],[127.08114,37.46412]]}},{"type":"Feature","properties":{"class":"alley","highway":"service","sidewalk":"unknown","lanes":0,"name":"","oneway":false},"geometry":{"type":"LineString","coordinates":[[127.08853,37.48016],[127.08886,37.48],[127.08892,37.47988]]}},{"type":"Feature","properties":{"class":"alley","highway":"service","sidewalk":"unknown","lanes":0,"name":"헌인릉1길","oneway":false},"geometry":{"type":"LineString","coordinates":[[127.0898,37.46436],[127.09004,37.46429]]}},{"type":"Feature","properties":{"class":"alley","highway":"service","sidewalk":"unknown","lanes":0,"name":"헌인릉1길","oneway":false},"geometry":{"type":"LineString","coordinates":[[127.08967,37.4644],[127.0898,37.46436]]}},{"type":"Feature","properties":{"class":"alley","highway":"service","sidewalk":"unknown","lanes":0,"name":"","oneway":false},"geometry":{"type":"LineString","coordinates":[[127.08538,37.46814],[127.08578,37.46837],[127.08596,37.46846],[127.08608,37.46852],[127.0862,37.46859],[127.08636,37.46864],[127.08645,37.46867],[127.08652,37.46889],[127.08651,37.46903],[127.08649,37.46914],[127.08645,37.46927],[127.08646,37.46938],[127.08645,37.46953],[127.08641,37.46957],[127.08629,37.46962],[127.08618,37.46961]]}},{"type":"Feature","properties":{"class":"alley","highway":"service","sidewalk":"unknown","lanes":0,"name":"헌인릉1길","oneway":false},"geometry":{"type":"LineString","coordinates":[[127.09066,37.46447],[127.0909,37.46444],[127.09139,37.46426],[127.09165,37.4643],[127.092,37.46441]]}},{"type":"Feature","properties":{"class":"alley","highway":"service","sidewalk":"unknown","lanes":0,"name":"헌인릉1길","oneway":false},"geometry":{"type":"LineString","coordinates":[[127.09046,37.46438],[127.09066,37.46447]]}},{"type":"Feature","properties":{"class":"minor","highway":"residential","sidewalk":"unknown","lanes":0,"name":"헌인릉1길","oneway":false},"geometry":{"type":"LineString","coordinates":[[127.09042,37.46436],[127.09046,37.46438]]}},{"type":"Feature","properties":{"class":"alley","highway":"service","sidewalk":"unknown","lanes":0,"name":"","oneway":false},"geometry":{"type":"LineString","coordinates":[[127.09151,37.46071],[127.09231,37.46082]]}},{"type":"Feature","properties":{"class":"minor","highway":"residential","sidewalk":"unknown","lanes":0,"name":"헌릉로468길","oneway":false},"geometry":{"type":"LineString","coordinates":[[127.09008,37.46098],[127.09008,37.46123],[127.09009,37.46152]]}},{"type":"Feature","properties":{"class":"minor","highway":"residential","sidewalk":"unknown","lanes":0,"name":"","oneway":false},"geometry":{"type":"LineString","coordinates":[[127.09781,37.46738],[127.09781,37.46727],[127.09783,37.46704]]}},{"type":"Feature","properties":{"class":"minor","highway":"residential","sidewalk":"unknown","lanes":0,"name":"헌릉로571길","oneway":false},"geometry":{"type":"LineString","coordinates":[[127.09941,37.46762],[127.09924,37.4684]]}},{"type":"Feature","properties":{"class":"minor","highway":"residential","sidewalk":"unknown","lanes":0,"name":"헌릉로571길","oneway":false},"geometry":{"type":"LineString","coordinates":[[127.10076,37.4688],[127.09996,37.46872]]}},{"type":"Feature","properties":{"class":"minor","highway":"residential","sidewalk":"unknown","lanes":0,"name":"","oneway":false},"geometry":{"type":"LineString","coordinates":[[127.09924,37.4684],[127.09975,37.46829],[127.09981,37.46826]]}},{"type":"Feature","properties":{"class":"minor","highway":"residential","sidewalk":"unknown","lanes":0,"name":"자곡로7길","oneway":false},"geometry":{"type":"LineString","coordinates":[[127.0977,37.47426],[127.09813,37.4743]]}},{"type":"Feature","properties":{"class":"minor","highway":"residential","sidewalk":"unknown","lanes":0,"name":"","oneway":false},"geometry":{"type":"LineString","coordinates":[[127.09753,37.47424],[127.0977,37.47426]]}},{"type":"Feature","properties":{"class":"minor","highway":"residential","sidewalk":"unknown","lanes":0,"name":"자곡로7길","oneway":false},"geometry":{"type":"LineString","coordinates":[[127.09985,37.47443],[127.10027,37.47447]]}},{"type":"Feature","properties":{"class":"minor","highway":"residential","sidewalk":"unknown","lanes":0,"name":"자곡로7길","oneway":false},"geometry":{"type":"LineString","coordinates":[[127.10016,37.47521],[127.09976,37.47518]]}},{"type":"Feature","properties":{"class":"minor","highway":"residential","sidewalk":"unknown","lanes":0,"name":"자곡로7길","oneway":false},"geometry":{"type":"LineString","coordinates":[[127.09933,37.47511],[127.09938,37.47471],[127.09941,37.47439],[127.09955,37.47343]]}},{"type":"Feature","properties":{"class":"minor","highway":"residential","sidewalk":"unknown","lanes":0,"name":"자곡로7길","oneway":false},"geometry":{"type":"LineString","coordinates":[[127.09846,37.47526],[127.09847,37.47509],[127.09856,37.47433],[127.09869,37.47337]]}},{"type":"Feature","properties":{"class":"alley","highway":"service","sidewalk":"unknown","lanes":0,"name":"헌릉로571길","oneway":false},"geometry":{"type":"LineString","coordinates":[[127.09736,37.46789],[127.09712,37.46791],[127.0971,37.46792]]}},{"type":"Feature","properties":{"class":"minor","highway":"residential","sidewalk":"unknown","lanes":0,"name":"","oneway":false},"geometry":{"type":"LineString","coordinates":[[127.09824,37.46704],[127.09823,37.4666],[127.09822,37.46615]]}},{"type":"Feature","properties":{"class":"minor","highway":"residential","sidewalk":"unknown","lanes":0,"name":"","oneway":false},"geometry":{"type":"LineString","coordinates":[[127.09942,37.4666],[127.09823,37.4666],[127.09731,37.4666],[127.09724,37.46666],[127.09725,37.46705]]}},{"type":"Feature","properties":{"class":"minor","highway":"residential","sidewalk":"unknown","lanes":0,"name":"헌릉로569길","oneway":false},"geometry":{"type":"LineString","coordinates":[[127.09942,37.4666],[127.1004,37.46659],[127.10104,37.46659],[127.10112,37.46657],[127.10115,37.46653],[127.10113,37.46612],[127.1011,37.46606],[127.10102,37.46604],[127.1004,37.46614],[127.09942,37.46629]]}},{"type":"Feature","properties":{"class":"minor","highway":"residential","sidewalk":"unknown","lanes":0,"name":"","oneway":false},"geometry":{"type":"LineString","coordinates":[[127.09942,37.46704],[127.09941,37.46762]]}},{"type":"Feature","properties":{"class":"major","highway":"primary","sidewalk":"likely","lanes":0,"name":"헌릉로","oneway":true},"geometry":{"type":"LineString","coordinates":[[127.08488,37.46173],[127.08419,37.46152],[127.08389,37.46143]]}},{"type":"Feature","properties":{"class":"major","highway":"primary","sidewalk":"likely","lanes":0,"name":"헌릉로","oneway":true},"geometry":{"type":"LineString","coordinates":[[127.08506,37.46178],[127.08501,37.46177],[127.08488,37.46173]]}},{"type":"Feature","properties":{"class":"major","highway":"primary","sidewalk":"likely","lanes":0,"name":"헌릉로","oneway":true},"geometry":{"type":"LineString","coordinates":[[127.08503,37.46166],[127.0852,37.46171],[127.08542,37.46178]]}},{"type":"Feature","properties":{"class":"major","highway":"primary","sidewalk":"likely","lanes":0,"name":"헌릉로","oneway":true},"geometry":{"type":"LineString","coordinates":[[127.08487,37.4616],[127.08503,37.46166]]}},{"type":"Feature","properties":{"class":"alley","highway":"service","sidewalk":"unknown","lanes":0,"name":"","oneway":false},"geometry":{"type":"LineString","coordinates":[[127.08892,37.47988],[127.08902,37.47986],[127.08947,37.47983],[127.08956,37.47975],[127.08972,37.47973]]}},{"type":"Feature","properties":{"class":"alley","highway":"service","sidewalk":"unknown","lanes":0,"name":"","oneway":false},"geometry":{"type":"LineString","coordinates":[[127.08892,37.47988],[127.0887,37.47977],[127.08864,37.47965]]}},{"type":"Feature","properties":{"class":"alley","highway":"service","sidewalk":"unknown","lanes":0,"name":"","oneway":false},"geometry":{"type":"LineString","coordinates":[[127.0887,37.47977],[127.08837,37.47994]]}},{"type":"Feature","properties":{"class":"alley","highway":"service","sidewalk":"unknown","lanes":0,"name":"","oneway":false},"geometry":{"type":"LineString","coordinates":[[127.08766,37.48067],[127.08756,37.4806],[127.08729,37.48028],[127.08731,37.48021],[127.08812,37.47978]]}},{"type":"Feature","properties":{"class":"major","highway":"secondary","sidewalk":"likely","lanes":0,"name":"자곡로","oneway":true},"geometry":{"type":"LineString","coordinates":[[127.09349,37.47153],[127.09404,37.47179]]}},{"type":"Feature","properties":{"class":"major","highway":"secondary","sidewalk":"likely","lanes":0,"name":"자곡로","oneway":true},"geometry":{"type":"LineString","coordinates":[[127.09533,37.46525],[127.09521,37.46551]]}},{"type":"Feature","properties":{"class":"major","highway":"secondary","sidewalk":"likely","lanes":0,"name":"자곡로","oneway":false},"geometry":{"type":"LineString","coordinates":[[127.09533,37.46509],[127.09541,37.46492]]}},{"type":"Feature","properties":{"class":"alley","highway":"service","sidewalk":"unknown","lanes":0,"name":"","oneway":true},"geometry":{"type":"LineString","coordinates":[[127.08043,37.46029],[127.07996,37.46028],[127.0799,37.46028],[127.07985,37.46028],[127.0798,37.46029],[127.07976,37.4603],[127.0797,37.46031],[127.07966,37.46033],[127.07961,37.46037],[127.07957,37.46041],[127.07953,37.46046],[127.07947,37.46055],[127.0794,37.46066],[127.07928,37.46088],[127.07918,37.46111],[127.07909,37.46137],[127.07902,37.46152]]}},{"type":"Feature","properties":{"class":"alley","highway":"service","sidewalk":"unknown","lanes":0,"name":"","oneway":false},"geometry":{"type":"LineString","coordinates":[[127.07899,37.46169],[127.07914,37.46171],[127.07922,37.46172],[127.07929,37.46173],[127.07939,37.46176],[127.07948,37.46179],[127.07948,37.4618],[127.0796,37.46185],[127.0797,37.46191],[127.07982,37.46202],[127.07991,37.46214],[127.08026,37.46267],[127.08071,37.46335],[127.08071,37.46337],[127.08072,37.46339],[127.08072,37.46341],[127.08072,37.46343],[127.08072,37.46351],[127.0807,37.46368],[127.08068,37.46386]]}},{"type":"Feature","properties":{"class":"alley","highway":"service","sidewalk":"unknown","lanes":0,"name":"","oneway":false},"geometry":{"type":"LineString","coordinates":[[127.07899,37.46482],[127.07907,37.46474],[127.07959,37.46418],[127.07963,37.46414],[127.0798,37.464],[127.08007,37.46391],[127.08009,37.46391],[127.08043,37.46388],[127.08052,37.46387],[127.08068,37.46386],[127.08077,37.46386],[127.08181,37.46382],[127.08204,37.46378]]}},{"type":"Feature","properties":{"class":"major","highway":"primary","sidewalk":"likely","lanes":0,"name":"헌릉로","oneway":true},"geometry":{"type":"LineString","coordinates":[[127.09025,37.4635],[127.09006,37.46345],[127.08801,37.46274],[127.0869,37.46238]]}},{"type":"Feature","properties":{"class":"minor","highway":"residential","sidewalk":"unknown","lanes":0,"name":"헌릉로468길","oneway":false},"geometry":{"type":"LineString","coordinates":[[127.09027,37.46318],[127.09032,37.46325],[127.09038,37.46332],[127.09048,37.46341],[127.09062,37.46353]]}},{"type":"Feature","properties":{"class":"minor","highway":"residential","sidewalk":"unknown","lanes":0,"name":"헌릉로468길","oneway":false},"geometry":{"type":"LineString","coordinates":[[127.09027,37.46318],[127.09026,37.46326],[127.09025,37.46341],[127.09025,37.4635]]}},{"type":"Feature","properties":{"class":"alley","highway":"service","sidewalk":"unknown","lanes":0,"name":"","oneway":true},"geometry":{"type":"LineString","coordinates":[[127.08011,37.46445],[127.08009,37.46446],[127.08007,37.46448],[127.07992,37.46465],[127.07989,37.46469],[127.07988,37.46472],[127.07985,37.46478],[127.07976,37.46488],[127.07972,37.46491],[127.07969,37.46492],[127.07965,37.46491],[127.07959,37.46488],[127.07957,37.46485],[127.07956,37.46482],[127.07958,37.4648],[127.07972,37.46463],[127.07986,37.46446],[127.07993,37.46442],[127.07998,37.46441],[127.08004,37.46443],[127.08007,37.46445],[127.08011,37.46445]]}},{"type":"Feature","properties":{"class":"alley","highway":"service","sidewalk":"unknown","lanes":0,"name":"","oneway":false},"geometry":{"type":"LineString","coordinates":[[127.08052,37.46387],[127.0805,37.46404],[127.08047,37.46414],[127.08029,37.46439],[127.08024,37.46442],[127.0802,37.46443],[127.08012,37.46444],[127.08011,37.46445]]}},{"type":"Feature","properties":{"class":"minor","highway":"unclassified","sidewalk":"unknown","lanes":0,"name":"","oneway":true},"geometry":{"type":"LineString","coordinates":[[127.08236,37.46091],[127.08211,37.46094],[127.08207,37.46094],[127.08205,37.46097],[127.08202,37.46099],[127.08198,37.46103],[127.08191,37.46117]]}},{"type":"Feature","properties":{"class":"minor","highway":"unclassified","sidewalk":"unknown","lanes":0,"name":"","oneway":true},"geometry":{"type":"LineString","coordinates":[[127.08191,37.46117],[127.08184,37.46103],[127.08181,37.46096],[127.08172,37.46087],[127.08166,37.46078],[127.08157,37.46066]]}},{"type":"Feature","properties":{"class":"alley","highway":"service","sidewalk":"unknown","lanes":0,"name":"","oneway":false},"geometry":{"type":"LineString","coordinates":[[127.08009,37.46391],[127.08009,37.46387],[127.08007,37.46365],[127.0801,37.46357],[127.08012,37.46351],[127.08016,37.46346],[127.08021,37.46342],[127.08026,37.4634],[127.08027,37.4634],[127.08032,37.46339],[127.08037,37.46339],[127.08042,37.46341],[127.08045,37.46342],[127.08047,37.46345],[127.08049,37.46347],[127.08049,37.4635],[127.08049,37.46353],[127.08048,37.46355],[127.08047,37.46358],[127.08045,37.4636],[127.08042,37.46362],[127.08038,37.46362],[127.08035,37.46362],[127.08031,37.46362],[127.08027,37.46361],[127.08025,37.46359],[127.08022,37.46358],[127.0802,37.46356],[127.08017,37.46356],[127.08015,37.46355],[127.08012,37.46356],[127.0801,37.46357]]}},{"type":"Feature","properties":{"class":"alley","highway":"service","sidewalk":"unknown","lanes":0,"name":"","oneway":false},"geometry":{"type":"LineString","coordinates":[[127.08027,37.4634],[127.08028,37.46337],[127.08029,37.46334],[127.08041,37.46322]]}},{"type":"Feature","properties":{"class":"alley","highway":"service","sidewalk":"unknown","lanes":0,"name":"","oneway":false},"geometry":{"type":"LineString","coordinates":[[127.08026,37.46267],[127.08022,37.46268],[127.08019,37.46269],[127.08015,37.46269],[127.08012,37.46269],[127.08009,37.46268],[127.08005,37.46267],[127.0799,37.46254],[127.07972,37.46243]]}},{"type":"Feature","properties":{"class":"alley","highway":"service","sidewalk":"unknown","lanes":0,"name":"","oneway":false},"geometry":{"type":"LineString","coordinates":[[127.07524,37.47745],[127.07529,37.47755],[127.0753,37.47767],[127.07539,37.47782],[127.07546,37.47789],[127.07559,37.47786],[127.07571,37.47784],[127.07582,37.47788],[127.07589,37.47795],[127.07594,37.47809],[127.07616,37.47832],[127.07627,37.47851],[127.07632,37.47864],[127.07641,37.47872],[127.07689,37.47895],[127.07712,37.47913],[127.07751,37.47935],[127.07752,37.47935],[127.07766,37.4794],[127.07779,37.47944],[127.07793,37.47945],[127.07804,37.47947],[127.07815,37.4795],[127.07826,37.47949],[127.07838,37.4795],[127.07846,37.47942],[127.07858,37.47941],[127.07872,37.4794],[127.07878,37.4794],[127.07885,37.47942],[127.07889,37.47944],[127.07893,37.47945],[127.07904,37.47942],[127.07917,37.47946],[127.07928,37.47946],[127.07941,37.47949],[127.07952,37.47955],[127.07964,37.47957],[127.07974,37.47952],[127.07976,37.47945],[127.07988,37.47945],[127.08,37.47951],[127.08012,37.47957],[127.08025,37.47961],[127.08041,37.47969],[127.08047,37.47969],[127.08056,37.47981],[127.08061,37.4799],[127.08067,37.47999],[127.08071,37.48009],[127.08074,37.48018],[127.08079,37.4803],[127.08089,37.48041],[127.08101,37.48043],[127.08102,37.48056],[127.08101,37.48099]]}},{"type":"Feature","properties":{"class":"major","highway":"trunk_link","sidewalk":"likely","lanes":0,"name":"","oneway":true},"geometry":{"type":"LineString","coordinates":[[127.08135,37.45933],[127.08144,37.45939],[127.08151,37.45944],[127.08155,37.45948],[127.0816,37.45954],[127.08164,37.4596],[127.08166,37.45965],[127.08168,37.45971],[127.0817,37.45976],[127.08171,37.45981],[127.08172,37.45987],[127.08175,37.46018],[127.08177,37.46023],[127.08179,37.46028],[127.08182,37.46033],[127.08184,37.46036],[127.08187,37.4604],[127.08189,37.46042],[127.08194,37.46047],[127.08229,37.46073]]}},{"type":"Feature","properties":{"class":"major","highway":"trunk_link","sidewalk":"likely","lanes":0,"name":"","oneway":true},"geometry":{"type":"LineString","coordinates":[[127.08086,37.46024],[127.08122,37.46024],[127.08132,37.46024],[127.08136,37.46023],[127.08141,37.46021],[127.08145,37.4602],[127.08148,37.46018],[127.08152,37.46015],[127.08156,37.46011],[127.08158,37.46006],[127.0816,37.46003],[127.08161,37.45999],[127.08161,37.45995],[127.08162,37.45992],[127.08162,37.45988],[127.08161,37.45985],[127.08161,37.45981],[127.08161,37.45978],[127.0816,37.45974],[127.08158,37.4597],[127.08156,37.45966],[127.08154,37.45963],[127.08152,37.45959],[127.08149,37.45956],[127.08146,37.45952],[127.0814,37.45947],[127.08135,37.45943],[127.08131,37.45941]]}},{"type":"Feature","properties":{"class":"major","highway":"motorway_link","sidewalk":"likely","lanes":0,"name":"","oneway":true},"geometry":{"type":"LineString","coordinates":[[127.08676,37.46222],[127.08684,37.46224],[127.08691,37.46225],[127.08699,37.46226],[127.08707,37.46226],[127.08715,37.46227],[127.08722,37.46226],[127.08729,37.46226],[127.08735,37.46225],[127.08743,37.46224],[127.08748,37.46223],[127.08756,37.46221],[127.08764,37.46218],[127.08777,37.46212],[127.088,37.46201],[127.08811,37.46196],[127.0882,37.46193],[127.08828,37.4619],[127.08836,37.46187],[127.08844,37.46186],[127.08852,37.46184],[127.08862,37.46182],[127.08871,37.46182],[127.08882,37.46181],[127.0889,37.46182],[127.08897,37.46182],[127.08906,37.46184],[127.08913,37.46186],[127.0892,37.46188],[127.08927,37.46191],[127.08933,37.46193],[127.08939,37.46196],[127.08946,37.462],[127.08953,37.46205],[127.08959,37.4621],[127.08964,37.46215],[127.08969,37.4622],[127.08973,37.46226],[127.08975,37.46231],[127.08978,37.46235],[127.08979,37.4624],[127.08981,37.46246],[127.08982,37.46251],[127.08983,37.46256],[127.08983,37.46262],[127.08984,37.46269],[127.08985,37.463]]}},{"type":"Feature","properties":{"class":"major","highway":"motorway_link","sidewalk":"likely","lanes":0,"name":"","oneway":true},"geometry":{"type":"LineString","coordinates":[[127.08979,37.46299],[127.08978,37.46277],[127.08977,37.46265],[127.08975,37.46256],[127.08974,37.46248],[127.08971,37.4624],[127.08969,37.46234],[127.08966,37.46228],[127.08963,37.46223],[127.08959,37.46218],[127.08955,37.46213],[127.08947,37.46208],[127.08942,37.46204],[127.08937,37.46201],[127.08933,37.46199],[127.08928,37.46196],[127.08922,37.46194],[127.08917,37.46192],[127.08912,37.46191],[127.08906,37.46189],[127.08902,37.46188],[127.08896,37.46187],[127.08891,37.46187],[127.08886,37.46186],[127.0888,37.46186],[127.08874,37.46186],[127.08869,37.46187],[127.08863,37.46188],[127.08859,37.46189],[127.08853,37.4619],[127.08848,37.46192],[127.08844,37.46194],[127.0884,37.46197],[127.08836,37.46199],[127.08832,37.46203],[127.08828,37.46207],[127.08825,37.46212],[127.08823,37.46216],[127.08821,37.4622],[127.0882,37.46225],[127.08819,37.46229],[127.0882,37.46232],[127.0882,37.46236],[127.08821,37.4624],[127.08822,37.46244],[127.08823,37.46248],[127.08825,37.46251],[127.08827,37.46254],[127.08829,37.46258],[127.08832,37.46261],[127.08835,37.46264],[127.08839,37.46267],[127.08843,37.46269],[127.08893,37.46298]]}},{"type":"Feature","properties":{"class":"major","highway":"motorway_link","sidewalk":"likely","lanes":0,"name":"","oneway":true},"geometry":{"type":"LineString","coordinates":[[127.08912,37.46375],[127.08886,37.46351],[127.08876,37.46342],[127.08866,37.46335],[127.08857,37.46328],[127.08846,37.4632],[127.08825,37.46306],[127.08808,37.46297],[127.08798,37.46291],[127.08789,37.46286],[127.0869,37.46238]]}},{"type":"Feature","properties":{"class":"major","highway":"motorway_link","sidewalk":"likely","lanes":0,"name":"","oneway":true},"geometry":{"type":"LineString","coordinates":[[127.0899,37.46394],[127.08993,37.46468],[127.08994,37.46475],[127.08995,37.46481],[127.08996,37.46487],[127.08998,37.46492],[127.09,37.46498],[127.09003,37.46504],[127.09007,37.4651],[127.09012,37.46517],[127.09018,37.46523],[127.09023,37.46529],[127.09029,37.46534],[127.09038,37.46541]]}},{"type":"Feature","properties":{"class":"major","highway":"motorway","sidewalk":"likely","lanes":0,"name":"","oneway":true},"geometry":{"type":"LineString","coordinates":[[127.09038,37.46541],[127.09042,37.46544],[127.09047,37.46547],[127.09055,37.46552],[127.09066,37.46556],[127.09078,37.4656],[127.0909,37.46563],[127.09104,37.46565],[127.0912,37.46566],[127.09133,37.46565],[127.09146,37.46564],[127.0916,37.46561],[127.09173,37.46557],[127.09185,37.46552],[127.09196,37.46547],[127.09206,37.46541],[127.09217,37.46533],[127.09231,37.4652],[127.09241,37.46506],[127.0925,37.46489],[127.09258,37.46467]]}},{"type":"Feature","properties":{"class":"major","highway":"motorway_link","sidewalk":"likely","lanes":0,"name":"","oneway":true},"geometry":{"type":"LineString","coordinates":[[127.09097,37.46406],[127.09089,37.46408],[127.09081,37.46412],[127.09073,37.46416],[127.09066,37.4642],[127.0906,37.46424],[127.09053,37.46428],[127.09048,37.46433],[127.09039,37.46443],[127.09029,37.46455],[127.09025,37.46461],[127.09021,37.46468],[127.0902,37.46474],[127.09018,37.46479],[127.09018,37.46484],[127.09017,37.46488],[127.09017,37.46492],[127.09017,37.46497],[127.09017,37.46502],[127.09018,37.46506],[127.09019,37.46511],[127.09021,37.46515],[127.09023,37.46519],[127.09025,37.46523],[127.09028,37.46527],[127.0903,37.46531],[127.09033,37.46536],[127.09038,37.46541]]}},{"type":"Feature","properties":{"class":"major","highway":"motorway_link","sidewalk":"likely","lanes":0,"name":"헌릉IC3교","oneway":true},"geometry":{"type":"LineString","coordinates":[[127.09145,37.46401],[127.09136,37.464],[127.09128,37.46401],[127.0912,37.46401],[127.09113,37.46402],[127.09107,37.46403],[127.09097,37.46406]]}},{"type":"Feature","properties":{"class":"major","highway":"motorway_link","sidewalk":"likely","lanes":0,"name":"","oneway":true},"geometry":{"type":"LineString","coordinates":[[127.09024,37.46543],[127.09013,37.4653],[127.09004,37.46518],[127.09,37.4651],[127.08996,37.46502],[127.08993,37.46493],[127.0899,37.46484],[127.08988,37.46468],[127.08984,37.46393]]}},{"type":"Feature","properties":{"class":"major","highway":"motorway","sidewalk":"likely","lanes":0,"name":"","oneway":true},"geometry":{"type":"LineString","coordinates":[[127.0929,37.46478],[127.09282,37.46497],[127.09277,37.46505],[127.09272,37.46513],[127.09264,37.46522],[127.09256,37.4653],[127.09248,37.46538],[127.09241,37.46543],[127.09232,37.46549],[127.09222,37.46555],[127.09211,37.4656],[127.092,37.46565],[127.09188,37.46569],[127.09178,37.46571],[127.09164,37.46574],[127.0915,37.46576],[127.09136,37.46577],[127.09123,37.46577],[127.09111,37.46577],[127.09097,37.46575],[127.09084,37.46573],[127.09071,37.46569],[127.09058,37.46564],[127.09047,37.4656],[127.09036,37.46553],[127.09024,37.46543]]}},{"type":"Feature","properties":{"class":"alley","highway":"service","sidewalk":"unknown","lanes":0,"name":"","oneway":false},"geometry":{"type":"LineString","coordinates":[[127.09083,37.47181],[127.09081,37.47168]]}},{"type":"Feature","properties":{"class":"alley","highway":"service","sidewalk":"unknown","lanes":0,"name":"","oneway":false},"geometry":{"type":"LineString","coordinates":[[127.09099,37.47172],[127.09081,37.47168],[127.09006,37.47148],[127.09001,37.47143],[127.08999,37.47138],[127.08998,37.47132],[127.08998,37.47101]]}},{"type":"Feature","properties":{"class":"alley","highway":"service","sidewalk":"unknown","lanes":0,"name":"","oneway":false},"geometry":{"type":"LineString","coordinates":[[127.08982,37.47051],[127.08996,37.4705]]}},{"type":"Feature","properties":{"class":"alley","highway":"service","sidewalk":"unknown","lanes":0,"name":"","oneway":false},"geometry":{"type":"LineString","coordinates":[[127.08996,37.4705],[127.09001,37.47053],[127.09011,37.47058],[127.09199,37.47104],[127.09204,37.47108],[127.09206,37.47114],[127.09166,37.47142],[127.08998,37.47101]]}},{"type":"Feature","properties":{"class":"alley","highway":"service","sidewalk":"unknown","lanes":0,"name":"","oneway":false},"geometry":{"type":"LineString","coordinates":[[127.09001,37.47053],[127.09004,37.47045],[127.09002,37.4704],[127.08997,37.4703],[127.08997,37.4702],[127.08999,37.47011],[127.09001,37.47008],[127.09008,37.46997],[127.09025,37.46987],[127.09038,37.46983],[127.09049,37.46982],[127.09065,37.46982],[127.09152,37.47004],[127.09167,37.47045],[127.09165,37.47051]]}},{"type":"Feature","properties":{"class":"alley","highway":"service","sidewalk":"unknown","lanes":0,"name":"","oneway":false},"geometry":{"type":"LineString","coordinates":[[127.08999,37.47011],[127.09165,37.47051]]}},{"type":"Feature","properties":{"class":"alley","highway":"service","sidewalk":"unknown","lanes":0,"name":"","oneway":false},"geometry":{"type":"LineString","coordinates":[[127.09211,37.47239],[127.09167,37.47205]]}},{"type":"Feature","properties":{"class":"alley","highway":"service","sidewalk":"unknown","lanes":0,"name":"","oneway":false},"geometry":{"type":"LineString","coordinates":[[127.09167,37.47205],[127.09144,37.47188],[127.09141,37.47182],[127.09138,37.47175]]}},{"type":"Feature","properties":{"class":"alley","highway":"service","sidewalk":"unknown","lanes":0,"name":"","oneway":false},"geometry":{"type":"LineString","coordinates":[[127.09167,37.47205],[127.09192,37.47183]]}},{"type":"Feature","properties":{"class":"alley","highway":"service","sidewalk":"unknown","lanes":0,"name":"","oneway":false},"geometry":{"type":"LineString","coordinates":[[127.09083,37.47181],[127.09084,37.47193],[127.09085,37.47201]]}},{"type":"Feature","properties":{"class":"alley","highway":"service","sidewalk":"unknown","lanes":0,"name":"","oneway":false},"geometry":{"type":"LineString","coordinates":[[127.09085,37.47201],[127.09086,37.47208]]}},{"type":"Feature","properties":{"class":"alley","highway":"service","sidewalk":"unknown","lanes":0,"name":"","oneway":false},"geometry":{"type":"LineString","coordinates":[[127.09085,37.47201],[127.09076,37.47202],[127.09069,37.47201],[127.09058,37.47195],[127.09052,37.47192],[127.0903,37.47192],[127.09024,37.47194],[127.09018,37.47199],[127.09017,37.47204],[127.09016,37.47224],[127.09016,37.47251],[127.09015,37.4727],[127.09067,37.47292],[127.09081,37.47299]]}},{"type":"Feature","properties":{"class":"alley","highway":"service","sidewalk":"unknown","lanes":0,"name":"","oneway":false},"geometry":{"type":"LineString","coordinates":[[127.09118,37.47337],[127.09068,37.47319],[127.09081,37.47299]]}},{"type":"Feature","properties":{"class":"alley","highway":"service","sidewalk":"unknown","lanes":0,"name":"","oneway":false},"geometry":{"type":"LineString","coordinates":[[127.09016,37.47251],[127.09018,37.47254],[127.09021,37.47255]]}},{"type":"Feature","properties":{"class":"alley","highway":"service","sidewalk":"unknown","lanes":0,"name":"","oneway":false},"geometry":{"type":"LineString","coordinates":[[127.09084,37.47193],[127.09107,37.47192],[127.09119,37.47194],[127.09144,37.47206]]}},{"type":"Feature","properties":{"class":"alley","highway":"service","sidewalk":"unknown","lanes":0,"name":"","oneway":false},"geometry":{"type":"LineString","coordinates":[[127.09081,37.47299],[127.09086,37.47291],[127.09139,37.47316],[127.09154,37.47323],[127.09161,37.47325],[127.09166,37.47324],[127.09171,37.47321],[127.09175,37.47316],[127.09178,37.47309],[127.0918,37.47306],[127.09189,37.47279],[127.09199,37.47254],[127.09193,37.47251]]}},{"type":"Feature","properties":{"class":"alley","highway":"service","sidewalk":"unknown","lanes":0,"name":"","oneway":false},"geometry":{"type":"LineString","coordinates":[[127.09067,37.47292],[127.09081,37.47273],[127.09067,37.47266]]}},{"type":"Feature","properties":{"class":"alley","highway":"service","sidewalk":"unknown","lanes":0,"name":"","oneway":false},"geometry":{"type":"LineString","coordinates":[[127.09016,37.47224],[127.09026,37.4723],[127.09074,37.47251]]}},{"type":"Feature","properties":{"class":"alley","highway":"service","sidewalk":"unknown","lanes":0,"name":"","oneway":false},"geometry":{"type":"LineString","coordinates":[[127.09139,37.47316],[127.0913,37.47328]]}},{"type":"Feature","properties":{"class":"alley","highway":"service","sidewalk":"unknown","lanes":0,"name":"","oneway":false},"geometry":{"type":"LineString","coordinates":[[127.09178,37.47309],[127.09169,37.47304],[127.09176,37.47294]]}},{"type":"Feature","properties":{"class":"alley","highway":"service","sidewalk":"unknown","lanes":0,"name":"","oneway":false},"geometry":{"type":"LineString","coordinates":[[127.09189,37.47279],[127.09147,37.47259],[127.0917,37.47228]]}},{"type":"Feature","properties":{"class":"alley","highway":"service","sidewalk":"unknown","lanes":0,"name":"","oneway":false},"geometry":{"type":"LineString","coordinates":[[127.09147,37.47259],[127.09118,37.47247],[127.09124,37.4724],[127.09085,37.47223]]}},{"type":"Feature","properties":{"class":"alley","highway":"service","sidewalk":"unknown","lanes":0,"name":"","oneway":false},"geometry":{"type":"LineString","coordinates":[[127.08896,37.47073],[127.08906,37.47082]]}},{"type":"Feature","properties":{"class":"alley","highway":"service","sidewalk":"unknown","lanes":0,"name":"","oneway":false},"geometry":{"type":"LineString","coordinates":[[127.08941,37.47061],[127.08936,37.4705]]}},{"type":"Feature","properties":{"class":"alley","highway":"service","sidewalk":"unknown","lanes":0,"name":"","oneway":false},"geometry":{"type":"LineString","coordinates":[[127.08779,37.47052],[127.08775,37.47062]]}},{"type":"Feature","properties":{"class":"alley","highway":"service","sidewalk":"unknown","lanes":0,"name":"","oneway":false},"geometry":{"type":"LineString","coordinates":[[127.08806,37.47138],[127.08846,37.47148],[127.0885,37.47149],[127.08894,37.4716],[127.08912,37.472]]}},{"type":"Feature","properties":{"class":"alley","highway":"service","sidewalk":"unknown","lanes":0,"name":"","oneway":false},"geometry":{"type":"LineString","coordinates":[[127.08912,37.472],[127.08893,37.47205],[127.0889,37.47206],[127.08889,37.47207],[127.08886,37.47209],[127.08886,37.47212]]}},{"type":"Feature","properties":{"class":"alley","highway":"service","sidewalk":"unknown","lanes":0,"name":"","oneway":false},"geometry":{"type":"LineString","coordinates":[[127.0885,37.47149],[127.08844,37.47156]]}},{"type":"Feature","properties":{"class":"alley","highway":"service","sidewalk":"unknown","lanes":0,"name":"","oneway":false},"geometry":{"type":"LineString","coordinates":[[127.08885,37.47186],[127.08857,37.47181]]}},{"type":"Feature","properties":{"class":"alley","highway":"service","sidewalk":"unknown","lanes":0,"name":"","oneway":false},"geometry":{"type":"LineString","coordinates":[[127.08857,37.47181],[127.08856,37.47187],[127.08815,37.47196],[127.08766,37.47168],[127.08766,37.47153]]}},{"type":"Feature","properties":{"class":"alley","highway":"service","sidewalk":"unknown","lanes":0,"name":"","oneway":false},"geometry":{"type":"LineString","coordinates":[[127.08857,37.47181],[127.08855,37.47174],[127.08838,37.47171],[127.08766,37.47153]]}},{"type":"Feature","properties":{"class":"alley","highway":"service","sidewalk":"unknown","lanes":0,"name":"","oneway":false},"geometry":{"type":"LineString","coordinates":[[127.08766,37.47153],[127.08755,37.47133],[127.08754,37.47126]]}},{"type":"Feature","properties":{"class":"alley","highway":"service","sidewalk":"unknown","lanes":0,"name":"","oneway":false},"geometry":{"type":"LineString","coordinates":[[127.0876,37.47102],[127.08746,37.47097],[127.08744,37.47094],[127.08744,37.47091],[127.08762,37.47072]]}},{"type":"Feature","properties":{"class":"alley","highway":"service","sidewalk":"unknown","lanes":0,"name":"","oneway":false},"geometry":{"type":"LineString","coordinates":[[127.0876,37.47102],[127.08773,37.47106]]}},{"type":"Feature","properties":{"class":"alley","highway":"service","sidewalk":"unknown","lanes":0,"name":"","oneway":false},"geometry":{"type":"LineString","coordinates":[[127.08901,37.47227],[127.08907,37.47242],[127.08945,37.47259],[127.08974,37.47255],[127.08981,37.47249],[127.08982,37.4722],[127.08951,37.47212],[127.08901,37.47227]]}},{"type":"Feature","properties":{"class":"alley","highway":"service","sidewalk":"unknown","lanes":0,"name":"","oneway":false},"geometry":{"type":"LineString","coordinates":[[127.08981,37.47249],[127.09006,37.47252]]}},{"type":"Feature","properties":{"class":"alley","highway":"service","sidewalk":"unknown","lanes":0,"name":"","oneway":false},"geometry":{"type":"LineString","coordinates":[[127.08907,37.47242],[127.08892,37.47235]]}},{"type":"Feature","properties":{"class":"alley","highway":"service","sidewalk":"unknown","lanes":0,"name":"","oneway":false},"geometry":{"type":"LineString","coordinates":[[127.08754,37.47126],[127.08754,37.47119],[127.0876,37.47102]]}},{"type":"Feature","properties":{"class":"alley","highway":"service","sidewalk":"unknown","lanes":0,"name":"","oneway":false},"geometry":{"type":"LineString","coordinates":[[127.08893,37.47205],[127.08885,37.47186]]}},{"type":"Feature","properties":{"class":"alley","highway":"service","sidewalk":"unknown","lanes":0,"name":"","oneway":false},"geometry":{"type":"LineString","coordinates":[[127.08789,37.4703],[127.08818,37.4703]]}},{"type":"Feature","properties":{"class":"alley","highway":"service","sidewalk":"unknown","lanes":0,"name":"","oneway":false},"geometry":{"type":"LineString","coordinates":[[127.08939,37.47012],[127.08938,37.47033],[127.08892,37.47044],[127.08882,37.47047],[127.08853,37.47045],[127.08818,37.47036],[127.08818,37.4703],[127.08818,37.47028],[127.08877,37.47015]]}},{"type":"Feature","properties":{"class":"alley","highway":"service","sidewalk":"unknown","lanes":0,"name":"","oneway":false},"geometry":{"type":"LineString","coordinates":[[127.08892,37.47044],[127.08877,37.47015]]}},{"type":"Feature","properties":{"class":"alley","highway":"service","sidewalk":"unknown","lanes":0,"name":"","oneway":false},"geometry":{"type":"LineString","coordinates":[[127.08877,37.47015],[127.08862,37.46987]]}},{"type":"Feature","properties":{"class":"alley","highway":"service","sidewalk":"unknown","lanes":0,"name":"","oneway":false},"geometry":{"type":"LineString","coordinates":[[127.0885,37.47149],[127.08853,37.47142],[127.08859,37.47126]]}},{"type":"Feature","properties":{"class":"alley","highway":"service","sidewalk":"unknown","lanes":0,"name":"","oneway":false},"geometry":{"type":"LineString","coordinates":[[127.08888,37.47133],[127.08859,37.47126],[127.08834,37.47118],[127.08833,37.47115],[127.08834,37.47101],[127.08837,37.47097],[127.08846,37.47093],[127.08902,37.47094],[127.08905,37.47094],[127.08906,37.47094],[127.08938,37.47103],[127.0894,37.47105],[127.08935,37.4712],[127.08906,37.47128],[127.08888,37.47133]]}},{"type":"Feature","properties":{"class":"alley","highway":"service","sidewalk":"unknown","lanes":0,"name":"","oneway":false},"geometry":{"type":"LineString","coordinates":[[127.08906,37.47128],[127.08901,37.47116],[127.08902,37.47094]]}},{"type":"Feature","properties":{"class":"alley","highway":"service","sidewalk":"unknown","lanes":0,"name":"","oneway":false},"geometry":{"type":"LineString","coordinates":[[127.09462,37.47205],[127.09459,37.47211],[127.0945,37.47228]]}},{"type":"Feature","properties":{"class":"alley","highway":"service","sidewalk":"unknown","lanes":0,"name":"","oneway":false},"geometry":{"type":"LineString","coordinates":[[127.0945,37.47228],[127.09463,37.47232],[127.09472,37.47234],[127.09479,37.47236],[127.09535,37.47248],[127.09558,37.47252],[127.096,37.47257]]}},{"type":"Feature","properties":{"class":"alley","highway":"service","sidewalk":"unknown","lanes":0,"name":"","oneway":false},"geometry":{"type":"LineString","coordinates":[[127.0945,37.47228],[127.09442,37.47243]]}},{"type":"Feature","properties":{"class":"alley","highway":"service","sidewalk":"unknown","lanes":0,"name":"","oneway":false},"geometry":{"type":"LineString","coordinates":[[127.09472,37.47234],[127.09494,37.47267],[127.09514,37.47293]]}},{"type":"Feature","properties":{"class":"alley","highway":"service","sidewalk":"unknown","lanes":0,"name":"","oneway":false},"geometry":{"type":"LineString","coordinates":[[127.09494,37.47267],[127.09464,37.4728],[127.0946,37.47282],[127.09479,37.47308],[127.09501,37.4734]]}},{"type":"Feature","properties":{"class":"alley","highway":"service","sidewalk":"unknown","lanes":0,"name":"","oneway":false},"geometry":{"type":"LineString","coordinates":[[127.09464,37.4728],[127.09448,37.4726]]}},{"type":"Feature","properties":{"class":"alley","highway":"service","sidewalk":"unknown","lanes":0,"name":"","oneway":false},"geometry":{"type":"LineString","coordinates":[[127.09514,37.47293],[127.09479,37.47308]]}},{"type":"Feature","properties":{"class":"alley","highway":"service","sidewalk":"unknown","lanes":0,"name":"","oneway":false},"geometry":{"type":"LineString","coordinates":[[127.09514,37.47293],[127.09519,37.47294]]}},{"type":"Feature","properties":{"class":"alley","highway":"service","sidewalk":"unknown","lanes":0,"name":"","oneway":false},"geometry":{"type":"LineString","coordinates":[[127.09519,37.47294],[127.0954,37.47285],[127.09542,37.47278],[127.09541,37.47274],[127.09531,37.47261]]}},{"type":"Feature","properties":{"class":"alley","highway":"service","sidewalk":"unknown","lanes":0,"name":"","oneway":false},"geometry":{"type":"LineString","coordinates":[[127.09519,37.47294],[127.09526,37.47302],[127.09532,37.47308]]}},{"type":"Feature","properties":{"class":"alley","highway":"service","sidewalk":"unknown","lanes":0,"name":"","oneway":false},"geometry":{"type":"LineString","coordinates":[[127.09423,37.47318],[127.09444,37.47347],[127.09456,37.47362]]}},{"type":"Feature","properties":{"class":"alley","highway":"service","sidewalk":"unknown","lanes":0,"name":"","oneway":false},"geometry":{"type":"LineString","coordinates":[[127.09567,37.4731],[127.09557,37.47315]]}},{"type":"Feature","properties":{"class":"alley","highway":"service","sidewalk":"unknown","lanes":0,"name":"","oneway":false},"geometry":{"type":"LineString","coordinates":[[127.09501,37.4734],[127.09503,37.47323]]}},{"type":"Feature","properties":{"class":"alley","highway":"service","sidewalk":"unknown","lanes":0,"name":"","oneway":false},"geometry":{"type":"LineString","coordinates":[[127.09444,37.47347],[127.09462,37.47338],[127.09441,37.4731],[127.09423,37.47318]]}},{"type":"Feature","properties":{"class":"alley","highway":"service","sidewalk":"unknown","lanes":0,"name":"","oneway":false},"geometry":{"type":"LineString","coordinates":[[127.09475,37.47387],[127.09489,37.47381],[127.09495,37.47378]]}},{"type":"Feature","properties":{"class":"alley","highway":"service","sidewalk":"unknown","lanes":0,"name":"","oneway":false},"geometry":{"type":"LineString","coordinates":[[127.095,37.47422],[127.09519,37.47413],[127.095,37.47386],[127.09495,37.47378],[127.09489,37.4737]]}},{"type":"Feature","properties":{"class":"alley","highway":"service","sidewalk":"unknown","lanes":0,"name":"","oneway":false},"geometry":{"type":"LineString","coordinates":[[127.09447,37.47439],[127.09472,37.4743]]}},{"type":"Feature","properties":{"class":"alley","highway":"service","sidewalk":"unknown","lanes":0,"name":"","oneway":false},"geometry":{"type":"LineString","coordinates":[[127.09477,37.47436],[127.09472,37.4743],[127.09447,37.47397],[127.09424,37.47406]]}},{"type":"Feature","properties":{"class":"alley","highway":"service","sidewalk":"unknown","lanes":0,"name":"","oneway":false},"geometry":{"type":"LineString","coordinates":[[127.09409,37.47384],[127.09402,37.47375],[127.09386,37.47355]]}},{"type":"Feature","properties":{"class":"alley","highway":"service","sidewalk":"unknown","lanes":0,"name":"","oneway":false},"geometry":{"type":"LineString","coordinates":[[127.09402,37.47375],[127.09421,37.47366],[127.09405,37.47346],[127.09386,37.47355]]}},{"type":"Feature","properties":{"class":"alley","highway":"service","sidewalk":"unknown","lanes":0,"name":"","oneway":false},"geometry":{"type":"LineString","coordinates":[[127.09386,37.47355],[127.09381,37.47358],[127.09371,37.47345]]}},{"type":"Feature","properties":{"class":"alley","highway":"service","sidewalk":"unknown","lanes":0,"name":"","oneway":false},"geometry":{"type":"LineString","coordinates":[[127.09361,37.47407],[127.09352,37.47394],[127.09339,37.47374]]}},{"type":"Feature","properties":{"class":"alley","highway":"service","sidewalk":"unknown","lanes":0,"name":"","oneway":false},"geometry":{"type":"LineString","coordinates":[[127.09338,37.474],[127.09345,37.47397],[127.09352,37.47394],[127.0937,37.47387]]}},{"type":"Feature","properties":{"class":"alley","highway":"service","sidewalk":"unknown","lanes":0,"name":"","oneway":false},"geometry":{"type":"LineString","coordinates":[[127.0937,37.47387],[127.09355,37.47368],[127.09339,37.47374],[127.09325,37.4738]]}},{"type":"Feature","properties":{"class":"alley","highway":"service","sidewalk":"unknown","lanes":0,"name":"","oneway":false},"geometry":{"type":"LineString","coordinates":[[127.09338,37.474],[127.09325,37.4738],[127.09316,37.47365]]}},{"type":"Feature","properties":{"class":"alley","highway":"service","sidewalk":"unknown","lanes":0,"name":"","oneway":false},"geometry":{"type":"LineString","coordinates":[[127.0938,37.47433],[127.09401,37.47423],[127.09436,37.47468],[127.09443,37.47477]]}},{"type":"Feature","properties":{"class":"alley","highway":"service","sidewalk":"unknown","lanes":0,"name":"","oneway":false},"geometry":{"type":"LineString","coordinates":[[127.09436,37.47468],[127.09413,37.47477]]}},{"type":"Feature","properties":{"class":"alley","highway":"service","sidewalk":"unknown","lanes":0,"name":"","oneway":false},"geometry":{"type":"LineString","coordinates":[[127.09429,37.475],[127.09453,37.4749]]}},{"type":"Feature","properties":{"class":"alley","highway":"service","sidewalk":"unknown","lanes":0,"name":"","oneway":false},"geometry":{"type":"LineString","coordinates":[[127.09306,37.47446],[127.09279,37.47409],[127.09269,37.47396]]}},{"type":"Feature","properties":{"class":"alley","highway":"service","sidewalk":"unknown","lanes":0,"name":"","oneway":false},"geometry":{"type":"LineString","coordinates":[[127.09301,37.47399],[127.09295,37.47402],[127.09279,37.47409],[127.09276,37.47409]]}},{"type":"Feature","properties":{"class":"alley","highway":"service","sidewalk":"unknown","lanes":0,"name":"","oneway":false},"geometry":{"type":"LineString","coordinates":[[127.09314,37.47426],[127.09295,37.47402]]}},{"type":"Feature","properties":{"class":"alley","highway":"service","sidewalk":"unknown","lanes":0,"name":"","oneway":false},"geometry":{"type":"LineString","coordinates":[[127.09253,37.47425],[127.09235,37.47435]]}},{"type":"Feature","properties":{"class":"alley","highway":"service","sidewalk":"unknown","lanes":0,"name":"","oneway":false},"geometry":{"type":"LineString","coordinates":[[127.09266,37.47441],[127.09263,37.47442],[127.09246,37.4745]]}},{"type":"Feature","properties":{"class":"alley","highway":"service","sidewalk":"unknown","lanes":0,"name":"","oneway":false},"geometry":{"type":"LineString","coordinates":[[127.09266,37.47441],[127.09253,37.47425]]}},{"type":"Feature","properties":{"class":"alley","highway":"service","sidewalk":"unknown","lanes":0,"name":"","oneway":false},"geometry":{"type":"LineString","coordinates":[[127.0923,37.47429],[127.09235,37.47435],[127.09246,37.4745],[127.09265,37.47479],[127.09268,37.47483],[127.09285,37.47508],[127.09289,37.47514]]}},{"type":"Feature","properties":{"class":"alley","highway":"service","sidewalk":"unknown","lanes":0,"name":"","oneway":false},"geometry":{"type":"LineString","coordinates":[[127.09265,37.47479],[127.09287,37.47471],[127.09305,37.475]]}},{"type":"Feature","properties":{"class":"alley","highway":"service","sidewalk":"unknown","lanes":0,"name":"","oneway":false},"geometry":{"type":"LineString","coordinates":[[127.09285,37.47508],[127.09305,37.475],[127.09325,37.4749]]}},{"type":"Feature","properties":{"class":"alley","highway":"service","sidewalk":"unknown","lanes":0,"name":"","oneway":false},"geometry":{"type":"LineString","coordinates":[[127.09293,37.47598],[127.09276,37.47581]]}},{"type":"Feature","properties":{"class":"alley","highway":"service","sidewalk":"unknown","lanes":0,"name":"","oneway":false},"geometry":{"type":"LineString","coordinates":[[127.09314,37.47426],[127.09343,37.47467],[127.09372,37.47507],[127.09387,37.47529],[127.09415,37.47532],[127.09437,37.47538],[127.09453,37.47546]]}},{"type":"Feature","properties":{"class":"alley","highway":"service","sidewalk":"unknown","lanes":0,"name":"","oneway":false},"geometry":{"type":"LineString","coordinates":[[127.09372,37.47507],[127.09395,37.47496]]}},{"type":"Feature","properties":{"class":"alley","highway":"service","sidewalk":"unknown","lanes":0,"name":"","oneway":false},"geometry":{"type":"LineString","coordinates":[[127.09395,37.47496],[127.09365,37.47457],[127.09343,37.47467]]}},{"type":"Feature","properties":{"class":"alley","highway":"service","sidewalk":"unknown","lanes":0,"name":"","oneway":false},"geometry":{"type":"LineString","coordinates":[[127.09305,37.475],[127.09312,37.47512]]}},{"type":"Feature","properties":{"class":"alley","highway":"service","sidewalk":"unknown","lanes":0,"name":"","oneway":false},"geometry":{"type":"LineString","coordinates":[[127.09345,37.47518],[127.09323,37.47527]]}},{"type":"Feature","properties":{"class":"alley","highway":"service","sidewalk":"unknown","lanes":0,"name":"","oneway":false},"geometry":{"type":"LineString","coordinates":[[127.09567,37.4731],[127.09553,37.47291],[127.09549,37.47286]]}},{"type":"Feature","properties":{"class":"alley","highway":"service","sidewalk":"unknown","lanes":0,"name":"","oneway":false},"geometry":{"type":"LineString","coordinates":[[127.08762,37.47072],[127.08769,37.47049]]}},{"type":"Feature","properties":{"class":"minor","highway":"residential","sidewalk":"unknown","lanes":0,"name":"","oneway":false},"geometry":{"type":"LineString","coordinates":[[127.09445,37.46704],[127.09435,37.46701],[127.09355,37.4668]]}},{"type":"Feature","properties":{"class":"alley","highway":"service","sidewalk":"unknown","lanes":0,"name":"","oneway":false},"geometry":{"type":"LineString","coordinates":[[127.09158,37.46385],[127.09165,37.46374],[127.09166,37.46372],[127.09174,37.46353],[127.09177,37.46345]]}},{"type":"Feature","properties":{"class":"minor","highway":"unclassified","sidewalk":"unknown","lanes":0,"name":"","oneway":false},"geometry":{"type":"LineString","coordinates":[[127.09166,37.46372],[127.09178,37.46369],[127.09188,37.46364],[127.09199,37.46356],[127.09201,37.46353],[127.09203,37.4635],[127.09203,37.46336],[127.09199,37.46309]]}},{"type":"Feature","properties":{"class":"minor","highway":"unclassified","sidewalk":"unknown","lanes":0,"name":"","oneway":false},"geometry":{"type":"LineString","coordinates":[[127.09201,37.46353],[127.09216,37.46358],[127.09227,37.46364],[127.09246,37.46375],[127.0925,37.46378]]}},{"type":"Feature","properties":{"class":"alley","highway":"pedestrian","sidewalk":"unknown","lanes":0,"name":"","oneway":false},"geometry":{"type":"LineString","coordinates":[[127.09999,37.46595],[127.09973,37.46597],[127.09948,37.466],[127.09927,37.46606],[127.09915,37.46614],[127.09905,37.46617],[127.09895,37.46614],[127.09881,37.46609],[127.0987,37.46606],[127.09834,37.46604],[127.09785,37.46602],[127.09744,37.46597],[127.09674,37.46588],[127.09642,37.46582],[127.09591,37.46569],[127.09544,37.46553],[127.09543,37.46552],[127.095,37.46538],[127.09485,37.46533],[127.09447,37.46525],[127.09419,37.46516],[127.09362,37.46498],[127.09336,37.46488],[127.09326,37.46482],[127.09318,37.46478],[127.09312,37.46482]]}},{"type":"Feature","properties":{"class":"minor","highway":"unclassified","sidewalk":"unknown","lanes":0,"name":"","oneway":false},"geometry":{"type":"LineString","coordinates":[[127.092,37.46441],[127.09242,37.46455],[127.093,37.46474],[127.09307,37.46479],[127.09312,37.46482]]}},{"type":"Feature","properties":{"class":"major","highway":"secondary","sidewalk":"likely","lanes":0,"name":"자곡로","oneway":true},"geometry":{"type":"LineString","coordinates":[[127.09533,37.46509],[127.09536,37.4652],[127.09534,37.46523],[127.09533,37.46525]]}},{"type":"Feature","properties":{"class":"major","highway":"secondary","sidewalk":"likely","lanes":0,"name":"자곡로","oneway":true},"geometry":{"type":"LineString","coordinates":[[127.09345,37.47158],[127.09292,37.47135],[127.09261,37.47116],[127.0924,37.47101],[127.09224,37.47084],[127.09206,37.47062],[127.09196,37.47045],[127.0919,37.47033],[127.09184,37.47015],[127.09179,37.47001],[127.09173,37.46973],[127.09172,37.4696],[127.09173,37.46943],[127.09175,37.46929],[127.09181,37.46909],[127.09186,37.46894],[127.09195,37.46879],[127.09204,37.46866],[127.09218,37.46852],[127.09241,37.46833],[127.09255,37.46824],[127.0927,37.46816],[127.0929,37.46807],[127.0934,37.46788],[127.09368,37.46773],[127.09384,37.46762],[127.09396,37.46751],[127.0941,37.46737],[127.0942,37.46726],[127.09435,37.46701],[127.09485,37.466],[127.09511,37.46548]]}},{"type":"Feature","properties":{"class":"major","highway":"secondary","sidewalk":"likely","lanes":0,"name":"자곡로","oneway":true},"geometry":{"type":"LineString","coordinates":[[127.09511,37.46548],[127.09523,37.46522]]}},{"type":"Feature","properties":{"class":"major","highway":"secondary","sidewalk":"likely","lanes":0,"name":"자곡로","oneway":true},"geometry":{"type":"LineString","coordinates":[[127.09523,37.46522],[127.09524,37.4652],[127.09526,37.46516],[127.09533,37.46509]]}},{"type":"Feature","properties":{"class":"alley","highway":"service","sidewalk":"unknown","lanes":0,"name":"","oneway":false},"geometry":{"type":"LineString","coordinates":[[127.09336,37.46782],[127.0934,37.46788],[127.09344,37.46795],[127.09357,37.46817]]}},{"type":"Feature","properties":{"class":"major","highway":"secondary","sidewalk":"likely","lanes":0,"name":"자곡로","oneway":true},"geometry":{"type":"LineString","coordinates":[[127.10257,37.47366],[127.10225,37.47348],[127.10172,37.47322],[127.10148,37.47313],[127.10122,37.47305],[127.10092,37.47298],[127.10008,37.47287],[127.09796,37.4726],[127.09617,37.47237],[127.09514,37.47224],[127.09459,37.47211],[127.09431,37.472],[127.09398,37.47183]]}},{"type":"Feature","properties":{"class":"major","highway":"secondary","sidewalk":"likely","lanes":0,"name":"자곡로","oneway":true},"geometry":{"type":"LineString","coordinates":[[127.09398,37.47183],[127.09345,37.47158]]}},{"type":"Feature","properties":{"class":"alley","highway":"pedestrian","sidewalk":"unknown","lanes":0,"name":"","oneway":false},"geometry":{"type":"LineString","coordinates":[[127.10749,37.46247],[127.10728,37.46249],[127.10695,37.46252],[127.10565,37.46278],[127.10535,37.46284],[127.10519,37.46284],[127.10485,37.46283],[127.10448,37.46281],[127.10416,37.4628],[127.10363,37.46273],[127.10312,37.46267],[127.10275,37.46265],[127.10262,37.46266],[127.10253,37.46271],[127.10246,37.46276],[127.10209,37.46326],[127.10188,37.46364],[127.10158,37.46408],[127.10104,37.46495],[127.10103,37.46505],[127.10059,37.46565],[127.10047,37.46583],[127.10015,37.46588],[127.09999,37.46595]]}}]}