{"type":"FeatureCollection","features":[{"type":"Feature","properties":{"class":"major","highway":"secondary","sidewalk":"likely","lanes":0,"name":"남한산성로","oneway":false},"geometry":{"type":"LineString","coordinates":[[127.15516,37.46231],[127.15514,37.46242],[127.15516,37.46247],[127.15521,37.46259],[127.15527,37.46269],[127.15534,37.46278],[127.15546,37.46288],[127.15556,37.46295],[127.15573,37.46303],[127.15591,37.46311],[127.15623,37.46323],[127.15644,37.4633],[127.15656,37.46332],[127.15669,37.46334],[127.15712,37.46339],[127.15732,37.46344],[127.15752,37.46353],[127.1576,37.46356],[127.15856,37.46365],[127.15869,37.46369],[127.15879,37.46375],[127.15915,37.46413],[127.15931,37.46427],[127.15965,37.46439],[127.16012,37.46456],[127.16039,37.46462],[127.16088,37.46465],[127.16098,37.46464],[127.16108,37.46462],[127.16117,37.46456],[127.1615,37.46421],[127.16159,37.46414],[127.16167,37.46412],[127.16172,37.46412],[127.16178,37.46413],[127.16193,37.46422],[127.16196,37.46426],[127.16196,37.46429],[127.16196,37.46434],[127.16186,37.46446],[127.16168,37.46475],[127.16163,37.46487],[127.16159,37.46497],[127.16154,37.46516],[127.16151,37.46523],[127.16147,37.46527],[127.16143,37.46531],[127.16137,37.46534],[127.16123,37.46539],[127.16103,37.46544],[127.16085,37.46549],[127.16077,37.46554],[127.16072,37.46559],[127.16068,37.46567],[127.16068,37.46574],[127.16071,37.4658],[127.16074,37.46585],[127.1609,37.46602],[127.16108,37.46619],[127.16125,37.46631],[127.16145,37.4664],[127.16176,37.46652],[127.16245,37.46676],[127.16274,37.46686],[127.1628,37.46689],[127.16285,37.46693],[127.16289,37.46698],[127.16293,37.46705],[127.16299,37.4672],[127.16306,37.4673],[127.16315,37.46737],[127.16325,37.46742],[127.16393,37.46762],[127.16399,37.46765],[127.16404,37.46768],[127.16408,37.46771],[127.16453,37.46807],[127.16496,37.46841],[127.16505,37.4685],[127.16511,37.46858],[127.16516,37.46866],[127.16521,37.4687],[127.16527,37.46872],[127.16536,37.46872],[127.1655,37.46874],[127.16561,37.46878],[127.16572,37.46885],[127.16585,37.46898],[127.16606,37.46916],[127.16613,37.46923],[127.16619,37.46926],[127.16626,37.46929],[127.16634,37.4693],[127.16641,37.46929],[127.16643,37.46929],[127.16651,37.46926],[127.16671,37.46917],[127.16679,37.46911],[127.16685,37.46903],[127.16689,37.46887],[127.16693,37.46881],[127.16697,37.46878],[127.16704,37.46873],[127.16715,37.46865],[127.16725,37.46856],[127.1673,37.46851],[127.16734,37.46846],[127.16742,37.46824],[127.16756,37.46797],[127.16772,37.4677],[127.16779,37.46762],[127.16787,37.46759],[127.16798,37.46759],[127.16809,37.46763],[127.16816,37.4677],[127.16821,37.46777],[127.16821,37.46782],[127.16818,37.46789],[127.16814,37.46796],[127.16806,37.46804],[127.168,37.46812],[127.16798,37.46817],[127.16794,37.46823],[127.16792,37.46829],[127.1679,37.46844],[127.16788,37.46861],[127.16784,37.4687],[127.16776,37.46882],[127.16774,37.46888],[127.16775,37.46893],[127.16778,37.46898],[127.16783,37.46901],[127.16792,37.46903],[127.16803,37.46904],[127.1681,37.46902],[127.16815,37.46899],[127.16819,37.46893],[127.16819,37.46888],[127.16818,37.46884],[127.16814,37.46876],[127.16811,37.46865],[127.16813,37.46856],[127.16814,37.46852],[127.16818,37.46847],[127.16826,37.46841],[127.16834,37.46838],[127.16839,37.46837],[127.16847,37.46837],[127.16855,37.46839],[127.16864,37.46844],[127.16887,37.46867],[127.16902,37.46882],[127.16921,37.46894],[127.16931,37.46899],[127.17047,37.46947],[127.17065,37.46956],[127.17071,37.46961],[127.17079,37.4697],[127.17086,37.46975],[127.17092,37.4698],[127.17103,37.46984],[127.17113,37.4699],[127.17123,37.46996],[127.1713,37.47007],[127.17134,37.47022],[127.17139,37.47037],[127.1714,37.47042],[127.17143,37.47046],[127.17149,37.47052],[127.17156,37.47057],[127.17185,37.47073],[127.17213,37.47092],[127.17221,37.47096],[127.17235,37.47102],[127.17252,37.47106],[127.17262,37.4711],[127.17283,37.47123],[127.17296,37.47132],[127.17304,37.47137],[127.17317,37.47141],[127.17329,37.47144],[127.17344,37.47147],[127.17361,37.47147],[127.17375,37.47148],[127.17387,37.4715],[127.17401,37.47157],[127.17416,37.47163],[127.17433,37.47169],[127.17446,37.47174],[127.17464,37.47179],[127.17477,37.47182],[127.17499,37.47185],[127.17515,37.47186],[127.17526,37.47187],[127.17538,37.47189],[127.1755,37.47193],[127.17562,37.47198],[127.17583,37.47212],[127.1759,37.47216],[127.17598,37.47222],[127.17606,37.47231],[127.17622,37.47243],[127.17633,37.47253],[127.17647,37.47266],[127.17657,37.47274],[127.1766,37.47276],[127.17666,37.47281],[127.17672,37.47284],[127.1768,37.47287],[127.17687,37.4729],[127.17701,37.47291],[127.1772,37.4729],[127.17727,37.47293],[127.17734,37.47298],[127.1775,37.47319],[127.17762,37.47334],[127.17769,37.47339],[127.17777,37.47341],[127.17784,37.47339],[127.17791,37.47335],[127.17801,37.47327],[127.17808,37.47322],[127.17815,37.47319],[127.17822,37.4732],[127.17827,37.47322],[127.17833,37.47328],[127.17836,37.47333],[127.17842,37.47341],[127.17847,37.47344],[127.17852,37.47346],[127.17859,37.47346],[127.17863,37.47345],[127.17884,37.47335],[127.17895,37.47332],[127.17904,37.47332],[127.17911,37.47333],[127.17924,37.47334],[127.17936,37.47339],[127.17943,37.47343],[127.17948,37.47347],[127.17952,37.47352],[127.17959,37.47361],[127.17968,37.47374]]}},{"type":"Feature","properties":{"class":"major","highway":"primary","sidewalk":"likely","lanes":0,"name":"위례대로","oneway":true},"geometry":{"type":"LineString","coordinates":[[127.14791,37.48253],[127.14781,37.48229],[127.14769,37.48194],[127.14765,37.48169],[127.14761,37.48112],[127.1476,37.48096],[127.14759,37.48082],[127.14758,37.48069],[127.14749,37.47917],[127.14744,37.47823],[127.14743,37.47804]]}},{"type":"Feature","properties":{"class":"major","highway":"secondary","sidewalk":"likely","lanes":0,"name":"위례중앙로","oneway":true},"geometry":{"type":"LineString","coordinates":[[127.1505,37.47387],[127.15031,37.47387],[127.14871,37.47392],[127.1485,37.47393],[127.14834,37.47394],[127.14731,37.474],[127.14714,37.47401],[127.14642,37.47405]]}},{"type":"Feature","properties":{"class":"major","highway":"tertiary","sidewalk":"likely","lanes":0,"name":"위례순환로","oneway":false},"geometry":{"type":"LineString","coordinates":[[127.14652,37.47034],[127.14614,37.47046],[127.14547,37.47069],[127.14511,37.47078],[127.1448,37.47083],[127.14419,37.47088],[127.14383,37.47089],[127.14324,37.47092],[127.14308,37.47093],[127.1424,37.47095],[127.14209,37.47096],[127.14202,37.47097],[127.14199,37.47097],[127.14191,37.47097],[127.14064,37.47102],[127.14044,37.47102],[127.13984,37.47104],[127.13903,37.47108],[127.13885,37.47108],[127.1371,37.47115],[127.13693,37.47116]]}},{"type":"Feature","properties":{"class":"major","highway":"tertiary","sidewalk":"likely","lanes":0,"name":"위례광장로","oneway":false},"geometry":{"type":"LineString","coordinates":[[127.14431,37.47818],[127.14431,37.47834],[127.14434,37.47875],[127.14435,37.47892],[127.14439,37.47958],[127.14441,37.47982],[127.14442,37.47999],[127.14443,37.48009],[127.14444,37.48035],[127.14449,37.48106],[127.1445,37.48126],[127.14451,37.48139],[127.14435,37.4814],[127.14333,37.48144],[127.14323,37.48144],[127.14319,37.48145],[127.14312,37.48145],[127.14285,37.48146],[127.14213,37.48149],[127.14194,37.4815],[127.14194,37.48137],[127.14191,37.48091],[127.1419,37.48082],[127.14189,37.48069],[127.14182,37.47965],[127.14179,37.47912],[127.14178,37.479],[127.14177,37.47882],[127.14174,37.47844],[127.14173,37.47828]]}},{"type":"Feature","properties":{"class":"major","highway":"tertiary","sidewalk":"likely","lanes":0,"name":"위례순환로","oneway":false},"geometry":{"type":"LineString","coordinates":[[127.1377,37.4784],[127.13791,37.4784],[127.13825,37.4784],[127.13913,37.47838],[127.13923,37.47838],[127.13953,37.47837],[127.13967,37.47836],[127.13983,37.47836],[127.14016,37.47834],[127.14037,37.47834],[127.14075,37.47832],[127.141,37.47831],[127.14152,37.47829],[127.14173,37.47828]]}},{"type":"Feature","properties":{"class":"major","highway":"tertiary","sidewalk":"likely","lanes":0,"name":"위례광장로","oneway":false},"geometry":{"type":"LineString","coordinates":[[127.14324,37.47092],[127.14333,37.47247],[127.14343,37.47403]]}},{"type":"Feature","properties":{"class":"major","highway":"tertiary","sidewalk":"likely","lanes":0,"name":"위례광장로","oneway":false},"geometry":{"type":"LineString","coordinates":[[127.14085,37.47413],[127.14081,37.47351]]}},{"type":"Feature","properties":{"class":"major","highway":"primary","sidewalk":"likely","lanes":0,"name":"위례대로","oneway":true},"geometry":{"type":"LineString","coordinates":[[127.14231,37.4652],[127.14176,37.46455],[127.1412,37.4639],[127.14083,37.46346],[127.14071,37.4633]]}},{"type":"Feature","properties":{"class":"major","highway":"tertiary","sidewalk":"likely","lanes":0,"name":"위례동로","oneway":false},"geometry":{"type":"LineString","coordinates":[[127.14231,37.4652],[127.14243,37.46513],[127.14402,37.46429],[127.14409,37.46426],[127.14417,37.46421],[127.14429,37.46417],[127.14442,37.46414],[127.14457,37.46412],[127.14478,37.46413],[127.14542,37.46419],[127.14592,37.46425],[127.14599,37.46426],[127.14602,37.46426],[127.14614,37.46428],[127.14622,37.4643],[127.14629,37.46431],[127.14648,37.46437],[127.14666,37.46445],[127.14685,37.46457],[127.14697,37.46465],[127.14708,37.46473],[127.14722,37.46486],[127.14731,37.46496],[127.14755,37.46523],[127.14769,37.4654],[127.14878,37.46671],[127.14894,37.46691],[127.14904,37.46702],[127.14979,37.46789],[127.15,37.4682]]}},{"type":"Feature","properties":{"class":"minor","highway":"residential","sidewalk":"unknown","lanes":0,"name":"위례광장로2길","oneway":false},"geometry":{"type":"LineString","coordinates":[[127.14093,37.47539],[127.14116,37.47538],[127.14157,37.47536],[127.14217,37.47533],[127.14224,37.47533],[127.14229,37.47532],[127.14238,37.47532],[127.14352,37.47527]]}},{"type":"Feature","properties":{"class":"alley","highway":"service","sidewalk":"unknown","lanes":0,"name":"","oneway":false},"geometry":{"type":"LineString","coordinates":[[127.14901,37.47782],[127.14902,37.47791],[127.14904,37.47801],[127.14906,37.47808],[127.14909,37.47811],[127.14912,37.47812],[127.14919,37.47813],[127.14927,37.47812],[127.14933,37.47812],[127.15168,37.47776],[127.15196,37.47774],[127.15211,37.47775],[127.15224,37.47776],[127.15445,37.47828],[127.15474,37.47835],[127.15584,37.47867],[127.15614,37.47877],[127.15628,37.47883],[127.15653,37.47893],[127.15755,37.47944],[127.15764,37.47945],[127.1577,37.47944],[127.15775,37.47942],[127.15801,37.47919],[127.15803,37.47918],[127.1581,37.47914],[127.15827,37.47909],[127.15857,37.47904],[127.15867,37.47904],[127.15881,37.47908],[127.15891,37.47915],[127.159,37.47927],[127.15974,37.48052],[127.15976,37.48058],[127.15976,37.48064],[127.15967,37.48096],[127.15962,37.48102],[127.15957,37.48104]]}},{"type":"Feature","properties":{"class":"minor","highway":"residential","sidewalk":"unknown","lanes":0,"name":"","oneway":false},"geometry":{"type":"LineString","coordinates":[[127.13671,37.46736],[127.13688,37.46735],[127.1379,37.46731],[127.13864,37.46729],[127.13938,37.46726],[127.14041,37.46721],[127.14096,37.46719],[127.14115,37.46718],[127.14165,37.46717],[127.14175,37.46717],[127.14179,37.46717],[127.14187,37.46717],[127.14249,37.46713]]}},{"type":"Feature","properties":{"class":"minor","highway":"residential","sidewalk":"unknown","lanes":0,"name":"위례광장로","oneway":false},"geometry":{"type":"LineString","coordinates":[[127.14034,37.46623],[127.13995,37.46574],[127.13982,37.46559],[127.13953,37.46525],[127.13923,37.46489]]}},{"type":"Feature","properties":{"class":"minor","highway":"residential","sidewalk":"unknown","lanes":0,"name":"위례광장로","oneway":false},"geometry":{"type":"LineString","coordinates":[[127.14049,37.46431],[127.14153,37.4656]]}},{"type":"Feature","properties":{"class":"minor","highway":"residential","sidewalk":"unknown","lanes":0,"name":"위례서일로","oneway":false},"geometry":{"type":"LineString","coordinates":[[127.13623,37.46613],[127.13711,37.46576],[127.13776,37.46549],[127.13837,37.46524],[127.13923,37.46489],[127.13996,37.46458],[127.14002,37.46455],[127.14006,37.46453],[127.1401,37.46451],[127.14014,37.46449],[127.14049,37.46431]]}},{"type":"Feature","properties":{"class":"alley","highway":"pedestrian","sidewalk":"unknown","lanes":0,"name":"","oneway":false},"geometry":{"type":"LineString","coordinates":[[127.13996,37.46458],[127.14105,37.46587],[127.14147,37.46641],[127.1416,37.46658],[127.14162,37.46662],[127.14164,37.46668],[127.14165,37.46717],[127.14166,37.46753],[127.1417,37.46822],[127.14171,37.46854],[127.14173,37.46873],[127.14172,37.46884],[127.14164,37.46897]]}},{"type":"Feature","properties":{"class":"alley","highway":"pedestrian","sidewalk":"unknown","lanes":0,"name":"","oneway":false},"geometry":{"type":"LineString","coordinates":[[127.14324,37.4807],[127.14324,37.48067],[127.14323,37.48045],[127.14321,37.48019],[127.14319,37.47981],[127.14319,37.4798],[127.14317,37.47947],[127.14315,37.47913],[127.14314,37.47893],[127.14313,37.47869],[127.14312,37.47834]]}},{"type":"Feature","properties":{"class":"major","highway":"secondary","sidewalk":"likely","lanes":0,"name":"위례중앙로","oneway":true},"geometry":{"type":"LineString","coordinates":[[127.14392,37.47407],[127.14536,37.474],[127.14614,37.47397],[127.14642,37.47394]]}},{"type":"Feature","properties":{"class":"major","highway":"secondary","sidewalk":"likely","lanes":0,"name":"위례중앙로","oneway":true},"geometry":{"type":"LineString","coordinates":[[127.13869,37.47426],[127.14026,37.4742],[127.14392,37.47407]]}},{"type":"Feature","properties":{"class":"major","highway":"secondary","sidewalk":"likely","lanes":0,"name":"위례중앙로","oneway":true},"geometry":{"type":"LineString","coordinates":[[127.14642,37.47394],[127.14714,37.47391],[127.1473,37.4739],[127.14831,37.47386],[127.14833,37.47386],[127.14849,37.47385],[127.14871,37.47384],[127.14958,37.4738],[127.1503,37.47377],[127.1505,37.47376]]}},{"type":"Feature","properties":{"class":"major","highway":"tertiary","sidewalk":"likely","lanes":0,"name":"위례광장로","oneway":false},"geometry":{"type":"LineString","coordinates":[[127.14343,37.47403],[127.14345,37.47423]]}},{"type":"Feature","properties":{"class":"major","highway":"secondary","sidewalk":"likely","lanes":0,"name":"위례중앙로","oneway":true},"geometry":{"type":"LineString","coordinates":[[127.14642,37.47405],[127.14614,37.47405],[127.14393,37.47414]]}},{"type":"Feature","properties":{"class":"major","highway":"secondary","sidewalk":"likely","lanes":0,"name":"위례중앙로","oneway":true},"geometry":{"type":"LineString","coordinates":[[127.14393,37.47414],[127.14027,37.47427],[127.13869,37.47433]]}},{"type":"Feature","properties":{"class":"major","highway":"tertiary","sidewalk":"likely","lanes":0,"name":"위례광장로","oneway":false},"geometry":{"type":"LineString","coordinates":[[127.14345,37.47423],[127.14348,37.47502],[127.14349,37.47514],[127.14352,37.47527],[127.14358,37.4754],[127.1437,37.47562],[127.14377,37.47574],[127.14405,37.47619],[127.14415,37.47637],[127.14418,37.47645],[127.1442,37.47654],[127.14421,37.47664],[127.14423,37.47702],[127.14429,37.47766],[127.14432,37.47802],[127.14431,37.47818]]}},{"type":"Feature","properties":{"class":"major","highway":"tertiary","sidewalk":"likely","lanes":0,"name":"위례광장로","oneway":false},"geometry":{"type":"LineString","coordinates":[[127.14086,37.47431],[127.14085,37.47413]]}},{"type":"Feature","properties":{"class":"minor","highway":"residential","sidewalk":"unknown","lanes":0,"name":"","oneway":false},"geometry":{"type":"LineString","coordinates":[[127.14333,37.47247],[127.1438,37.47246],[127.14387,37.47246],[127.144,37.47247],[127.14413,37.47251],[127.14424,37.47252],[127.14436,37.47252],[127.14442,37.47251],[127.14451,37.47249],[127.14466,37.47248],[127.14491,37.47247],[127.145,37.47248],[127.14515,37.47252],[127.14532,37.47266],[127.14573,37.47301]]}},{"type":"Feature","properties":{"class":"minor","highway":"residential","sidewalk":"unknown","lanes":0,"name":"","oneway":false},"geometry":{"type":"LineString","coordinates":[[127.14573,37.47301],[127.14598,37.47283],[127.14612,37.47273]]}},{"type":"Feature","properties":{"class":"minor","highway":"residential","sidewalk":"unknown","lanes":0,"name":"","oneway":false},"geometry":{"type":"LineString","coordinates":[[127.14442,37.47251],[127.14444,37.47311],[127.14444,37.47315],[127.1444,37.47333],[127.14439,37.47337],[127.14439,37.47341],[127.1444,37.47345],[127.14441,37.47349],[127.14444,37.47354],[127.14447,37.47357],[127.14451,37.4736],[127.14454,37.47363],[127.14458,37.47365],[127.14463,37.47367],[127.14468,37.47369],[127.14475,37.4737],[127.14483,37.4737],[127.14489,37.4737],[127.14495,37.47369],[127.145,37.47369],[127.14505,37.47367],[127.14508,37.47366],[127.14511,37.47364],[127.14513,37.47362],[127.14514,37.47359],[127.14514,37.47353],[127.14515,37.4735],[127.14516,37.47343]]}},{"type":"Feature","properties":{"class":"alley","highway":"service","sidewalk":"unknown","lanes":0,"name":"","oneway":false},"geometry":{"type":"LineString","coordinates":[[127.14419,37.47088],[127.14421,37.47115],[127.14423,37.47124],[127.14427,37.47132],[127.14433,37.47139],[127.14437,37.47145],[127.14438,37.47152]]}},{"type":"Feature","properties":{"class":"alley","highway":"service","sidewalk":"unknown","lanes":0,"name":"","oneway":false},"geometry":{"type":"LineString","coordinates":[[127.14433,37.47139],[127.14459,37.47138],[127.14519,37.47136],[127.1452,37.47145],[127.1446,37.47147]]}},{"type":"Feature","properties":{"class":"alley","highway":"service","sidewalk":"unknown","lanes":0,"name":"","oneway":false},"geometry":{"type":"LineString","coordinates":[[127.14433,37.47139],[127.14425,37.47142],[127.14422,37.47143],[127.14384,37.47144],[127.14384,37.47153],[127.14423,37.47152],[127.14422,37.47143]]}},{"type":"Feature","properties":{"class":"major","highway":"primary","sidewalk":"likely","lanes":0,"name":"위례대로","oneway":true},"geometry":{"type":"LineString","coordinates":[[127.14761,37.47803],[127.14762,37.47821],[127.14767,37.47916],[127.14774,37.48044],[127.14777,37.48081],[127.14777,37.48095],[127.14778,37.48111],[127.14782,37.48169],[127.14785,37.48189],[127.14786,37.48193],[127.14787,37.48198],[127.1479,37.4821],[127.14795,37.48226],[127.14807,37.48252]]}},{"type":"Feature","properties":{"class":"major","highway":"primary","sidewalk":"likely","lanes":0,"name":"위례대로","oneway":true},"geometry":{"type":"LineString","coordinates":[[127.14072,37.46311],[127.14084,37.46324],[127.14243,37.46513],[127.14544,37.46867]]}},{"type":"Feature","properties":{"class":"minor","highway":"residential","sidewalk":"unknown","lanes":0,"name":"위례순환로4길","oneway":false},"geometry":{"type":"LineString","coordinates":[[127.15024,37.46914],[127.14987,37.46916],[127.14855,37.4692],[127.14805,37.46922],[127.14808,37.46994]]}},{"type":"Feature","properties":{"class":"alley","highway":"service","sidewalk":"unknown","lanes":0,"name":"위례순환로4길","oneway":false},"geometry":{"type":"LineString","coordinates":[[127.14855,37.4692],[127.14857,37.4696],[127.14988,37.46955],[127.14987,37.46916]]}},{"type":"Feature","properties":{"class":"minor","highway":"residential","sidewalk":"unknown","lanes":0,"name":"위례동이로","oneway":false},"geometry":{"type":"LineString","coordinates":[[127.14979,37.46789],[127.15086,37.46746],[127.15102,37.46741],[127.15118,37.46739],[127.15244,37.46721],[127.15265,37.46718],[127.15309,37.46712],[127.15321,37.4671],[127.15332,37.46706],[127.15341,37.46699],[127.15348,37.4669],[127.15394,37.46627],[127.154,37.46617],[127.15409,37.46611],[127.15421,37.46607],[127.15438,37.46605],[127.15579,37.46594],[127.15588,37.46591],[127.15596,37.46584],[127.15598,37.46575],[127.15591,37.46535]]}},{"type":"Feature","properties":{"class":"minor","highway":"residential","sidewalk":"unknown","lanes":0,"name":"위례한빛로","oneway":false},"geometry":{"type":"LineString","coordinates":[[127.14614,37.46428],[127.14625,37.46407],[127.14633,37.464],[127.14643,37.46395],[127.14721,37.46355],[127.14759,37.46333],[127.14788,37.46317],[127.14794,37.46315],[127.14801,37.46316],[127.14808,37.4632],[127.14875,37.46405],[127.14901,37.46436],[127.14917,37.46455],[127.1492,37.46459],[127.14924,37.46464],[127.14939,37.46481],[127.15041,37.46598],[127.15045,37.46605],[127.15042,37.46611],[127.15035,37.46615],[127.15011,37.46627],[127.14998,37.46634],[127.14971,37.46648],[127.14894,37.46691]]}},{"type":"Feature","properties":{"class":"minor","highway":"residential","sidewalk":"unknown","lanes":0,"name":"위례한빛로","oneway":false},"geometry":{"type":"LineString","coordinates":[[127.14971,37.46648],[127.14951,37.46627],[127.14861,37.46521],[127.14843,37.46499],[127.14839,37.46494],[127.14826,37.46478],[127.14813,37.46462],[127.14798,37.46443],[127.1475,37.46389],[127.14721,37.46355]]}},{"type":"Feature","properties":{"class":"minor","highway":"residential","sidewalk":"unknown","lanes":0,"name":"위례한빛로","oneway":false},"geometry":{"type":"LineString","coordinates":[[127.14769,37.4654],[127.14805,37.4652],[127.14843,37.46499],[127.14912,37.46463],[127.1492,37.46459]]}},{"type":"Feature","properties":{"class":"alley","highway":"service","sidewalk":"unknown","lanes":0,"name":"위례한빛로","oneway":false},"geometry":{"type":"LineString","coordinates":[[127.14861,37.46521],[127.14902,37.46501],[127.14939,37.46481]]}},{"type":"Feature","properties":{"class":"alley","highway":"service","sidewalk":"unknown","lanes":0,"name":"위례한빛로","oneway":false},"geometry":{"type":"LineString","coordinates":[[127.14861,37.46521],[127.14824,37.4654],[127.14912,37.46647],[127.14951,37.46627],[127.14992,37.46604],[127.14902,37.46501]]}},{"type":"Feature","properties":{"class":"minor","highway":"residential","sidewalk":"unknown","lanes":0,"name":"","oneway":false},"geometry":{"type":"LineString","coordinates":[[127.14958,37.4738],[127.14958,37.47375],[127.1495,37.47257],[127.14948,37.47206],[127.1504,37.47202]]}},{"type":"Feature","properties":{"class":"major","highway":"tertiary","sidewalk":"likely","lanes":0,"name":"위례광장로","oneway":false},"geometry":{"type":"LineString","coordinates":[[127.14055,37.46959],[127.14048,37.46855]]}},{"type":"Feature","properties":{"class":"major","highway":"tertiary","sidewalk":"likely","lanes":0,"name":"위례광장로","oneway":false},"geometry":{"type":"LineString","coordinates":[[127.14048,37.46855],[127.14048,37.46848],[127.14045,37.46786],[127.14041,37.46721],[127.14038,37.46667],[127.14034,37.46623],[127.14105,37.46587],[127.1411,37.46584],[127.14114,37.46582],[127.14122,37.46578],[127.14143,37.46566],[127.14153,37.4656],[127.14231,37.4652]]}},{"type":"Feature","properties":{"class":"major","highway":"primary","sidewalk":"likely","lanes":0,"name":"위례대로","oneway":true},"geometry":{"type":"LineString","coordinates":[[127.14669,37.47028],[127.14697,37.47089],[127.14711,37.47133],[127.14721,37.47179],[127.14721,37.47188],[127.1473,37.47378],[127.1473,37.4739],[127.14731,37.474]]}},{"type":"Feature","properties":{"class":"major","highway":"primary","sidewalk":"likely","lanes":0,"name":"위례대로","oneway":true},"geometry":{"type":"LineString","coordinates":[[127.14585,37.46939],[127.14522,37.46865]]}},{"type":"Feature","properties":{"class":"major","highway":"primary","sidewalk":"likely","lanes":0,"name":"위례대로","oneway":true},"geometry":{"type":"LineString","coordinates":[[127.14522,37.46865],[127.14468,37.46799],[127.14454,37.4678],[127.14426,37.46745],[127.14396,37.4671],[127.14375,37.46685],[127.14231,37.4652]]}},{"type":"Feature","properties":{"class":"major","highway":"primary","sidewalk":"likely","lanes":0,"name":"위례대로","oneway":true},"geometry":{"type":"LineString","coordinates":[[127.14544,37.46867],[127.14607,37.46938]]}},{"type":"Feature","properties":{"class":"major","highway":"tertiary","sidewalk":"likely","lanes":0,"name":"위례동로","oneway":false},"geometry":{"type":"LineString","coordinates":[[127.15028,37.46986],[127.15034,37.47096],[127.15039,37.47188],[127.1504,37.47202],[127.15045,37.47269],[127.1505,37.47369],[127.1505,37.47376]]}},{"type":"Feature","properties":{"class":"major","highway":"tertiary","sidewalk":"likely","lanes":0,"name":"위례동로","oneway":false},"geometry":{"type":"LineString","coordinates":[[127.15,37.4682],[127.1501,37.46838],[127.15014,37.46847],[127.15018,37.46859],[127.1502,37.46871],[127.15021,37.46878],[127.15022,37.46885],[127.15022,37.46896]]}},{"type":"Feature","properties":{"class":"alley","highway":"service","sidewalk":"unknown","lanes":0,"name":"","oneway":false},"geometry":{"type":"LineString","coordinates":[[127.14093,37.47539],[127.14081,37.4754],[127.14079,37.4754],[127.14066,37.47541]]}},{"type":"Feature","properties":{"class":"alley","highway":"service","sidewalk":"unknown","lanes":0,"name":"","oneway":false},"geometry":{"type":"LineString","coordinates":[[127.14148,37.47653],[127.14137,37.47656],[127.14135,37.47657],[127.14115,37.47664]]}},{"type":"Feature","properties":{"class":"alley","highway":"service","sidewalk":"unknown","lanes":0,"name":"","oneway":false},"geometry":{"type":"LineString","coordinates":[[127.14037,37.47834],[127.14037,37.47825],[127.14037,37.47823],[127.14036,37.47782]]}},{"type":"Feature","properties":{"class":"alley","highway":"service","sidewalk":"unknown","lanes":0,"name":"","oneway":false},"geometry":{"type":"LineString","coordinates":[[127.1397,37.47881],[127.13974,37.47885],[127.14003,37.47903],[127.14007,37.47905],[127.1401,37.47906],[127.14015,37.47907]]}},{"type":"Feature","properties":{"class":"alley","highway":"service","sidewalk":"unknown","lanes":0,"name":"","oneway":false},"geometry":{"type":"LineString","coordinates":[[127.14178,37.479],[127.14168,37.47901],[127.14165,37.47901],[127.14148,37.47901]]}},{"type":"Feature","properties":{"class":"alley","highway":"service","sidewalk":"unknown","lanes":0,"name":"","oneway":false},"geometry":{"type":"LineString","coordinates":[[127.14132,37.479],[127.14115,37.479]]}},{"type":"Feature","properties":{"class":"alley","highway":"service","sidewalk":"unknown","lanes":0,"name":"","oneway":false},"geometry":{"type":"LineString","coordinates":[[127.1413,37.47891],[127.14129,37.4788],[127.14129,37.47873]]}},{"type":"Feature","properties":{"class":"alley","highway":"service","sidewalk":"unknown","lanes":0,"name":"","oneway":false},"geometry":{"type":"LineString","coordinates":[[127.14035,37.47541],[127.14007,37.47542]]}},{"type":"Feature","properties":{"class":"alley","highway":"service","sidewalk":"unknown","lanes":0,"name":"","oneway":false},"geometry":{"type":"LineString","coordinates":[[127.14075,37.47655],[127.1405,37.47655]]}},{"type":"Feature","properties":{"class":"alley","highway":"service","sidewalk":"unknown","lanes":0,"name":"","oneway":true},"geometry":{"type":"LineString","coordinates":[[127.14148,37.47901],[127.14147,37.47903],[127.14143,37.47905],[127.14139,37.47906],[127.14111,37.47907],[127.14107,37.47906],[127.14103,37.47904],[127.14102,37.47901],[127.14103,37.47898],[127.14104,37.47894],[127.14108,37.47892],[127.14111,37.47891],[127.14116,37.47891],[127.1413,37.47891],[127.14134,37.47891],[127.14139,37.47893],[127.14142,37.47894],[127.14146,37.47897],[127.14148,37.47901]]}},{"type":"Feature","properties":{"class":"alley","highway":"service","sidewalk":"unknown","lanes":0,"name":"","oneway":false},"geometry":{"type":"LineString","coordinates":[[127.14148,37.47901],[127.14142,37.479],[127.14132,37.479]]}},{"type":"Feature","properties":{"class":"alley","highway":"service","sidewalk":"unknown","lanes":0,"name":"","oneway":true},"geometry":{"type":"LineString","coordinates":[[127.14066,37.47541],[127.14043,37.47553],[127.14012,37.47554],[127.14007,37.47554],[127.14005,37.47553],[127.14003,37.47552],[127.14001,37.4755],[127.14,37.47548],[127.13999,37.47544],[127.13999,37.47541],[127.13999,37.47538],[127.14,37.47537],[127.14001,37.47536],[127.14003,37.47535],[127.14005,37.47534],[127.14036,37.47534],[127.14066,37.47541]]}},{"type":"Feature","properties":{"class":"alley","highway":"service","sidewalk":"unknown","lanes":0,"name":"","oneway":false},"geometry":{"type":"LineString","coordinates":[[127.14066,37.47541],[127.14035,37.47541]]}},{"type":"Feature","properties":{"class":"alley","highway":"service","sidewalk":"unknown","lanes":0,"name":"","oneway":true},"geometry":{"type":"LineString","coordinates":[[127.14115,37.47664],[127.1409,37.47675],[127.14087,37.47675],[127.14067,37.47675],[127.14061,37.47675],[127.14058,37.47674],[127.14055,37.47673],[127.1405,37.47669],[127.1404,37.47661],[127.14038,37.47658],[127.14038,37.47656],[127.14038,37.47653],[127.1404,37.47651],[127.14042,37.47649],[127.14044,37.47648],[127.1408,37.47647],[127.14082,37.47648],[127.14084,37.47649],[127.141,37.47662],[127.14105,37.47663],[127.14115,37.47664]]}},{"type":"Feature","properties":{"class":"alley","highway":"service","sidewalk":"unknown","lanes":0,"name":"","oneway":false},"geometry":{"type":"LineString","coordinates":[[127.14115,37.47664],[127.14106,37.47665],[127.14103,37.47665],[127.14099,37.47665],[127.14095,37.47663],[127.14091,37.47661],[127.14088,37.47658],[127.14085,37.47656],[127.14082,37.47655],[127.14075,37.47655]]}},{"type":"Feature","properties":{"class":"alley","highway":"pedestrian","sidewalk":"unknown","lanes":0,"name":"","oneway":false},"geometry":{"type":"LineString","coordinates":[[127.14294,37.47834],[127.14296,37.47859],[127.14298,37.47894],[127.143,37.47926],[127.14302,37.47954],[127.14304,37.47982],[127.14304,37.47993],[127.14306,37.4802],[127.14307,37.48036],[127.14309,37.48067],[127.14309,37.48071]]}},{"type":"Feature","properties":{"class":"alley","highway":"pedestrian","sidewalk":"unknown","lanes":0,"name":"","oneway":false},"geometry":{"type":"LineString","coordinates":[[127.1431,37.47812],[127.14304,37.47718],[127.14303,37.477],[127.14302,37.47674],[127.14301,37.47659],[127.14299,37.47651],[127.14297,37.47646],[127.14296,37.47644],[127.14278,37.47616],[127.14254,37.4758],[127.14246,37.47566],[127.14245,37.47565],[127.1424,37.47555],[127.14238,37.4754]]}},{"type":"Feature","properties":{"class":"alley","highway":"pedestrian","sidewalk":"unknown","lanes":0,"name":"","oneway":false},"geometry":{"type":"LineString","coordinates":[[127.14217,37.47541],[127.14218,37.47548],[127.1422,37.47557],[127.14226,37.47568],[127.14228,37.47572],[127.14235,37.47579],[127.14239,37.47586],[127.14263,37.47622],[127.14277,37.47645],[127.14281,37.47652],[127.14282,37.47655],[127.14283,37.47658],[127.14284,37.47675],[127.14286,37.477],[127.14286,37.47704],[127.14287,37.47719],[127.14288,37.47741],[127.14286,37.47748],[127.14287,37.47768],[127.1429,37.47773],[127.14293,37.47813]]}},{"type":"Feature","properties":{"class":"alley","highway":"pedestrian","sidewalk":"unknown","lanes":0,"name":"","oneway":false},"geometry":{"type":"LineString","coordinates":[[127.14203,37.46906],[127.14199,37.46874],[127.14192,37.4679],[127.14187,37.46717],[127.14185,37.46709],[127.14184,37.46696],[127.14184,37.46692],[127.14183,37.46679],[127.14182,37.46671],[127.14182,37.46665],[127.14181,37.4666],[127.1418,37.46657],[127.14178,37.46653],[127.14122,37.46578],[127.1401,37.46451]]}},{"type":"Feature","properties":{"class":"alley","highway":"pedestrian","sidewalk":"unknown","lanes":0,"name":"위례휴먼링 보행자전용도로","oneway":false},"geometry":{"type":"LineString","coordinates":[[127.14706,37.47752],[127.14707,37.47755],[127.14708,37.47771],[127.14708,37.47781]]}},{"type":"Feature","properties":{"class":"alley","highway":"pedestrian","sidewalk":"unknown","lanes":0,"name":"위례휴먼링 보행자전용도로","oneway":false},"geometry":{"type":"LineString","coordinates":[[127.14708,37.47781],[127.14712,37.47831]]}},{"type":"Feature","properties":{"class":"alley","highway":"pedestrian","sidewalk":"unknown","lanes":0,"name":"위례휴먼링 보행자전용도로","oneway":false},"geometry":{"type":"LineString","coordinates":[[127.14712,37.47831],[127.14715,37.47843],[127.1472,37.47899],[127.14725,37.4793],[127.14727,37.47994],[127.14731,37.48038],[127.14735,37.48067],[127.14737,37.48098],[127.14737,37.48098],[127.14743,37.48179]]}},{"type":"Feature","properties":{"class":"minor","highway":"residential","sidewalk":"unknown","lanes":0,"name":"위례대로4길","oneway":false},"geometry":{"type":"LineString","coordinates":[[127.1476,37.48096],[127.14777,37.48095],[127.14797,37.48095],[127.14903,37.4809],[127.14916,37.4809],[127.14928,37.48089],[127.14984,37.48087],[127.15071,37.48084],[127.15084,37.48083],[127.15132,37.48081],[127.15144,37.48081],[127.15162,37.48081],[127.15171,37.48078],[127.15171,37.48076],[127.15194,37.47982]]}},{"type":"Feature","properties":{"class":"minor","highway":"residential","sidewalk":"unknown","lanes":0,"name":"위례대로2길","oneway":false},"geometry":{"type":"LineString","coordinates":[[127.14767,37.47916],[127.14785,37.47916],[127.14817,37.47914],[127.14886,37.47912],[127.14904,37.47911],[127.14905,37.47925],[127.14906,37.47943],[127.14907,37.47958],[127.14912,37.48038],[127.14913,37.48053],[127.14915,37.48082],[127.14916,37.4809]]}},{"type":"Feature","properties":{"class":"alley","highway":"service","sidewalk":"unknown","lanes":0,"name":"","oneway":true},"geometry":{"type":"LineString","coordinates":[[127.14894,37.47871],[127.14887,37.47871],[127.14882,37.47871],[127.14883,37.47836],[127.14894,37.47836]]}},{"type":"Feature","properties":{"class":"alley","highway":"service","sidewalk":"unknown","lanes":0,"name":"","oneway":false},"geometry":{"type":"LineString","coordinates":[[127.14628,37.47262],[127.14614,37.4725],[127.146,37.47238],[127.14594,37.47238],[127.14582,37.47247],[127.14612,37.47273]]}},{"type":"Feature","properties":{"class":"alley","highway":"service","sidewalk":"unknown","lanes":0,"name":"","oneway":false},"geometry":{"type":"LineString","coordinates":[[127.14598,37.47283],[127.14572,37.47261],[127.14572,37.47255],[127.14582,37.47247]]}},{"type":"Feature","properties":{"class":"alley","highway":"service","sidewalk":"unknown","lanes":0,"name":"","oneway":false},"geometry":{"type":"LineString","coordinates":[[127.14438,37.47152],[127.14439,37.47172]]}},{"type":"Feature","properties":{"class":"alley","highway":"service","sidewalk":"unknown","lanes":0,"name":"","oneway":false},"geometry":{"type":"LineString","coordinates":[[127.14444,37.47315],[127.14461,37.47318],[127.1448,37.47321]]}},{"type":"Feature","properties":{"class":"alley","highway":"service","sidewalk":"unknown","lanes":0,"name":"","oneway":false},"geometry":{"type":"LineString","coordinates":[[127.14456,37.47335],[127.1446,37.47321],[127.14461,37.47318],[127.14461,37.47315],[127.14459,37.47278]]}},{"type":"Feature","properties":{"class":"alley","highway":"service","sidewalk":"unknown","lanes":0,"name":"","oneway":false},"geometry":{"type":"LineString","coordinates":[[127.14516,37.47343],[127.14501,37.47331],[127.14544,37.47301],[127.14545,37.47297],[127.14517,37.47273]]}},{"type":"Feature","properties":{"class":"alley","highway":"service","sidewalk":"unknown","lanes":0,"name":"","oneway":false},"geometry":{"type":"LineString","coordinates":[[127.14501,37.47331],[127.14491,37.47324],[127.1449,37.47321],[127.1451,37.47305]]}},{"type":"Feature","properties":{"class":"alley","highway":"service","sidewalk":"unknown","lanes":0,"name":"","oneway":false},"geometry":{"type":"LineString","coordinates":[[127.14444,37.47311],[127.14428,37.47311],[127.14425,37.47311],[127.1441,37.47311],[127.14388,37.47312],[127.14389,37.47328],[127.1441,37.47328],[127.1441,37.47311]]}},{"type":"Feature","properties":{"class":"alley","highway":"service","sidewalk":"unknown","lanes":0,"name":"","oneway":false},"geometry":{"type":"LineString","coordinates":[[127.14425,37.47311],[127.14425,37.47317]]}},{"type":"Feature","properties":{"class":"alley","highway":"service","sidewalk":"unknown","lanes":0,"name":"","oneway":false},"geometry":{"type":"LineString","coordinates":[[127.14425,37.47317],[127.14426,37.47333],[127.14427,37.47336],[127.14427,37.47337],[127.14428,37.47338],[127.14429,37.47339],[127.1443,37.4734]]}},{"type":"Feature","properties":{"class":"alley","highway":"service","sidewalk":"unknown","lanes":0,"name":"","oneway":false},"geometry":{"type":"LineString","coordinates":[[127.14428,37.47311],[127.14428,37.47273],[127.14425,37.4727],[127.14406,37.4727]]}},{"type":"Feature","properties":{"class":"alley","highway":"service","sidewalk":"unknown","lanes":0,"name":"","oneway":false},"geometry":{"type":"LineString","coordinates":[[127.14442,37.47251],[127.14442,37.4724],[127.1444,37.47235],[127.14437,37.47233],[127.1443,37.47228],[127.14425,37.47222],[127.14421,37.47216],[127.14419,37.47209]]}},{"type":"Feature","properties":{"class":"alley","highway":"service","sidewalk":"unknown","lanes":0,"name":"","oneway":false},"geometry":{"type":"LineString","coordinates":[[127.1446,37.47147],[127.14459,37.47138],[127.14459,37.47126],[127.14457,37.4711],[127.14445,37.47111],[127.14447,37.47127],[127.14459,37.47126]]}},{"type":"Feature","properties":{"class":"alley","highway":"service","sidewalk":"unknown","lanes":0,"name":"","oneway":false},"geometry":{"type":"LineString","coordinates":[[127.14178,37.479],[127.1419,37.479],[127.14208,37.479]]}},{"type":"Feature","properties":{"class":"alley","highway":"service","sidewalk":"unknown","lanes":0,"name":"","oneway":false},"geometry":{"type":"LineString","coordinates":[[127.14208,37.479],[127.14227,37.47899]]}},{"type":"Feature","properties":{"class":"alley","highway":"service","sidewalk":"unknown","lanes":0,"name":"","oneway":false},"geometry":{"type":"LineString","coordinates":[[127.15138,37.48034],[127.1515,37.48034],[127.15152,37.47999],[127.15129,37.47999],[127.15127,37.48034],[127.15138,37.48034]]}},{"type":"Feature","properties":{"class":"alley","highway":"service","sidewalk":"unknown","lanes":0,"name":"","oneway":true},"geometry":{"type":"LineString","coordinates":[[127.14894,37.48044],[127.14891,37.48012],[127.14886,37.48006],[127.14885,37.47992]]}},{"type":"Feature","properties":{"class":"alley","highway":"service","sidewalk":"unknown","lanes":0,"name":"","oneway":true},"geometry":{"type":"LineString","coordinates":[[127.14885,37.47992],[127.14883,37.47971]]}},{"type":"Feature","properties":{"class":"alley","highway":"service","sidewalk":"unknown","lanes":0,"name":"","oneway":true},"geometry":{"type":"LineString","coordinates":[[127.14838,37.47948],[127.1482,37.47949],[127.14819,37.47937]]}},{"type":"Feature","properties":{"class":"alley","highway":"service","sidewalk":"unknown","lanes":0,"name":"","oneway":true},"geometry":{"type":"LineString","coordinates":[[127.14852,37.47928],[127.14829,37.47929],[127.14825,37.47928],[127.14821,37.47925],[127.14818,37.47921]]}},{"type":"Feature","properties":{"class":"major","highway":"secondary_link","sidewalk":"likely","lanes":0,"name":"","oneway":true},"geometry":{"type":"LineString","coordinates":[[127.14029,37.47415],[127.14034,37.47416],[127.14038,37.47418],[127.14039,37.47419],[127.1404,37.47422],[127.14041,37.47424],[127.14041,37.47426],[127.14041,37.47428],[127.14039,37.47429],[127.14037,37.47431],[127.14036,37.47432],[127.14032,37.47433]]}},{"type":"Feature","properties":{"class":"alley","highway":"service","sidewalk":"unknown","lanes":0,"name":"","oneway":false},"geometry":{"type":"LineString","coordinates":[[127.15065,37.47756],[127.15062,37.47746],[127.15059,37.47733],[127.15059,37.47731],[127.15061,37.4773],[127.15063,37.47729],[127.15085,37.47725],[127.15092,37.47723],[127.15097,37.47722],[127.15108,37.47717],[127.15154,37.47691],[127.15128,37.47662],[127.15097,37.4768]]}},{"type":"Feature","properties":{"class":"alley","highway":"service","sidewalk":"unknown","lanes":0,"name":"","oneway":false},"geometry":{"type":"LineString","coordinates":[[127.14989,37.47768],[127.14986,37.47758],[127.14983,37.47746],[127.14983,37.47745],[127.14982,37.47743],[127.14981,37.4774],[127.14979,37.4774],[127.14973,37.47741],[127.14902,37.47752],[127.14894,37.47721],[127.14937,37.47714]]}},{"type":"Feature","properties":{"class":"alley","highway":"service","sidewalk":"unknown","lanes":0,"name":"","oneway":false},"geometry":{"type":"LineString","coordinates":[[127.14893,37.47783],[127.14889,37.47773],[127.14884,37.47762],[127.14883,37.47761],[127.14881,37.47758],[127.14791,37.47763],[127.14789,37.47721]]}},{"type":"Feature","properties":{"class":"minor","highway":"residential","sidewalk":"unknown","lanes":0,"name":"","oneway":false},"geometry":{"type":"LineString","coordinates":[[127.14628,37.47262],[127.14651,37.47245]]}},{"type":"Feature","properties":{"class":"minor","highway":"residential","sidewalk":"unknown","lanes":0,"name":"","oneway":false},"geometry":{"type":"LineString","coordinates":[[127.14612,37.47273],[127.14628,37.47262]]}},{"type":"Feature","properties":{"class":"minor","highway":"residential","sidewalk":"unknown","lanes":0,"name":"","oneway":false},"geometry":{"type":"LineString","coordinates":[[127.14516,37.47343],[127.14573,37.47301]]}},{"type":"Feature","properties":{"class":"alley","highway":"service","sidewalk":"unknown","lanes":0,"name":"","oneway":false},"geometry":{"type":"LineString","coordinates":[[127.14573,37.47301],[127.14588,37.47315]]}},{"type":"Feature","properties":{"class":"alley","highway":"service","sidewalk":"unknown","lanes":0,"name":"","oneway":false},"geometry":{"type":"LineString","coordinates":[[127.14588,37.47315],[127.14575,37.47325],[127.14576,37.47329],[127.14594,37.47345],[127.14599,37.47345],[127.14611,37.47335]]}},{"type":"Feature","properties":{"class":"alley","highway":"service","sidewalk":"unknown","lanes":0,"name":"","oneway":false},"geometry":{"type":"LineString","coordinates":[[127.14588,37.47315],[127.14611,37.47335],[127.14622,37.47327],[127.14623,37.47323],[127.14607,37.47308],[127.146,37.47306],[127.14588,37.47315]]}},{"type":"Feature","properties":{"class":"alley","highway":"service","sidewalk":"unknown","lanes":0,"name":"","oneway":false},"geometry":{"type":"LineString","coordinates":[[127.14074,37.47815],[127.14074,37.47821],[127.14074,37.47823],[127.14075,37.47832]]}},{"type":"Feature","properties":{"class":"alley","highway":"pedestrian","sidewalk":"unknown","lanes":0,"name":"","oneway":false},"geometry":{"type":"LineString","coordinates":[[127.1418,37.47],[127.14183,37.47006],[127.14189,37.47088],[127.14191,37.47097],[127.14199,37.47205],[127.14208,37.47401],[127.14212,37.47444],[127.14217,37.47527]]}},{"type":"Feature","properties":{"class":"alley","highway":"pedestrian","sidewalk":"unknown","lanes":0,"name":"","oneway":false},"geometry":{"type":"LineString","coordinates":[[127.14238,37.47526],[127.14232,37.47444],[127.14229,37.474],[127.14209,37.47096],[127.14202,37.47]]}},{"type":"Feature","properties":{"class":"alley","highway":"pedestrian","sidewalk":"unknown","lanes":0,"name":"위례중앙광장","oneway":false},"geometry":{"type":"LineString","coordinates":[[127.14172,37.47402],[127.14208,37.47401],[127.14199,37.47205],[127.14163,37.47205],[127.14172,37.47402]]}},{"type":"Feature","properties":{"class":"alley","highway":"pedestrian","sidewalk":"unknown","lanes":0,"name":"","oneway":false},"geometry":{"type":"LineString","coordinates":[[127.14105,37.47449],[127.14101,37.47404],[127.14172,37.47402],[127.14208,37.47401],[127.14229,37.474],[127.14329,37.47397],[127.14331,37.4744],[127.14236,37.47444],[127.14232,37.47444],[127.14212,37.47444],[127.14209,37.47445],[127.14105,37.47449]]}},{"type":"Feature","properties":{"class":"alley","highway":"service","sidewalk":"unknown","lanes":0,"name":"","oneway":false},"geometry":{"type":"LineString","coordinates":[[127.14577,37.47812],[127.14578,37.47839],[127.14576,37.47845],[127.14571,37.47856],[127.14574,37.47878],[127.14587,37.47893],[127.14599,37.47903],[127.14614,37.47911],[127.14627,37.47917],[127.14642,37.47919],[127.14667,37.47918]]}},{"type":"Feature","properties":{"class":"alley","highway":"service","sidewalk":"unknown","lanes":0,"name":"","oneway":false},"geometry":{"type":"LineString","coordinates":[[127.14574,37.47878],[127.14576,37.4792],[127.14642,37.47919]]}},{"type":"Feature","properties":{"class":"major","highway":"tertiary","sidewalk":"likely","lanes":0,"name":"위례순환로","oneway":false},"geometry":{"type":"LineString","coordinates":[[127.14761,37.47803],[127.14781,37.47801],[127.14788,37.47801],[127.14837,37.47793],[127.14872,37.47787],[127.14893,37.47783],[127.14901,37.47782],[127.14968,37.47771],[127.14989,37.47768],[127.15018,37.47764],[127.15056,37.47758],[127.15065,37.47756],[127.15085,37.47751],[127.15109,37.47745],[127.15125,37.47739],[127.15138,37.47734],[127.15152,37.47727],[127.15163,37.47721],[127.15166,37.47719],[127.15179,37.47711],[127.15181,37.4771],[127.1519,37.47705]]}},{"type":"Feature","properties":{"class":"major","highway":"tertiary","sidewalk":"likely","lanes":0,"name":"위례순환로","oneway":false},"geometry":{"type":"LineString","coordinates":[[127.1519,37.47705],[127.152,37.47699],[127.15229,37.47682],[127.15238,37.47677],[127.15299,37.47641],[127.15344,37.47615],[127.15362,37.47603],[127.15381,37.47589],[127.15404,37.47567],[127.15414,37.47555],[127.15424,37.4754],[127.15434,37.47523],[127.15437,37.47516],[127.15444,37.47499],[127.15448,37.47486],[127.15448,37.47483],[127.15449,37.47482],[127.1545,37.4747],[127.15451,37.4746],[127.1545,37.47429],[127.15448,37.47382],[127.15447,37.47374]]}},{"type":"Feature","properties":{"class":"major","highway":"tertiary","sidewalk":"likely","lanes":0,"name":"위례순환로","oneway":false},"geometry":{"type":"LineString","coordinates":[[127.14431,37.47818],[127.14438,37.47818],[127.14452,37.47817],[127.14527,37.47814],[127.14577,37.47812]]}},{"type":"Feature","properties":{"class":"alley","highway":"service","sidewalk":"unknown","lanes":0,"name":"","oneway":false},"geometry":{"type":"LineString","coordinates":[[127.14442,37.47999],[127.14451,37.47999],[127.14454,37.47999],[127.14486,37.47999]]}},{"type":"Feature","properties":{"class":"minor","highway":"residential","sidewalk":"unknown","lanes":0,"name":"","oneway":true},"geometry":{"type":"LineString","coordinates":[[127.14249,37.46714],[127.14249,37.46713],[127.1425,37.46709],[127.14254,37.46707],[127.14261,37.46706],[127.14278,37.46707],[127.14282,37.46709],[127.14282,37.46713],[127.14282,37.46717],[127.14277,37.4672],[127.14266,37.4672],[127.14255,37.46719],[127.14251,37.46716],[127.14249,37.46714]]}},{"type":"Feature","properties":{"class":"minor","highway":"residential","sidewalk":"unknown","lanes":0,"name":"","oneway":false},"geometry":{"type":"LineString","coordinates":[[127.14298,37.46711],[127.14343,37.46709],[127.1436,37.46709]]}},{"type":"Feature","properties":{"class":"minor","highway":"residential","sidewalk":"unknown","lanes":0,"name":"","oneway":true},"geometry":{"type":"LineString","coordinates":[[127.14298,37.46711],[127.14287,37.46715],[127.14282,37.46717]]}},{"type":"Feature","properties":{"class":"minor","highway":"residential","sidewalk":"unknown","lanes":0,"name":"","oneway":true},"geometry":{"type":"LineString","coordinates":[[127.14282,37.46709],[127.1429,37.46709],[127.14298,37.46711]]}},{"type":"Feature","properties":{"class":"minor","highway":"residential","sidewalk":"unknown","lanes":0,"name":"","oneway":true},"geometry":{"type":"LineString","coordinates":[[127.1436,37.46709],[127.14366,37.46706],[127.14369,37.46703],[127.14371,37.46699],[127.14375,37.46685]]}},{"type":"Feature","properties":{"class":"minor","highway":"residential","sidewalk":"unknown","lanes":0,"name":"","oneway":true},"geometry":{"type":"LineString","coordinates":[[127.14396,37.4671],[127.14383,37.4671],[127.1438,37.46709],[127.1436,37.46709]]}},{"type":"Feature","properties":{"class":"alley","highway":"service","sidewalk":"unknown","lanes":0,"name":"","oneway":true},"geometry":{"type":"LineString","coordinates":[[127.14404,37.46801],[127.14387,37.46801],[127.14371,37.46801],[127.14366,37.46798],[127.14365,37.46793],[127.14368,37.46789],[127.1437,37.46787],[127.14383,37.4678],[127.14389,37.46779],[127.14393,37.46777],[127.14397,37.46777],[127.14403,37.46776]]}},{"type":"Feature","properties":{"class":"alley","highway":"service","sidewalk":"unknown","lanes":0,"name":"","oneway":false},"geometry":{"type":"LineString","coordinates":[[127.14433,37.46794],[127.1442,37.46778],[127.14416,37.46776],[127.14403,37.46776]]}},{"type":"Feature","properties":{"class":"alley","highway":"service","sidewalk":"unknown","lanes":0,"name":"","oneway":false},"geometry":{"type":"LineString","coordinates":[[127.14393,37.46781],[127.14394,37.46789],[127.14395,37.46797],[127.14398,37.46799],[127.14404,37.46801]]}},{"type":"Feature","properties":{"class":"alley","highway":"service","sidewalk":"unknown","lanes":0,"name":"","oneway":false},"geometry":{"type":"LineString","coordinates":[[127.14436,37.468],[127.14404,37.46801]]}},{"type":"Feature","properties":{"class":"alley","highway":"service","sidewalk":"unknown","lanes":0,"name":"","oneway":true},"geometry":{"type":"LineString","coordinates":[[127.14403,37.46776],[127.14398,37.46777],[127.14396,37.46779],[127.14393,37.46781]]}},{"type":"Feature","properties":{"class":"alley","highway":"service","sidewalk":"unknown","lanes":0,"name":"","oneway":true},"geometry":{"type":"LineString","coordinates":[[127.14383,37.4678],[127.14388,37.4678],[127.14391,37.4678],[127.14393,37.46781]]}},{"type":"Feature","properties":{"class":"alley","highway":"service","sidewalk":"unknown","lanes":0,"name":"","oneway":false},"geometry":{"type":"LineString","coordinates":[[127.14368,37.46789],[127.14394,37.46789],[127.14412,37.4679]]}},{"type":"Feature","properties":{"class":"alley","highway":"service","sidewalk":"unknown","lanes":0,"name":"","oneway":true},"geometry":{"type":"LineString","coordinates":[[127.14468,37.46799],[127.14452,37.468],[127.14436,37.468]]}},{"type":"Feature","properties":{"class":"alley","highway":"service","sidewalk":"unknown","lanes":0,"name":"","oneway":true},"geometry":{"type":"LineString","coordinates":[[127.14436,37.468],[127.14443,37.46797],[127.14446,37.46794],[127.14448,37.46789],[127.14454,37.4678]]}},{"type":"Feature","properties":{"class":"alley","highway":"service","sidewalk":"unknown","lanes":0,"name":"","oneway":false},"geometry":{"type":"LineString","coordinates":[[127.14298,37.46711],[127.14297,37.4669],[127.143,37.46685],[127.14305,37.46682],[127.14309,37.4668],[127.14314,37.4668]]}},{"type":"Feature","properties":{"class":"alley","highway":"service","sidewalk":"unknown","lanes":0,"name":"","oneway":false},"geometry":{"type":"LineString","coordinates":[[127.14343,37.46709],[127.14343,37.46698],[127.14343,37.46687],[127.14316,37.46688],[127.14316,37.46698],[127.14343,37.46698]]}},{"type":"Feature","properties":{"class":"major","highway":"primary","sidewalk":"likely","lanes":0,"name":"위례대로","oneway":true},"geometry":{"type":"LineString","coordinates":[[127.14743,37.47804],[127.14742,37.47787],[127.14738,37.47723],[127.14715,37.47417],[127.14714,37.47401],[127.14714,37.47391],[127.14713,37.47378],[127.14705,37.4718],[127.14697,37.47136],[127.1468,37.47087],[127.14652,37.47034]]}},{"type":"Feature","properties":{"class":"major","highway":"tertiary","sidewalk":"likely","lanes":0,"name":"위례순환로","oneway":false},"geometry":{"type":"LineString","coordinates":[[127.14577,37.47812],[127.14642,37.47809],[127.14687,37.47808],[127.14722,37.47805],[127.14728,37.47805],[127.14743,37.47804]]}},{"type":"Feature","properties":{"class":"major","highway":"primary","sidewalk":"likely","lanes":0,"name":"위례대로","oneway":true},"geometry":{"type":"LineString","coordinates":[[127.14731,37.474],[127.14732,37.47416],[127.14746,37.47606],[127.14754,37.47722],[127.14759,37.47786],[127.14761,37.47803]]}},{"type":"Feature","properties":{"class":"major","highway":"tertiary","sidewalk":"likely","lanes":0,"name":"위례순환로","oneway":false},"geometry":{"type":"LineString","coordinates":[[127.14743,37.47804],[127.14761,37.47803]]}},{"type":"Feature","properties":{"class":"major","highway":"tertiary","sidewalk":"likely","lanes":0,"name":"위례동로","oneway":false},"geometry":{"type":"LineString","coordinates":[[127.15022,37.46896],[127.15024,37.46914],[127.15028,37.46986]]}},{"type":"Feature","properties":{"class":"major","highway":"tertiary","sidewalk":"likely","lanes":0,"name":"위례순환로","oneway":false},"geometry":{"type":"LineString","coordinates":[[127.15447,37.47361],[127.15446,37.47355],[127.15443,37.47308],[127.1544,37.47265],[127.1544,37.47264],[127.15437,37.47219],[127.15436,37.47179],[127.15435,37.47173],[127.15432,37.47162],[127.15428,37.47147],[127.15422,37.47132],[127.15414,37.47111],[127.15405,37.47095],[127.15397,37.47083],[127.15384,37.47068],[127.15367,37.4705],[127.15348,37.47035],[127.15335,37.47026],[127.15321,37.47018],[127.15304,37.47009],[127.15285,37.47001],[127.15264,37.46994],[127.15237,37.46986],[127.15209,37.46981],[127.1518,37.46979],[127.1516,37.4698],[127.15094,37.46983],[127.15051,37.46985],[127.15028,37.46986]]}},{"type":"Feature","properties":{"class":"major","highway":"tertiary","sidewalk":"likely","lanes":0,"name":"위례동로","oneway":false},"geometry":{"type":"LineString","coordinates":[[127.1505,37.47387],[127.15051,37.47397],[127.15055,37.47461],[127.15056,37.47483],[127.15057,37.4749],[127.15057,37.47497],[127.15059,37.47517],[127.15064,37.47543],[127.15074,37.47569],[127.15089,37.47586],[127.15104,37.47603],[127.15182,37.47695],[127.1519,37.47705]]}},{"type":"Feature","properties":{"class":"major","highway":"secondary","sidewalk":"likely","lanes":0,"name":"위례중앙로","oneway":true},"geometry":{"type":"LineString","coordinates":[[127.1505,37.47376],[127.15069,37.47376],[127.15426,37.47362],[127.15447,37.47361]]}},{"type":"Feature","properties":{"class":"major","highway":"secondary","sidewalk":"likely","lanes":0,"name":"위례중앙로","oneway":true},"geometry":{"type":"LineString","coordinates":[[127.15447,37.47374],[127.15426,37.47375],[127.15068,37.47386],[127.1505,37.47387]]}},{"type":"Feature","properties":{"class":"major","highway":"tertiary","sidewalk":"likely","lanes":0,"name":"위례동로","oneway":false},"geometry":{"type":"LineString","coordinates":[[127.1505,37.47376],[127.1505,37.47387]]}},{"type":"Feature","properties":{"class":"major","highway":"secondary","sidewalk":"likely","lanes":0,"name":"위례중앙로","oneway":true},"geometry":{"type":"LineString","coordinates":[[127.14642,37.47405],[127.14613,37.4741],[127.14345,37.47423]]}},{"type":"Feature","properties":{"class":"major","highway":"secondary","sidewalk":"likely","lanes":0,"name":"위례중앙로","oneway":true},"geometry":{"type":"LineString","coordinates":[[127.14343,37.47403],[127.14612,37.47391],[127.14642,37.47394]]}},{"type":"Feature","properties":{"class":"major","highway":"secondary","sidewalk":"likely","lanes":0,"name":"위례중앙로","oneway":true},"geometry":{"type":"LineString","coordinates":[[127.14086,37.47431],[127.1406,37.47432],[127.14032,37.47433],[127.13775,37.47443],[127.13731,37.47444]]}},{"type":"Feature","properties":{"class":"major","highway":"secondary","sidewalk":"likely","lanes":0,"name":"위례중앙로","oneway":true},"geometry":{"type":"LineString","coordinates":[[127.1373,37.4743],[127.13771,37.47423],[127.14029,37.47415],[127.14059,37.47414],[127.14085,37.47413]]}},{"type":"Feature","properties":{"class":"major","highway":"tertiary","sidewalk":"likely","lanes":0,"name":"위례순환로","oneway":false},"geometry":{"type":"LineString","coordinates":[[127.15447,37.47374],[127.15447,37.47368],[127.15447,37.47361]]}},{"type":"Feature","properties":{"class":"alley","highway":"service","sidewalk":"unknown","lanes":0,"name":"","oneway":false},"geometry":{"type":"LineString","coordinates":[[127.14148,37.47653],[127.14162,37.47648],[127.14177,37.47643],[127.14183,37.4764]]}},{"type":"Feature","properties":{"class":"alley","highway":"service","sidewalk":"unknown","lanes":0,"name":"","oneway":false},"geometry":{"type":"LineString","coordinates":[[127.14183,37.4764],[127.14188,37.47638],[127.14193,37.47638],[127.14199,37.47639],[127.14207,37.47644]]}},{"type":"Feature","properties":{"class":"alley","highway":"service","sidewalk":"unknown","lanes":0,"name":"","oneway":false},"geometry":{"type":"LineString","coordinates":[[127.14118,37.47604],[127.14133,37.47597],[127.14144,37.47592]]}},{"type":"Feature","properties":{"class":"alley","highway":"service","sidewalk":"unknown","lanes":0,"name":"","oneway":false},"geometry":{"type":"LineString","coordinates":[[127.14144,37.47592],[127.14156,37.47587],[127.14163,37.47585],[127.14168,37.47585],[127.14172,37.47586],[127.14177,37.47588]]}},{"type":"Feature","properties":{"class":"alley","highway":"pedestrian","sidewalk":"unknown","lanes":0,"name":"","oneway":false},"geometry":{"type":"LineString","coordinates":[[127.14325,37.4763],[127.14328,37.47633],[127.1433,37.47637],[127.1433,37.47638],[127.1433,37.47642],[127.14328,37.47646],[127.14325,37.47649],[127.1432,37.47651],[127.14315,37.47652],[127.1431,37.47651],[127.14306,37.4765],[127.14302,37.47647],[127.14301,37.47645],[127.143,37.47644],[127.14299,37.4764],[127.14299,37.47636],[127.14301,37.47632],[127.14305,37.47629],[127.14307,37.47628],[127.1431,37.47627],[127.14315,37.47627],[127.1432,37.47628],[127.14325,37.4763]]}},{"type":"Feature","properties":{"class":"alley","highway":"pedestrian","sidewalk":"unknown","lanes":0,"name":"","oneway":false},"geometry":{"type":"LineString","coordinates":[[127.14297,37.47646],[127.14301,37.47645]]}},{"type":"Feature","properties":{"class":"alley","highway":"pedestrian","sidewalk":"unknown","lanes":0,"name":"","oneway":false},"geometry":{"type":"LineString","coordinates":[[127.1433,37.47638],[127.14376,37.47636],[127.14401,37.47634]]}},{"type":"Feature","properties":{"class":"alley","highway":"pedestrian","sidewalk":"unknown","lanes":0,"name":"","oneway":false},"geometry":{"type":"LineString","coordinates":[[127.14376,37.47636],[127.14406,37.47647]]}},{"type":"Feature","properties":{"class":"alley","highway":"pedestrian","sidewalk":"unknown","lanes":0,"name":"","oneway":false},"geometry":{"type":"LineString","coordinates":[[127.14074,37.46982],[127.14074,37.46976],[127.14125,37.46974],[127.14125,37.46981],[127.14146,37.4698],[127.14148,37.4698],[127.14149,37.46985],[127.14166,37.46985],[127.14166,37.4699],[127.14184,37.46989],[127.14185,37.46991],[127.14185,37.47],[127.1418,37.47],[127.14176,37.47],[127.14167,37.46999],[127.14159,37.46998],[127.14159,37.46997],[127.14119,37.46989],[127.14119,37.46991],[127.14074,37.46982]]}},{"type":"Feature","properties":{"class":"alley","highway":"pedestrian","sidewalk":"unknown","lanes":0,"name":"","oneway":false},"geometry":{"type":"LineString","coordinates":[[127.14225,37.46992],[127.14209,37.46992],[127.14203,37.46985],[127.14203,37.46984],[127.14203,37.46981],[127.14212,37.46977],[127.14227,37.46982],[127.14227,37.4699],[127.14227,37.46992],[127.14225,37.46992]]}},{"type":"Feature","properties":{"class":"alley","highway":"pedestrian","sidewalk":"unknown","lanes":0,"name":"","oneway":false},"geometry":{"type":"LineString","coordinates":[[127.14233,37.46991],[127.14233,37.4699],[127.14233,37.46988],[127.14233,37.46987],[127.14233,37.46979],[127.14232,37.46978],[127.14231,37.46977],[127.14229,37.46977],[127.1423,37.46975],[127.14231,37.46974],[127.14238,37.46976],[127.14243,37.46977],[127.14249,37.46979],[127.14254,37.46979],[127.14259,37.4698],[127.14265,37.4698],[127.14272,37.4698],[127.1428,37.4698],[127.14286,37.46979],[127.14295,37.46978],[127.14303,37.46976],[127.14311,37.46972],[127.1432,37.46981],[127.14312,37.46983],[127.14312,37.46983],[127.14309,37.4698],[127.14306,37.4698],[127.14305,37.46981],[127.14304,37.46982],[127.14302,37.46982],[127.143,37.46982],[127.14298,37.46983],[127.14298,37.46984],[127.14296,37.46984],[127.14293,37.46984],[127.14292,37.46985],[127.14291,37.46986],[127.14289,37.46986],[127.14248,37.46988],[127.14248,37.46989],[127.14242,37.4699],[127.14242,37.46991],[127.14233,37.46991]]}},{"type":"Feature","properties":{"class":"alley","highway":"service","sidewalk":"unknown","lanes":0,"name":"","oneway":false},"geometry":{"type":"LineString","coordinates":[[127.14419,37.47088],[127.14419,37.47068],[127.14419,37.47064],[127.14418,37.47057]]}},{"type":"Feature","properties":{"class":"alley","highway":"service","sidewalk":"unknown","lanes":0,"name":"","oneway":false},"geometry":{"type":"LineString","coordinates":[[127.14418,37.47057],[127.14418,37.47038]]}},{"type":"Feature","properties":{"class":"alley","highway":"service","sidewalk":"unknown","lanes":0,"name":"","oneway":true},"geometry":{"type":"LineString","coordinates":[[127.14419,37.47068],[127.14404,37.47055],[127.14404,37.47038],[127.14405,37.47036],[127.14407,37.47034],[127.14423,37.47033],[127.14427,37.47037],[127.14428,37.47054],[127.14419,37.47068]]}},{"type":"Feature","properties":{"class":"alley","highway":"service","sidewalk":"unknown","lanes":0,"name":"","oneway":false},"geometry":{"type":"LineString","coordinates":[[127.13996,37.46813],[127.14017,37.46812]]}},{"type":"Feature","properties":{"class":"alley","highway":"service","sidewalk":"unknown","lanes":0,"name":"","oneway":false},"geometry":{"type":"LineString","coordinates":[[127.13995,37.46806],[127.14019,37.46806]]}},{"type":"Feature","properties":{"class":"alley","highway":"service","sidewalk":"unknown","lanes":0,"name":"","oneway":false},"geometry":{"type":"LineString","coordinates":[[127.14115,37.46718],[127.14116,37.46731]]}},{"type":"Feature","properties":{"class":"alley","highway":"service","sidewalk":"unknown","lanes":0,"name":"","oneway":false},"geometry":{"type":"LineString","coordinates":[[127.14116,37.46731],[127.14117,37.46746]]}},{"type":"Feature","properties":{"class":"alley","highway":"service","sidewalk":"unknown","lanes":0,"name":"","oneway":false},"geometry":{"type":"LineString","coordinates":[[127.14115,37.46718],[127.14115,37.46698]]}},{"type":"Feature","properties":{"class":"alley","highway":"service","sidewalk":"unknown","lanes":0,"name":"","oneway":false},"geometry":{"type":"LineString","coordinates":[[127.14115,37.46698],[127.14115,37.46688]]}},{"type":"Feature","properties":{"class":"alley","highway":"service","sidewalk":"unknown","lanes":0,"name":"","oneway":false},"geometry":{"type":"LineString","coordinates":[[127.1442,37.47654],[127.14432,37.47653],[127.14446,37.47652],[127.14453,37.4765],[127.14458,37.47647],[127.14468,37.4764],[127.14473,37.47636]]}},{"type":"Feature","properties":{"class":"alley","highway":"service","sidewalk":"unknown","lanes":0,"name":"","oneway":false},"geometry":{"type":"LineString","coordinates":[[127.14473,37.47636],[127.14481,37.47629],[127.14483,37.47628],[127.14486,37.47627],[127.14492,37.47626],[127.14502,37.47626]]}},{"type":"Feature","properties":{"class":"alley","highway":"pedestrian","sidewalk":"unknown","lanes":0,"name":"","oneway":false},"geometry":{"type":"LineString","coordinates":[[127.14699,37.47658],[127.14708,37.47658],[127.14709,37.47658],[127.14708,37.47642],[127.14707,37.47635],[127.14705,37.47626],[127.14701,37.47626],[127.147,37.4763],[127.14697,37.4763],[127.14699,37.47658]]}},{"type":"Feature","properties":{"class":"alley","highway":"pedestrian","sidewalk":"unknown","lanes":0,"name":"위례휴먼링 보행자전용도로","oneway":false},"geometry":{"type":"LineString","coordinates":[[127.14706,37.47752],[127.14708,37.47747],[127.1471,37.47742],[127.14711,37.47738],[127.1471,37.47699],[127.14709,37.47671],[127.14708,37.47658]]}},{"type":"Feature","properties":{"class":"alley","highway":"service","sidewalk":"unknown","lanes":0,"name":"","oneway":false},"geometry":{"type":"LineString","coordinates":[[127.14352,37.47527],[127.14368,37.47525],[127.14384,37.47524],[127.14388,37.47524],[127.14393,37.47523],[127.14396,37.47521],[127.14405,37.47518]]}},{"type":"Feature","properties":{"class":"alley","highway":"service","sidewalk":"unknown","lanes":0,"name":"","oneway":false},"geometry":{"type":"LineString","coordinates":[[127.14405,37.47518],[127.14421,37.4751],[127.14425,37.47508],[127.14428,37.47507],[127.14432,37.47506],[127.14435,37.47506]]}},{"type":"Feature","properties":{"class":"alley","highway":"service","sidewalk":"unknown","lanes":0,"name":"","oneway":false},"geometry":{"type":"LineString","coordinates":[[127.14396,37.47521],[127.144,37.47515],[127.14402,37.47509],[127.14402,37.47506],[127.14402,37.47499]]}},{"type":"Feature","properties":{"class":"alley","highway":"service","sidewalk":"unknown","lanes":0,"name":"","oneway":false},"geometry":{"type":"LineString","coordinates":[[127.14402,37.47509],[127.14427,37.47499],[127.14431,37.47498],[127.14436,37.47499],[127.14439,37.47501],[127.1444,37.47503],[127.1444,37.47507],[127.14437,37.4751],[127.14434,37.47511],[127.14429,37.47512],[127.14426,37.47513],[127.14402,37.47522],[127.14396,37.47521]]}},{"type":"Feature","properties":{"class":"alley","highway":"service","sidewalk":"unknown","lanes":0,"name":"","oneway":false},"geometry":{"type":"LineString","coordinates":[[127.14849,37.47385],[127.1485,37.47393],[127.1485,37.47401],[127.14851,37.47419],[127.14852,37.47426],[127.14855,37.47431],[127.14859,37.47435],[127.14869,37.47443]]}},{"type":"Feature","properties":{"class":"alley","highway":"service","sidewalk":"unknown","lanes":0,"name":"","oneway":false},"geometry":{"type":"LineString","coordinates":[[127.14869,37.47443],[127.14884,37.47453]]}},{"type":"Feature","properties":{"class":"alley","highway":"service","sidewalk":"unknown","lanes":0,"name":"","oneway":false},"geometry":{"type":"LineString","coordinates":[[127.15057,37.4749],[127.15049,37.47489],[127.15035,37.47489],[127.15028,37.47491],[127.15023,37.47494],[127.15018,37.47496],[127.15007,37.47497],[127.14996,37.47497],[127.14993,37.47498],[127.1499,37.47499]]}},{"type":"Feature","properties":{"class":"alley","highway":"service","sidewalk":"unknown","lanes":0,"name":"","oneway":false},"geometry":{"type":"LineString","coordinates":[[127.1499,37.47499],[127.14966,37.47519]]}},{"type":"Feature","properties":{"class":"alley","highway":"service","sidewalk":"unknown","lanes":0,"name":"","oneway":false},"geometry":{"type":"LineString","coordinates":[[127.15045,37.47269],[127.1506,37.47268],[127.15065,37.47268],[127.1509,37.47267]]}},{"type":"Feature","properties":{"class":"alley","highway":"service","sidewalk":"unknown","lanes":0,"name":"","oneway":false},"geometry":{"type":"LineString","coordinates":[[127.15065,37.47268],[127.15066,37.47273],[127.15066,37.47277],[127.15068,37.47279],[127.15071,37.47279],[127.15095,37.47279]]}},{"type":"Feature","properties":{"class":"alley","highway":"service","sidewalk":"unknown","lanes":0,"name":"","oneway":false},"geometry":{"type":"LineString","coordinates":[[127.1544,37.47265],[127.15425,37.47267],[127.15404,37.47268]]}},{"type":"Feature","properties":{"class":"alley","highway":"service","sidewalk":"unknown","lanes":0,"name":"","oneway":false},"geometry":{"type":"LineString","coordinates":[[127.15404,37.47268],[127.15366,37.47269]]}},{"type":"Feature","properties":{"class":"alley","highway":"service","sidewalk":"unknown","lanes":0,"name":"","oneway":false},"geometry":{"type":"LineString","coordinates":[[127.1518,37.46979],[127.15181,37.46948],[127.15181,37.46934],[127.15181,37.46921]]}},{"type":"Feature","properties":{"class":"alley","highway":"service","sidewalk":"unknown","lanes":0,"name":"","oneway":false},"geometry":{"type":"LineString","coordinates":[[127.15181,37.46921],[127.15169,37.46921]]}},{"type":"Feature","properties":{"class":"alley","highway":"service","sidewalk":"unknown","lanes":0,"name":"","oneway":false},"geometry":{"type":"LineString","coordinates":[[127.15169,37.46921],[127.15153,37.46921]]}},{"type":"Feature","properties":{"class":"alley","highway":"service","sidewalk":"unknown","lanes":0,"name":"","oneway":false},"geometry":{"type":"LineString","coordinates":[[127.15181,37.46921],[127.15191,37.46921],[127.15193,37.46921]]}},{"type":"Feature","properties":{"class":"alley","highway":"service","sidewalk":"unknown","lanes":0,"name":"","oneway":false},"geometry":{"type":"LineString","coordinates":[[127.15193,37.46921],[127.15206,37.46921]]}},{"type":"Feature","properties":{"class":"alley","highway":"service","sidewalk":"unknown","lanes":0,"name":"","oneway":true},"geometry":{"type":"LineString","coordinates":[[127.15181,37.46921],[127.15177,37.46917],[127.15177,37.46908],[127.15182,37.46905],[127.15186,37.46907],[127.15186,37.46918],[127.15181,37.46921]]}},{"type":"Feature","properties":{"class":"alley","highway":"living_street","sidewalk":"unknown","lanes":0,"name":"","oneway":false},"geometry":{"type":"LineString","coordinates":[[127.15177,37.46908],[127.15167,37.469],[127.15161,37.46901],[127.1514,37.4692],[127.15137,37.46922],[127.15112,37.46945],[127.15107,37.46945],[127.15099,37.46939],[127.15084,37.46928],[127.15074,37.46928],[127.15049,37.46951]]}},{"type":"Feature","properties":{"class":"alley","highway":"living_street","sidewalk":"unknown","lanes":0,"name":"","oneway":false},"geometry":{"type":"LineString","coordinates":[[127.1514,37.4692],[127.15181,37.46948]]}},{"type":"Feature","properties":{"class":"alley","highway":"living_street","sidewalk":"unknown","lanes":0,"name":"","oneway":false},"geometry":{"type":"LineString","coordinates":[[127.15186,37.46907],[127.15188,37.46902],[127.15196,37.46887],[127.15203,37.46877],[127.15212,37.46869],[127.15222,37.46865],[127.15236,37.46862],[127.15249,37.4686],[127.15255,37.4686],[127.15291,37.46859],[127.1534,37.46858],[127.15348,37.46858],[127.15358,37.46861],[127.15369,37.46866],[127.15372,37.46868],[127.15378,37.46871],[127.1538,37.46873],[127.15391,37.46882],[127.15398,37.46886],[127.15408,37.46889],[127.15431,37.46892],[127.15442,37.46895],[127.15452,37.46899],[127.15462,37.46904],[127.15473,37.46912],[127.15489,37.46927],[127.1549,37.46928],[127.15499,37.46933],[127.155,37.46934],[127.15509,37.46938],[127.15522,37.46943],[127.15534,37.4695],[127.15546,37.46957],[127.15554,37.46965],[127.15554,37.46965],[127.15556,37.46966],[127.15569,37.46979],[127.15577,37.46983],[127.1558,37.46984],[127.15585,37.46985],[127.15592,37.46986],[127.15596,37.46988],[127.15598,37.46992],[127.156,37.46999],[127.15599,37.47004],[127.15596,37.47008]]}},{"type":"Feature","properties":{"class":"alley","highway":"pedestrian","sidewalk":"unknown","lanes":0,"name":"","oneway":false},"geometry":{"type":"LineString","coordinates":[[127.1539,37.46971],[127.15404,37.46975],[127.15409,37.46974],[127.15418,37.46972],[127.15435,37.46965],[127.15453,37.46952],[127.15457,37.46946],[127.15447,37.46937],[127.15443,37.46939],[127.15438,37.46938],[127.15428,37.46928],[127.15425,37.46928],[127.15403,37.46942],[127.15398,37.46945],[127.1541,37.46957],[127.1539,37.46971]]}},{"type":"Feature","properties":{"class":"alley","highway":"service","sidewalk":"unknown","lanes":0,"name":"","oneway":false},"geometry":{"type":"LineString","coordinates":[[127.15414,37.47111],[127.15443,37.47103],[127.15447,37.47103],[127.15472,37.47099],[127.15474,37.47098],[127.15482,37.47097],[127.15497,37.47093],[127.1551,37.47086]]}},{"type":"Feature","properties":{"class":"alley","highway":"service","sidewalk":"unknown","lanes":0,"name":"","oneway":false},"geometry":{"type":"LineString","coordinates":[[127.1551,37.47086],[127.15526,37.47076]]}},{"type":"Feature","properties":{"class":"alley","highway":"service","sidewalk":"unknown","lanes":0,"name":"","oneway":true},"geometry":{"type":"LineString","coordinates":[[127.15474,37.47098],[127.15492,37.47087],[127.15522,37.47066],[127.15528,37.47063],[127.15534,37.4706]]}},{"type":"Feature","properties":{"class":"alley","highway":"service","sidewalk":"unknown","lanes":0,"name":"","oneway":true},"geometry":{"type":"LineString","coordinates":[[127.15534,37.4706],[127.15528,37.47067],[127.15529,37.47071],[127.15533,37.47075],[127.15534,37.47077],[127.15532,37.4708],[127.1553,37.47082],[127.15504,37.47099],[127.15501,37.471],[127.15496,37.47101],[127.15488,37.471],[127.15472,37.47099]]}},{"type":"Feature","properties":{"class":"alley","highway":"service","sidewalk":"unknown","lanes":0,"name":"","oneway":false},"geometry":{"type":"LineString","coordinates":[[127.15534,37.4706],[127.15563,37.47043]]}},{"type":"Feature","properties":{"class":"alley","highway":"service","sidewalk":"unknown","lanes":0,"name":"","oneway":false},"geometry":{"type":"LineString","coordinates":[[127.15563,37.47043],[127.15577,37.47034],[127.15579,37.47031]]}},{"type":"Feature","properties":{"class":"alley","highway":"service","sidewalk":"unknown","lanes":0,"name":"","oneway":false},"geometry":{"type":"LineString","coordinates":[[127.15488,37.471],[127.15488,37.47104],[127.15488,37.47119]]}},{"type":"Feature","properties":{"class":"alley","highway":"service","sidewalk":"unknown","lanes":0,"name":"","oneway":false},"geometry":{"type":"LineString","coordinates":[[127.15341,37.46699],[127.15352,37.46706],[127.15354,37.46709],[127.15358,37.46727],[127.15289,37.46735]]}},{"type":"Feature","properties":{"class":"minor","highway":"unclassified","sidewalk":"unknown","lanes":2,"name":"창곡천자전거길","oneway":false},"geometry":{"type":"LineString","coordinates":[[127.15025,37.46863],[127.15038,37.46854],[127.15046,37.46844],[127.15093,37.46795],[127.15122,37.46768],[127.15133,37.46758],[127.15141,37.46751],[127.15148,37.46746],[127.15153,37.46744],[127.15162,37.46741],[127.15266,37.46726]]}},{"type":"Feature","properties":{"class":"alley","highway":"pedestrian","sidewalk":"unknown","lanes":0,"name":"","oneway":false},"geometry":{"type":"LineString","coordinates":[[127.15069,37.4679],[127.15057,37.46771],[127.15092,37.46757],[127.15097,37.46766],[127.15104,37.46776],[127.15069,37.4679]]}},{"type":"Feature","properties":{"class":"alley","highway":"pedestrian","sidewalk":"unknown","lanes":0,"name":"","oneway":false},"geometry":{"type":"LineString","coordinates":[[127.15263,37.46752],[127.15262,37.46746],[127.1527,37.46745],[127.15279,37.46744],[127.15281,37.46752],[127.15277,37.46757],[127.15272,37.46762],[127.1527,37.46768],[127.1527,37.46775],[127.15273,37.4678],[127.15278,37.46786],[127.15279,37.4679],[127.15277,37.46793],[127.15275,37.46796],[127.1527,37.46797],[127.15265,37.46795],[127.15258,37.46789],[127.15257,37.46788],[127.15258,37.46785],[127.15259,37.46783],[127.15257,37.4678],[127.15256,37.46778],[127.15255,37.46776],[127.15256,37.46774],[127.15257,37.46771],[127.15254,37.46768],[127.15252,37.46765],[127.15252,37.46764],[127.15258,37.46757],[127.15263,37.46752]]}},{"type":"Feature","properties":{"class":"alley","highway":"pedestrian","sidewalk":"unknown","lanes":0,"name":"","oneway":false},"geometry":{"type":"LineString","coordinates":[[127.15408,37.46775],[127.15424,37.46775],[127.15424,37.46765],[127.15406,37.46766],[127.15408,37.46775]]}},{"type":"Feature","properties":{"class":"alley","highway":"service","sidewalk":"unknown","lanes":0,"name":"","oneway":false},"geometry":{"type":"LineString","coordinates":[[127.14988,37.46955],[127.14999,37.46954]]}},{"type":"Feature","properties":{"class":"major","highway":"primary","sidewalk":"likely","lanes":0,"name":"위례대로","oneway":true},"geometry":{"type":"LineString","coordinates":[[127.14652,37.47034],[127.14611,37.4697],[127.14585,37.46939]]}},{"type":"Feature","properties":{"class":"major","highway":"tertiary","sidewalk":"likely","lanes":0,"name":"위례순환로","oneway":false},"geometry":{"type":"LineString","coordinates":[[127.15028,37.46986],[127.14896,37.46991],[127.14835,37.46993],[127.14808,37.46994],[127.14773,37.47],[127.14732,37.4701],[127.14669,37.47028]]}},{"type":"Feature","properties":{"class":"major","highway":"primary","sidewalk":"likely","lanes":0,"name":"위례대로","oneway":true},"geometry":{"type":"LineString","coordinates":[[127.14607,37.46938],[127.14614,37.46947],[127.14641,37.46986],[127.14669,37.47028]]}},{"type":"Feature","properties":{"class":"major","highway":"tertiary","sidewalk":"likely","lanes":0,"name":"위례순환로","oneway":false},"geometry":{"type":"LineString","coordinates":[[127.14669,37.47028],[127.14652,37.47034]]}},{"type":"Feature","properties":{"class":"alley","highway":"service","sidewalk":"unknown","lanes":0,"name":"","oneway":false},"geometry":{"type":"LineString","coordinates":[[127.15244,37.46721],[127.15242,37.46709],[127.15239,37.46692],[127.15238,37.46684],[127.15238,37.4668],[127.15241,37.46678],[127.15244,37.46677]]}},{"type":"Feature","properties":{"class":"alley","highway":"service","sidewalk":"unknown","lanes":0,"name":"","oneway":false},"geometry":{"type":"LineString","coordinates":[[127.15244,37.46677],[127.15255,37.46676]]}},{"type":"Feature","properties":{"class":"alley","highway":"service","sidewalk":"unknown","lanes":0,"name":"","oneway":false},"geometry":{"type":"LineString","coordinates":[[127.15118,37.46739],[127.15116,37.4673],[127.15119,37.46727],[127.15125,37.46726],[127.15149,37.46723],[127.15151,37.46722],[127.15152,37.4672],[127.15153,37.46717],[127.15151,37.46705]]}},{"type":"Feature","properties":{"class":"alley","highway":"service","sidewalk":"unknown","lanes":0,"name":"","oneway":false},"geometry":{"type":"LineString","coordinates":[[127.1545,37.4747],[127.15458,37.47472],[127.15469,37.47474],[127.15484,37.47475],[127.15494,37.47475]]}},{"type":"Feature","properties":{"class":"alley","highway":"service","sidewalk":"unknown","lanes":0,"name":"","oneway":false},"geometry":{"type":"LineString","coordinates":[[127.15494,37.47475],[127.15503,37.47474],[127.15513,37.47474],[127.15521,37.47472]]}},{"type":"Feature","properties":{"class":"alley","highway":"service","sidewalk":"unknown","lanes":0,"name":"","oneway":false},"geometry":{"type":"LineString","coordinates":[[127.1544,37.47265],[127.15469,37.47263],[127.15478,37.47263],[127.15499,37.47262]]}},{"type":"Feature","properties":{"class":"alley","highway":"service","sidewalk":"unknown","lanes":0,"name":"","oneway":false},"geometry":{"type":"LineString","coordinates":[[127.15478,37.47263],[127.15478,37.47272]]}},{"type":"Feature","properties":{"class":"alley","highway":"service","sidewalk":"unknown","lanes":0,"name":"","oneway":false},"geometry":{"type":"LineString","coordinates":[[127.15478,37.47272],[127.15478,37.4728]]}},{"type":"Feature","properties":{"class":"alley","highway":"service","sidewalk":"unknown","lanes":0,"name":"","oneway":false},"geometry":{"type":"LineString","coordinates":[[127.15499,37.47262],[127.15513,37.47262]]}},{"type":"Feature","properties":{"class":"alley","highway":"service","sidewalk":"unknown","lanes":0,"name":"","oneway":false},"geometry":{"type":"LineString","coordinates":[[127.14788,37.46496],[127.1479,37.46503],[127.14794,37.46508]]}},{"type":"Feature","properties":{"class":"alley","highway":"service","sidewalk":"unknown","lanes":0,"name":"","oneway":false},"geometry":{"type":"LineString","coordinates":[[127.14824,37.4654],[127.14818,37.46534]]}},{"type":"Feature","properties":{"class":"alley","highway":"service","sidewalk":"unknown","lanes":0,"name":"","oneway":false},"geometry":{"type":"LineString","coordinates":[[127.14153,37.4656],[127.14168,37.46577]]}},{"type":"Feature","properties":{"class":"alley","highway":"service","sidewalk":"unknown","lanes":0,"name":"","oneway":false},"geometry":{"type":"LineString","coordinates":[[127.14168,37.46577],[127.14176,37.46586]]}},{"type":"Feature","properties":{"class":"alley","highway":"service","sidewalk":"unknown","lanes":0,"name":"","oneway":false},"geometry":{"type":"LineString","coordinates":[[127.14577,37.47812],[127.14584,37.47806],[127.14584,37.478],[127.14584,37.47796]]}},{"type":"Feature","properties":{"class":"alley","highway":"service","sidewalk":"unknown","lanes":0,"name":"","oneway":false},"geometry":{"type":"LineString","coordinates":[[127.14061,37.47015],[127.14076,37.47018],[127.14093,37.47018]]}},{"type":"Feature","properties":{"class":"alley","highway":"service","sidewalk":"unknown","lanes":0,"name":"","oneway":false},"geometry":{"type":"LineString","coordinates":[[127.14093,37.47018],[127.14099,37.47018],[127.14103,37.47019],[127.14107,37.47022],[127.14108,37.47025],[127.14108,37.47029]]}},{"type":"Feature","properties":{"class":"alley","highway":"service","sidewalk":"unknown","lanes":0,"name":"","oneway":false},"geometry":{"type":"LineString","coordinates":[[127.14061,37.47015],[127.14047,37.47012],[127.14034,37.47012],[127.14028,37.47012],[127.14024,37.47011],[127.14019,37.4701]]}},{"type":"Feature","properties":{"class":"alley","highway":"service","sidewalk":"unknown","lanes":0,"name":"","oneway":false},"geometry":{"type":"LineString","coordinates":[[127.14019,37.4701],[127.14009,37.47005]]}},{"type":"Feature","properties":{"class":"alley","highway":"service","sidewalk":"unknown","lanes":0,"name":"","oneway":false},"geometry":{"type":"LineString","coordinates":[[127.14078,37.47308],[127.14061,37.47308],[127.14025,37.47309]]}},{"type":"Feature","properties":{"class":"alley","highway":"service","sidewalk":"unknown","lanes":0,"name":"","oneway":false},"geometry":{"type":"LineString","coordinates":[[127.14025,37.47309],[127.14004,37.4731]]}},{"type":"Feature","properties":{"class":"alley","highway":"pedestrian","sidewalk":"unknown","lanes":0,"name":"","oneway":false},"geometry":{"type":"LineString","coordinates":[[127.14239,37.46787],[127.14239,37.46789],[127.14239,37.46798],[127.14273,37.46797],[127.14273,37.46791],[127.14278,37.46791],[127.14278,37.46794],[127.14285,37.46794],[127.14282,37.4679],[127.14289,37.4679],[127.14285,37.46785],[127.14239,37.46787]]}},{"type":"Feature","properties":{"class":"alley","highway":"pedestrian","sidewalk":"unknown","lanes":0,"name":"","oneway":false},"geometry":{"type":"LineString","coordinates":[[127.14639,37.46874],[127.14638,37.46876],[127.14627,37.46896],[127.146,37.46895],[127.14604,37.46875],[127.14639,37.46874]]}},{"type":"Feature","properties":{"class":"alley","highway":"service","sidewalk":"unknown","lanes":0,"name":"","oneway":false},"geometry":{"type":"LineString","coordinates":[[127.1438,37.47246],[127.1438,37.47268]]}},{"type":"Feature","properties":{"class":"alley","highway":"service","sidewalk":"unknown","lanes":0,"name":"","oneway":false},"geometry":{"type":"LineString","coordinates":[[127.15057,37.4749],[127.15065,37.47489],[127.15082,37.47488],[127.15091,37.47486]]}},{"type":"Feature","properties":{"class":"alley","highway":"service","sidewalk":"unknown","lanes":0,"name":"","oneway":false},"geometry":{"type":"LineString","coordinates":[[127.15091,37.47486],[127.15102,37.47481],[127.15118,37.47475],[127.15121,37.47475]]}},{"type":"Feature","properties":{"class":"alley","highway":"service","sidewalk":"unknown","lanes":0,"name":"","oneway":false},"geometry":{"type":"LineString","coordinates":[[127.15121,37.47475],[127.15127,37.47476],[127.15131,37.47477]]}},{"type":"Feature","properties":{"class":"alley","highway":"service","sidewalk":"unknown","lanes":0,"name":"","oneway":false},"geometry":{"type":"LineString","coordinates":[[127.15091,37.47486],[127.15089,37.47449]]}},{"type":"Feature","properties":{"class":"alley","highway":"service","sidewalk":"unknown","lanes":0,"name":"","oneway":false},"geometry":{"type":"LineString","coordinates":[[127.1545,37.4747],[127.15439,37.47469],[127.1543,37.47469],[127.15423,37.47467],[127.15417,37.47464],[127.15408,37.47455]]}},{"type":"Feature","properties":{"class":"alley","highway":"service","sidewalk":"unknown","lanes":0,"name":"","oneway":false},"geometry":{"type":"LineString","coordinates":[[127.15408,37.47455],[127.15393,37.47437],[127.15388,37.47435],[127.15382,37.47435]]}},{"type":"Feature","properties":{"class":"alley","highway":"service","sidewalk":"unknown","lanes":0,"name":"","oneway":false},"geometry":{"type":"LineString","coordinates":[[127.13995,37.46574],[127.14012,37.46566]]}},{"type":"Feature","properties":{"class":"alley","highway":"service","sidewalk":"unknown","lanes":0,"name":"","oneway":false},"geometry":{"type":"LineString","coordinates":[[127.13982,37.46559],[127.14005,37.46547]]}},{"type":"Feature","properties":{"class":"major","highway":"tertiary","sidewalk":"likely","lanes":0,"name":"위례순환로","oneway":false},"geometry":{"type":"LineString","coordinates":[[127.14173,37.47828],[127.14193,37.47827],[127.14273,37.47823],[127.14292,37.47823],[127.14299,37.47822],[127.14304,37.47822],[127.14312,37.47822],[127.14339,37.47821],[127.14413,37.47819],[127.14431,37.47818]]}},{"type":"Feature","properties":{"class":"major","highway":"tertiary","sidewalk":"likely","lanes":0,"name":"위례광장로","oneway":false},"geometry":{"type":"LineString","coordinates":[[127.14173,37.47828],[127.14172,37.47811],[127.1417,37.47777],[127.14168,37.47748],[127.14167,37.4772],[127.14165,37.47691],[127.14152,37.47662],[127.14148,37.47653],[127.14118,37.47604],[127.14108,37.47589],[127.14097,37.4756],[127.14096,37.47552],[127.14093,37.47539],[127.14092,37.47528],[127.14092,37.47523],[127.14086,37.47431]]}},{"type":"Feature","properties":{"class":"alley","highway":"service","sidewalk":"unknown","lanes":0,"name":"","oneway":false},"geometry":{"type":"LineString","coordinates":[[127.14849,37.47385],[127.14849,37.47381],[127.14849,37.47376]]}},{"type":"Feature","properties":{"class":"alley","highway":"service","sidewalk":"unknown","lanes":0,"name":"","oneway":true},"geometry":{"type":"LineString","coordinates":[[127.14849,37.47376],[127.14839,37.47368],[127.14836,37.47362],[127.14836,37.47356],[127.14841,37.47353],[127.14846,37.47353],[127.14848,37.47354],[127.1485,37.47355],[127.14853,37.47362],[127.14855,37.47367],[127.14849,37.47376]]}},{"type":"Feature","properties":{"class":"alley","highway":"service","sidewalk":"unknown","lanes":0,"name":"","oneway":true},"geometry":{"type":"LineString","coordinates":[[127.14836,37.47356],[127.14838,37.47346],[127.14841,37.47343]]}},{"type":"Feature","properties":{"class":"alley","highway":"service","sidewalk":"unknown","lanes":0,"name":"","oneway":true},"geometry":{"type":"LineString","coordinates":[[127.14841,37.47343],[127.14843,37.47348],[127.14848,37.47354]]}},{"type":"Feature","properties":{"class":"alley","highway":"service","sidewalk":"unknown","lanes":0,"name":"","oneway":false},"geometry":{"type":"LineString","coordinates":[[127.14948,37.47206],[127.1492,37.47207]]}},{"type":"Feature","properties":{"class":"alley","highway":"service","sidewalk":"unknown","lanes":0,"name":"","oneway":true},"geometry":{"type":"LineString","coordinates":[[127.14081,37.47351],[127.14094,37.47363],[127.14101,37.47366],[127.14105,37.47366],[127.14107,37.47366]]}},{"type":"Feature","properties":{"class":"alley","highway":"service","sidewalk":"unknown","lanes":0,"name":"","oneway":true},"geometry":{"type":"LineString","coordinates":[[127.14107,37.47366],[127.14115,37.47366]]}},{"type":"Feature","properties":{"class":"alley","highway":"service","sidewalk":"unknown","lanes":0,"name":"","oneway":true},"geometry":{"type":"LineString","coordinates":[[127.14097,37.47241],[127.14085,37.47245],[127.1408,37.47251],[127.14076,37.47263]]}},{"type":"Feature","properties":{"class":"alley","highway":"service","sidewalk":"unknown","lanes":0,"name":"","oneway":true},"geometry":{"type":"LineString","coordinates":[[127.14106,37.47241],[127.14097,37.47241]]}},{"type":"Feature","properties":{"class":"major","highway":"tertiary","sidewalk":"likely","lanes":0,"name":"위례광장로","oneway":false},"geometry":{"type":"LineString","coordinates":[[127.14076,37.47263],[127.14064,37.47102],[127.14061,37.47015],[127.14056,37.46971],[127.14056,37.46968],[127.14055,37.46959]]}},{"type":"Feature","properties":{"class":"major","highway":"tertiary","sidewalk":"likely","lanes":0,"name":"위례광장로","oneway":false},"geometry":{"type":"LineString","coordinates":[[127.14081,37.47351],[127.14078,37.47308]]}},{"type":"Feature","properties":{"class":"major","highway":"tertiary","sidewalk":"likely","lanes":0,"name":"위례광장로","oneway":false},"geometry":{"type":"LineString","coordinates":[[127.14078,37.47308],[127.14076,37.47263]]}},{"type":"Feature","properties":{"class":"alley","highway":"service","sidewalk":"unknown","lanes":0,"name":"","oneway":false},"geometry":{"type":"LineString","coordinates":[[127.14157,37.47536],[127.14157,37.47527],[127.14157,37.47524]]}},{"type":"Feature","properties":{"class":"alley","highway":"service","sidewalk":"unknown","lanes":0,"name":"","oneway":false},"geometry":{"type":"LineString","coordinates":[[127.14157,37.47524],[127.14157,37.47513]]}},{"type":"Feature","properties":{"class":"alley","highway":"pedestrian","sidewalk":"unknown","lanes":0,"name":"","oneway":false},"geometry":{"type":"LineString","coordinates":[[127.15678,37.46973],[127.1568,37.46972],[127.15681,37.46971],[127.15682,37.4697],[127.15683,37.46968],[127.15682,37.46966],[127.15681,37.46964],[127.15679,37.46963],[127.15677,37.46963],[127.15674,37.46963],[127.15672,37.46964],[127.15671,37.46965],[127.1567,37.46966],[127.15669,37.46968],[127.1567,37.4697],[127.1567,37.46971],[127.15672,37.46972],[127.15673,37.46973],[127.15675,37.46973],[127.15678,37.46973]]}},{"type":"Feature","properties":{"class":"alley","highway":"service","sidewalk":"unknown","lanes":0,"name":"","oneway":false},"geometry":{"type":"LineString","coordinates":[[127.14442,37.47999],[127.14387,37.48001]]}},{"type":"Feature","properties":{"class":"alley","highway":"service","sidewalk":"unknown","lanes":0,"name":"","oneway":false},"geometry":{"type":"LineString","coordinates":[[127.14435,37.47892],[127.14394,37.47894],[127.14376,37.47882]]}},{"type":"Feature","properties":{"class":"alley","highway":"service","sidewalk":"unknown","lanes":0,"name":"","oneway":true},"geometry":{"type":"LineString","coordinates":[[127.14887,37.47944],[127.14899,37.47944],[127.14906,37.47943]]}},{"type":"Feature","properties":{"class":"alley","highway":"service","sidewalk":"unknown","lanes":0,"name":"","oneway":false},"geometry":{"type":"LineString","coordinates":[[127.14867,37.47959],[127.14887,37.47958]]}},{"type":"Feature","properties":{"class":"alley","highway":"service","sidewalk":"unknown","lanes":0,"name":"","oneway":true},"geometry":{"type":"LineString","coordinates":[[127.14867,37.47945],[127.14887,37.47944]]}},{"type":"Feature","properties":{"class":"alley","highway":"service","sidewalk":"unknown","lanes":0,"name":"","oneway":false},"geometry":{"type":"LineString","coordinates":[[127.14887,37.47958],[127.14889,37.47958],[127.149,37.47958],[127.14907,37.47958]]}},{"type":"Feature","properties":{"class":"alley","highway":"service","sidewalk":"unknown","lanes":0,"name":"","oneway":true},"geometry":{"type":"LineString","coordinates":[[127.14819,37.47937],[127.14818,37.47921],[127.14817,37.47914]]}},{"type":"Feature","properties":{"class":"alley","highway":"service","sidewalk":"unknown","lanes":0,"name":"","oneway":true},"geometry":{"type":"LineString","coordinates":[[127.14874,37.47927],[127.14852,37.47928]]}},{"type":"Feature","properties":{"class":"alley","highway":"service","sidewalk":"unknown","lanes":0,"name":"","oneway":false},"geometry":{"type":"LineString","coordinates":[[127.14883,37.47836],[127.14883,37.47832]]}},{"type":"Feature","properties":{"class":"alley","highway":"service","sidewalk":"unknown","lanes":0,"name":"","oneway":true},"geometry":{"type":"LineString","coordinates":[[127.14894,37.47836],[127.14894,37.47871]]}},{"type":"Feature","properties":{"class":"alley","highway":"service","sidewalk":"unknown","lanes":0,"name":"","oneway":true},"geometry":{"type":"LineString","coordinates":[[127.14885,37.4782],[127.14894,37.4782],[127.14894,37.47827]]}},{"type":"Feature","properties":{"class":"alley","highway":"service","sidewalk":"unknown","lanes":0,"name":"","oneway":true},"geometry":{"type":"LineString","coordinates":[[127.14894,37.47827],[127.14894,37.47836]]}},{"type":"Feature","properties":{"class":"alley","highway":"service","sidewalk":"unknown","lanes":0,"name":"","oneway":false},"geometry":{"type":"LineString","coordinates":[[127.14904,37.47911],[127.14907,37.47906],[127.14907,37.47905],[127.14907,37.47879]]}},{"type":"Feature","properties":{"class":"alley","highway":"service","sidewalk":"unknown","lanes":0,"name":"","oneway":false},"geometry":{"type":"LineString","coordinates":[[127.14882,37.47871],[127.14875,37.47871]]}},{"type":"Feature","properties":{"class":"alley","highway":"service","sidewalk":"unknown","lanes":0,"name":"","oneway":true},"geometry":{"type":"LineString","coordinates":[[127.14875,37.47871],[127.1486,37.47871]]}},{"type":"Feature","properties":{"class":"alley","highway":"service","sidewalk":"unknown","lanes":0,"name":"","oneway":false},"geometry":{"type":"LineString","coordinates":[[127.14907,37.47879],[127.14906,37.47875],[127.14905,37.47874],[127.14901,37.47872],[127.14898,37.47871],[127.14894,37.47871]]}},{"type":"Feature","properties":{"class":"alley","highway":"service","sidewalk":"unknown","lanes":0,"name":"","oneway":false},"geometry":{"type":"LineString","coordinates":[[127.1516,37.47737],[127.1517,37.47748],[127.1516,37.47753]]}},{"type":"Feature","properties":{"class":"alley","highway":"service","sidewalk":"unknown","lanes":0,"name":"","oneway":false},"geometry":{"type":"LineString","coordinates":[[127.15152,37.47727],[127.15156,37.47732],[127.15159,37.47735],[127.1516,37.47737]]}},{"type":"Feature","properties":{"class":"alley","highway":"service","sidewalk":"unknown","lanes":0,"name":"","oneway":false},"geometry":{"type":"LineString","coordinates":[[127.15166,37.47719],[127.15171,37.47725],[127.1518,37.47733],[127.152,37.47728]]}},{"type":"Feature","properties":{"class":"alley","highway":"service","sidewalk":"unknown","lanes":0,"name":"","oneway":false},"geometry":{"type":"LineString","coordinates":[[127.15245,37.477],[127.15243,37.47697],[127.15237,37.47691],[127.15229,37.47682]]}},{"type":"Feature","properties":{"class":"alley","highway":"service","sidewalk":"unknown","lanes":0,"name":"","oneway":false},"geometry":{"type":"LineString","coordinates":[[127.15257,37.47713],[127.15245,37.477]]}},{"type":"Feature","properties":{"class":"alley","highway":"service","sidewalk":"unknown","lanes":0,"name":"","oneway":false},"geometry":{"type":"LineString","coordinates":[[127.15252,37.47693],[127.15246,37.47686],[127.15238,37.47677]]}},{"type":"Feature","properties":{"class":"alley","highway":"service","sidewalk":"unknown","lanes":0,"name":"","oneway":false},"geometry":{"type":"LineString","coordinates":[[127.15261,37.47704],[127.15254,37.47695],[127.15252,37.47693]]}},{"type":"Feature","properties":{"class":"alley","highway":"pedestrian","sidewalk":"unknown","lanes":0,"name":"위례휴먼링 보행자전용도로","oneway":false},"geometry":{"type":"LineString","coordinates":[[127.14686,37.47375],[127.14687,37.47369],[127.14682,37.47256],[127.14678,37.472],[127.14676,37.47181],[127.14671,37.47163],[127.14649,37.47095],[127.14633,37.47061]]}},{"type":"Feature","properties":{"class":"alley","highway":"pedestrian","sidewalk":"unknown","lanes":0,"name":"위례휴먼링 보행자전용도로","oneway":false},"geometry":{"type":"LineString","coordinates":[[127.14616,37.47029],[127.14615,37.47025],[127.1459,37.46986],[127.14582,37.46973],[127.14574,37.46951],[127.14559,37.46934]]}},{"type":"Feature","properties":{"class":"alley","highway":"pedestrian","sidewalk":"unknown","lanes":0,"name":"위례휴먼링 보행자전용도로","oneway":false},"geometry":{"type":"LineString","coordinates":[[127.14633,37.47061],[127.14616,37.47029]]}},{"type":"Feature","properties":{"class":"alley","highway":"pedestrian","sidewalk":"unknown","lanes":0,"name":"위례휴먼링 보행자전용도로","oneway":false},"geometry":{"type":"LineString","coordinates":[[127.14701,37.47626],[127.14706,37.47605],[127.14704,37.47579],[127.14702,37.47571],[127.14704,37.47566],[127.14703,37.47554],[127.14701,37.47497],[127.14698,37.47468],[127.14694,37.47446],[127.1469,37.47425],[127.14687,37.47419]]}},{"type":"Feature","properties":{"class":"alley","highway":"pedestrian","sidewalk":"unknown","lanes":0,"name":"위례휴먼링 보행자전용도로","oneway":false},"geometry":{"type":"LineString","coordinates":[[127.14687,37.47419],[127.14686,37.47375]]}}]}