{"type":"FeatureCollection","features":[{"type":"Feature","properties":{"class":"major","highway":"secondary","sidewalk":"yes","lanes":0,"name":"오리로","oneway":false},"geometry":{"type":"LineString","coordinates":[[126.86299,37.47686],[126.86257,37.47703],[126.86246,37.47708],[126.8622,37.47717],[126.86189,37.47728],[126.86179,37.4773],[126.86138,37.47742],[126.86069,37.47762],[126.86057,37.47766],[126.85978,37.47788],[126.85956,37.47795],[126.85892,37.47813],[126.8585,37.47825],[126.85756,37.47852],[126.85605,37.47896],[126.85494,37.47928],[126.8544,37.47943]]}},{"type":"Feature","properties":{"class":"alley","highway":"service","sidewalk":"unknown","lanes":0,"name":"","oneway":false},"geometry":{"type":"LineString","coordinates":[[126.85374,37.47962],[126.85357,37.47924],[126.85352,37.47915],[126.85349,37.47907],[126.85344,37.47898],[126.85319,37.47846]]}},{"type":"Feature","properties":{"class":"alley","highway":"service","sidewalk":"unknown","lanes":0,"name":"","oneway":false},"geometry":{"type":"LineString","coordinates":[[126.85383,37.47819],[126.85319,37.47846],[126.8527,37.47866],[126.85258,37.47871],[126.85221,37.47886],[126.85161,37.47912],[126.85134,37.47921],[126.85085,37.47939],[126.85067,37.47945],[126.85041,37.47953],[126.8499,37.4797],[126.84917,37.47994],[126.8486,37.48014]]}},{"type":"Feature","properties":{"class":"alley","highway":"service","sidewalk":"unknown","lanes":0,"name":"","oneway":false},"geometry":{"type":"LineString","coordinates":[[126.84962,37.4808],[126.84943,37.48045],[126.84917,37.47994],[126.84896,37.47949],[126.84894,37.47944],[126.84912,37.47899],[126.8491,37.47881]]}},{"type":"Feature","properties":{"class":"minor","highway":"residential","sidewalk":"unknown","lanes":0,"name":"광명로865번길","oneway":false},"geometry":{"type":"LineString","coordinates":[[126.84975,37.47795],[126.84989,37.47755],[126.84993,37.47747],[126.84999,37.47735],[126.85015,37.4773],[126.85023,37.47726],[126.85034,37.47718],[126.85042,37.47712],[126.85068,37.477],[126.85105,37.47691],[126.85117,37.47689],[126.85132,37.47685],[126.85144,37.47682],[126.85157,37.47678],[126.85181,37.47671],[126.85205,37.47663]]}},{"type":"Feature","properties":{"class":"alley","highway":"service","sidewalk":"unknown","lanes":0,"name":"","oneway":false},"geometry":{"type":"LineString","coordinates":[[126.85022,37.47814],[126.85043,37.47825],[126.85051,37.4783],[126.85056,37.47839],[126.85059,37.47847],[126.85058,37.47877],[126.85057,37.47893],[126.85085,37.47939]]}},{"type":"Feature","properties":{"class":"alley","highway":"service","sidewalk":"unknown","lanes":0,"name":"","oneway":false},"geometry":{"type":"LineString","coordinates":[[126.85058,37.47877],[126.85022,37.47879],[126.85002,37.47879],[126.84961,37.4788],[126.8491,37.47881],[126.84851,37.47885]]}},{"type":"Feature","properties":{"class":"alley","highway":"service","sidewalk":"unknown","lanes":0,"name":"","oneway":false},"geometry":{"type":"LineString","coordinates":[[126.85002,37.47879],[126.85001,37.47855],[126.85001,37.47799]]}},{"type":"Feature","properties":{"class":"alley","highway":"service","sidewalk":"unknown","lanes":0,"name":"","oneway":false},"geometry":{"type":"LineString","coordinates":[[126.85001,37.47855],[126.8486,37.47858],[126.84857,37.47861],[126.84851,37.47885]]}},{"type":"Feature","properties":{"class":"alley","highway":"service","sidewalk":"unknown","lanes":0,"name":"","oneway":false},"geometry":{"type":"LineString","coordinates":[[126.84851,37.47885],[126.8484,37.47958],[126.84894,37.47944]]}},{"type":"Feature","properties":{"class":"alley","highway":"service","sidewalk":"unknown","lanes":0,"name":"","oneway":false},"geometry":{"type":"LineString","coordinates":[[126.84851,37.47885],[126.84803,37.47885],[126.84794,37.47896],[126.84828,37.47965],[126.8484,37.47958]]}},{"type":"Feature","properties":{"class":"alley","highway":"service","sidewalk":"unknown","lanes":0,"name":"","oneway":false},"geometry":{"type":"LineString","coordinates":[[126.84878,37.47837],[126.84913,37.47833],[126.84944,37.47819],[126.84972,37.47804],[126.84974,37.478],[126.84975,37.47795]]}},{"type":"Feature","properties":{"class":"minor","highway":"residential","sidewalk":"unknown","lanes":0,"name":"광오로","oneway":false},"geometry":{"type":"LineString","coordinates":[[126.84969,37.47569],[126.85007,37.47558],[126.85045,37.47547],[126.8508,37.47537],[126.8509,37.47535],[126.85105,37.4753],[126.85123,37.47525],[126.85127,37.47524],[126.85158,37.47516],[126.8516,37.47515],[126.85175,37.47511],[126.85191,37.47507],[126.85232,37.47495]]}},{"type":"Feature","properties":{"class":"minor","highway":"residential","sidewalk":"unknown","lanes":0,"name":"광오로24번길","oneway":false},"geometry":{"type":"LineString","coordinates":[[126.85042,37.47712],[126.85039,37.47707],[126.85032,37.47695],[126.85014,37.47655],[126.84999,37.47626],[126.84969,37.47569]]}},{"type":"Feature","properties":{"class":"major","highway":"tertiary","sidewalk":"likely","lanes":0,"name":"광화로","oneway":false},"geometry":{"type":"LineString","coordinates":[[126.85123,37.47261],[126.85052,37.47283],[126.84986,37.47304],[126.84963,37.47312],[126.84903,37.47331],[126.8487,37.47341],[126.84725,37.47388],[126.84584,37.47433]]}},{"type":"Feature","properties":{"class":"minor","highway":"residential","sidewalk":"unknown","lanes":0,"name":"목감로","oneway":false},"geometry":{"type":"LineString","coordinates":[[126.84584,37.47433],[126.84593,37.4752],[126.84602,37.4759],[126.84608,37.47653],[126.84608,37.47683],[126.84602,37.47707],[126.84611,37.47785],[126.84613,37.47792],[126.84616,37.47801],[126.8462,37.47839],[126.84622,37.47874],[126.84623,37.47881],[126.84633,37.48017],[126.84635,37.48055]]}},{"type":"Feature","properties":{"class":"major","highway":"tertiary","sidewalk":"likely","lanes":0,"name":"","oneway":false},"geometry":{"type":"LineString","coordinates":[[126.84584,37.47433],[126.84491,37.47442]]}},{"type":"Feature","properties":{"class":"major","highway":"tertiary","sidewalk":"likely","lanes":0,"name":"광남로","oneway":false},"geometry":{"type":"LineString","coordinates":[[126.84578,37.4812],[126.84561,37.48051],[126.84545,37.47892],[126.84543,37.47867],[126.84534,37.47781],[126.84532,37.47761],[126.84509,37.47574],[126.84491,37.47442]]}},{"type":"Feature","properties":{"class":"major","highway":"tertiary","sidewalk":"likely","lanes":0,"name":"광남로","oneway":false},"geometry":{"type":"LineString","coordinates":[[126.84491,37.47442],[126.84467,37.47252],[126.84464,37.47224],[126.84461,37.47202],[126.84459,37.47186],[126.84457,37.47174],[126.84454,37.4716],[126.84452,37.47147],[126.84449,37.47134],[126.84445,37.47122],[126.84436,37.47092],[126.84428,37.47063],[126.84422,37.47043],[126.84418,37.4703],[126.84412,37.47017],[126.84405,37.47003],[126.84399,37.46991],[126.84393,37.46981],[126.84386,37.4697],[126.84377,37.4696],[126.84369,37.46951],[126.84362,37.46942],[126.84225,37.46804],[126.8419,37.46772],[126.84179,37.46761],[126.8417,37.46753],[126.84164,37.46744],[126.84157,37.46734],[126.8415,37.46722],[126.84145,37.46711],[126.84141,37.46701],[126.84137,37.4669],[126.84135,37.4668],[126.84133,37.4667],[126.84132,37.46661],[126.84131,37.46651],[126.84131,37.46641],[126.84132,37.46631],[126.84134,37.46619],[126.84141,37.46587]]}},{"type":"Feature","properties":{"class":"major","highway":"tertiary_link","sidewalk":"likely","lanes":0,"name":"광남교","oneway":true},"geometry":{"type":"LineString","coordinates":[[126.84524,37.47109],[126.84497,37.4714],[126.8449,37.47149],[126.84481,37.47161],[126.84478,37.47167],[126.84475,37.47173],[126.84471,37.47183],[126.84468,37.47195],[126.84464,37.47224]]}},{"type":"Feature","properties":{"class":"minor","highway":"residential","sidewalk":"unknown","lanes":0,"name":"","oneway":false},"geometry":{"type":"LineString","coordinates":[[126.84545,37.47892],[126.84622,37.47874]]}},{"type":"Feature","properties":{"class":"major","highway":"tertiary","sidewalk":"likely","lanes":0,"name":"두길로","oneway":false},"geometry":{"type":"LineString","coordinates":[[126.8394,37.47174],[126.83956,37.47173],[126.83969,37.47172],[126.83981,37.4717],[126.83995,37.47166],[126.84008,37.47162],[126.84023,37.47156],[126.84032,37.47152],[126.84072,37.47133],[126.84086,37.47127],[126.84102,37.47123],[126.84118,37.47119],[126.84135,37.47117],[126.8415,37.47116],[126.84167,37.47117],[126.8424,37.47125],[126.84273,37.47127],[126.84302,37.4713],[126.8432,37.4713],[126.84339,37.47131],[126.8436,37.47131],[126.84381,37.4713],[126.84397,37.47129]]}},{"type":"Feature","properties":{"class":"major","highway":"tertiary","sidewalk":"likely","lanes":0,"name":"","oneway":false},"geometry":{"type":"LineString","coordinates":[[126.84471,37.47111],[126.84524,37.47087]]}},{"type":"Feature","properties":{"class":"major","highway":"tertiary","sidewalk":"likely","lanes":0,"name":"새터로","oneway":false},"geometry":{"type":"LineString","coordinates":[[126.85539,37.47464],[126.85531,37.47456],[126.85501,37.47428],[126.85494,37.47422],[126.85486,37.47408],[126.85472,37.47384],[126.85469,37.47376],[126.85439,37.47296],[126.85434,37.47283],[126.85428,37.47266],[126.85418,37.47236],[126.85404,37.47197],[126.85397,37.47183],[126.85393,37.47178],[126.85391,37.47174],[126.85329,37.47006],[126.85326,37.46993],[126.85325,37.46977],[126.85326,37.46965],[126.8533,37.46955],[126.85362,37.46914]]}},{"type":"Feature","properties":{"class":"minor","highway":"residential","sidewalk":"unknown","lanes":0,"name":"새터로","oneway":true},"geometry":{"type":"LineString","coordinates":[[126.85539,37.47464],[126.85554,37.47475],[126.85567,37.47485],[126.85618,37.47524],[126.85627,37.47532],[126.85634,37.47537],[126.85637,37.47539]]}},{"type":"Feature","properties":{"class":"minor","highway":"residential","sidewalk":"unknown","lanes":0,"name":"광삼로","oneway":false},"geometry":{"type":"LineString","coordinates":[[126.85978,37.47788],[126.85985,37.47799],[126.85996,37.47807],[126.86005,37.47809],[126.86007,37.47809],[126.86012,37.47809],[126.86028,37.4782],[126.86052,37.47824],[126.86057,37.47825],[126.86069,37.47826],[126.86092,37.47826],[126.86107,37.47825],[126.86129,37.47824],[126.86161,37.47821],[126.86199,37.47821],[126.86239,37.4782],[126.8631,37.47796]]}},{"type":"Feature","properties":{"class":"alley","highway":"pedestrian","sidewalk":"unknown","lanes":0,"name":"오리로964번길","oneway":false},"geometry":{"type":"LineString","coordinates":[[126.85605,37.47896],[126.85623,37.47935],[126.85631,37.47953],[126.85658,37.4801],[126.8567,37.48036],[126.8571,37.48123]]}},{"type":"Feature","properties":{"class":"minor","highway":"residential","sidewalk":"unknown","lanes":0,"name":"광명로832번길","oneway":false},"geometry":{"type":"LineString","coordinates":[[126.85163,37.47346],[126.85211,37.47332],[126.85254,37.47319],[126.85328,37.47297],[126.85331,37.47296],[126.85355,37.47289],[126.85385,37.47279],[126.85428,37.47266]]}},{"type":"Feature","properties":{"class":"minor","highway":"residential","sidewalk":"unknown","lanes":0,"name":"광명로848번길","oneway":false},"geometry":{"type":"LineString","coordinates":[[126.85232,37.47495],[126.85286,37.47479],[126.85303,37.47474],[126.85323,37.47468],[126.85322,37.47465],[126.85306,37.47431],[126.85299,37.47415],[126.85278,37.47371],[126.85277,37.47369],[126.85266,37.47346],[126.85254,37.47319],[126.85227,37.47265],[126.8521,37.47231],[126.85202,37.47208],[126.85193,37.47183],[126.85189,37.47163],[126.85188,37.47125],[126.85182,37.47058],[126.85176,37.46995],[126.85175,37.46971],[126.85177,37.46952],[126.85182,37.46934],[126.85191,37.46904],[126.85191,37.46886],[126.85198,37.46852]]}},{"type":"Feature","properties":{"class":"minor","highway":"residential","sidewalk":"unknown","lanes":0,"name":"","oneway":false},"geometry":{"type":"LineString","coordinates":[[126.85575,37.47082],[126.85579,37.47096],[126.85587,37.47124],[126.85605,37.47181]]}},{"type":"Feature","properties":{"class":"minor","highway":"residential","sidewalk":"unknown","lanes":0,"name":"목감로","oneway":false},"geometry":{"type":"LineString","coordinates":[[126.84749,37.46874],[126.84681,37.46973],[126.84639,37.47001],[126.8463,37.4701],[126.84612,37.47037],[126.84561,37.47125]]}},{"type":"Feature","properties":{"class":"minor","highway":"residential","sidewalk":"unknown","lanes":0,"name":"새터로67번길","oneway":false},"geometry":{"type":"LineString","coordinates":[[126.85306,37.47431],[126.85364,37.47415],[126.8538,37.47411],[126.854,37.4741],[126.8543,37.47408],[126.85457,37.47413],[126.85494,37.47422]]}},{"type":"Feature","properties":{"class":"minor","highway":"residential","sidewalk":"unknown","lanes":0,"name":"오리로975번길","oneway":false},"geometry":{"type":"LineString","coordinates":[[126.85494,37.47928],[126.85476,37.47889],[126.85437,37.47804],[126.85424,37.47775],[126.85398,37.47718],[126.85363,37.47641]]}},{"type":"Feature","properties":{"class":"minor","highway":"residential","sidewalk":"unknown","lanes":0,"name":"","oneway":true},"geometry":{"type":"LineString","coordinates":[[126.85738,37.47812],[126.85694,37.47824],[126.8566,37.47835],[126.85624,37.47845],[126.85587,37.47856]]}},{"type":"Feature","properties":{"class":"minor","highway":"residential","sidewalk":"unknown","lanes":0,"name":"광명로888번길","oneway":false},"geometry":{"type":"LineString","coordinates":[[126.85383,37.47819],[126.85437,37.47804],[126.85475,37.47793],[126.85509,37.47783]]}},{"type":"Feature","properties":{"class":"minor","highway":"residential","sidewalk":"unknown","lanes":0,"name":"","oneway":false},"geometry":{"type":"LineString","coordinates":[[126.85605,37.47896],[126.85587,37.47856]]}},{"type":"Feature","properties":{"class":"minor","highway":"residential","sidewalk":"unknown","lanes":0,"name":"광명로831번길","oneway":false},"geometry":{"type":"LineString","coordinates":[[126.84593,37.4752],[126.84761,37.47468]]}},{"type":"Feature","properties":{"class":"minor","highway":"residential","sidewalk":"unknown","lanes":0,"name":"광화로38번길","oneway":false},"geometry":{"type":"LineString","coordinates":[[126.84725,37.47388],[126.84761,37.47468],[126.84763,37.47471],[126.8477,37.47486],[126.84778,37.47502],[126.84794,37.47533],[126.84816,37.47575],[126.84825,37.47594],[126.84833,37.4761]]}},{"type":"Feature","properties":{"class":"minor","highway":"residential","sidewalk":"unknown","lanes":0,"name":"광명로861번길","oneway":false},"geometry":{"type":"LineString","coordinates":[[126.85281,37.47601],[126.8524,37.47614],[126.85208,37.47624],[126.85175,37.47634],[126.85163,37.47638],[126.85145,37.47644],[126.85141,37.47646]]}},{"type":"Feature","properties":{"class":"minor","highway":"residential","sidewalk":"unknown","lanes":0,"name":"광명로857번길","oneway":false},"geometry":{"type":"LineString","coordinates":[[126.85141,37.47646],[126.85124,37.47611]]}},{"type":"Feature","properties":{"class":"minor","highway":"residential","sidewalk":"unknown","lanes":0,"name":"광오로","oneway":false},"geometry":{"type":"LineString","coordinates":[[126.85124,37.47611],[126.8509,37.47535]]}},{"type":"Feature","properties":{"class":"minor","highway":"residential","sidewalk":"unknown","lanes":0,"name":"광오로","oneway":false},"geometry":{"type":"LineString","coordinates":[[126.85192,37.47591],[126.85158,37.47516]]}},{"type":"Feature","properties":{"class":"minor","highway":"residential","sidewalk":"unknown","lanes":0,"name":"광오로","oneway":false},"geometry":{"type":"LineString","coordinates":[[126.85123,37.47525],[126.85159,37.47601]]}},{"type":"Feature","properties":{"class":"minor","highway":"residential","sidewalk":"unknown","lanes":0,"name":"광오로16번길","oneway":false},"geometry":{"type":"LineString","coordinates":[[126.85045,37.47547],[126.85062,37.47579],[126.85073,37.47602],[126.85088,37.47631],[126.85101,37.47657],[126.85117,37.47689]]}},{"type":"Feature","properties":{"class":"minor","highway":"residential","sidewalk":"unknown","lanes":0,"name":"광오로16번길","oneway":false},"geometry":{"type":"LineString","coordinates":[[126.85014,37.47655],[126.85088,37.47631]]}},{"type":"Feature","properties":{"class":"alley","highway":"service","sidewalk":"unknown","lanes":0,"name":"광명로865번길","oneway":false},"geometry":{"type":"LineString","coordinates":[[126.85181,37.47671],[126.85163,37.47638]]}},{"type":"Feature","properties":{"class":"alley","highway":"service","sidewalk":"unknown","lanes":0,"name":"광명로861번길","oneway":false},"geometry":{"type":"LineString","coordinates":[[126.8524,37.47614],[126.8525,37.47635]]}},{"type":"Feature","properties":{"class":"minor","highway":"residential","sidewalk":"unknown","lanes":0,"name":"광명로857번길","oneway":false},"geometry":{"type":"LineString","coordinates":[[126.8524,37.47614],[126.85223,37.47581]]}},{"type":"Feature","properties":{"class":"minor","highway":"residential","sidewalk":"unknown","lanes":0,"name":"광오로","oneway":false},"geometry":{"type":"LineString","coordinates":[[126.85223,37.47581],[126.85191,37.47507]]}},{"type":"Feature","properties":{"class":"minor","highway":"residential","sidewalk":"unknown","lanes":0,"name":"광명로857번길","oneway":false},"geometry":{"type":"LineString","coordinates":[[126.85192,37.47591],[126.85208,37.47624]]}},{"type":"Feature","properties":{"class":"minor","highway":"residential","sidewalk":"unknown","lanes":0,"name":"광명로857번길","oneway":false},"geometry":{"type":"LineString","coordinates":[[126.85159,37.47601],[126.85175,37.47634]]}},{"type":"Feature","properties":{"class":"minor","highway":"residential","sidewalk":"unknown","lanes":0,"name":"광명로","oneway":false},"geometry":{"type":"LineString","coordinates":[[126.8516,37.47515],[126.85119,37.47431],[126.85125,37.47416],[126.8518,37.47419],[126.85194,37.47414]]}},{"type":"Feature","properties":{"class":"minor","highway":"residential","sidewalk":"unknown","lanes":0,"name":"광오로17번길","oneway":false},"geometry":{"type":"LineString","coordinates":[[126.85045,37.47547],[126.85022,37.47501],[126.85008,37.47471],[126.84999,37.47453],[126.84988,37.47431],[126.84975,37.47402]]}},{"type":"Feature","properties":{"class":"alley","highway":"service","sidewalk":"unknown","lanes":0,"name":"광명로888번길","oneway":false},"geometry":{"type":"LineString","coordinates":[[126.85509,37.47783],[126.85496,37.47754]]}},{"type":"Feature","properties":{"class":"alley","highway":"service","sidewalk":"unknown","lanes":0,"name":"오리로991번길","oneway":false},"geometry":{"type":"LineString","coordinates":[[126.85321,37.47977],[126.85304,37.4794],[126.85291,37.47913],[126.8527,37.47866]]}},{"type":"Feature","properties":{"class":"alley","highway":"service","sidewalk":"unknown","lanes":0,"name":"오리로995번길","oneway":false},"geometry":{"type":"LineString","coordinates":[[126.85267,37.47992],[126.85251,37.47955],[126.85239,37.47929],[126.85221,37.47886]]}},{"type":"Feature","properties":{"class":"alley","highway":"service","sidewalk":"unknown","lanes":0,"name":"오리로1009번길","oneway":false},"geometry":{"type":"LineString","coordinates":[[126.8511,37.48037],[126.85094,37.48001],[126.85081,37.47975],[126.85067,37.47945]]}},{"type":"Feature","properties":{"class":"alley","highway":"service","sidewalk":"unknown","lanes":0,"name":"광명로893번길","oneway":false},"geometry":{"type":"LineString","coordinates":[[126.84955,37.48013],[126.85081,37.47975],[126.85239,37.47929]]}},{"type":"Feature","properties":{"class":"alley","highway":"service","sidewalk":"unknown","lanes":0,"name":"오리로985번안길","oneway":false},"geometry":{"type":"LineString","coordinates":[[126.85094,37.48001],[126.85251,37.47955],[126.85304,37.4794],[126.85357,37.47924]]}},{"type":"Feature","properties":{"class":"alley","highway":"service","sidewalk":"unknown","lanes":0,"name":"광명로893번길","oneway":false},"geometry":{"type":"LineString","coordinates":[[126.85239,37.47929],[126.85291,37.47913],[126.85344,37.47898],[126.8541,37.47878]]}},{"type":"Feature","properties":{"class":"alley","highway":"service","sidewalk":"unknown","lanes":0,"name":"","oneway":false},"geometry":{"type":"LineString","coordinates":[[126.85749,37.4745],[126.85767,37.47429],[126.85789,37.47392],[126.85803,37.47367],[126.85813,37.47349],[126.85822,37.47333],[126.85838,37.47322],[126.85873,37.47312],[126.8592,37.47299],[126.85931,37.47298]]}},{"type":"Feature","properties":{"class":"minor","highway":"residential","sidewalk":"unknown","lanes":0,"name":"","oneway":false},"geometry":{"type":"LineString","coordinates":[[126.85763,37.47804],[126.85831,37.47784],[126.85937,37.47753],[126.86039,37.47723]]}},{"type":"Feature","properties":{"class":"minor","highway":"residential","sidewalk":"unknown","lanes":0,"name":"","oneway":false},"geometry":{"type":"LineString","coordinates":[[126.84177,37.48015],[126.84176,37.47999],[126.84171,37.47994],[126.84145,37.47976]]}},{"type":"Feature","properties":{"class":"minor","highway":"residential","sidewalk":"unknown","lanes":0,"name":"","oneway":false},"geometry":{"type":"LineString","coordinates":[[126.84186,37.4793],[126.84187,37.47967],[126.84187,37.47985],[126.84171,37.47994]]}},{"type":"Feature","properties":{"class":"minor","highway":"residential","sidewalk":"unknown","lanes":0,"name":"","oneway":false},"geometry":{"type":"LineString","coordinates":[[126.84171,37.47994],[126.8421,37.47993]]}},{"type":"Feature","properties":{"class":"minor","highway":"residential","sidewalk":"unknown","lanes":0,"name":"","oneway":false},"geometry":{"type":"LineString","coordinates":[[126.84186,37.4793],[126.84184,37.47885],[126.84184,37.47878],[126.84182,37.47868],[126.84173,37.47826],[126.8417,37.47811],[126.84158,37.47802],[126.84144,37.47791]]}},{"type":"Feature","properties":{"class":"minor","highway":"residential","sidewalk":"unknown","lanes":0,"name":"","oneway":false},"geometry":{"type":"LineString","coordinates":[[126.84182,37.47868],[126.841,37.47874],[126.84073,37.47895],[126.84028,37.47861],[126.84013,37.47849]]}},{"type":"Feature","properties":{"class":"minor","highway":"residential","sidewalk":"unknown","lanes":0,"name":"","oneway":false},"geometry":{"type":"LineString","coordinates":[[126.84028,37.47861],[126.84045,37.47847],[126.84075,37.47822],[126.84112,37.47791],[126.84125,37.4778]]}},{"type":"Feature","properties":{"class":"minor","highway":"residential","sidewalk":"unknown","lanes":0,"name":"","oneway":false},"geometry":{"type":"LineString","coordinates":[[126.84045,37.47847],[126.84027,37.47834]]}},{"type":"Feature","properties":{"class":"minor","highway":"residential","sidewalk":"unknown","lanes":0,"name":"","oneway":false},"geometry":{"type":"LineString","coordinates":[[126.84075,37.47822],[126.84054,37.47805]]}},{"type":"Feature","properties":{"class":"minor","highway":"residential","sidewalk":"unknown","lanes":0,"name":"","oneway":false},"geometry":{"type":"LineString","coordinates":[[126.84112,37.47791],[126.84089,37.47774]]}},{"type":"Feature","properties":{"class":"minor","highway":"residential","sidewalk":"unknown","lanes":0,"name":"","oneway":false},"geometry":{"type":"LineString","coordinates":[[126.84125,37.4778],[126.84144,37.47791]]}},{"type":"Feature","properties":{"class":"minor","highway":"residential","sidewalk":"unknown","lanes":0,"name":"","oneway":false},"geometry":{"type":"LineString","coordinates":[[126.84158,37.47802],[126.84196,37.47769]]}},{"type":"Feature","properties":{"class":"minor","highway":"residential","sidewalk":"unknown","lanes":0,"name":"","oneway":false},"geometry":{"type":"LineString","coordinates":[[126.84173,37.47826],[126.84227,37.47803],[126.84237,37.47804]]}},{"type":"Feature","properties":{"class":"minor","highway":"residential","sidewalk":"unknown","lanes":0,"name":"","oneway":false},"geometry":{"type":"LineString","coordinates":[[126.84182,37.47868],[126.84239,37.47867],[126.84239,37.47877]]}},{"type":"Feature","properties":{"class":"minor","highway":"residential","sidewalk":"unknown","lanes":0,"name":"","oneway":false},"geometry":{"type":"LineString","coordinates":[[126.84184,37.47885],[126.84161,37.47886],[126.84161,37.47896]]}},{"type":"Feature","properties":{"class":"minor","highway":"residential","sidewalk":"unknown","lanes":0,"name":"","oneway":false},"geometry":{"type":"LineString","coordinates":[[126.85362,37.48124],[126.8535,37.48099],[126.85315,37.48023],[126.85309,37.4801],[126.85297,37.47984]]}},{"type":"Feature","properties":{"class":"minor","highway":"residential","sidewalk":"unknown","lanes":0,"name":"","oneway":false},"geometry":{"type":"LineString","coordinates":[[126.85466,37.48094],[126.85455,37.48068],[126.85423,37.47991],[126.85408,37.47952]]}},{"type":"Feature","properties":{"class":"minor","highway":"residential","sidewalk":"unknown","lanes":0,"name":"","oneway":false},"geometry":{"type":"LineString","coordinates":[[126.85205,37.48056],[126.85247,37.48044],[126.85279,37.48034],[126.85315,37.48023],[126.8535,37.48013],[126.85385,37.48003],[126.85423,37.47991]]}},{"type":"Feature","properties":{"class":"alley","highway":"service","sidewalk":"unknown","lanes":0,"name":"광명로888번길","oneway":false},"geometry":{"type":"LineString","coordinates":[[126.85475,37.47793],[126.85515,37.47878]]}},{"type":"Feature","properties":{"class":"alley","highway":"service","sidewalk":"unknown","lanes":0,"name":"광명로888번길","oneway":false},"geometry":{"type":"LineString","coordinates":[[126.85549,37.47868],[126.85509,37.47783]]}},{"type":"Feature","properties":{"class":"alley","highway":"service","sidewalk":"unknown","lanes":0,"name":"","oneway":false},"geometry":{"type":"LineString","coordinates":[[126.85424,37.47775],[126.85496,37.47754]]}},{"type":"Feature","properties":{"class":"alley","highway":"service","sidewalk":"unknown","lanes":0,"name":"","oneway":false},"geometry":{"type":"LineString","coordinates":[[126.85564,37.47569],[126.85534,37.47505],[126.85506,37.47513],[126.85475,37.47522],[126.85498,37.47574],[126.85461,37.47585]]}},{"type":"Feature","properties":{"class":"alley","highway":"service","sidewalk":"unknown","lanes":0,"name":"","oneway":false},"geometry":{"type":"LineString","coordinates":[[126.85534,37.47578],[126.85506,37.47513]]}},{"type":"Feature","properties":{"class":"minor","highway":"residential","sidewalk":"unknown","lanes":0,"name":"","oneway":false},"geometry":{"type":"LineString","coordinates":[[126.85554,37.47497],[126.85567,37.47485]]}},{"type":"Feature","properties":{"class":"minor","highway":"residential","sidewalk":"unknown","lanes":0,"name":"","oneway":false},"geometry":{"type":"LineString","coordinates":[[126.85554,37.47497],[126.85537,37.47504],[126.85534,37.47505]]}},{"type":"Feature","properties":{"class":"alley","highway":"service","sidewalk":"unknown","lanes":0,"name":"","oneway":false},"geometry":{"type":"LineString","coordinates":[[126.85537,37.47504],[126.85527,37.47484]]}},{"type":"Feature","properties":{"class":"alley","highway":"service","sidewalk":"unknown","lanes":0,"name":"","oneway":false},"geometry":{"type":"LineString","coordinates":[[126.85475,37.47522],[126.85439,37.47534]]}},{"type":"Feature","properties":{"class":"alley","highway":"service","sidewalk":"unknown","lanes":0,"name":"","oneway":false},"geometry":{"type":"LineString","coordinates":[[126.85475,37.47522],[126.8544,37.47446]]}},{"type":"Feature","properties":{"class":"alley","highway":"service","sidewalk":"unknown","lanes":0,"name":"","oneway":false},"geometry":{"type":"LineString","coordinates":[[126.85506,37.47513],[126.85485,37.47462],[126.85468,37.47463]]}},{"type":"Feature","properties":{"class":"alley","highway":"service","sidewalk":"unknown","lanes":0,"name":"","oneway":false},"geometry":{"type":"LineString","coordinates":[[126.85485,37.47462],[126.85525,37.47459],[126.85531,37.47456]]}},{"type":"Feature","properties":{"class":"alley","highway":"service","sidewalk":"unknown","lanes":0,"name":"","oneway":false},"geometry":{"type":"LineString","coordinates":[[126.85258,37.47871],[126.85254,37.4786],[126.8516,37.47899],[126.85144,37.47872],[126.85109,37.47816]]}},{"type":"Feature","properties":{"class":"minor","highway":"residential","sidewalk":"unknown","lanes":0,"name":"","oneway":false},"geometry":{"type":"LineString","coordinates":[[126.85822,37.47333],[126.85765,37.47296],[126.85719,37.47255],[126.8572,37.47251],[126.85733,37.47237],[126.85736,37.4722],[126.85741,37.47168],[126.85746,37.47133],[126.85739,37.47105],[126.8571,37.47046]]}},{"type":"Feature","properties":{"class":"alley","highway":"service","sidewalk":"unknown","lanes":0,"name":"광삼로5번길","oneway":false},"geometry":{"type":"LineString","coordinates":[[126.86007,37.47809],[126.85923,37.47883]]}},{"type":"Feature","properties":{"class":"minor","highway":"residential","sidewalk":"unknown","lanes":0,"name":"오리로938번길","oneway":false},"geometry":{"type":"LineString","coordinates":[[126.86021,37.4794],[126.85991,37.47929],[126.85963,37.4792],[126.85939,37.47911],[126.85923,37.47883],[126.85892,37.47813]]}},{"type":"Feature","properties":{"class":"alley","highway":"service","sidewalk":"unknown","lanes":0,"name":"광삼로13번길","oneway":false},"geometry":{"type":"LineString","coordinates":[[126.85963,37.4792],[126.86014,37.47839],[126.86045,37.47846]]}},{"type":"Feature","properties":{"class":"minor","highway":"residential","sidewalk":"unknown","lanes":0,"name":"오리로942번길","oneway":false},"geometry":{"type":"LineString","coordinates":[[126.85869,37.47863],[126.85904,37.47938],[126.85916,37.47965],[126.85956,37.48052]]}},{"type":"Feature","properties":{"class":"minor","highway":"residential","sidewalk":"unknown","lanes":0,"name":"광이로12번길","oneway":false},"geometry":{"type":"LineString","coordinates":[[126.85904,37.47938],[126.85871,37.47948],[126.85837,37.47957],[126.85809,37.47965]]}},{"type":"Feature","properties":{"class":"minor","highway":"residential","sidewalk":"unknown","lanes":0,"name":"광이로","oneway":false},"geometry":{"type":"LineString","coordinates":[[126.85869,37.47863],[126.85836,37.47872],[126.85803,37.47882],[126.85774,37.47891],[126.85731,37.47903],[126.85695,37.47914],[126.8566,37.47924]]}},{"type":"Feature","properties":{"class":"minor","highway":"residential","sidewalk":"unknown","lanes":0,"name":"광이로13번길","oneway":false},"geometry":{"type":"LineString","coordinates":[[126.85809,37.47965],[126.85765,37.47978],[126.85729,37.47989],[126.85696,37.47999]]}},{"type":"Feature","properties":{"class":"minor","highway":"residential","sidewalk":"unknown","lanes":0,"name":"광명로928번길","oneway":false},"geometry":{"type":"LineString","coordinates":[[126.85696,37.47999],[126.8575,37.48111]]}},{"type":"Feature","properties":{"class":"alley","highway":"pedestrian","sidewalk":"unknown","lanes":0,"name":"오리로976번길","oneway":false},"geometry":{"type":"LineString","coordinates":[[126.85589,37.48135],[126.85558,37.48068],[126.85546,37.48042],[126.8552,37.47985],[126.85494,37.47928]]}},{"type":"Feature","properties":{"class":"alley","highway":"pedestrian","sidewalk":"unknown","lanes":0,"name":"","oneway":false},"geometry":{"type":"LineString","coordinates":[[126.8552,37.47985],[126.85559,37.47974],[126.85593,37.47964],[126.85631,37.47953]]}},{"type":"Feature","properties":{"class":"alley","highway":"pedestrian","sidewalk":"unknown","lanes":0,"name":"광이로13번길","oneway":false},"geometry":{"type":"LineString","coordinates":[[126.85696,37.47999],[126.85658,37.4801]]}},{"type":"Feature","properties":{"class":"alley","highway":"service","sidewalk":"unknown","lanes":0,"name":"광명로928번길","oneway":false},"geometry":{"type":"LineString","coordinates":[[126.86004,37.48023],[126.85983,37.47976]]}},{"type":"Feature","properties":{"class":"minor","highway":"residential","sidewalk":"unknown","lanes":0,"name":"","oneway":false},"geometry":{"type":"LineString","coordinates":[[126.85983,37.47976],[126.85972,37.47971],[126.85991,37.47929]]}},{"type":"Feature","properties":{"class":"minor","highway":"residential","sidewalk":"unknown","lanes":0,"name":"광삼로13번길","oneway":false},"geometry":{"type":"LineString","coordinates":[[126.85983,37.47976],[126.86021,37.47999],[126.86029,37.48005],[126.86031,37.48007],[126.86052,37.48022],[126.86101,37.48046],[126.86128,37.48081],[126.86187,37.48121]]}},{"type":"Feature","properties":{"class":"minor","highway":"residential","sidewalk":"unknown","lanes":0,"name":"광명로928번길","oneway":false},"geometry":{"type":"LineString","coordinates":[[126.85822,37.47993],[126.8585,37.47985],[126.85883,37.47975],[126.85916,37.47965]]}},{"type":"Feature","properties":{"class":"alley","highway":"service","sidewalk":"unknown","lanes":0,"name":"광명로928번길","oneway":false},"geometry":{"type":"LineString","coordinates":[[126.85923,37.48061],[126.85883,37.47975]]}},{"type":"Feature","properties":{"class":"alley","highway":"service","sidewalk":"unknown","lanes":0,"name":"광명로928번길","oneway":false},"geometry":{"type":"LineString","coordinates":[[126.85889,37.48071],[126.8585,37.47985]]}},{"type":"Feature","properties":{"class":"alley","highway":"service","sidewalk":"unknown","lanes":0,"name":"광이로12번길","oneway":false},"geometry":{"type":"LineString","coordinates":[[126.85837,37.47957],[126.85803,37.47882]]}},{"type":"Feature","properties":{"class":"alley","highway":"service","sidewalk":"unknown","lanes":0,"name":"광이로12번길","oneway":false},"geometry":{"type":"LineString","coordinates":[[126.85871,37.47948],[126.85836,37.47872]]}},{"type":"Feature","properties":{"class":"alley","highway":"service","sidewalk":"unknown","lanes":0,"name":"광이로13번길","oneway":false},"geometry":{"type":"LineString","coordinates":[[126.85765,37.47978],[126.85731,37.47903]]}},{"type":"Feature","properties":{"class":"alley","highway":"service","sidewalk":"unknown","lanes":0,"name":"광이로13번길","oneway":false},"geometry":{"type":"LineString","coordinates":[[126.85729,37.47989],[126.85717,37.47962],[126.85695,37.47914]]}},{"type":"Feature","properties":{"class":"minor","highway":"residential","sidewalk":"unknown","lanes":0,"name":"광이로13번길","oneway":false},"geometry":{"type":"LineString","coordinates":[[126.85696,37.47999],[126.8566,37.47924]]}},{"type":"Feature","properties":{"class":"alley","highway":"pedestrian","sidewalk":"unknown","lanes":0,"name":"","oneway":false},"geometry":{"type":"LineString","coordinates":[[126.85584,37.48031],[126.85559,37.47974]]}},{"type":"Feature","properties":{"class":"alley","highway":"pedestrian","sidewalk":"unknown","lanes":0,"name":"","oneway":false},"geometry":{"type":"LineString","coordinates":[[126.85619,37.48021],[126.85593,37.47964]]}},{"type":"Feature","properties":{"class":"alley","highway":"service","sidewalk":"unknown","lanes":0,"name":"","oneway":false},"geometry":{"type":"LineString","coordinates":[[126.85343,37.47735],[126.85307,37.47745]]}},{"type":"Feature","properties":{"class":"alley","highway":"service","sidewalk":"unknown","lanes":0,"name":"","oneway":false},"geometry":{"type":"LineString","coordinates":[[126.85109,37.47816],[126.85222,37.47783]]}},{"type":"Feature","properties":{"class":"alley","highway":"service","sidewalk":"unknown","lanes":0,"name":"","oneway":false},"geometry":{"type":"LineString","coordinates":[[126.85144,37.47872],[126.85246,37.47842]]}},{"type":"Feature","properties":{"class":"minor","highway":"residential","sidewalk":"unknown","lanes":0,"name":"","oneway":false},"geometry":{"type":"LineString","coordinates":[[126.85097,37.47804],[126.85068,37.47816]]}},{"type":"Feature","properties":{"class":"alley","highway":"service","sidewalk":"unknown","lanes":0,"name":"","oneway":false},"geometry":{"type":"LineString","coordinates":[[126.85105,37.47875],[126.85057,37.47893]]}},{"type":"Feature","properties":{"class":"alley","highway":"service","sidewalk":"unknown","lanes":0,"name":"","oneway":false},"geometry":{"type":"LineString","coordinates":[[126.84896,37.47949],[126.84965,37.47929],[126.8499,37.4797]]}},{"type":"Feature","properties":{"class":"alley","highway":"service","sidewalk":"unknown","lanes":0,"name":"","oneway":false},"geometry":{"type":"LineString","coordinates":[[126.84937,37.47782],[126.84929,37.4779],[126.84917,37.478],[126.84909,37.47803],[126.84878,37.47805],[126.84869,37.47808],[126.8482,37.47827],[126.84805,37.47831],[126.84774,37.47833],[126.84769,37.47846],[126.84786,37.47881],[126.84794,37.47896]]}},{"type":"Feature","properties":{"class":"alley","highway":"service","sidewalk":"unknown","lanes":0,"name":"","oneway":false},"geometry":{"type":"LineString","coordinates":[[126.84832,37.47766],[126.84812,37.47773],[126.84785,37.47774],[126.84755,37.47791],[126.84744,37.478],[126.84774,37.47833]]}},{"type":"Feature","properties":{"class":"alley","highway":"service","sidewalk":"unknown","lanes":0,"name":"","oneway":false},"geometry":{"type":"LineString","coordinates":[[126.84744,37.478],[126.84726,37.47782],[126.84727,37.47778],[126.84754,37.47751],[126.84788,37.47715]]}},{"type":"Feature","properties":{"class":"minor","highway":"residential","sidewalk":"unknown","lanes":0,"name":"너부대로","oneway":false},"geometry":{"type":"LineString","coordinates":[[126.84611,37.47785],[126.84702,37.47738],[126.84788,37.47715],[126.84812,37.4771]]}},{"type":"Feature","properties":{"class":"minor","highway":"residential","sidewalk":"unknown","lanes":0,"name":"너부대로35번길","oneway":false},"geometry":{"type":"LineString","coordinates":[[126.84769,37.47846],[126.8475,37.47856],[126.84665,37.4788],[126.84622,37.47874]]}},{"type":"Feature","properties":{"class":"minor","highway":"residential","sidewalk":"unknown","lanes":0,"name":"광화로13번길","oneway":false},"geometry":{"type":"LineString","coordinates":[[126.84881,37.47074],[126.84898,37.47161],[126.84917,37.47213],[126.84926,37.47232],[126.84948,37.4728],[126.84963,37.47312]]}},{"type":"Feature","properties":{"class":"minor","highway":"residential","sidewalk":"unknown","lanes":0,"name":"광명로791번길","oneway":false},"geometry":{"type":"LineString","coordinates":[[126.84881,37.47074],[126.84864,37.47084],[126.84788,37.47136],[126.84739,37.47167],[126.84675,37.47212],[126.84663,37.47221],[126.84633,37.47236],[126.84591,37.4725],[126.84553,37.47261]]}},{"type":"Feature","properties":{"class":"minor","highway":"residential","sidewalk":"unknown","lanes":0,"name":"목감로","oneway":false},"geometry":{"type":"LineString","coordinates":[[126.84553,37.47261],[126.84559,37.47326],[126.84561,37.47335],[126.8457,37.47375],[126.84584,37.47433]]}},{"type":"Feature","properties":{"class":"minor","highway":"residential","sidewalk":"unknown","lanes":0,"name":"목감로","oneway":false},"geometry":{"type":"LineString","coordinates":[[126.84663,37.47221],[126.84561,37.47125]]}},{"type":"Feature","properties":{"class":"minor","highway":"residential","sidewalk":"unknown","lanes":0,"name":"목감로","oneway":false},"geometry":{"type":"LineString","coordinates":[[126.84561,37.47125],[126.84541,37.47156],[126.84553,37.47261]]}},{"type":"Feature","properties":{"class":"minor","highway":"residential","sidewalk":"unknown","lanes":0,"name":"광화로","oneway":false},"geometry":{"type":"LineString","coordinates":[[126.85031,37.47385],[126.85026,37.47372],[126.85018,37.4734],[126.84993,37.47313],[126.84986,37.47304]]}},{"type":"Feature","properties":{"class":"minor","highway":"residential","sidewalk":"unknown","lanes":0,"name":"광화로","oneway":false},"geometry":{"type":"LineString","coordinates":[[126.8509,37.47367],[126.85075,37.47334],[126.85067,37.47317],[126.85067,37.47315],[126.85052,37.47283]]}},{"type":"Feature","properties":{"class":"alley","highway":"service","sidewalk":"unknown","lanes":0,"name":"","oneway":false},"geometry":{"type":"LineString","coordinates":[[126.84878,37.47805],[126.84866,37.47778],[126.84865,37.47754]]}},{"type":"Feature","properties":{"class":"alley","highway":"service","sidewalk":"unknown","lanes":0,"name":"","oneway":false},"geometry":{"type":"LineString","coordinates":[[126.85299,37.47415],[126.85259,37.47425],[126.85247,37.4742],[126.85241,37.4742],[126.85203,37.47432]]}},{"type":"Feature","properties":{"class":"alley","highway":"service","sidewalk":"unknown","lanes":0,"name":"","oneway":false},"geometry":{"type":"LineString","coordinates":[[126.85259,37.47425],[126.85286,37.47479]]}},{"type":"Feature","properties":{"class":"alley","highway":"service","sidewalk":"unknown","lanes":0,"name":"","oneway":false},"geometry":{"type":"LineString","coordinates":[[126.85349,37.47504],[126.85351,37.47477],[126.85356,37.47467],[126.85367,37.47442],[126.85366,37.47424],[126.85364,37.47415]]}},{"type":"Feature","properties":{"class":"alley","highway":"service","sidewalk":"unknown","lanes":0,"name":"","oneway":false},"geometry":{"type":"LineString","coordinates":[[126.85322,37.47465],[126.85331,37.47461],[126.85356,37.47467]]}},{"type":"Feature","properties":{"class":"alley","highway":"service","sidewalk":"unknown","lanes":0,"name":"광명로","oneway":false},"geometry":{"type":"LineString","coordinates":[[126.853,37.47642],[126.85324,37.47629],[126.85335,37.47603]]}},{"type":"Feature","properties":{"class":"alley","highway":"service","sidewalk":"unknown","lanes":0,"name":"","oneway":false},"geometry":{"type":"LineString","coordinates":[[126.84948,37.4728],[126.84884,37.47298]]}},{"type":"Feature","properties":{"class":"alley","highway":"service","sidewalk":"unknown","lanes":0,"name":"","oneway":false},"geometry":{"type":"LineString","coordinates":[[126.84926,37.47232],[126.84846,37.47259],[126.84826,37.47216],[126.84806,37.4717],[126.84809,37.47165],[126.84841,37.47157]]}},{"type":"Feature","properties":{"class":"alley","highway":"service","sidewalk":"unknown","lanes":0,"name":"","oneway":false},"geometry":{"type":"LineString","coordinates":[[126.84846,37.47259],[126.84832,37.47267],[126.84809,37.47279],[126.84806,37.47287],[126.8482,37.4732],[126.84837,37.47316]]}},{"type":"Feature","properties":{"class":"alley","highway":"service","sidewalk":"unknown","lanes":0,"name":"","oneway":false},"geometry":{"type":"LineString","coordinates":[[126.8482,37.4732],[126.84783,37.47332],[126.8465,37.47375]]}},{"type":"Feature","properties":{"class":"alley","highway":"service","sidewalk":"unknown","lanes":0,"name":"","oneway":false},"geometry":{"type":"LineString","coordinates":[[126.8465,37.47375],[126.84623,37.47318],[126.84624,37.47309],[126.84634,37.47294]]}},{"type":"Feature","properties":{"class":"alley","highway":"service","sidewalk":"unknown","lanes":0,"name":"","oneway":false},"geometry":{"type":"LineString","coordinates":[[126.84561,37.47335],[126.84623,37.47318]]}},{"type":"Feature","properties":{"class":"alley","highway":"service","sidewalk":"unknown","lanes":0,"name":"","oneway":false},"geometry":{"type":"LineString","coordinates":[[126.85218,37.47773],[126.85174,37.47683],[126.85059,37.47716],[126.85083,37.47762],[126.85109,37.47816]]}},{"type":"Feature","properties":{"class":"alley","highway":"service","sidewalk":"unknown","lanes":0,"name":"","oneway":false},"geometry":{"type":"LineString","coordinates":[[126.85307,37.47745],[126.85218,37.47773],[126.85222,37.47783],[126.85246,37.47842],[126.85254,37.4786]]}},{"type":"Feature","properties":{"class":"alley","highway":"service","sidewalk":"unknown","lanes":0,"name":"","oneway":false},"geometry":{"type":"LineString","coordinates":[[126.85307,37.47745],[126.85278,37.47686]]}},{"type":"Feature","properties":{"class":"alley","highway":"service","sidewalk":"unknown","lanes":0,"name":"","oneway":false},"geometry":{"type":"LineString","coordinates":[[126.85307,37.47745],[126.85342,37.47826],[126.85328,37.47832]]}},{"type":"Feature","properties":{"class":"alley","highway":"service","sidewalk":"unknown","lanes":0,"name":"","oneway":false},"geometry":{"type":"LineString","coordinates":[[126.85254,37.4786],[126.85328,37.47832]]}},{"type":"Feature","properties":{"class":"major","highway":"secondary","sidewalk":"likely","lanes":0,"name":"광명로","oneway":false},"geometry":{"type":"LineString","coordinates":[[126.85123,37.47261],[126.85163,37.47346],[126.85185,37.47394],[126.85189,37.47402],[126.85194,37.47414],[126.85203,37.47432],[126.85232,37.47495],[126.85266,37.47568],[126.8528,37.47598],[126.85281,37.47601],[126.85297,37.47635],[126.853,37.47642],[126.85307,37.47657],[126.85343,37.47735],[126.85383,37.47819],[126.8541,37.47878],[126.8544,37.47943]]}},{"type":"Feature","properties":{"class":"major","highway":"secondary","sidewalk":"likely","lanes":0,"name":"금오로","oneway":false},"geometry":{"type":"LineString","coordinates":[[126.84288,37.4793],[126.8429,37.48038],[126.8429,37.48052],[126.84288,37.48065],[126.84285,37.48077],[126.84281,37.4809],[126.84276,37.48102],[126.84269,37.48117],[126.84238,37.48163],[126.84217,37.48195],[126.84217,37.48196],[126.84169,37.48269]]}},{"type":"Feature","properties":{"class":"major","highway":"secondary","sidewalk":"likely","lanes":0,"name":"금오로","oneway":false},"geometry":{"type":"LineString","coordinates":[[126.84068,37.47621],[126.84079,37.47629],[126.84141,37.47676],[126.84154,37.47686],[126.84173,37.47701]]}},{"type":"Feature","properties":{"class":"alley","highway":"service","sidewalk":"unknown","lanes":0,"name":"","oneway":false},"geometry":{"type":"LineString","coordinates":[[126.84068,37.47621],[126.84051,37.47633],[126.84015,37.47664],[126.84014,37.47664],[126.84006,37.47672],[126.8398,37.47694],[126.83961,37.4771],[126.83953,37.47718],[126.83937,37.47729],[126.83914,37.47732],[126.839,37.47733],[126.83839,37.47741]]}},{"type":"Feature","properties":{"class":"major","highway":"tertiary","sidewalk":"likely","lanes":0,"name":"천왕로","oneway":false},"geometry":{"type":"LineString","coordinates":[[126.8383,37.4834],[126.83831,37.48331],[126.83832,37.48265],[126.83832,37.48217],[126.83832,37.48192],[126.83834,37.48159],[126.83845,37.48128],[126.83858,37.48117],[126.83975,37.48023],[126.83987,37.48013],[126.84029,37.47979],[126.84051,37.47961],[126.84063,37.47951],[126.84073,37.47945],[126.84079,37.47942],[126.84084,37.47939],[126.84093,37.47936],[126.84097,37.47935],[126.84109,37.47932],[126.84123,37.47931],[126.84186,37.4793],[126.84204,37.4793],[126.84288,37.4793]]}},{"type":"Feature","properties":{"class":"minor","highway":"residential","sidewalk":"unknown","lanes":0,"name":"","oneway":false},"geometry":{"type":"LineString","coordinates":[[126.84226,37.47656],[126.84217,37.47664],[126.84205,37.47674],[126.84196,37.47682],[126.84173,37.47701]]}},{"type":"Feature","properties":{"class":"major","highway":"secondary","sidewalk":"likely","lanes":0,"name":"금오로","oneway":false},"geometry":{"type":"LineString","coordinates":[[126.84173,37.47701],[126.84208,37.47729],[126.84233,37.4775],[126.84248,37.47764],[126.84258,37.47776],[126.84267,37.47789],[126.84272,37.47797],[126.84274,37.47801],[126.84279,37.47814],[126.84283,37.47827],[126.84285,37.47839],[126.84286,37.47853],[126.84288,37.4793]]}},{"type":"Feature","properties":{"class":"alley","highway":"service","sidewalk":"unknown","lanes":0,"name":"","oneway":false},"geometry":{"type":"LineString","coordinates":[[126.84027,37.47674],[126.8402,37.47669],[126.84015,37.47664],[126.84007,37.47658],[126.84005,37.47657],[126.8396,37.47622],[126.83958,37.47618],[126.83955,37.47608],[126.83944,37.47558],[126.83944,37.47556],[126.83897,37.47563],[126.83901,37.47584]]}},{"type":"Feature","properties":{"class":"minor","highway":"residential","sidewalk":"unknown","lanes":0,"name":"광명로848번길","oneway":false},"geometry":{"type":"LineString","coordinates":[[126.85303,37.47474],[126.85317,37.47505],[126.8532,37.47507],[126.85328,37.47508],[126.85342,37.4751],[126.85345,37.47509],[126.85349,37.47504],[126.85365,37.47504],[126.85382,37.47497],[126.85407,37.47473]]}},{"type":"Feature","properties":{"class":"minor","highway":"residential","sidewalk":"unknown","lanes":0,"name":"오리로963번길","oneway":false},"geometry":{"type":"LineString","coordinates":[[126.85407,37.47473],[126.85411,37.47474],[126.85439,37.47534],[126.85461,37.47585],[126.85466,37.47596]]}},{"type":"Feature","properties":{"class":"minor","highway":"residential","sidewalk":"unknown","lanes":0,"name":"광명로878번길","oneway":false},"geometry":{"type":"LineString","coordinates":[[126.85398,37.47718],[126.85343,37.47735]]}},{"type":"Feature","properties":{"class":"minor","highway":"residential","sidewalk":"unknown","lanes":1,"name":"광오로","oneway":true},"geometry":{"type":"LineString","coordinates":[[126.84602,37.4759],[126.84654,37.47575],[126.84692,37.47652],[126.84833,37.4761]]}},{"type":"Feature","properties":{"class":"alley","highway":"service","sidewalk":"unknown","lanes":0,"name":"광명로857번길","oneway":false},"geometry":{"type":"LineString","coordinates":[[126.85124,37.47611],[126.85106,37.47616],[126.85084,37.47565],[126.8508,37.4755],[126.8508,37.47537]]}},{"type":"Feature","properties":{"class":"alley","highway":"service","sidewalk":"unknown","lanes":0,"name":"광오로","oneway":false},"geometry":{"type":"LineString","coordinates":[[126.85007,37.47558],[126.85024,37.47593]]}},{"type":"Feature","properties":{"class":"minor","highway":"residential","sidewalk":"unknown","lanes":0,"name":"","oneway":false},"geometry":{"type":"LineString","coordinates":[[126.85404,37.47197],[126.85469,37.47182]]}},{"type":"Feature","properties":{"class":"alley","highway":"service","sidewalk":"unknown","lanes":0,"name":"","oneway":false},"geometry":{"type":"LineString","coordinates":[[126.85507,37.47172],[126.85512,37.4717],[126.85532,37.47165]]}},{"type":"Feature","properties":{"class":"alley","highway":"service","sidewalk":"unknown","lanes":0,"name":"","oneway":false},"geometry":{"type":"LineString","coordinates":[[126.85507,37.47172],[126.85516,37.47198]]}},{"type":"Feature","properties":{"class":"alley","highway":"service","sidewalk":"unknown","lanes":0,"name":"","oneway":false},"geometry":{"type":"LineString","coordinates":[[126.8486,37.47702],[126.84889,37.47722],[126.84914,37.4773]]}},{"type":"Feature","properties":{"class":"alley","highway":"service","sidewalk":"unknown","lanes":0,"name":"","oneway":false},"geometry":{"type":"LineString","coordinates":[[126.84917,37.47725],[126.84937,37.47731],[126.84993,37.47747]]}},{"type":"Feature","properties":{"class":"alley","highway":"service","sidewalk":"unknown","lanes":0,"name":"","oneway":false},"geometry":{"type":"LineString","coordinates":[[126.84937,37.47731],[126.84952,37.47697]]}},{"type":"Feature","properties":{"class":"alley","highway":"service","sidewalk":"unknown","lanes":0,"name":"","oneway":false},"geometry":{"type":"LineString","coordinates":[[126.85015,37.4773],[126.84997,37.47713],[126.84991,37.47698]]}},{"type":"Feature","properties":{"class":"alley","highway":"service","sidewalk":"unknown","lanes":0,"name":"광오로16번길","oneway":false},"geometry":{"type":"LineString","coordinates":[[126.85101,37.47657],[126.85056,37.47671]]}},{"type":"Feature","properties":{"class":"minor","highway":"residential","sidewalk":"unknown","lanes":0,"name":"광명로831번길","oneway":false},"geometry":{"type":"LineString","coordinates":[[126.84841,37.47442],[126.84871,37.47433],[126.84887,37.47429],[126.84897,37.47426],[126.84959,37.47407],[126.84975,37.47402],[126.85,37.47394],[126.85031,37.47385],[126.85057,37.47377],[126.8509,37.47367],[126.85163,37.47346]]}},{"type":"Feature","properties":{"class":"minor","highway":"residential","sidewalk":"unknown","lanes":0,"name":"광화로","oneway":false},"geometry":{"type":"LineString","coordinates":[[126.85,37.47394],[126.84986,37.47361],[126.84963,37.47312]]}},{"type":"Feature","properties":{"class":"alley","highway":"service","sidewalk":"unknown","lanes":0,"name":"","oneway":false},"geometry":{"type":"LineString","coordinates":[[126.85072,37.47405],[126.85089,37.47404],[126.85189,37.47402]]}},{"type":"Feature","properties":{"class":"minor","highway":"residential","sidewalk":"unknown","lanes":0,"name":"광오로9번길","oneway":false},"geometry":{"type":"LineString","coordinates":[[126.85127,37.47524],[126.85114,37.47497],[126.8509,37.47445],[126.85072,37.47405],[126.85066,37.47392],[126.85057,37.47377]]}},{"type":"Feature","properties":{"class":"alley","highway":"service","sidewalk":"unknown","lanes":0,"name":"","oneway":false},"geometry":{"type":"LineString","coordinates":[[126.85066,37.47392],[126.85094,37.47393],[126.85138,37.47392],[126.85185,37.47394]]}},{"type":"Feature","properties":{"class":"alley","highway":"service","sidewalk":"unknown","lanes":0,"name":"광오로17번길","oneway":false},"geometry":{"type":"LineString","coordinates":[[126.84999,37.47453],[126.85009,37.4744],[126.8501,37.47434],[126.85013,37.47423],[126.85012,37.47414],[126.85019,37.47404],[126.8503,37.47396],[126.85034,37.47394],[126.85037,37.47394],[126.85051,37.47392],[126.85066,37.47392]]}},{"type":"Feature","properties":{"class":"minor","highway":"residential","sidewalk":"unknown","lanes":0,"name":"광화로","oneway":false},"geometry":{"type":"LineString","coordinates":[[126.84887,37.47429],[126.84897,37.474],[126.84895,37.47396],[126.84893,37.47391],[126.84891,37.47388],[126.84886,37.47377],[126.8487,37.47341]]}},{"type":"Feature","properties":{"class":"alley","highway":"service","sidewalk":"unknown","lanes":0,"name":"","oneway":false},"geometry":{"type":"LineString","coordinates":[[126.84903,37.47331],[126.84915,37.47359],[126.84918,37.47374],[126.84914,37.47381],[126.84891,37.47388]]}},{"type":"Feature","properties":{"class":"minor","highway":"residential","sidewalk":"unknown","lanes":0,"name":"부평말길","oneway":false},"geometry":{"type":"LineString","coordinates":[[126.84,37.47476],[126.83977,37.47474],[126.83962,37.47468],[126.83947,37.4746],[126.83933,37.47455],[126.83843,37.47427],[126.83827,37.47424],[126.83776,37.47417],[126.83764,37.47414],[126.83748,37.47407],[126.83738,37.47404],[126.83691,37.47396],[126.83684,37.47397],[126.83678,37.47399],[126.83672,37.47403],[126.83666,37.47409],[126.8366,37.47418],[126.83656,37.47425],[126.83655,37.47431],[126.83655,37.47438],[126.83661,37.47454],[126.83664,37.47457],[126.83668,37.47459],[126.83675,37.47461],[126.83744,37.47473],[126.83766,37.47481],[126.83786,37.4749],[126.83834,37.47523],[126.83838,37.47528],[126.83844,37.47535],[126.8385,37.47539],[126.83856,37.4754],[126.83867,37.47539],[126.83884,37.47537],[126.83891,37.47536],[126.8392,37.47525],[126.83927,37.47523],[126.83933,37.47523],[126.83953,37.47526],[126.83962,37.47526],[126.83972,37.47526],[126.84003,37.47521]]}},{"type":"Feature","properties":{"class":"minor","highway":"residential","sidewalk":"unknown","lanes":0,"name":"금오로794번길","oneway":false},"geometry":{"type":"LineString","coordinates":[[126.83936,37.46965],[126.83955,37.46965],[126.83969,37.46966],[126.83994,37.46973],[126.84005,37.46975],[126.84018,37.46975],[126.84036,37.46973],[126.84072,37.46975],[126.84078,37.46976],[126.84084,37.46982],[126.8409,37.46987],[126.84119,37.46996],[126.84155,37.47],[126.84187,37.47003],[126.84207,37.47006],[126.84231,37.47012],[126.84246,37.47016],[126.84283,37.47073],[126.84307,37.471],[126.84317,37.47116],[126.8432,37.4713]]}},{"type":"Feature","properties":{"class":"major","highway":"tertiary_link","sidewalk":"likely","lanes":0,"name":"","oneway":true},"geometry":{"type":"LineString","coordinates":[[126.84397,37.47129],[126.8441,37.47124],[126.84417,37.47121],[126.84424,37.47116],[126.84428,37.47112],[126.84432,37.47108],[126.84434,37.47102],[126.84436,37.47092]]}},{"type":"Feature","properties":{"class":"major","highway":"tertiary_link","sidewalk":"likely","lanes":0,"name":"","oneway":true},"geometry":{"type":"LineString","coordinates":[[126.84454,37.4716],[126.84443,37.47149],[126.84435,37.47142],[126.84427,37.47138],[126.8442,37.47134],[126.8441,37.47131],[126.84397,37.47129]]}},{"type":"Feature","properties":{"class":"major","highway":"secondary","sidewalk":"likely","lanes":0,"name":"광명로","oneway":false},"geometry":{"type":"LineString","coordinates":[[126.84879,37.47014],[126.84891,37.47037],[126.84898,37.47048],[126.84906,37.47058],[126.84914,37.47068],[126.84924,37.47079],[126.84937,37.4709],[126.84948,37.47099],[126.84958,37.47107],[126.84978,37.47123],[126.84998,37.47137],[126.85042,37.4717],[126.85081,37.47201]]}},{"type":"Feature","properties":{"class":"alley","highway":"service","sidewalk":"unknown","lanes":0,"name":"","oneway":false},"geometry":{"type":"LineString","coordinates":[[126.85434,37.47283],[126.85353,37.47327],[126.85348,37.47325],[126.85331,37.47296]]}},{"type":"Feature","properties":{"class":"alley","highway":"service","sidewalk":"unknown","lanes":0,"name":"","oneway":false},"geometry":{"type":"LineString","coordinates":[[126.85439,37.47296],[126.85425,37.4731],[126.85404,37.47346],[126.85389,37.47362],[126.85376,37.47353],[126.85356,37.47371],[126.8534,37.47385],[126.85321,37.47404],[126.85313,37.4741],[126.85299,37.47415]]}},{"type":"Feature","properties":{"class":"alley","highway":"service","sidewalk":"unknown","lanes":0,"name":"","oneway":false},"geometry":{"type":"LineString","coordinates":[[126.8566,37.47061],[126.85675,37.4709],[126.8568,37.47105],[126.85683,37.47113],[126.85687,37.47127],[126.85686,37.47151],[126.85683,37.47174],[126.85682,37.47183],[126.8568,37.47195],[126.8568,37.472],[126.85683,37.47204],[126.85697,37.47209],[126.85715,37.47215],[126.85736,37.4722]]}},{"type":"Feature","properties":{"class":"major","highway":"secondary","sidewalk":"likely","lanes":0,"name":"광명로","oneway":false},"geometry":{"type":"LineString","coordinates":[[126.85081,37.47201],[126.85091,37.47211],[126.85102,37.47224],[126.85111,37.47237],[126.85123,37.47261]]}},{"type":"Feature","properties":{"class":"major","highway":"tertiary","sidewalk":"likely","lanes":0,"name":"두길로","oneway":false},"geometry":{"type":"LineString","coordinates":[[126.84445,37.47122],[126.84459,37.47116],[126.84471,37.47111]]}},{"type":"Feature","properties":{"class":"major","highway":"tertiary","sidewalk":"likely","lanes":0,"name":"두길로","oneway":false},"geometry":{"type":"LineString","coordinates":[[126.84397,37.47129],[126.84415,37.47127],[126.8443,37.47125],[126.84445,37.47122]]}},{"type":"Feature","properties":{"class":"major","highway":"secondary","sidewalk":"likely","lanes":0,"name":"금오로","oneway":false},"geometry":{"type":"LineString","coordinates":[[126.8394,37.47174],[126.83941,37.47201],[126.83943,37.47219],[126.83945,37.4723],[126.83948,37.47245],[126.8395,37.47249],[126.83953,37.47257],[126.83958,37.47276],[126.83986,37.47367],[126.83993,37.4739],[126.83996,37.47401],[126.83998,37.47415],[126.83999,37.47426],[126.83999,37.47433],[126.84,37.47476]]}},{"type":"Feature","properties":{"class":"major","highway":"secondary","sidewalk":"likely","lanes":0,"name":"광명로","oneway":false},"geometry":{"type":"LineString","coordinates":[[126.8544,37.47943],[126.85503,37.48084],[126.85543,37.48172],[126.85561,37.48211],[126.85594,37.48283],[126.85632,37.48368],[126.85663,37.48442],[126.85658,37.48538]]}},{"type":"Feature","properties":{"class":"major","highway":"secondary","sidewalk":"likely","lanes":0,"name":"오리로","oneway":false},"geometry":{"type":"LineString","coordinates":[[126.8544,37.47943],[126.85408,37.47952],[126.85374,37.47962],[126.85321,37.47977],[126.85297,37.47984],[126.85267,37.47992],[126.85188,37.48015],[126.85128,37.48032],[126.8511,37.48037],[126.85098,37.48041],[126.85069,37.48049],[126.84962,37.4808]]}},{"type":"Feature","properties":{"class":"major","highway":"tertiary","sidewalk":"likely","lanes":0,"name":"광이로","oneway":false},"geometry":{"type":"LineString","coordinates":[[126.85756,37.47852],[126.85774,37.47891],[126.85809,37.47965],[126.85822,37.47993],[126.85862,37.48078]]}},{"type":"Feature","properties":{"class":"alley","highway":"service","sidewalk":"unknown","lanes":0,"name":"","oneway":false},"geometry":{"type":"LineString","coordinates":[[126.83986,37.47367],[126.84035,37.47364],[126.8404,37.47362],[126.84044,37.47359],[126.84048,37.47353],[126.84051,37.47337],[126.84054,37.47305],[126.84058,37.47288]]}},{"type":"Feature","properties":{"class":"alley","highway":"service","sidewalk":"unknown","lanes":0,"name":"","oneway":false},"geometry":{"type":"LineString","coordinates":[[126.83953,37.47257],[126.84019,37.47276],[126.84058,37.47288],[126.84193,37.47328]]}},{"type":"Feature","properties":{"class":"alley","highway":"service","sidewalk":"unknown","lanes":0,"name":"","oneway":false},"geometry":{"type":"LineString","coordinates":[[126.84019,37.47276],[126.84027,37.47249]]}},{"type":"Feature","properties":{"class":"alley","highway":"service","sidewalk":"unknown","lanes":0,"name":"","oneway":false},"geometry":{"type":"LineString","coordinates":[[126.83943,37.47219],[126.83971,37.47217],[126.83982,37.47215],[126.83997,37.47212],[126.8401,37.47208],[126.84028,37.472]]}},{"type":"Feature","properties":{"class":"major","highway":"secondary_link","sidewalk":"likely","lanes":0,"name":"","oneway":true},"geometry":{"type":"LineString","coordinates":[[126.84023,37.47156],[126.83977,37.47179],[126.83966,37.47185],[126.83959,37.4719],[126.83954,37.47195],[126.8395,37.47203],[126.83943,37.47219]]}},{"type":"Feature","properties":{"class":"alley","highway":"service","sidewalk":"unknown","lanes":0,"name":"","oneway":false},"geometry":{"type":"LineString","coordinates":[[126.84167,37.47117],[126.84166,37.47096],[126.84167,37.47089],[126.84175,37.47083],[126.84186,37.47082],[126.8422,37.47082],[126.84236,37.47085],[126.84249,37.47088],[126.84257,37.47088],[126.84265,37.47086],[126.84283,37.47073]]}},{"type":"Feature","properties":{"class":"alley","highway":"service","sidewalk":"unknown","lanes":0,"name":"","oneway":false},"geometry":{"type":"LineString","coordinates":[[126.85469,37.47182],[126.85507,37.47172]]}},{"type":"Feature","properties":{"class":"minor","highway":"residential","sidewalk":"unknown","lanes":0,"name":"","oneway":false},"geometry":{"type":"LineString","coordinates":[[126.85501,37.47428],[126.85583,37.47382]]}},{"type":"Feature","properties":{"class":"minor","highway":"residential","sidewalk":"unknown","lanes":0,"name":"","oneway":true},"geometry":{"type":"LineString","coordinates":[[126.85547,37.47482],[126.85547,37.47479],[126.85549,37.47477],[126.85551,37.47476],[126.85554,37.47475]]}},{"type":"Feature","properties":{"class":"alley","highway":"service","sidewalk":"unknown","lanes":0,"name":"","oneway":false},"geometry":{"type":"LineString","coordinates":[[126.84203,37.47638],[126.84211,37.47644],[126.84226,37.47656],[126.8423,37.4766],[126.84232,37.47662],[126.84233,37.47665],[126.84234,37.47672],[126.84234,37.47675],[126.84236,37.47677],[126.84238,37.47679],[126.84258,37.47695],[126.8427,37.47686]]}},{"type":"Feature","properties":{"class":"alley","highway":"service","sidewalk":"unknown","lanes":0,"name":"","oneway":false},"geometry":{"type":"LineString","coordinates":[[126.84203,37.47638],[126.84197,37.47633],[126.84195,37.47631],[126.84194,37.47628],[126.84193,37.47626],[126.84193,37.47625],[126.84194,37.47622],[126.84194,37.4762],[126.84196,37.47619]]}},{"type":"Feature","properties":{"class":"alley","highway":"service","sidewalk":"unknown","lanes":0,"name":"","oneway":false},"geometry":{"type":"LineString","coordinates":[[126.84211,37.47644],[126.84234,37.47626]]}},{"type":"Feature","properties":{"class":"major","highway":"tertiary","sidewalk":"likely","lanes":5,"name":"","oneway":false},"geometry":{"type":"LineString","coordinates":[[126.8521,37.47231],[126.85249,37.47221],[126.85282,37.47212],[126.85339,37.47198],[126.85397,37.47183]]}},{"type":"Feature","properties":{"class":"major","highway":"tertiary","sidewalk":"likely","lanes":4,"name":"","oneway":false},"geometry":{"type":"LineString","coordinates":[[126.8521,37.47231],[126.85146,37.47251],[126.85123,37.47261]]}},{"type":"Feature","properties":{"class":"minor","highway":"residential","sidewalk":"unknown","lanes":0,"name":"","oneway":false},"geometry":{"type":"LineString","coordinates":[[126.85583,37.47382],[126.85723,37.47472]]}},{"type":"Feature","properties":{"class":"alley","highway":"service","sidewalk":"unknown","lanes":0,"name":"","oneway":false},"geometry":{"type":"LineString","coordinates":[[126.85723,37.47472],[126.85733,37.47466],[126.85749,37.4745]]}},{"type":"Feature","properties":{"class":"alley","highway":"service","sidewalk":"unknown","lanes":0,"name":"광화로","oneway":false},"geometry":{"type":"LineString","coordinates":[[126.85075,37.47334],[126.85106,37.47325]]}},{"type":"Feature","properties":{"class":"minor","highway":"residential","sidewalk":"unknown","lanes":0,"name":"광오로17번길","oneway":false},"geometry":{"type":"LineString","coordinates":[[126.85022,37.47501],[126.85043,37.47495],[126.85055,37.47491],[126.85058,37.47488],[126.8504,37.4745]]}},{"type":"Feature","properties":{"class":"alley","highway":"service","sidewalk":"unknown","lanes":0,"name":"광오로17번길","oneway":false},"geometry":{"type":"LineString","coordinates":[[126.85043,37.47495],[126.85054,37.4752]]}},{"type":"Feature","properties":{"class":"alley","highway":"service","sidewalk":"unknown","lanes":0,"name":"","oneway":false},"geometry":{"type":"LineString","coordinates":[[126.85277,37.47369],[126.85238,37.4738],[126.85233,37.47379],[126.85211,37.47332]]}},{"type":"Feature","properties":{"class":"alley","highway":"service","sidewalk":"unknown","lanes":0,"name":"","oneway":false},"geometry":{"type":"LineString","coordinates":[[126.85278,37.47371],[126.85309,37.47361],[126.85311,37.47358],[126.85302,37.47337],[126.85297,37.47336],[126.85266,37.47346]]}},{"type":"Feature","properties":{"class":"alley","highway":"service","sidewalk":"unknown","lanes":0,"name":"","oneway":false},"geometry":{"type":"LineString","coordinates":[[126.85356,37.47371],[126.85344,37.47363],[126.85342,37.47359],[126.8535,37.4735]]}},{"type":"Feature","properties":{"class":"alley","highway":"service","sidewalk":"unknown","lanes":0,"name":"","oneway":false},"geometry":{"type":"LineString","coordinates":[[126.85227,37.47265],[126.85261,37.47254],[126.85264,37.47258],[126.8527,37.47261],[126.85275,37.4726],[126.85289,37.47256],[126.85328,37.47297]]}},{"type":"Feature","properties":{"class":"alley","highway":"service","sidewalk":"unknown","lanes":0,"name":"","oneway":false},"geometry":{"type":"LineString","coordinates":[[126.85355,37.47289],[126.8532,37.47238]]}},{"type":"Feature","properties":{"class":"alley","highway":"service","sidewalk":"unknown","lanes":0,"name":"","oneway":false},"geometry":{"type":"LineString","coordinates":[[126.85385,37.47279],[126.85368,37.47253]]}},{"type":"Feature","properties":{"class":"alley","highway":"service","sidewalk":"unknown","lanes":0,"name":"","oneway":false},"geometry":{"type":"LineString","coordinates":[[126.85418,37.47236],[126.85389,37.47236],[126.85372,37.47226],[126.85356,37.47213],[126.85339,37.47198]]}},{"type":"Feature","properties":{"class":"alley","highway":"service","sidewalk":"unknown","lanes":0,"name":"","oneway":false},"geometry":{"type":"LineString","coordinates":[[126.85227,37.47265],[126.85198,37.47273],[126.85186,37.47278]]}},{"type":"Feature","properties":{"class":"minor","highway":"residential","sidewalk":"unknown","lanes":0,"name":"너부대로32번길","oneway":false},"geometry":{"type":"LineString","coordinates":[[126.84999,37.47626],[126.85053,37.47609],[126.85073,37.47602]]}},{"type":"Feature","properties":{"class":"alley","highway":"service","sidewalk":"unknown","lanes":0,"name":"너부대로32번길","oneway":false},"geometry":{"type":"LineString","coordinates":[[126.85053,37.47609],[126.85043,37.4759]]}},{"type":"Feature","properties":{"class":"minor","highway":"residential","sidewalk":"unknown","lanes":0,"name":"광명로857번길","oneway":false},"geometry":{"type":"LineString","coordinates":[[126.85266,37.47568],[126.85223,37.47581],[126.85192,37.47591],[126.85159,37.47601],[126.85124,37.47611]]}},{"type":"Feature","properties":{"class":"alley","highway":"service","sidewalk":"unknown","lanes":0,"name":"광명로865번길","oneway":false},"geometry":{"type":"LineString","coordinates":[[126.85157,37.47678],[126.85146,37.47659]]}},{"type":"Feature","properties":{"class":"alley","highway":"service","sidewalk":"unknown","lanes":0,"name":"","oneway":false},"geometry":{"type":"LineString","coordinates":[[126.85261,37.47254],[126.85262,37.47251],[126.85249,37.47221]]}},{"type":"Feature","properties":{"class":"alley","highway":"service","sidewalk":"unknown","lanes":0,"name":"","oneway":false},"geometry":{"type":"LineString","coordinates":[[126.85289,37.47256],[126.85296,37.4725],[126.85297,37.47243],[126.85291,37.47236],[126.85287,37.47225],[126.85282,37.47212]]}},{"type":"Feature","properties":{"class":"alley","highway":"service","sidewalk":"unknown","lanes":0,"name":"광명로848번길","oneway":false},"geometry":{"type":"LineString","coordinates":[[126.85286,37.47479],[126.85309,37.4753],[126.85309,37.47543],[126.85318,37.47566],[126.85317,37.47569],[126.85312,37.4757],[126.85311,37.47573],[126.85314,37.47584],[126.85313,37.47588],[126.8528,37.47598]]}},{"type":"Feature","properties":{"class":"alley","highway":"service","sidewalk":"unknown","lanes":0,"name":"","oneway":false},"geometry":{"type":"LineString","coordinates":[[126.85469,37.47376],[126.8544,37.47378],[126.85424,37.47379]]}},{"type":"Feature","properties":{"class":"alley","highway":"service","sidewalk":"unknown","lanes":0,"name":"","oneway":false},"geometry":{"type":"LineString","coordinates":[[126.85428,37.47439],[126.85423,37.47432],[126.85426,37.47423],[126.8543,37.47408]]}},{"type":"Feature","properties":{"class":"alley","highway":"service","sidewalk":"unknown","lanes":0,"name":"","oneway":false},"geometry":{"type":"LineString","coordinates":[[126.8568,37.47105],[126.85633,37.47114],[126.85587,37.47124]]}},{"type":"Feature","properties":{"class":"alley","highway":"service","sidewalk":"unknown","lanes":0,"name":"","oneway":false},"geometry":{"type":"LineString","coordinates":[[126.85633,37.47114],[126.85645,37.47156],[126.8565,37.47162],[126.85682,37.47183]]}},{"type":"Feature","properties":{"class":"minor","highway":"residential","sidewalk":"unknown","lanes":0,"name":"너부대로","oneway":false},"geometry":{"type":"LineString","coordinates":[[126.84812,37.4771],[126.84823,37.47741],[126.84832,37.47766],[126.84865,37.47754],[126.84897,37.47768],[126.84937,37.47782],[126.84975,37.47795],[126.85001,37.47799],[126.85053,37.47806],[126.85068,37.47816],[126.85105,37.47875],[126.85134,37.47921]]}},{"type":"Feature","properties":{"class":"minor","highway":"residential","sidewalk":"unknown","lanes":0,"name":"광화로38번길","oneway":false},"geometry":{"type":"LineString","coordinates":[[126.84812,37.4771],[126.84815,37.47705],[126.84817,37.477],[126.84843,37.47648],[126.84843,37.47637],[126.84833,37.4761]]}},{"type":"Feature","properties":{"class":"minor","highway":"residential","sidewalk":"unknown","lanes":0,"name":"","oneway":false},"geometry":{"type":"LineString","coordinates":[[126.84817,37.477],[126.84847,37.47704],[126.8486,37.47702],[126.84882,37.47698],[126.84908,37.47694],[126.84929,37.47695],[126.84942,37.47696],[126.84952,37.47697],[126.84973,37.47698],[126.84991,37.47698],[126.85009,37.47698],[126.85032,37.47695]]}},{"type":"Feature","properties":{"class":"minor","highway":"residential","sidewalk":"unknown","lanes":0,"name":"","oneway":false},"geometry":{"type":"LineString","coordinates":[[126.85937,37.47753],[126.85956,37.47795]]}},{"type":"Feature","properties":{"class":"minor","highway":"residential","sidewalk":"unknown","lanes":0,"name":"","oneway":false},"geometry":{"type":"LineString","coordinates":[[126.85723,37.47472],[126.85733,37.47498],[126.85735,37.47506],[126.85731,37.47512],[126.8572,37.47518],[126.85637,37.47539]]}},{"type":"Feature","properties":{"class":"minor","highway":"residential","sidewalk":"unknown","lanes":0,"name":"","oneway":false},"geometry":{"type":"LineString","coordinates":[[126.85869,37.47863],[126.85855,37.47833],[126.8585,37.47825]]}},{"type":"Feature","properties":{"class":"minor","highway":"residential","sidewalk":"unknown","lanes":0,"name":"오리로949번길","oneway":false},"geometry":{"type":"LineString","coordinates":[[126.85756,37.47852],[126.85738,37.47812],[126.85639,37.47594]]}},{"type":"Feature","properties":{"class":"major","highway":"secondary","sidewalk":"likely","lanes":0,"name":"금오로","oneway":false},"geometry":{"type":"LineString","coordinates":[[126.84,37.47476],[126.84003,37.47521],[126.84004,37.47531],[126.84006,37.47543],[126.8401,37.47557],[126.84016,37.47569],[126.84025,37.47581],[126.84037,37.47594],[126.84042,37.47599],[126.8405,37.47607],[126.84068,37.47621]]}},{"type":"Feature","properties":{"class":"alley","highway":"service","sidewalk":"unknown","lanes":0,"name":"","oneway":false},"geometry":{"type":"LineString","coordinates":[[126.85041,37.47953],[126.85023,37.47914],[126.85022,37.47879],[126.85022,37.4782],[126.85022,37.47814],[126.85001,37.47799]]}},{"type":"Feature","properties":{"class":"minor","highway":"residential","sidewalk":"unknown","lanes":0,"name":"","oneway":false},"geometry":{"type":"LineString","coordinates":[[126.84929,37.47695],[126.84917,37.47725],[126.84914,37.4773],[126.84897,37.47768]]}},{"type":"Feature","properties":{"class":"alley","highway":"service","sidewalk":"unknown","lanes":0,"name":"","oneway":false},"geometry":{"type":"LineString","coordinates":[[126.84865,37.47754],[126.84863,37.47753],[126.84845,37.47739],[126.84843,37.47735],[126.84838,37.47719],[126.84834,37.47708],[126.84815,37.47705]]}},{"type":"Feature","properties":{"class":"alley","highway":"service","sidewalk":"unknown","lanes":0,"name":"","oneway":false},"geometry":{"type":"LineString","coordinates":[[126.84843,37.47735],[126.84823,37.47741]]}},{"type":"Feature","properties":{"class":"alley","highway":"service","sidewalk":"unknown","lanes":0,"name":"","oneway":false},"geometry":{"type":"LineString","coordinates":[[126.85335,37.47603],[126.85338,37.47595],[126.85337,37.47575],[126.85334,37.47548],[126.85331,37.47529],[126.8533,37.4752],[126.85328,37.47508]]}},{"type":"Feature","properties":{"class":"alley","highway":"service","sidewalk":"unknown","lanes":0,"name":"","oneway":false},"geometry":{"type":"LineString","coordinates":[[126.84561,37.47125],[126.84538,37.47093]]}},{"type":"Feature","properties":{"class":"alley","highway":"service","sidewalk":"unknown","lanes":0,"name":"광화로","oneway":false},"geometry":{"type":"LineString","coordinates":[[126.85082,37.4731],[126.85067,37.47315]]}},{"type":"Feature","properties":{"class":"alley","highway":"service","sidewalk":"unknown","lanes":0,"name":"광화로","oneway":false},"geometry":{"type":"LineString","coordinates":[[126.85042,37.47324],[126.85067,37.47317]]}},{"type":"Feature","properties":{"class":"minor","highway":"residential","sidewalk":"unknown","lanes":0,"name":"광명로865번길","oneway":true},"geometry":{"type":"LineString","coordinates":[[126.85205,37.47663],[126.85297,37.47635]]}},{"type":"Feature","properties":{"class":"minor","highway":"residential","sidewalk":"unknown","lanes":0,"name":"광명로865번길","oneway":true},"geometry":{"type":"LineString","coordinates":[[126.85307,37.47657],[126.85205,37.47663]]}},{"type":"Feature","properties":{"class":"alley","highway":"service","sidewalk":"unknown","lanes":0,"name":"","oneway":false},"geometry":{"type":"LineString","coordinates":[[126.85042,37.47712],[126.85076,37.47758],[126.8509,37.47789],[126.85097,37.47804],[126.85108,37.47825],[126.85132,37.47865],[126.85161,37.47912]]}},{"type":"Feature","properties":{"class":"alley","highway":"service","sidewalk":"unknown","lanes":0,"name":"광명로861번길","oneway":false},"geometry":{"type":"LineString","coordinates":[[126.85141,37.47646],[126.8513,37.47649]]}},{"type":"Feature","properties":{"class":"alley","highway":"service","sidewalk":"unknown","lanes":0,"name":"광오로9번길","oneway":false},"geometry":{"type":"LineString","coordinates":[[126.85088,37.47504],[126.85114,37.47497]]}},{"type":"Feature","properties":{"class":"alley","highway":"service","sidewalk":"unknown","lanes":0,"name":"광오로","oneway":false},"geometry":{"type":"LineString","coordinates":[[126.8508,37.47537],[126.85081,37.47522],[126.85078,37.47474],[126.8509,37.47445]]}},{"type":"Feature","properties":{"class":"alley","highway":"service","sidewalk":"unknown","lanes":0,"name":"광오로17번길","oneway":false},"geometry":{"type":"LineString","coordinates":[[126.85037,37.47394],[126.85043,37.47408]]}},{"type":"Feature","properties":{"class":"alley","highway":"service","sidewalk":"unknown","lanes":0,"name":"광오로17번길","oneway":false},"geometry":{"type":"LineString","coordinates":[[126.8501,37.47434],[126.85031,37.47437]]}},{"type":"Feature","properties":{"class":"alley","highway":"service","sidewalk":"unknown","lanes":0,"name":"광오로23번길","oneway":false},"geometry":{"type":"LineString","coordinates":[[126.84897,37.47426],[126.84903,37.47439]]}},{"type":"Feature","properties":{"class":"alley","highway":"service","sidewalk":"unknown","lanes":0,"name":"광명로865번길","oneway":false},"geometry":{"type":"LineString","coordinates":[[126.85195,37.47647],[126.85205,37.47663]]}},{"type":"Feature","properties":{"class":"alley","highway":"service","sidewalk":"unknown","lanes":0,"name":"광오로16번길","oneway":false},"geometry":{"type":"LineString","coordinates":[[126.85044,37.47585],[126.85062,37.47579]]}},{"type":"Feature","properties":{"class":"minor","highway":"residential","sidewalk":"unknown","lanes":0,"name":"","oneway":true},"geometry":{"type":"LineString","coordinates":[[126.85637,37.47539],[126.85639,37.47594]]}},{"type":"Feature","properties":{"class":"minor","highway":"residential","sidewalk":"unknown","lanes":0,"name":"오리로949번길","oneway":true},"geometry":{"type":"LineString","coordinates":[[126.85639,37.47594],[126.85625,37.47568],[126.85604,37.47551],[126.85589,37.4754],[126.85572,37.47521],[126.85556,37.47503],[126.85554,37.47497],[126.85549,37.47487],[126.85547,37.47482],[126.85539,37.47464]]}},{"type":"Feature","properties":{"class":"minor","highway":"residential","sidewalk":"unknown","lanes":0,"name":"","oneway":false},"geometry":{"type":"LineString","coordinates":[[126.85587,37.47856],[126.85549,37.47868],[126.85515,37.47878],[126.85476,37.47889]]}},{"type":"Feature","properties":{"class":"minor","highway":"residential","sidewalk":"unknown","lanes":0,"name":"","oneway":false},"geometry":{"type":"LineString","coordinates":[[126.8585,37.47825],[126.85831,37.47784]]}},{"type":"Feature","properties":{"class":"alley","highway":"pedestrian","sidewalk":"unknown","lanes":0,"name":"","oneway":false},"geometry":{"type":"LineString","coordinates":[[126.85623,37.47935],[126.85656,37.47925],[126.8566,37.47924]]}},{"type":"Feature","properties":{"class":"minor","highway":"residential","sidewalk":"unknown","lanes":0,"name":"","oneway":false},"geometry":{"type":"LineString","coordinates":[[126.85604,37.47551],[126.85597,37.47557],[126.85589,37.47562],[126.85564,37.47569],[126.85534,37.47578],[126.85466,37.47596],[126.853,37.47642]]}}]}