{"type":"FeatureCollection","features":[{"type":"Feature","properties":{"class":"major","highway":"tertiary","sidewalk":"likely","lanes":0,"name":"역곡로","oneway":false},"geometry":{"type":"LineString","coordinates":[[126.80847,37.49706],[126.80848,37.49716],[126.80853,37.49739],[126.80864,37.4979],[126.80869,37.49814],[126.80871,37.49821],[126.80882,37.49863],[126.80896,37.49919],[126.80929,37.50034],[126.81019,37.50296],[126.81135,37.50624]]}},{"type":"Feature","properties":{"class":"major","highway":"tertiary","sidewalk":"likely","lanes":0,"name":"경인로536번길","oneway":false},"geometry":{"type":"LineString","coordinates":[[126.81691,37.48422],[126.81628,37.48425],[126.8157,37.48427],[126.81545,37.48448],[126.81504,37.48487]]}},{"type":"Feature","properties":{"class":"alley","highway":"service","sidewalk":"unknown","lanes":0,"name":"길주로594번길","oneway":false},"geometry":{"type":"LineString","coordinates":[[126.81403,37.50178],[126.81408,37.50157],[126.81405,37.50135],[126.81401,37.50119],[126.81395,37.50106],[126.81393,37.50099],[126.81415,37.50071],[126.81436,37.50048],[126.81446,37.50039],[126.81452,37.50026],[126.81457,37.5001],[126.81475,37.49961],[126.81491,37.49926],[126.815,37.49907],[126.815,37.49875],[126.815,37.49864],[126.81507,37.49854],[126.81518,37.4985],[126.81532,37.49841]]}},{"type":"Feature","properties":{"class":"alley","highway":"service","sidewalk":"unknown","lanes":0,"name":"","oneway":false},"geometry":{"type":"LineString","coordinates":[[126.8197,37.48764],[126.82008,37.48696],[126.82023,37.4869],[126.82038,37.48682],[126.82045,37.48678],[126.82055,37.48672],[126.82064,37.48666],[126.82079,37.48663],[126.8216,37.48692],[126.82119,37.4877]]}},{"type":"Feature","properties":{"class":"alley","highway":"service","sidewalk":"unknown","lanes":0,"name":"부일로815번길","oneway":false},"geometry":{"type":"LineString","coordinates":[[126.81878,37.48991],[126.81829,37.49076],[126.81811,37.49109],[126.81807,37.49114],[126.81783,37.49159]]}},{"type":"Feature","properties":{"class":"minor","highway":"residential","sidewalk":"unknown","lanes":0,"name":"안곡로194번길","oneway":false},"geometry":{"type":"LineString","coordinates":[[126.81895,37.48553],[126.81934,37.48555],[126.81973,37.48564]]}},{"type":"Feature","properties":{"class":"minor","highway":"residential","sidewalk":"unknown","lanes":0,"name":"경인로562번길","oneway":false},"geometry":{"type":"LineString","coordinates":[[126.81713,37.48657],[126.81753,37.48593],[126.81786,37.48545],[126.81823,37.48494],[126.81826,37.48395]]}},{"type":"Feature","properties":{"class":"minor","highway":"residential","sidewalk":"unknown","lanes":0,"name":"안곡로205번길","oneway":false},"geometry":{"type":"LineString","coordinates":[[126.81504,37.48487],[126.81618,37.48535],[126.81753,37.48593],[126.81814,37.48619],[126.8189,37.48652]]}},{"type":"Feature","properties":{"class":"minor","highway":"residential","sidewalk":"unknown","lanes":0,"name":"경인로548번길","oneway":false},"geometry":{"type":"LineString","coordinates":[[126.81575,37.48599],[126.81618,37.48535],[126.81649,37.48487],[126.81691,37.48422]]}},{"type":"Feature","properties":{"class":"alley","highway":"service","sidewalk":"unknown","lanes":0,"name":"경인로548번길","oneway":false},"geometry":{"type":"LineString","coordinates":[[126.81649,37.48487],[126.81724,37.48519],[126.81757,37.48473],[126.81757,37.48457]]}},{"type":"Feature","properties":{"class":"major","highway":"tertiary","sidewalk":"likely","lanes":0,"name":"부광로","oneway":false},"geometry":{"type":"LineString","coordinates":[[126.81274,37.48387],[126.81307,37.48338],[126.81348,37.48278]]}},{"type":"Feature","properties":{"class":"alley","highway":"service","sidewalk":"unknown","lanes":0,"name":"","oneway":false},"geometry":{"type":"LineString","coordinates":[[126.81962,37.4832],[126.81961,37.48318],[126.81961,37.48315],[126.81963,37.48312],[126.81967,37.48305],[126.81969,37.48302],[126.81969,37.48299],[126.81969,37.48294],[126.8197,37.48291],[126.81973,37.48276],[126.81975,37.48271],[126.81977,37.48253],[126.81979,37.48247],[126.8198,37.48243],[126.81983,37.48239],[126.81986,37.48234],[126.81989,37.4823],[126.81998,37.4822],[126.82001,37.48217],[126.82004,37.48214],[126.82011,37.4821],[126.82014,37.48207],[126.82016,37.48203],[126.82019,37.48197],[126.82026,37.48176],[126.82025,37.4817],[126.82025,37.48166],[126.82023,37.48162],[126.82015,37.48145],[126.81983,37.48082],[126.81981,37.48077],[126.8198,37.48073],[126.81981,37.48068],[126.81982,37.48063],[126.81984,37.48058],[126.81988,37.48053],[126.81992,37.48049],[126.82001,37.48041],[126.82073,37.47981],[126.82112,37.47949],[126.82143,37.47921],[126.82173,37.47894],[126.82178,37.47888],[126.82181,37.47884],[126.82184,37.47878],[126.82187,37.47871],[126.8219,37.47862],[126.82196,37.47828],[126.82198,37.47819],[126.82198,37.47812],[126.82198,37.47799],[126.82199,37.4779],[126.82197,37.47779],[126.82196,37.47773],[126.82196,37.47767],[126.82196,37.47762],[126.82192,37.47741],[126.82189,37.47737],[126.82185,37.47733],[126.82181,37.4773],[126.82179,37.47726],[126.82166,37.47691],[126.82163,37.47682],[126.82162,37.47677],[126.82162,37.4767],[126.82162,37.47664],[126.82163,37.47657],[126.82166,37.4765],[126.82169,37.47644],[126.82172,37.47637],[126.82176,37.47625],[126.82178,37.47616],[126.82179,37.47606],[126.82179,37.47598],[126.82178,37.4759],[126.82173,37.47547],[126.82173,37.47543],[126.82174,37.47538],[126.82199,37.47435],[126.82202,37.47425],[126.82213,37.47401],[126.82218,37.47391],[126.82223,37.47384],[126.8223,37.47376],[126.82314,37.47293],[126.82335,37.47268],[126.82348,37.47248],[126.8239,37.47153],[126.82395,37.47147],[126.82414,37.47126],[126.82411,37.47121],[126.82411,37.47114],[126.82413,37.47108],[126.82417,37.47102],[126.82424,37.47095],[126.82428,37.47089],[126.82431,37.47083],[126.82433,37.4708],[126.82445,37.47076],[126.82457,37.47069],[126.82505,37.4704],[126.82662,37.46947],[126.82779,37.4689],[126.82847,37.46856],[126.82889,37.46836],[126.82969,37.46796],[126.83026,37.46767],[126.83042,37.46761]]}},{"type":"Feature","properties":{"class":"minor","highway":"unclassified","sidewalk":"unknown","lanes":0,"name":"역곡로156번길","oneway":false},"geometry":{"type":"LineString","coordinates":[[126.81152,37.50255],[126.81132,37.50223],[126.81127,37.50189],[126.81109,37.50154],[126.81099,37.50142],[126.8108,37.50127],[126.81066,37.50114],[126.81052,37.50093],[126.81044,37.50081],[126.81032,37.50074],[126.81018,37.50065],[126.81008,37.50055],[126.8099,37.50016],[126.80981,37.50001],[126.80968,37.4999],[126.80946,37.49976],[126.80933,37.49962],[126.80924,37.4995],[126.80916,37.49931],[126.80909,37.49924],[126.80896,37.49919]]}},{"type":"Feature","properties":{"class":"alley","highway":"service","sidewalk":"unknown","lanes":0,"name":"","oneway":false},"geometry":{"type":"LineString","coordinates":[[126.811,37.48014],[126.81081,37.48014],[126.81066,37.48011],[126.81061,37.48009]]}},{"type":"Feature","properties":{"class":"minor","highway":"residential","sidewalk":"unknown","lanes":0,"name":"경인로526번길","oneway":false},"geometry":{"type":"LineString","coordinates":[[126.81612,37.48139],[126.81573,37.48186],[126.81535,37.4823],[126.81493,37.4828],[126.81455,37.48335],[126.81421,37.48386],[126.81417,37.48393],[126.81388,37.48437],[126.81345,37.485]]}},{"type":"Feature","properties":{"class":"alley","highway":"service","sidewalk":"unknown","lanes":0,"name":"부광로42번길","oneway":false},"geometry":{"type":"LineString","coordinates":[[126.81376,37.48118],[126.81399,37.48093]]}},{"type":"Feature","properties":{"class":"alley","highway":"service","sidewalk":"unknown","lanes":0,"name":"안곡로159번길","oneway":false},"geometry":{"type":"LineString","coordinates":[[126.8171,37.48395],[126.81752,37.48346],[126.81791,37.48302],[126.8183,37.48258]]}},{"type":"Feature","properties":{"class":"alley","highway":"service","sidewalk":"unknown","lanes":0,"name":"안곡로187번길","oneway":false},"geometry":{"type":"LineString","coordinates":[[126.81823,37.48494],[126.81898,37.48495]]}},{"type":"Feature","properties":{"class":"minor","highway":"residential","sidewalk":"unknown","lanes":0,"name":"안곡로174번길","oneway":false},"geometry":{"type":"LineString","coordinates":[[126.81936,37.48531],[126.81938,37.48519],[126.81943,37.48508],[126.81948,37.48493],[126.81949,37.48457],[126.81935,37.48433],[126.81933,37.48423],[126.81933,37.48412],[126.81938,37.484],[126.81951,37.48384],[126.81952,37.4838],[126.81956,37.48367],[126.81949,37.4835],[126.81934,37.48355],[126.81901,37.48366]]}},{"type":"Feature","properties":{"class":"alley","highway":"service","sidewalk":"unknown","lanes":0,"name":"부광로42번길","oneway":false},"geometry":{"type":"LineString","coordinates":[[126.81454,37.48121],[126.81399,37.48093],[126.8138,37.48082],[126.81374,37.48077],[126.81335,37.48008],[126.81323,37.47993],[126.81315,37.47987],[126.81202,37.47922]]}},{"type":"Feature","properties":{"class":"alley","highway":"service","sidewalk":"unknown","lanes":0,"name":"부광로36번길","oneway":false},"geometry":{"type":"LineString","coordinates":[[126.81423,37.48168],[126.814,37.48162],[126.81349,37.48147],[126.81278,37.48094],[126.81205,37.48064],[126.81134,37.48034],[126.81127,37.48033]]}},{"type":"Feature","properties":{"class":"alley","highway":"service","sidewalk":"unknown","lanes":0,"name":"부광로29번길","oneway":false},"geometry":{"type":"LineString","coordinates":[[126.81605,37.48339],[126.81586,37.48329],[126.81556,37.48313],[126.81527,37.48298],[126.81493,37.4828],[126.81385,37.48223]]}},{"type":"Feature","properties":{"class":"alley","highway":"service","sidewalk":"unknown","lanes":0,"name":"부광로29번길","oneway":false},"geometry":{"type":"LineString","coordinates":[[126.81586,37.48329],[126.81515,37.48433]]}},{"type":"Feature","properties":{"class":"alley","highway":"service","sidewalk":"unknown","lanes":0,"name":"안곡로149번길","oneway":false},"geometry":{"type":"LineString","coordinates":[[126.81726,37.48201],[126.81686,37.48248],[126.81649,37.48291],[126.81605,37.48339]]}},{"type":"Feature","properties":{"class":"alley","highway":"service","sidewalk":"unknown","lanes":0,"name":"","oneway":false},"geometry":{"type":"LineString","coordinates":[[126.81552,37.4827],[126.81527,37.48298]]}},{"type":"Feature","properties":{"class":"alley","highway":"service","sidewalk":"unknown","lanes":0,"name":"경인로526번길","oneway":false},"geometry":{"type":"LineString","coordinates":[[126.81545,37.48448],[126.81515,37.48433],[126.81484,37.4842],[126.81453,37.48407],[126.81417,37.48393]]}},{"type":"Feature","properties":{"class":"alley","highway":"service","sidewalk":"unknown","lanes":0,"name":"경인로425번길","oneway":false},"geometry":{"type":"LineString","coordinates":[[126.81143,37.48489],[126.81035,37.48456],[126.8088,37.48403],[126.80782,37.48369],[126.80731,37.48351],[126.80662,37.48328],[126.8044,37.48261],[126.80322,37.48231],[126.80322,37.48217],[126.80322,37.48204]]}},{"type":"Feature","properties":{"class":"alley","highway":"service","sidewalk":"unknown","lanes":0,"name":"경인로536번길","oneway":false},"geometry":{"type":"LineString","coordinates":[[126.81645,37.48362],[126.81636,37.48384],[126.81628,37.48425]]}},{"type":"Feature","properties":{"class":"minor","highway":"residential","sidewalk":"unknown","lanes":0,"name":"부광로16번길","oneway":true},"geometry":{"type":"LineString","coordinates":[[126.81162,37.48276],[126.81307,37.48338]]}},{"type":"Feature","properties":{"class":"alley","highway":"service","sidewalk":"unknown","lanes":0,"name":"부광로21번길","oneway":true},"geometry":{"type":"LineString","coordinates":[[126.81455,37.48335],[126.81348,37.48278]]}},{"type":"Feature","properties":{"class":"alley","highway":"service","sidewalk":"unknown","lanes":0,"name":"부광로30번길","oneway":false},"geometry":{"type":"LineString","coordinates":[[126.81385,37.48223],[126.81235,37.48159]]}},{"type":"Feature","properties":{"class":"alley","highway":"service","sidewalk":"unknown","lanes":0,"name":"부광로29번길","oneway":false},"geometry":{"type":"LineString","coordinates":[[126.81556,37.48313],[126.81484,37.4842]]}},{"type":"Feature","properties":{"class":"alley","highway":"service","sidewalk":"unknown","lanes":0,"name":"부광로22번길","oneway":true},"geometry":{"type":"LineString","coordinates":[[126.81191,37.48211],[126.81124,37.48182],[126.81048,37.48149]]}},{"type":"Feature","properties":{"class":"alley","highway":"service","sidewalk":"unknown","lanes":0,"name":"","oneway":false},"geometry":{"type":"LineString","coordinates":[[126.81124,37.48182],[126.81205,37.48064]]}},{"type":"Feature","properties":{"class":"minor","highway":"residential","sidewalk":"unknown","lanes":0,"name":"부광로16번길","oneway":true},"geometry":{"type":"LineString","coordinates":[[126.81007,37.48211],[126.81149,37.48271]]}},{"type":"Feature","properties":{"class":"alley","highway":"service","sidewalk":"unknown","lanes":1,"name":"역곡로1번길","oneway":true},"geometry":{"type":"LineString","coordinates":[[126.81152,37.48533],[126.81055,37.48501],[126.80924,37.48459],[126.80786,37.48413],[126.80651,37.48369],[126.80548,37.48336]]}},{"type":"Feature","properties":{"class":"minor","highway":"residential","sidewalk":"unknown","lanes":0,"name":"경인로577번길","oneway":false},"geometry":{"type":"LineString","coordinates":[[126.81876,37.48908],[126.81969,37.48975],[126.82084,37.49063],[126.82124,37.491],[126.82154,37.49124],[126.82185,37.49146],[126.82209,37.49159],[126.82231,37.49169],[126.82275,37.49186],[126.82333,37.49204],[126.82343,37.49203],[126.82374,37.49195]]}},{"type":"Feature","properties":{"class":"alley","highway":"service","sidewalk":"unknown","lanes":0,"name":"경인로535번길","oneway":false},"geometry":{"type":"LineString","coordinates":[[126.81382,37.48557],[126.81385,37.48568],[126.81473,37.48603],[126.81551,37.48645],[126.81564,37.48652],[126.81584,37.48667],[126.81636,37.48705],[126.81684,37.48747],[126.81807,37.4885]]}},{"type":"Feature","properties":{"class":"alley","highway":"service","sidewalk":"unknown","lanes":0,"name":"경인로587번길","oneway":false},"geometry":{"type":"LineString","coordinates":[[126.8197,37.48849],[126.82033,37.48871]]}},{"type":"Feature","properties":{"class":"alley","highway":"service","sidewalk":"unknown","lanes":0,"name":"부일로750번길","oneway":false},"geometry":{"type":"LineString","coordinates":[[126.81294,37.48632],[126.81328,37.48591]]}},{"type":"Feature","properties":{"class":"alley","highway":"service","sidewalk":"unknown","lanes":0,"name":"","oneway":false},"geometry":{"type":"LineString","coordinates":[[126.81588,37.48604],[126.8157,37.48625],[126.81551,37.48645]]}},{"type":"Feature","properties":{"class":"alley","highway":"service","sidewalk":"unknown","lanes":0,"name":"부일로750번길","oneway":false},"geometry":{"type":"LineString","coordinates":[[126.81361,37.48564],[126.81365,37.48561],[126.81368,37.48559],[126.81382,37.48557]]}},{"type":"Feature","properties":{"class":"alley","highway":"service","sidewalk":"unknown","lanes":0,"name":"경인로557번길","oneway":false},"geometry":{"type":"LineString","coordinates":[[126.81636,37.48705],[126.81647,37.48698],[126.8168,37.48644]]}},{"type":"Feature","properties":{"class":"alley","highway":"service","sidewalk":"unknown","lanes":0,"name":"경인로575번가길","oneway":false},"geometry":{"type":"LineString","coordinates":[[126.81647,37.48698],[126.81817,37.48769]]}},{"type":"Feature","properties":{"class":"minor","highway":"residential","sidewalk":"unknown","lanes":0,"name":"경인로498번길","oneway":false},"geometry":{"type":"LineString","coordinates":[[126.81371,37.47956],[126.81335,37.48008],[126.81278,37.48094],[126.81235,37.48159],[126.81233,37.48162]]}},{"type":"Feature","properties":{"class":"alley","highway":"service","sidewalk":"unknown","lanes":0,"name":"안곡로266번길","oneway":false},"geometry":{"type":"LineString","coordinates":[[126.81569,37.49127],[126.81605,37.49171],[126.81649,37.49224]]}},{"type":"Feature","properties":{"class":"minor","highway":"residential","sidewalk":"unknown","lanes":0,"name":"부일로815번길","oneway":false},"geometry":{"type":"LineString","coordinates":[[126.81583,37.49361],[126.8148,37.49413],[126.8144,37.49433]]}},{"type":"Feature","properties":{"class":"minor","highway":"residential","sidewalk":"unknown","lanes":0,"name":"부일로815번길","oneway":false},"geometry":{"type":"LineString","coordinates":[[126.81452,37.49196],[126.8148,37.49234],[126.81525,37.49289],[126.81583,37.49361],[126.81615,37.49401],[126.8163,37.49419]]}},{"type":"Feature","properties":{"class":"alley","highway":"service","sidewalk":"unknown","lanes":0,"name":"","oneway":false},"geometry":{"type":"LineString","coordinates":[[126.81532,37.49841],[126.81541,37.49826],[126.81551,37.49815],[126.81576,37.49793],[126.81589,37.49771],[126.81604,37.49729],[126.81604,37.49726],[126.81604,37.4971],[126.81603,37.49697],[126.81597,37.49688],[126.81595,37.49659],[126.81623,37.49614],[126.81647,37.49584],[126.81662,37.49562]]}},{"type":"Feature","properties":{"class":"minor","highway":"residential","sidewalk":"unknown","lanes":0,"name":"부일로1길","oneway":false},"geometry":{"type":"LineString","coordinates":[[126.81702,37.49526],[126.81723,37.49539],[126.81726,37.4954],[126.81729,37.49542],[126.81737,37.49545],[126.81767,37.49548],[126.81772,37.49548],[126.8178,37.49548],[126.81791,37.49543],[126.81794,37.4954],[126.81804,37.49525],[126.81809,37.49503],[126.81809,37.49489],[126.81807,37.49468],[126.81809,37.49453],[126.81817,37.49434],[126.81823,37.49422],[126.81829,37.49409],[126.81831,37.49403],[126.81843,37.49378],[126.81852,37.49366],[126.81872,37.49349],[126.81893,37.4933],[126.81911,37.49307],[126.81916,37.49301],[126.81918,37.49298],[126.81924,37.49291],[126.8194,37.49277],[126.81951,37.49269],[126.81961,37.49262],[126.82017,37.49234],[126.82034,37.49225],[126.82047,37.49215],[126.82091,37.49208],[126.82109,37.49206],[126.82122,37.49204],[126.82129,37.49203],[126.82168,37.49198],[126.82186,37.49191]]}},{"type":"Feature","properties":{"class":"alley","highway":"service","sidewalk":"unknown","lanes":0,"name":"부일로815번길","oneway":false},"geometry":{"type":"LineString","coordinates":[[126.81811,37.49109],[126.81908,37.49144]]}},{"type":"Feature","properties":{"class":"alley","highway":"service","sidewalk":"unknown","lanes":0,"name":"부일로815번길","oneway":false},"geometry":{"type":"LineString","coordinates":[[126.81829,37.49076],[126.81935,37.4911]]}},{"type":"Feature","properties":{"class":"alley","highway":"service","sidewalk":"unknown","lanes":0,"name":"부일로819번길","oneway":false},"geometry":{"type":"LineString","coordinates":[[126.81903,37.49003],[126.81917,37.49071],[126.81935,37.4911],[126.81949,37.49132]]}},{"type":"Feature","properties":{"class":"alley","highway":"service","sidewalk":"unknown","lanes":0,"name":"부일로","oneway":false},"geometry":{"type":"LineString","coordinates":[[126.81847,37.48976],[126.81806,37.49045]]}},{"type":"Feature","properties":{"class":"minor","highway":"residential","sidewalk":"unknown","lanes":0,"name":"부일로1가길","oneway":false},"geometry":{"type":"LineString","coordinates":[[126.81703,37.49294],[126.81815,37.49195],[126.8186,37.49163]]}},{"type":"Feature","properties":{"class":"minor","highway":"residential","sidewalk":"unknown","lanes":0,"name":"부일로1가길","oneway":false},"geometry":{"type":"LineString","coordinates":[[126.81949,37.49132],[126.81908,37.49144],[126.8186,37.49163],[126.81783,37.49159]]}},{"type":"Feature","properties":{"class":"alley","highway":"service","sidewalk":"unknown","lanes":0,"name":"","oneway":false},"geometry":{"type":"LineString","coordinates":[[126.81957,37.49143],[126.81987,37.49123]]}},{"type":"Feature","properties":{"class":"minor","highway":"residential","sidewalk":"unknown","lanes":0,"name":"부일로1나길","oneway":false},"geometry":{"type":"LineString","coordinates":[[126.81715,37.4958],[126.81662,37.49562]]}},{"type":"Feature","properties":{"class":"minor","highway":"residential","sidewalk":"unknown","lanes":0,"name":"부일로1길","oneway":false},"geometry":{"type":"LineString","coordinates":[[126.81747,37.49682],[126.81722,37.49599],[126.81716,37.4959],[126.81715,37.4958],[126.81718,37.49574],[126.81737,37.49545]]}},{"type":"Feature","properties":{"class":"alley","highway":"service","sidewalk":"unknown","lanes":0,"name":"부일로809번길","oneway":false},"geometry":{"type":"LineString","coordinates":[[126.8148,37.49234],[126.81605,37.49171],[126.81736,37.49101],[126.81819,37.48959]]}},{"type":"Feature","properties":{"class":"alley","highway":"service","sidewalk":"unknown","lanes":0,"name":"부일로809번길","oneway":false},"geometry":{"type":"LineString","coordinates":[[126.81736,37.49101],[126.81765,37.49115],[126.81795,37.49116],[126.81807,37.49114]]}},{"type":"Feature","properties":{"class":"alley","highway":"service","sidewalk":"unknown","lanes":0,"name":"부일로750번길","oneway":false},"geometry":{"type":"LineString","coordinates":[[126.81328,37.48591],[126.81409,37.48617],[126.81451,37.48635],[126.81543,37.48685],[126.81597,37.48721],[126.81691,37.488],[126.81763,37.48863]]}},{"type":"Feature","properties":{"class":"alley","highway":"service","sidewalk":"unknown","lanes":0,"name":"부일로791번길","oneway":false},"geometry":{"type":"LineString","coordinates":[[126.81604,37.48985],[126.8162,37.48949],[126.81629,37.48928],[126.81654,37.48876],[126.81664,37.48854]]}},{"type":"Feature","properties":{"class":"minor","highway":"residential","sidewalk":"unknown","lanes":0,"name":"역곡로26번길","oneway":false},"geometry":{"type":"LineString","coordinates":[[126.81223,37.48796],[126.81229,37.48798],[126.81345,37.48835],[126.8145,37.4887],[126.81507,37.48888],[126.81629,37.48928]]}},{"type":"Feature","properties":{"class":"alley","highway":"service","sidewalk":"unknown","lanes":0,"name":"","oneway":false},"geometry":{"type":"LineString","coordinates":[[126.81446,37.4917],[126.81486,37.49113],[126.81555,37.49097]]}},{"type":"Feature","properties":{"class":"minor","highway":"residential","sidewalk":"unknown","lanes":0,"name":"부일로763번길","oneway":false},"geometry":{"type":"LineString","coordinates":[[126.81315,37.48893],[126.81334,37.48856],[126.81345,37.48835],[126.81371,37.48785],[126.8139,37.48748],[126.81393,37.48743],[126.81398,37.48733],[126.81427,37.48676]]}},{"type":"Feature","properties":{"class":"alley","highway":"living_street","sidewalk":"unknown","lanes":0,"name":"안곡로279번길","oneway":false},"geometry":{"type":"LineString","coordinates":[[126.812,37.49093],[126.81207,37.49098],[126.81221,37.49116],[126.81223,37.49118],[126.81243,37.49122],[126.81245,37.49123],[126.8128,37.49132],[126.81369,37.49157]]}},{"type":"Feature","properties":{"class":"minor","highway":"residential","sidewalk":"unknown","lanes":0,"name":"부일로779번길","oneway":false},"geometry":{"type":"LineString","coordinates":[[126.81477,37.48946],[126.81496,37.48909],[126.81507,37.48888],[126.81533,37.48835],[126.81537,37.48828],[126.81554,37.48796],[126.81565,37.48776]]}},{"type":"Feature","properties":{"class":"alley","highway":"service","sidewalk":"unknown","lanes":0,"name":"","oneway":false},"geometry":{"type":"LineString","coordinates":[[126.81424,37.49052],[126.81465,37.49065],[126.81505,37.49078]]}},{"type":"Feature","properties":{"class":"alley","highway":"service","sidewalk":"unknown","lanes":0,"name":"역곡로46번길","oneway":false},"geometry":{"type":"LineString","coordinates":[[126.8128,37.49132],[126.81333,37.49023]]}},{"type":"Feature","properties":{"class":"alley","highway":"service","sidewalk":"unknown","lanes":0,"name":"역곡로46번길","oneway":false},"geometry":{"type":"LineString","coordinates":[[126.81245,37.49123],[126.813,37.49012]]}},{"type":"Feature","properties":{"class":"alley","highway":"service","sidewalk":"unknown","lanes":0,"name":"지봉로107번길","oneway":false},"geometry":{"type":"LineString","coordinates":[[126.81008,37.4904],[126.81025,37.49007],[126.81064,37.48934],[126.81118,37.48828]]}},{"type":"Feature","properties":{"class":"alley","highway":"service","sidewalk":"unknown","lanes":0,"name":"지봉로121번길","oneway":false},"geometry":{"type":"LineString","coordinates":[[126.81138,37.49088],[126.81195,37.48976],[126.81249,37.48871]]}},{"type":"Feature","properties":{"class":"minor","highway":"residential","sidewalk":"unknown","lanes":0,"name":"지봉로115번길","oneway":false},"geometry":{"type":"LineString","coordinates":[[126.81073,37.49061],[126.81087,37.49035],[126.81129,37.48956],[126.81183,37.48855],[126.81183,37.4885]]}},{"type":"Feature","properties":{"class":"minor","highway":"residential","sidewalk":"unknown","lanes":0,"name":"역곡로14번길","oneway":false},"geometry":{"type":"LineString","coordinates":[[126.81285,37.48696],[126.81398,37.48733]]}},{"type":"Feature","properties":{"class":"alley","highway":"service","sidewalk":"unknown","lanes":0,"name":"지봉로","oneway":false},"geometry":{"type":"LineString","coordinates":[[126.81465,37.49065],[126.81518,37.4896]]}},{"type":"Feature","properties":{"class":"minor","highway":"residential","sidewalk":"unknown","lanes":0,"name":"역곡로46번길","oneway":false},"geometry":{"type":"LineString","coordinates":[[126.80997,37.48912],[126.81064,37.48934],[126.81129,37.48956],[126.81195,37.48976],[126.81263,37.48999],[126.813,37.49012],[126.81333,37.49023],[126.81424,37.49052]]}},{"type":"Feature","properties":{"class":"minor","highway":"residential","sidewalk":"unknown","lanes":0,"name":"역곡로13번길","oneway":false},"geometry":{"type":"LineString","coordinates":[[126.81133,37.48646],[126.81003,37.48603],[126.8087,37.4856]]}},{"type":"Feature","properties":{"class":"alley","highway":"service","sidewalk":"unknown","lanes":0,"name":"부일로764번길","oneway":false},"geometry":{"type":"LineString","coordinates":[[126.81427,37.48676],[126.81451,37.48635]]}},{"type":"Feature","properties":{"class":"alley","highway":"service","sidewalk":"unknown","lanes":0,"name":"","oneway":false},"geometry":{"type":"LineString","coordinates":[[126.8145,37.4887],[126.81476,37.48817]]}},{"type":"Feature","properties":{"class":"alley","highway":"service","sidewalk":"unknown","lanes":0,"name":"부일로763번길","oneway":false},"geometry":{"type":"LineString","coordinates":[[126.81393,37.48743],[126.81554,37.48796]]}},{"type":"Feature","properties":{"class":"minor","highway":"residential","sidewalk":"unknown","lanes":0,"name":"부일로1가길","oneway":false},"geometry":{"type":"LineString","coordinates":[[126.81893,37.49267],[126.82004,37.49182]]}},{"type":"Feature","properties":{"class":"minor","highway":"residential","sidewalk":"unknown","lanes":0,"name":"부일로1가길","oneway":false},"geometry":{"type":"LineString","coordinates":[[126.81855,37.49239],[126.81893,37.49267],[126.81897,37.49274],[126.81924,37.49291]]}},{"type":"Feature","properties":{"class":"minor","highway":"residential","sidewalk":"unknown","lanes":0,"name":"부일로1다길","oneway":false},"geometry":{"type":"LineString","coordinates":[[126.81798,37.49674],[126.81805,37.49658],[126.81814,37.49643],[126.81817,37.49634],[126.81814,37.49625],[126.81815,37.49611],[126.81817,37.49598],[126.81821,37.4959],[126.81822,37.49583],[126.8183,37.49559],[126.81834,37.49551],[126.81808,37.49529],[126.81804,37.49525]]}},{"type":"Feature","properties":{"class":"minor","highway":"residential","sidewalk":"unknown","lanes":0,"name":"부일로1다길","oneway":false},"geometry":{"type":"LineString","coordinates":[[126.81834,37.49551],[126.81848,37.49564],[126.81856,37.49565],[126.81881,37.49587],[126.81908,37.49589],[126.81915,37.49591],[126.8192,37.49594]]}},{"type":"Feature","properties":{"class":"minor","highway":"residential","sidewalk":"unknown","lanes":0,"name":"부일로1다길","oneway":false},"geometry":{"type":"LineString","coordinates":[[126.81881,37.49587],[126.81872,37.4959],[126.81861,37.49592],[126.81846,37.49591],[126.81826,37.49585],[126.81822,37.49583],[126.81813,37.49578],[126.81784,37.49562],[126.81772,37.49548]]}},{"type":"Feature","properties":{"class":"major","highway":"tertiary","sidewalk":"likely","lanes":0,"name":"안곡로","oneway":false},"geometry":{"type":"LineString","coordinates":[[126.81813,37.48812],[126.81804,37.48829],[126.81791,37.48852]]}},{"type":"Feature","properties":{"class":"major","highway":"tertiary","sidewalk":"yes","lanes":4,"name":"안곡로","oneway":false},"geometry":{"type":"LineString","coordinates":[[126.81663,37.48994],[126.81631,37.49051],[126.8162,37.49071],[126.81602,37.49097],[126.81585,37.49115],[126.81569,37.49127],[126.81545,37.49139],[126.8152,37.4915],[126.81499,37.49157],[126.81446,37.4917],[126.81374,37.49182]]}},{"type":"Feature","properties":{"class":"alley","highway":"service","sidewalk":"unknown","lanes":0,"name":"","oneway":true},"geometry":{"type":"LineString","coordinates":[[126.81178,37.48558],[126.81169,37.4855],[126.81155,37.48544],[126.81152,37.48533]]}},{"type":"Feature","properties":{"class":"minor","highway":"residential","sidewalk":"unknown","lanes":0,"name":"연동로13길","oneway":false},"geometry":{"type":"LineString","coordinates":[[126.81934,37.48555],[126.81936,37.48531],[126.8198,37.48516],[126.82011,37.48497],[126.82018,37.48494],[126.82039,37.4849],[126.82052,37.48486],[126.82068,37.48471],[126.82083,37.48452],[126.82092,37.48437]]}},{"type":"Feature","properties":{"class":"alley","highway":"service","sidewalk":"unknown","lanes":0,"name":"","oneway":false},"geometry":{"type":"LineString","coordinates":[[126.81949,37.4835],[126.81955,37.4832],[126.8214,37.48416],[126.82134,37.4842],[126.82119,37.48426],[126.82112,37.48427],[126.82092,37.48437]]}},{"type":"Feature","properties":{"class":"minor","highway":"residential","sidewalk":"unknown","lanes":0,"name":"부일로1나길","oneway":false},"geometry":{"type":"LineString","coordinates":[[126.81649,37.49224],[126.81703,37.49294],[126.81736,37.49337],[126.8175,37.49355]]}},{"type":"Feature","properties":{"class":"minor","highway":"residential","sidewalk":"unknown","lanes":0,"name":"부일로1가길","oneway":false},"geometry":{"type":"LineString","coordinates":[[126.81949,37.49132],[126.81957,37.49143],[126.81971,37.49159],[126.82004,37.49182],[126.82047,37.49215]]}},{"type":"Feature","properties":{"class":"minor","highway":"residential","sidewalk":"unknown","lanes":0,"name":"부일로815번길","oneway":false},"geometry":{"type":"LineString","coordinates":[[126.81783,37.49159],[126.81649,37.49224],[126.81525,37.49289],[126.81475,37.49311]]}},{"type":"Feature","properties":{"class":"minor","highway":"residential","sidewalk":"unknown","lanes":0,"name":"부일로1가길","oneway":false},"geometry":{"type":"LineString","coordinates":[[126.8175,37.49355],[126.81774,37.4931],[126.81785,37.49291],[126.81812,37.49269],[126.81828,37.49258],[126.81852,37.49241],[126.81855,37.49239],[126.81865,37.49215],[126.81971,37.49159]]}},{"type":"Feature","properties":{"class":"minor","highway":"residential","sidewalk":"unknown","lanes":0,"name":"부일로1나길","oneway":false},"geometry":{"type":"LineString","coordinates":[[126.8175,37.49355],[126.81757,37.49362],[126.8178,37.49376],[126.81829,37.49409]]}},{"type":"Feature","properties":{"class":"minor","highway":"residential","sidewalk":"unknown","lanes":0,"name":"부일로1나길","oneway":false},"geometry":{"type":"LineString","coordinates":[[126.81662,37.49562],[126.81555,37.49525],[126.81553,37.49516],[126.81648,37.49443],[126.81658,37.49434],[126.81659,37.49429],[126.81661,37.49422],[126.81663,37.4942],[126.81713,37.49385],[126.81715,37.49384],[126.81732,37.49385],[126.8175,37.49355]]}},{"type":"Feature","properties":{"class":"minor","highway":"residential","sidewalk":"unknown","lanes":0,"name":"부일로1길","oneway":false},"geometry":{"type":"LineString","coordinates":[[126.81662,37.49562],[126.81667,37.49554],[126.81702,37.49526]]}},{"type":"Feature","properties":{"class":"minor","highway":"residential","sidewalk":"unknown","lanes":0,"name":"부일로1나길","oneway":false},"geometry":{"type":"LineString","coordinates":[[126.81615,37.49401],[126.81736,37.49337]]}},{"type":"Feature","properties":{"class":"major","highway":"tertiary","sidewalk":"likely","lanes":0,"name":"소사동로","oneway":false},"geometry":{"type":"LineString","coordinates":[[126.81557,37.47975],[126.81839,37.48104],[126.81868,37.48129],[126.81894,37.48166]]}},{"type":"Feature","properties":{"class":"major","highway":"primary","sidewalk":"likely","lanes":0,"name":"경인로","oneway":false},"geometry":{"type":"LineString","coordinates":[[126.81442,37.48541],[126.81575,37.48599],[126.81588,37.48604],[126.81657,37.48634],[126.8168,37.48644]]}},{"type":"Feature","properties":{"class":"major","highway":"tertiary","sidewalk":"likely","lanes":0,"name":"역곡로58번길","oneway":false},"geometry":{"type":"LineString","coordinates":[[126.80944,37.49019],[126.81008,37.4904],[126.81073,37.49061],[126.81138,37.49088],[126.81153,37.49094],[126.81161,37.49097],[126.81173,37.49098],[126.81182,37.49097],[126.81192,37.49095],[126.812,37.49093]]}},{"type":"Feature","properties":{"class":"major","highway":"tertiary","sidewalk":"yes","lanes":2,"name":"지봉로127번길","oneway":false},"geometry":{"type":"LineString","coordinates":[[126.812,37.49093],[126.81207,37.49088],[126.81215,37.49082],[126.8122,37.49076],[126.81227,37.49068],[126.81259,37.49007],[126.81261,37.49003],[126.81263,37.48999]]}},{"type":"Feature","properties":{"class":"minor","highway":"residential","sidewalk":"unknown","lanes":0,"name":"역곡로26번길","oneway":false},"geometry":{"type":"LineString","coordinates":[[126.81079,37.4875],[126.81199,37.48788]]}},{"type":"Feature","properties":{"class":"minor","highway":"residential","sidewalk":"unknown","lanes":0,"name":"역곡로20번길","oneway":false},"geometry":{"type":"LineString","coordinates":[[126.81106,37.48698],[126.81222,37.48736]]}},{"type":"Feature","properties":{"class":"minor","highway":"residential","sidewalk":"unknown","lanes":0,"name":"역곡로19번길","oneway":true},"geometry":{"type":"LineString","coordinates":[[126.80844,37.48612],[126.80976,37.48656],[126.81106,37.48698]]}},{"type":"Feature","properties":{"class":"minor","highway":"residential","sidewalk":"unknown","lanes":0,"name":"역곡로14번길","oneway":false},"geometry":{"type":"LineString","coordinates":[[126.81133,37.48646],[126.81251,37.48685]]}},{"type":"Feature","properties":{"class":"minor","highway":"residential","sidewalk":"unknown","lanes":0,"name":"역곡로20번길","oneway":false},"geometry":{"type":"LineString","coordinates":[[126.81253,37.48745],[126.81371,37.48785],[126.81476,37.48817],[126.81533,37.48835],[126.81654,37.48876]]}},{"type":"Feature","properties":{"class":"alley","highway":"living_street","sidewalk":"unknown","lanes":0,"name":"역곡로14번길","oneway":false},"geometry":{"type":"LineString","coordinates":[[126.81251,37.48685],[126.8126,37.48688],[126.81265,37.48689],[126.81285,37.48696]]}},{"type":"Feature","properties":{"class":"alley","highway":"living_street","sidewalk":"unknown","lanes":0,"name":"역곡로20번길","oneway":false},"geometry":{"type":"LineString","coordinates":[[126.81222,37.48736],[126.81239,37.48741],[126.81253,37.48745]]}},{"type":"Feature","properties":{"class":"alley","highway":"living_street","sidewalk":"unknown","lanes":0,"name":"부일로749번길","oneway":false},"geometry":{"type":"LineString","coordinates":[[126.81183,37.4885],[126.81187,37.48843],[126.81212,37.48792],[126.81239,37.48741],[126.81265,37.48689],[126.81271,37.48677],[126.81294,37.48632]]}},{"type":"Feature","properties":{"class":"alley","highway":"living_street","sidewalk":"unknown","lanes":0,"name":"역곡로26번길","oneway":false},"geometry":{"type":"LineString","coordinates":[[126.81199,37.48788],[126.81212,37.48792],[126.81223,37.48796]]}},{"type":"Feature","properties":{"class":"alley","highway":"service","sidewalk":"unknown","lanes":0,"name":"부일로750번길","oneway":false},"geometry":{"type":"LineString","coordinates":[[126.81331,37.48588],[126.81345,37.48576]]}},{"type":"Feature","properties":{"class":"major","highway":"tertiary","sidewalk":"likely","lanes":0,"name":"부일로","oneway":false},"geometry":{"type":"LineString","coordinates":[[126.81745,37.48918],[126.8177,37.48932],[126.81773,37.48933],[126.81819,37.48959],[126.81847,37.48976],[126.81878,37.48991],[126.81903,37.49003],[126.81971,37.49041],[126.81987,37.49053],[126.81997,37.4906],[126.82012,37.49072],[126.82046,37.49093]]}},{"type":"Feature","properties":{"class":"major","highway":"tertiary","sidewalk":"likely","lanes":0,"name":"역곡로","oneway":false},"geometry":{"type":"LineString","coordinates":[[126.81161,37.48591],[126.81133,37.48646],[126.81122,37.48668],[126.81106,37.48698],[126.81079,37.4875],[126.81074,37.48761],[126.81066,37.48777],[126.81051,37.48806]]}},{"type":"Feature","properties":{"class":"major","highway":"tertiary","sidewalk":"likely","lanes":0,"name":"지봉로","oneway":false},"geometry":{"type":"LineString","coordinates":[[126.81663,37.48994],[126.81604,37.48985],[126.81559,37.48973],[126.81518,37.4896],[126.81477,37.48946],[126.81315,37.48893]]}},{"type":"Feature","properties":{"class":"alley","highway":"service","sidewalk":"unknown","lanes":0,"name":"","oneway":false},"geometry":{"type":"LineString","coordinates":[[126.81178,37.48558],[126.81174,37.48564]]}},{"type":"Feature","properties":{"class":"alley","highway":"service","sidewalk":"unknown","lanes":0,"name":"경인로535번길","oneway":false},"geometry":{"type":"LineString","coordinates":[[126.81382,37.48557],[126.81442,37.48541]]}},{"type":"Feature","properties":{"class":"alley","highway":"service","sidewalk":"unknown","lanes":1,"name":"역곡로2번길","oneway":true},"geometry":{"type":"LineString","coordinates":[[126.81328,37.48591],[126.81197,37.48547],[126.81178,37.48558]]}},{"type":"Feature","properties":{"class":"alley","highway":"service","sidewalk":"unknown","lanes":0,"name":"","oneway":true},"geometry":{"type":"LineString","coordinates":[[126.81257,37.48462],[126.81236,37.48471],[126.81234,37.48472],[126.81225,37.48487],[126.81223,37.48488],[126.81221,37.48489],[126.81218,37.4849],[126.81214,37.48489],[126.81212,37.48488],[126.8121,37.48486],[126.81209,37.48484],[126.81209,37.48481],[126.81218,37.48466],[126.81217,37.48462],[126.81215,37.48445]]}},{"type":"Feature","properties":{"class":"alley","highway":"pedestrian","sidewalk":"unknown","lanes":0,"name":"역곡역돌담공연장","oneway":false},"geometry":{"type":"LineString","coordinates":[[126.81219,37.48467],[126.81211,37.48482],[126.81211,37.48484],[126.81212,37.48486],[126.81213,37.48487],[126.81215,37.48488],[126.81218,37.48488],[126.8122,37.48488],[126.81222,37.48487],[126.81224,37.48486],[126.81231,37.48471],[126.81234,37.4847],[126.81237,37.48469],[126.8122,37.48461],[126.81219,37.48463],[126.81219,37.48467]]}},{"type":"Feature","properties":{"class":"alley","highway":"service","sidewalk":"unknown","lanes":0,"name":"부일로780번길","oneway":false},"geometry":{"type":"LineString","coordinates":[[126.81565,37.48776],[126.81597,37.48721]]}},{"type":"Feature","properties":{"class":"minor","highway":"residential","sidewalk":"yes","lanes":0,"name":"지봉로143번길","oneway":false},"geometry":{"type":"LineString","coordinates":[[126.81369,37.49157],[126.81419,37.49062],[126.81424,37.49052],[126.8147,37.4896],[126.81477,37.48946]]}},{"type":"Feature","properties":{"class":"alley","highway":"service","sidewalk":"unknown","lanes":0,"name":"부광로22번길","oneway":true},"geometry":{"type":"LineString","coordinates":[[126.81348,37.48278],[126.81204,37.48216]]}},{"type":"Feature","properties":{"class":"minor","highway":"residential","sidewalk":"unknown","lanes":0,"name":"부광로15번길","oneway":true},"geometry":{"type":"LineString","coordinates":[[126.81307,37.48338],[126.81421,37.48386]]}},{"type":"Feature","properties":{"class":"alley","highway":"living_street","sidewalk":"unknown","lanes":0,"name":"부광로22번길","oneway":true},"geometry":{"type":"LineString","coordinates":[[126.81204,37.48216],[126.81198,37.48214],[126.81191,37.48211]]}},{"type":"Feature","properties":{"class":"alley","highway":"living_street","sidewalk":"unknown","lanes":0,"name":"부광로16번길","oneway":true},"geometry":{"type":"LineString","coordinates":[[126.81149,37.48271],[126.81157,37.48274],[126.81162,37.48276]]}},{"type":"Feature","properties":{"class":"alley","highway":"living_street","sidewalk":"unknown","lanes":0,"name":"경인로498번길","oneway":false},"geometry":{"type":"LineString","coordinates":[[126.81127,37.48318],[126.81157,37.48274],[126.81198,37.48214],[126.81233,37.48162]]}},{"type":"Feature","properties":{"class":"minor","highway":"residential","sidewalk":"unknown","lanes":0,"name":"경인로498번길","oneway":false},"geometry":{"type":"LineString","coordinates":[[126.8108,37.48389],[126.81123,37.48324]]}},{"type":"Feature","properties":{"class":"minor","highway":"residential","sidewalk":"unknown","lanes":0,"name":"부광로8번길","oneway":true},"geometry":{"type":"LineString","coordinates":[[126.81274,37.48387],[126.81123,37.48324]]}},{"type":"Feature","properties":{"class":"minor","highway":"residential","sidewalk":"unknown","lanes":0,"name":"부광로7번길","oneway":false},"geometry":{"type":"LineString","coordinates":[[126.81504,37.48487],[126.81388,37.48437],[126.81274,37.48387]]}},{"type":"Feature","properties":{"class":"minor","highway":"residential","sidewalk":"unknown","lanes":0,"name":"안곡로194번길","oneway":false},"geometry":{"type":"LineString","coordinates":[[126.81973,37.48564],[126.82006,37.48555],[126.8204,37.48542]]}},{"type":"Feature","properties":{"class":"alley","highway":"service","sidewalk":"unknown","lanes":0,"name":"부일로792번길","oneway":false},"geometry":{"type":"LineString","coordinates":[[126.81664,37.48854],[126.81691,37.488]]}},{"type":"Feature","properties":{"class":"alley","highway":"service","sidewalk":"unknown","lanes":0,"name":"지봉로","oneway":false},"geometry":{"type":"LineString","coordinates":[[126.81505,37.49078],[126.81559,37.48973]]}},{"type":"Feature","properties":{"class":"alley","highway":"service","sidewalk":"unknown","lanes":0,"name":"지봉로155번길","oneway":false},"geometry":{"type":"LineString","coordinates":[[126.81555,37.49097],[126.81604,37.48985]]}},{"type":"Feature","properties":{"class":"alley","highway":"service","sidewalk":"unknown","lanes":0,"name":"","oneway":false},"geometry":{"type":"LineString","coordinates":[[126.81471,37.49242],[126.8148,37.49234]]}},{"type":"Feature","properties":{"class":"alley","highway":"service","sidewalk":"unknown","lanes":0,"name":"","oneway":false},"geometry":{"type":"LineString","coordinates":[[126.81631,37.49051],[126.81736,37.49101]]}},{"type":"Feature","properties":{"class":"alley","highway":"service","sidewalk":"unknown","lanes":0,"name":"경인로536번길","oneway":false},"geometry":{"type":"LineString","coordinates":[[126.81757,37.48457],[126.81756,37.48421]]}},{"type":"Feature","properties":{"class":"alley","highway":"service","sidewalk":"unknown","lanes":0,"name":"경인로562번길","oneway":false},"geometry":{"type":"LineString","coordinates":[[126.81724,37.48519],[126.81786,37.48545]]}},{"type":"Feature","properties":{"class":"alley","highway":"service","sidewalk":"unknown","lanes":0,"name":"부광로29번길","oneway":false},"geometry":{"type":"LineString","coordinates":[[126.81527,37.48298],[126.81453,37.48407]]}},{"type":"Feature","properties":{"class":"alley","highway":"service","sidewalk":"unknown","lanes":0,"name":"안곡로","oneway":false},"geometry":{"type":"LineString","coordinates":[[126.81778,37.4818],[126.81754,37.48167],[126.81726,37.48201]]}},{"type":"Feature","properties":{"class":"alley","highway":"service","sidewalk":"unknown","lanes":0,"name":"부광로35번길","oneway":false},"geometry":{"type":"LineString","coordinates":[[126.81752,37.48346],[126.81649,37.48291],[126.81535,37.4823],[126.81423,37.48168]]}},{"type":"Feature","properties":{"class":"alley","highway":"service","sidewalk":"unknown","lanes":0,"name":"부광로41번길","oneway":false},"geometry":{"type":"LineString","coordinates":[[126.81826,37.48395],[126.81826,37.48322],[126.81791,37.48302],[126.81686,37.48248],[126.81573,37.48186],[126.81454,37.48121]]}},{"type":"Feature","properties":{"class":"alley","highway":"service","sidewalk":"unknown","lanes":0,"name":"안곡로79번길","oneway":false},"geometry":{"type":"LineString","coordinates":[[126.81127,37.48033],[126.81111,37.48026],[126.81103,37.4802],[126.811,37.48014],[126.81104,37.47933],[126.81106,37.47891],[126.81111,37.47832]]}},{"type":"Feature","properties":{"class":"minor","highway":"residential","sidewalk":"unknown","lanes":0,"name":"","oneway":false},"geometry":{"type":"LineString","coordinates":[[126.8198,37.48166],[126.81969,37.48164],[126.81952,37.48162],[126.81933,37.48163],[126.81894,37.48166]]}},{"type":"Feature","properties":{"class":"minor","highway":"residential","sidewalk":"unknown","lanes":0,"name":"","oneway":false},"geometry":{"type":"LineString","coordinates":[[126.82028,37.48188],[126.82018,37.48182],[126.81992,37.48168],[126.8198,37.48166]]}},{"type":"Feature","properties":{"class":"alley","highway":"service","sidewalk":"unknown","lanes":0,"name":"","oneway":false},"geometry":{"type":"LineString","coordinates":[[126.81532,37.49841],[126.81549,37.49851],[126.81562,37.49861],[126.8157,37.49869],[126.81573,37.49876],[126.81572,37.49884],[126.81572,37.49894],[126.81573,37.499],[126.81576,37.49906],[126.81589,37.4992],[126.816,37.49931],[126.81608,37.49935],[126.81622,37.49943],[126.81627,37.49947],[126.81633,37.49954],[126.81634,37.4996],[126.81634,37.49968],[126.81632,37.49977],[126.81628,37.49984],[126.8162,37.4999],[126.81617,37.49993],[126.81613,37.49999],[126.81611,37.50011],[126.81611,37.50023],[126.81611,37.50032],[126.81608,37.50038],[126.81604,37.50046],[126.816,37.50051],[126.816,37.50056],[126.816,37.50064],[126.81601,37.50071],[126.81605,37.50092],[126.81608,37.50112]]}},{"type":"Feature","properties":{"class":"alley","highway":"service","sidewalk":"unknown","lanes":0,"name":"","oneway":false},"geometry":{"type":"LineString","coordinates":[[126.81522,37.49455],[126.81561,37.49429],[126.81586,37.49417],[126.81615,37.49401]]}},{"type":"Feature","properties":{"class":"alley","highway":"service","sidewalk":"unknown","lanes":0,"name":"","oneway":false},"geometry":{"type":"LineString","coordinates":[[126.8162,37.48949],[126.81496,37.48909],[126.81334,37.48856]]}},{"type":"Feature","properties":{"class":"alley","highway":"service","sidewalk":"unknown","lanes":0,"name":"경인로577번길","oneway":false},"geometry":{"type":"LineString","coordinates":[[126.81874,37.48727],[126.81857,37.48758],[126.81838,37.48794],[126.81807,37.4885]]}},{"type":"Feature","properties":{"class":"alley","highway":"service","sidewalk":"unknown","lanes":0,"name":"","oneway":false},"geometry":{"type":"LineString","coordinates":[[126.82015,37.48145],[126.82021,37.48147],[126.82024,37.4815],[126.82027,37.48153],[126.82029,37.48157],[126.82031,37.48163],[126.82033,37.48168],[126.82034,37.48175],[126.82034,37.48182],[126.82033,37.48191],[126.82027,37.48202],[126.82014,37.48217],[126.82009,37.48222],[126.82004,37.48225],[126.82,37.48228],[126.81995,37.48229],[126.81989,37.4823]]}},{"type":"Feature","properties":{"class":"major","highway":"primary","sidewalk":"likely","lanes":0,"name":"경인로","oneway":false},"geometry":{"type":"LineString","coordinates":[[126.81123,37.48406],[126.81158,37.48421],[126.81194,37.48436]]}},{"type":"Feature","properties":{"class":"major","highway":"primary","sidewalk":"likely","lanes":0,"name":"경인로","oneway":false},"geometry":{"type":"LineString","coordinates":[[126.8168,37.48644],[126.81713,37.48657]]}},{"type":"Feature","properties":{"class":"major","highway":"primary","sidewalk":"likely","lanes":0,"name":"경인로","oneway":false},"geometry":{"type":"LineString","coordinates":[[126.81862,37.48722],[126.81874,37.48727],[126.8197,37.48764],[126.81994,37.48774],[126.81996,37.48775],[126.8207,37.48806],[126.82134,37.48827],[126.82166,37.48835],[126.82289,37.48855],[126.82302,37.48858]]}},{"type":"Feature","properties":{"class":"alley","highway":"service","sidewalk":"unknown","lanes":0,"name":"경인로577번길","oneway":false},"geometry":{"type":"LineString","coordinates":[[126.81807,37.4885],[126.81876,37.48908]]}},{"type":"Feature","properties":{"class":"alley","highway":"service","sidewalk":"unknown","lanes":0,"name":"","oneway":false},"geometry":{"type":"LineString","coordinates":[[126.81223,37.49118],[126.81204,37.49163]]}},{"type":"Feature","properties":{"class":"alley","highway":"service","sidewalk":"unknown","lanes":0,"name":"","oneway":false},"geometry":{"type":"LineString","coordinates":[[126.81147,37.49104],[126.81153,37.49094]]}},{"type":"Feature","properties":{"class":"major","highway":"tertiary","sidewalk":"likely","lanes":0,"name":"역곡로","oneway":false},"geometry":{"type":"LineString","coordinates":[[126.81174,37.48564],[126.81161,37.48591]]}},{"type":"Feature","properties":{"class":"minor","highway":"residential","sidewalk":"unknown","lanes":0,"name":"부일로1길","oneway":false},"geometry":{"type":"LineString","coordinates":[[126.81658,37.49434],[126.81673,37.49456],[126.81685,37.49469],[126.81695,37.49482],[126.817,37.49496],[126.81701,37.49514],[126.81703,37.49521],[126.81702,37.49526]]}},{"type":"Feature","properties":{"class":"major","highway":"tertiary","sidewalk":"likely","lanes":2,"name":"부일로","oneway":false},"geometry":{"type":"LineString","coordinates":[[126.81427,37.48676],[126.81452,37.48688],[126.81464,37.48697],[126.81565,37.48776]]}},{"type":"Feature","properties":{"class":"minor","highway":"residential","sidewalk":"yes","lanes":3,"name":"지봉로143번길","oneway":false},"geometry":{"type":"LineString","coordinates":[[126.81374,37.49182],[126.81369,37.49157]]}},{"type":"Feature","properties":{"class":"major","highway":"tertiary","sidewalk":"likely","lanes":0,"name":"안곡로","oneway":false},"geometry":{"type":"LineString","coordinates":[[126.81181,37.49214],[126.81155,37.49207],[126.81073,37.49177],[126.81031,37.49161],[126.80914,37.4909]]}},{"type":"Feature","properties":{"class":"alley","highway":"service","sidewalk":"unknown","lanes":0,"name":"","oneway":false},"geometry":{"type":"LineString","coordinates":[[126.8125,37.49208],[126.81256,37.49231],[126.81357,37.49208]]}},{"type":"Feature","properties":{"class":"alley","highway":"service","sidewalk":"unknown","lanes":0,"name":"","oneway":false},"geometry":{"type":"LineString","coordinates":[[126.81315,37.49194],[126.81356,37.49207],[126.81357,37.49208],[126.81377,37.49215],[126.81382,37.49228],[126.81386,37.49241],[126.81391,37.49255],[126.81395,37.49268],[126.81401,37.49287],[126.81406,37.49303],[126.81411,37.49317],[126.81416,37.49333],[126.81421,37.49348],[126.81413,37.4935],[126.81415,37.49358],[126.81391,37.49363]]}},{"type":"Feature","properties":{"class":"alley","highway":"service","sidewalk":"unknown","lanes":0,"name":"","oneway":false},"geometry":{"type":"LineString","coordinates":[[126.81416,37.49333],[126.8144,37.49328]]}},{"type":"Feature","properties":{"class":"alley","highway":"service","sidewalk":"unknown","lanes":0,"name":"","oneway":false},"geometry":{"type":"LineString","coordinates":[[126.81411,37.49317],[126.81434,37.49313]]}},{"type":"Feature","properties":{"class":"alley","highway":"service","sidewalk":"unknown","lanes":0,"name":"","oneway":false},"geometry":{"type":"LineString","coordinates":[[126.81406,37.49303],[126.81428,37.49298]]}},{"type":"Feature","properties":{"class":"alley","highway":"service","sidewalk":"unknown","lanes":0,"name":"","oneway":false},"geometry":{"type":"LineString","coordinates":[[126.8142,37.49283],[126.81401,37.49287]]}},{"type":"Feature","properties":{"class":"alley","highway":"service","sidewalk":"unknown","lanes":0,"name":"","oneway":false},"geometry":{"type":"LineString","coordinates":[[126.81409,37.49252],[126.81391,37.49255]]}},{"type":"Feature","properties":{"class":"alley","highway":"service","sidewalk":"unknown","lanes":0,"name":"","oneway":false},"geometry":{"type":"LineString","coordinates":[[126.81395,37.49268],[126.81401,37.49266]]}},{"type":"Feature","properties":{"class":"alley","highway":"service","sidewalk":"unknown","lanes":0,"name":"","oneway":false},"geometry":{"type":"LineString","coordinates":[[126.81401,37.49266],[126.81413,37.49264]]}},{"type":"Feature","properties":{"class":"alley","highway":"service","sidewalk":"unknown","lanes":0,"name":"","oneway":false},"geometry":{"type":"LineString","coordinates":[[126.81405,37.49237],[126.81386,37.49241]]}},{"type":"Feature","properties":{"class":"alley","highway":"service","sidewalk":"unknown","lanes":0,"name":"","oneway":false},"geometry":{"type":"LineString","coordinates":[[126.81401,37.49223],[126.81382,37.49228]]}},{"type":"Feature","properties":{"class":"alley","highway":"service","sidewalk":"unknown","lanes":0,"name":"","oneway":false},"geometry":{"type":"LineString","coordinates":[[126.81397,37.49209],[126.81377,37.49215]]}},{"type":"Feature","properties":{"class":"alley","highway":"service","sidewalk":"unknown","lanes":0,"name":"","oneway":false},"geometry":{"type":"LineString","coordinates":[[126.81356,37.49207],[126.8136,37.49202],[126.81393,37.49195]]}},{"type":"Feature","properties":{"class":"major","highway":"tertiary","sidewalk":"yes","lanes":4,"name":"안곡로","oneway":false},"geometry":{"type":"LineString","coordinates":[[126.81374,37.49182],[126.81315,37.49194],[126.81286,37.492],[126.8125,37.49208]]}},{"type":"Feature","properties":{"class":"major","highway":"tertiary","sidewalk":"likely","lanes":0,"name":"지봉로","oneway":false},"geometry":{"type":"LineString","coordinates":[[126.81315,37.48893],[126.81249,37.48871],[126.81183,37.4885],[126.81178,37.48848],[126.81118,37.48828],[126.81051,37.48806]]}},{"type":"Feature","properties":{"class":"major","highway":"tertiary","sidewalk":"likely","lanes":2,"name":"부일로","oneway":false},"geometry":{"type":"LineString","coordinates":[[126.81201,37.48603],[126.81216,37.48608],[126.81243,37.48616],[126.81294,37.48632]]}},{"type":"Feature","properties":{"class":"major","highway":"tertiary","sidewalk":"likely","lanes":3,"name":"부일로","oneway":false},"geometry":{"type":"LineString","coordinates":[[126.81294,37.48632],[126.81323,37.48641],[126.81326,37.48642],[126.81356,37.48652]]}},{"type":"Feature","properties":{"class":"major","highway":"tertiary","sidewalk":"yes","lanes":3,"name":"지봉로127번길","oneway":false},"geometry":{"type":"LineString","coordinates":[[126.81263,37.48999],[126.81306,37.48912],[126.81306,37.48911],[126.81315,37.48893]]}},{"type":"Feature","properties":{"class":"major","highway":"tertiary","sidewalk":"likely","lanes":0,"name":"안곡로","oneway":false},"geometry":{"type":"LineString","coordinates":[[126.81726,37.48201],[126.81649,37.48159],[126.81619,37.48143],[126.81612,37.48139],[126.81486,37.48073]]}},{"type":"Feature","properties":{"class":"major","highway":"tertiary","sidewalk":"likely","lanes":2,"name":"부일로","oneway":false},"geometry":{"type":"LineString","coordinates":[[126.81356,37.48652],[126.81427,37.48676]]}},{"type":"Feature","properties":{"class":"major","highway":"tertiary","sidewalk":"likely","lanes":0,"name":"안곡로","oneway":false},"geometry":{"type":"LineString","coordinates":[[126.81791,37.48852],[126.81777,37.48873]]}},{"type":"Feature","properties":{"class":"major","highway":"tertiary","sidewalk":"likely","lanes":0,"name":"부일로","oneway":false},"geometry":{"type":"LineString","coordinates":[[126.81565,37.48776],[126.81646,37.4884],[126.81664,37.48854],[126.81668,37.48857],[126.81745,37.48918]]}},{"type":"Feature","properties":{"class":"major","highway":"tertiary","sidewalk":"yes","lanes":4,"name":"안곡로","oneway":false},"geometry":{"type":"LineString","coordinates":[[126.81777,37.48873],[126.81745,37.48918]]}},{"type":"Feature","properties":{"class":"major","highway":"tertiary","sidewalk":"yes","lanes":4,"name":"안곡로","oneway":false},"geometry":{"type":"LineString","coordinates":[[126.81745,37.48918],[126.81714,37.48951],[126.81663,37.48994]]}},{"type":"Feature","properties":{"class":"major","highway":"tertiary","sidewalk":"likely","lanes":0,"name":"안곡로","oneway":false},"geometry":{"type":"LineString","coordinates":[[126.8125,37.49208],[126.81233,37.49211],[126.81216,37.49214],[126.812,37.49215],[126.81181,37.49214]]}},{"type":"Feature","properties":{"class":"minor","highway":"residential","sidewalk":"unknown","lanes":0,"name":"경인로498번길","oneway":false},"geometry":{"type":"LineString","coordinates":[[126.81123,37.48324],[126.81127,37.48318]]}},{"type":"Feature","properties":{"class":"minor","highway":"residential","sidewalk":"unknown","lanes":0,"name":"부광로8번길","oneway":true},"geometry":{"type":"LineString","coordinates":[[126.81123,37.48324],[126.80973,37.48262]]}},{"type":"Feature","properties":{"class":"major","highway":"tertiary","sidewalk":"likely","lanes":0,"name":"부광로","oneway":false},"geometry":{"type":"LineString","coordinates":[[126.81486,37.48073],[126.81557,37.47975]]}},{"type":"Feature","properties":{"class":"major","highway":"tertiary","sidewalk":"likely","lanes":0,"name":"안곡로","oneway":false},"geometry":{"type":"LineString","coordinates":[[126.81486,37.48073],[126.8144,37.48048],[126.81417,37.48029],[126.81407,37.4801],[126.81377,37.47963],[126.81371,37.47956],[126.81341,37.47931],[126.81317,37.47917],[126.81283,37.47896],[126.81238,37.47868]]}},{"type":"Feature","properties":{"class":"minor","highway":"residential","sidewalk":"unknown","lanes":0,"name":"경인로484번길","oneway":false},"geometry":{"type":"LineString","coordinates":[[126.81127,37.48033],[126.81202,37.47922],[126.81238,37.47868]]}},{"type":"Feature","properties":{"class":"major","highway":"tertiary","sidewalk":"likely","lanes":0,"name":"부광로","oneway":false},"geometry":{"type":"LineString","coordinates":[[126.81423,37.48168],[126.81428,37.4816],[126.81445,37.48135],[126.81454,37.48121],[126.81486,37.48073]]}},{"type":"Feature","properties":{"class":"minor","highway":"residential","sidewalk":"unknown","lanes":0,"name":"경인로484번길","oneway":false},"geometry":{"type":"LineString","coordinates":[[126.81092,37.48084],[126.81127,37.48033]]}},{"type":"Feature","properties":{"class":"major","highway":"tertiary","sidewalk":"likely","lanes":0,"name":"부광로","oneway":false},"geometry":{"type":"LineString","coordinates":[[126.81385,37.48223],[126.81423,37.48168]]}},{"type":"Feature","properties":{"class":"major","highway":"tertiary","sidewalk":"likely","lanes":0,"name":"안곡로","oneway":false},"geometry":{"type":"LineString","coordinates":[[126.81901,37.48342],[126.81883,37.48306],[126.81864,37.48284],[126.81842,37.48265],[126.8183,37.48258],[126.81726,37.48201]]}},{"type":"Feature","properties":{"class":"alley","highway":"service","sidewalk":"unknown","lanes":0,"name":"부광로29번길","oneway":false},"geometry":{"type":"LineString","coordinates":[[126.8171,37.48395],[126.81645,37.48362],[126.81605,37.48339]]}},{"type":"Feature","properties":{"class":"alley","highway":"service","sidewalk":"unknown","lanes":0,"name":"안곡로149번길","oneway":false},"geometry":{"type":"LineString","coordinates":[[126.81605,37.48339],[126.8157,37.48427]]}},{"type":"Feature","properties":{"class":"major","highway":"tertiary","sidewalk":"likely","lanes":0,"name":"부광로","oneway":false},"geometry":{"type":"LineString","coordinates":[[126.81348,37.48278],[126.81385,37.48223]]}},{"type":"Feature","properties":{"class":"major","highway":"tertiary","sidewalk":"likely","lanes":0,"name":"부광로","oneway":false},"geometry":{"type":"LineString","coordinates":[[126.81231,37.48451],[126.81267,37.48396],[126.81274,37.48387]]}},{"type":"Feature","properties":{"class":"alley","highway":"service","sidewalk":"unknown","lanes":0,"name":"안곡로159번길","oneway":false},"geometry":{"type":"LineString","coordinates":[[126.81691,37.48422],[126.8171,37.48395]]}},{"type":"Feature","properties":{"class":"major","highway":"tertiary","sidewalk":"likely","lanes":0,"name":"경인로536번길","oneway":false},"geometry":{"type":"LineString","coordinates":[[126.81826,37.48395],[126.81756,37.48421],[126.81691,37.48422]]}},{"type":"Feature","properties":{"class":"major","highway":"tertiary","sidewalk":"likely","lanes":0,"name":"경인로536번길","oneway":false},"geometry":{"type":"LineString","coordinates":[[126.81504,37.48487],[126.81442,37.48541]]}},{"type":"Feature","properties":{"class":"alley","highway":"service","sidewalk":"unknown","lanes":0,"name":"부일로750번길","oneway":false},"geometry":{"type":"LineString","coordinates":[[126.81359,37.48565],[126.81361,37.48564]]}},{"type":"Feature","properties":{"class":"alley","highway":"service","sidewalk":"unknown","lanes":0,"name":"부일로750번길","oneway":false},"geometry":{"type":"LineString","coordinates":[[126.81345,37.48576],[126.81359,37.48565]]}},{"type":"Feature","properties":{"class":"alley","highway":"service","sidewalk":"unknown","lanes":0,"name":"부일로750번길","oneway":false},"geometry":{"type":"LineString","coordinates":[[126.81328,37.48591],[126.81331,37.48588]]}},{"type":"Feature","properties":{"class":"major","highway":"tertiary","sidewalk":"likely","lanes":0,"name":"안곡로","oneway":false},"geometry":{"type":"LineString","coordinates":[[126.81862,37.48722],[126.81813,37.48812]]}},{"type":"Feature","properties":{"class":"major","highway":"primary","sidewalk":"likely","lanes":0,"name":"경인로","oneway":false},"geometry":{"type":"LineString","coordinates":[[126.81713,37.48657],[126.8173,37.48665],[126.81862,37.48722]]}},{"type":"Feature","properties":{"class":"major","highway":"primary","sidewalk":"likely","lanes":0,"name":"경인로","oneway":false},"geometry":{"type":"LineString","coordinates":[[126.81231,37.48451],[126.81257,37.48462],[126.81307,37.48484],[126.81345,37.485],[126.81442,37.48541]]}},{"type":"Feature","properties":{"class":"major","highway":"primary","sidewalk":"likely","lanes":0,"name":"경인로","oneway":false},"geometry":{"type":"LineString","coordinates":[[126.81194,37.48436],[126.81215,37.48445],[126.81231,37.48451]]}},{"type":"Feature","properties":{"class":"major","highway":"primary","sidewalk":"likely","lanes":0,"name":"경인로","oneway":false},"geometry":{"type":"LineString","coordinates":[[126.8108,37.48389],[126.81123,37.48406]]}},{"type":"Feature","properties":{"class":"major","highway":"tertiary","sidewalk":"likely","lanes":0,"name":"경인로536번길","oneway":false},"geometry":{"type":"LineString","coordinates":[[126.81901,37.48366],[126.81826,37.48395]]}},{"type":"Feature","properties":{"class":"major","highway":"tertiary","sidewalk":"likely","lanes":0,"name":"안곡로","oneway":false},"geometry":{"type":"LineString","coordinates":[[126.81901,37.48366],[126.819,37.48419],[126.819,37.48432],[126.81898,37.48495],[126.81895,37.48553],[126.81894,37.48581],[126.81892,37.48625],[126.8189,37.48652],[126.81888,37.48659],[126.81886,37.48668],[126.81879,37.48683],[126.81862,37.48722]]}},{"type":"Feature","properties":{"class":"major","highway":"tertiary","sidewalk":"likely","lanes":0,"name":"안곡로","oneway":false},"geometry":{"type":"LineString","coordinates":[[126.81901,37.48342],[126.81901,37.48366]]}},{"type":"Feature","properties":{"class":"major","highway":"tertiary","sidewalk":"likely","lanes":0,"name":"부일로","oneway":false},"geometry":{"type":"LineString","coordinates":[[126.81066,37.48559],[126.8109,37.48567],[126.81161,37.48591]]}},{"type":"Feature","properties":{"class":"major","highway":"tertiary","sidewalk":"likely","lanes":2,"name":"부일로","oneway":false},"geometry":{"type":"LineString","coordinates":[[126.81161,37.48591],[126.81201,37.48603]]}},{"type":"Feature","properties":{"class":"major","highway":"tertiary","sidewalk":"likely","lanes":0,"name":"소사동로","oneway":false},"geometry":{"type":"LineString","coordinates":[[126.81894,37.48166],[126.81904,37.48205],[126.81901,37.48342]]}},{"type":"Feature","properties":{"class":"minor","highway":"residential","sidewalk":"unknown","lanes":0,"name":"","oneway":false},"geometry":{"type":"LineString","coordinates":[[126.81814,37.48619],[126.81817,37.48614],[126.81822,37.48609],[126.81824,37.48605],[126.81828,37.486],[126.8183,37.48596],[126.81834,37.48584],[126.81834,37.48579],[126.81834,37.48578],[126.81836,37.48554]]}},{"type":"Feature","properties":{"class":"minor","highway":"residential","sidewalk":"unknown","lanes":0,"name":"","oneway":false},"geometry":{"type":"LineString","coordinates":[[126.81834,37.48579],[126.81845,37.4858],[126.81861,37.4858],[126.81877,37.48581],[126.81894,37.48581]]}}]}