{"type":"FeatureCollection","features":[{"type":"Feature","properties":{"class":"minor","highway":"residential","sidewalk":"unknown","lanes":0,"name":"","oneway":false},"geometry":{"type":"LineString","coordinates":[[127.16345,37.48726],[127.16337,37.48727],[127.16315,37.4873],[127.16297,37.48732],[127.16282,37.48741],[127.16258,37.48757],[127.16244,37.48765],[127.16226,37.48773],[127.16224,37.48775],[127.16161,37.4879],[127.1614,37.48799],[127.16117,37.4881],[127.16101,37.48832],[127.16081,37.48844],[127.16059,37.48853],[127.16021,37.48864],[127.15989,37.48875],[127.1596,37.48899],[127.15943,37.48908],[127.15912,37.48934],[127.15885,37.48954],[127.15863,37.48971],[127.15848,37.48989]]}},{"type":"Feature","properties":{"class":"major","highway":"secondary","sidewalk":"likely","lanes":0,"name":"성내천로37길","oneway":true},"geometry":{"type":"LineString","coordinates":[[127.16035,37.49772],[127.16024,37.49771],[127.16017,37.49771],[127.16015,37.49771],[127.15989,37.49775],[127.15973,37.49777],[127.15883,37.49794],[127.15876,37.49795],[127.1586,37.49799],[127.15821,37.49807],[127.15808,37.49809],[127.15794,37.49811],[127.1577,37.49812],[127.15737,37.49812],[127.15708,37.49811],[127.15682,37.49808],[127.15624,37.49798],[127.15578,37.49789]]}},{"type":"Feature","properties":{"class":"major","highway":"primary_link","sidewalk":"likely","lanes":2,"name":"","oneway":false},"geometry":{"type":"LineString","coordinates":[[127.16079,37.49764],[127.16079,37.49765],[127.16077,37.49768],[127.16075,37.4977],[127.16072,37.49772],[127.16069,37.49774],[127.16066,37.49775],[127.16063,37.49777],[127.16059,37.49777]]}},{"type":"Feature","properties":{"class":"major","highway":"tertiary","sidewalk":"likely","lanes":0,"name":"감이남로","oneway":false},"geometry":{"type":"LineString","coordinates":[[127.15995,37.49578],[127.16007,37.49489],[127.16008,37.49467],[127.16008,37.49449],[127.16006,37.49436],[127.16002,37.49423],[127.15995,37.49407],[127.15987,37.49392],[127.15971,37.49368],[127.15956,37.49351],[127.15934,37.49331],[127.15916,37.49311],[127.15895,37.49284],[127.15883,37.4927]]}},{"type":"Feature","properties":{"class":"minor","highway":"residential","sidewalk":"unknown","lanes":0,"name":"","oneway":false},"geometry":{"type":"LineString","coordinates":[[127.15912,37.48934],[127.15935,37.48945],[127.15944,37.48949],[127.15962,37.48957],[127.15991,37.4896],[127.16037,37.48962],[127.161,37.48969],[127.16108,37.48971],[127.16118,37.48975],[127.16134,37.48986],[127.16151,37.48996],[127.16169,37.48995],[127.16188,37.49003]]}},{"type":"Feature","properties":{"class":"minor","highway":"residential","sidewalk":"unknown","lanes":2,"name":"위례대로6길","oneway":false},"geometry":{"type":"LineString","coordinates":[[127.15334,37.48504],[127.15346,37.48496],[127.15359,37.48491],[127.1538,37.48485],[127.15397,37.48481],[127.15399,37.48481],[127.15416,37.48479],[127.15438,37.48479],[127.15475,37.4848],[127.15508,37.4848],[127.15523,37.48478],[127.15543,37.48476],[127.15632,37.48459],[127.1564,37.48457],[127.1566,37.48454],[127.15692,37.48448],[127.1574,37.48439],[127.15771,37.48438],[127.15795,37.4844],[127.1583,37.48446],[127.15862,37.48458],[127.15894,37.48476],[127.15983,37.48527],[127.15989,37.4853],[127.16063,37.48573],[127.16064,37.48574]]}},{"type":"Feature","properties":{"class":"minor","highway":"residential","sidewalk":"unknown","lanes":0,"name":"위례학암로","oneway":false},"geometry":{"type":"LineString","coordinates":[[127.15841,37.48831],[127.1585,37.48821],[127.15882,37.48785],[127.15949,37.48715],[127.15968,37.48693],[127.15983,37.48676],[127.16064,37.48574]]}},{"type":"Feature","properties":{"class":"major","highway":"primary_link","sidewalk":"likely","lanes":0,"name":"","oneway":true},"geometry":{"type":"LineString","coordinates":[[127.16113,37.49817],[127.16146,37.49922],[127.1615,37.49961],[127.16151,37.50004],[127.16141,37.50048],[127.16131,37.50071],[127.1612,37.50091]]}},{"type":"Feature","properties":{"class":"major","highway":"primary_link","sidewalk":"likely","lanes":0,"name":"","oneway":true},"geometry":{"type":"LineString","coordinates":[[127.16036,37.49691],[127.16033,37.4968],[127.16026,37.49647],[127.16024,37.49612],[127.16023,37.49566],[127.16033,37.49511]]}},{"type":"Feature","properties":{"class":"major","highway":"primary","sidewalk":"likely","lanes":0,"name":"위례대로","oneway":true},"geometry":{"type":"LineString","coordinates":[[127.16055,37.49686],[127.16101,37.4982]]}},{"type":"Feature","properties":{"class":"major","highway":"primary","sidewalk":"likely","lanes":0,"name":"위례대로","oneway":true},"geometry":{"type":"LineString","coordinates":[[127.16101,37.4982],[127.16135,37.49925],[127.16138,37.49945],[127.16141,37.49965],[127.16142,37.49987],[127.16142,37.5001],[127.1614,37.50027],[127.16136,37.50045],[127.1612,37.50091]]}},{"type":"Feature","properties":{"class":"major","highway":"primary","sidewalk":"likely","lanes":0,"name":"위례대로","oneway":true},"geometry":{"type":"LineString","coordinates":[[127.1609,37.49822],[127.16042,37.49686]]}},{"type":"Feature","properties":{"class":"major","highway":"primary","sidewalk":"likely","lanes":0,"name":"위례대로","oneway":true},"geometry":{"type":"LineString","coordinates":[[127.16042,37.49686],[127.16035,37.49648],[127.16032,37.49609],[127.16033,37.49511]]}},{"type":"Feature","properties":{"class":"major","highway":"primary","sidewalk":"likely","lanes":0,"name":"위례대로","oneway":true},"geometry":{"type":"LineString","coordinates":[[127.16105,37.50086],[127.1612,37.50053],[127.16128,37.50032],[127.16132,37.50005],[127.16131,37.49985],[127.1613,37.49966],[127.16127,37.49946],[127.16123,37.49925],[127.1609,37.49822]]}},{"type":"Feature","properties":{"class":"major","highway":"primary","sidewalk":"likely","lanes":0,"name":"위례대로","oneway":true},"geometry":{"type":"LineString","coordinates":[[127.16048,37.4951],[127.16048,37.49613],[127.16049,37.49647],[127.16055,37.49686]]}},{"type":"Feature","properties":{"class":"major","highway":"primary","sidewalk":"likely","lanes":0,"name":"위례대로","oneway":true},"geometry":{"type":"LineString","coordinates":[[127.1587,37.48992],[127.15926,37.49019],[127.15965,37.49053],[127.15999,37.49088],[127.16024,37.49127],[127.16042,37.49159],[127.16055,37.49192],[127.16063,37.49239],[127.16065,37.49289],[127.16057,37.49391],[127.16048,37.4951]]}},{"type":"Feature","properties":{"class":"major","highway":"primary","sidewalk":"likely","lanes":0,"name":"위례대로","oneway":true},"geometry":{"type":"LineString","coordinates":[[127.16033,37.49511],[127.16044,37.49391],[127.16051,37.49289],[127.16049,37.49241],[127.16036,37.49191],[127.16021,37.49156],[127.16004,37.49122],[127.15964,37.4907],[127.15939,37.49044],[127.15902,37.4902],[127.15859,37.49001]]}},{"type":"Feature","properties":{"class":"major","highway":"primary_link","sidewalk":"likely","lanes":0,"name":"","oneway":true},"geometry":{"type":"LineString","coordinates":[[127.16105,37.50086],[127.16116,37.50053],[127.16123,37.50028],[127.16125,37.50016],[127.16126,37.50003],[127.16122,37.49967],[127.16115,37.49936],[127.16098,37.49882],[127.1608,37.49832],[127.16078,37.49826]]}},{"type":"Feature","properties":{"class":"major","highway":"primary_link","sidewalk":"likely","lanes":0,"name":"","oneway":true},"geometry":{"type":"LineString","coordinates":[[127.16048,37.4951],[127.16056,37.49546],[127.16056,37.49607],[127.16059,37.49643],[127.16063,37.49667],[127.16067,37.49685]]}},{"type":"Feature","properties":{"class":"minor","highway":"residential","sidewalk":"unknown","lanes":0,"name":"","oneway":false},"geometry":{"type":"LineString","coordinates":[[127.16313,37.50013],[127.16326,37.50012],[127.16341,37.50011],[127.16365,37.50004],[127.16393,37.49991],[127.16447,37.49958],[127.16471,37.49983],[127.16417,37.50015],[127.16393,37.49991]]}},{"type":"Feature","properties":{"class":"minor","highway":"residential","sidewalk":"unknown","lanes":0,"name":"","oneway":false},"geometry":{"type":"LineString","coordinates":[[127.16178,37.49961],[127.163,37.49962],[127.16315,37.49963]]}},{"type":"Feature","properties":{"class":"major","highway":"primary_link","sidewalk":"likely","lanes":0,"name":"","oneway":true},"geometry":{"type":"LineString","coordinates":[[127.16078,37.49826],[127.16079,37.49819],[127.16081,37.49817],[127.16085,37.49813],[127.16093,37.4981],[127.161,37.49811],[127.16106,37.49812],[127.16113,37.49817]]}},{"type":"Feature","properties":{"class":"minor","highway":"residential","sidewalk":"unknown","lanes":0,"name":"","oneway":false},"geometry":{"type":"LineString","coordinates":[[127.16094,37.49904],[127.16086,37.49884],[127.16083,37.49878],[127.16069,37.49853],[127.16053,37.49818],[127.16043,37.498]]}},{"type":"Feature","properties":{"class":"major","highway":"primary_link","sidewalk":"likely","lanes":0,"name":"","oneway":true},"geometry":{"type":"LineString","coordinates":[[127.16067,37.49685],[127.16066,37.49689],[127.16063,37.49692],[127.16056,37.49696],[127.1605,37.49697],[127.16042,37.49696],[127.16039,37.49694],[127.16036,37.49691]]}},{"type":"Feature","properties":{"class":"major","highway":"secondary","sidewalk":"likely","lanes":0,"name":"감일백제로","oneway":false},"geometry":{"type":"LineString","coordinates":[[127.16119,37.49754],[127.16168,37.49752]]}},{"type":"Feature","properties":{"class":"major","highway":"secondary","sidewalk":"likely","lanes":0,"name":"감일백제로","oneway":false},"geometry":{"type":"LineString","coordinates":[[127.16168,37.49752],[127.1618,37.49753],[127.16189,37.49754],[127.16212,37.49758],[127.16231,37.49764],[127.16257,37.49777],[127.16276,37.4979],[127.16297,37.4981],[127.16315,37.4984],[127.1632,37.49857],[127.16322,37.49873],[127.16319,37.49903],[127.16315,37.49963],[127.16313,37.49991],[127.16313,37.50013],[127.16313,37.50049],[127.16315,37.50079],[127.16322,37.50112],[127.16338,37.50161],[127.16344,37.50183],[127.16346,37.5019],[127.16351,37.50211],[127.16353,37.50226],[127.16354,37.5024],[127.16355,37.50252],[127.16354,37.50265],[127.16352,37.50279],[127.16349,37.50291],[127.16345,37.50303],[127.1634,37.50317],[127.16325,37.50346],[127.1632,37.50357],[127.16311,37.50368],[127.1629,37.50395],[127.16264,37.50416],[127.16212,37.50454],[127.16189,37.50466],[127.16163,37.50476],[127.1613,37.50489],[127.16116,37.50495]]}},{"type":"Feature","properties":{"class":"major","highway":"primary_link","sidewalk":"likely","lanes":2,"name":"","oneway":false},"geometry":{"type":"LineString","coordinates":[[127.16026,37.49756],[127.16026,37.49754],[127.16026,37.49751],[127.16027,37.49749],[127.16028,37.49746],[127.1603,37.49744],[127.16032,37.49742],[127.16034,37.4974],[127.16037,37.49738]]}},{"type":"Feature","properties":{"class":"major","highway":"primary_link","sidewalk":"likely","lanes":2,"name":"","oneway":false},"geometry":{"type":"LineString","coordinates":[[127.16041,37.49736],[127.16044,37.49735],[127.16047,37.49735],[127.1605,37.49734],[127.16053,37.49734],[127.16056,37.49734],[127.16059,37.49734],[127.16062,37.49735],[127.16065,37.49736],[127.16068,37.49737],[127.1607,37.49738],[127.16073,37.4974]]}},{"type":"Feature","properties":{"class":"major","highway":"primary_link","sidewalk":"likely","lanes":0,"name":"","oneway":false},"geometry":{"type":"LineString","coordinates":[[127.16076,37.49743],[127.16078,37.49745],[127.16079,37.49748],[127.1608,37.4975],[127.16081,37.49753],[127.16081,37.49756],[127.16081,37.49758],[127.1608,37.49761],[127.16079,37.49764]]}},{"type":"Feature","properties":{"class":"alley","highway":"service","sidewalk":"unknown","lanes":0,"name":"","oneway":false},"geometry":{"type":"LineString","coordinates":[[127.16129,37.48609],[127.16117,37.48617],[127.16115,37.4862],[127.16108,37.48628]]}},{"type":"Feature","properties":{"class":"alley","highway":"service","sidewalk":"unknown","lanes":0,"name":"","oneway":false},"geometry":{"type":"LineString","coordinates":[[127.16108,37.48628],[127.16096,37.48645]]}},{"type":"Feature","properties":{"class":"alley","highway":"service","sidewalk":"unknown","lanes":0,"name":"","oneway":true},"geometry":{"type":"LineString","coordinates":[[127.16115,37.4862],[127.16119,37.48629],[127.16104,37.48648],[127.161,37.48649],[127.16097,37.48649],[127.1609,37.48645],[127.16087,37.48642],[127.16088,37.48638],[127.16102,37.4862],[127.16115,37.4862]]}},{"type":"Feature","properties":{"class":"minor","highway":"residential","sidewalk":"unknown","lanes":2,"name":"","oneway":false},"geometry":{"type":"LineString","coordinates":[[127.16064,37.48574],[127.16129,37.48609],[127.16176,37.48634],[127.16192,37.48637],[127.16208,37.48638],[127.16222,37.48635],[127.16334,37.48603]]}},{"type":"Feature","properties":{"class":"major","highway":"tertiary","sidewalk":"likely","lanes":0,"name":"감이남로","oneway":false},"geometry":{"type":"LineString","coordinates":[[127.16006,37.49724],[127.16002,37.49715],[127.1599,37.49686],[127.15987,37.49667],[127.15987,37.4965],[127.15995,37.49578]]}},{"type":"Feature","properties":{"class":"alley","highway":"service","sidewalk":"unknown","lanes":0,"name":"감이남로20번길","oneway":false},"geometry":{"type":"LineString","coordinates":[[127.15883,37.4927],[127.15886,37.49266],[127.15889,37.49264],[127.15891,37.49263],[127.15957,37.49249],[127.15964,37.49246],[127.15968,37.49243],[127.16003,37.49222],[127.16021,37.49211]]}},{"type":"Feature","properties":{"class":"alley","highway":"service","sidewalk":"unknown","lanes":0,"name":"","oneway":false},"geometry":{"type":"LineString","coordinates":[[127.16086,37.49884],[127.16066,37.49893],[127.16061,37.49895],[127.16049,37.499],[127.16036,37.49904],[127.16022,37.499],[127.16013,37.49896],[127.1601,37.49895],[127.16007,37.49893],[127.15985,37.4988],[127.15978,37.49876],[127.15964,37.49868],[127.15958,37.49867],[127.15955,37.49866],[127.15949,37.49866]]}},{"type":"Feature","properties":{"class":"alley","highway":"service","sidewalk":"unknown","lanes":0,"name":"","oneway":false},"geometry":{"type":"LineString","coordinates":[[127.15985,37.4988],[127.15986,37.49879],[127.15994,37.49867],[127.16004,37.4985],[127.16006,37.49849],[127.16036,37.49864],[127.16038,37.49867],[127.16018,37.4989],[127.16013,37.49896]]}},{"type":"Feature","properties":{"class":"alley","highway":"service","sidewalk":"unknown","lanes":0,"name":"","oneway":false},"geometry":{"type":"LineString","coordinates":[[127.16061,37.49895],[127.16056,37.49902]]}},{"type":"Feature","properties":{"class":"alley","highway":"service","sidewalk":"unknown","lanes":0,"name":"","oneway":false},"geometry":{"type":"LineString","coordinates":[[127.16056,37.49902],[127.16048,37.49909],[127.16042,37.4991],[127.16037,37.4991],[127.16033,37.49909]]}},{"type":"Feature","properties":{"class":"major","highway":"primary_link","sidewalk":"likely","lanes":2,"name":"","oneway":false},"geometry":{"type":"LineString","coordinates":[[127.16059,37.49777],[127.16057,37.49778],[127.16054,37.49778],[127.16049,37.49778],[127.16045,37.49777],[127.16041,37.49775],[127.16037,37.49774],[127.16035,37.49772],[127.16032,37.4977],[127.1603,37.49768],[127.16028,37.49765],[127.16027,37.49762],[127.16026,37.49759],[127.16026,37.49756]]}},{"type":"Feature","properties":{"class":"major","highway":"secondary","sidewalk":"likely","lanes":0,"name":"성내천로37길","oneway":true},"geometry":{"type":"LineString","coordinates":[[127.15579,37.49783],[127.15621,37.49791],[127.15678,37.498],[127.15706,37.49803],[127.15734,37.49805],[127.15766,37.49805],[127.15792,37.49803],[127.15805,37.49802],[127.15818,37.49799],[127.15874,37.49789],[127.1588,37.49788],[127.1597,37.49771],[127.15986,37.49768],[127.15991,37.49767],[127.16002,37.49765],[127.16014,37.49763],[127.16018,37.49761],[127.16022,37.49759],[127.16024,37.49757],[127.16026,37.49756]]}},{"type":"Feature","properties":{"class":"major","highway":"secondary_link","sidewalk":"likely","lanes":0,"name":"","oneway":true},"geometry":{"type":"LineString","coordinates":[[127.15986,37.49768],[127.15997,37.49763],[127.16002,37.49758],[127.16006,37.49752],[127.16008,37.49746],[127.16009,37.49741],[127.16009,37.4974],[127.16009,37.49736],[127.16009,37.49732]]}},{"type":"Feature","properties":{"class":"major","highway":"tertiary","sidewalk":"likely","lanes":0,"name":"","oneway":true},"geometry":{"type":"LineString","coordinates":[[127.16026,37.49754],[127.16022,37.49748],[127.16019,37.49744],[127.16009,37.49732]]}},{"type":"Feature","properties":{"class":"major","highway":"primary_link","sidewalk":"likely","lanes":0,"name":"","oneway":true},"geometry":{"type":"LineString","coordinates":[[127.16006,37.49724],[127.16013,37.49731],[127.16016,37.49734],[127.16019,37.49736],[127.16022,37.49738],[127.16026,37.49738],[127.16027,37.49739],[127.1603,37.49739],[127.16037,37.49738]]}},{"type":"Feature","properties":{"class":"major","highway":"primary_link","sidewalk":"likely","lanes":0,"name":"","oneway":true},"geometry":{"type":"LineString","coordinates":[[127.16013,37.49731],[127.16022,37.49733],[127.16028,37.49732],[127.16036,37.49729],[127.16039,37.49726],[127.1604,37.49723],[127.16041,37.49719],[127.16041,37.49714],[127.16041,37.49708]]}},{"type":"Feature","properties":{"class":"major","highway":"secondary_link","sidewalk":"likely","lanes":0,"name":"","oneway":true},"geometry":{"type":"LineString","coordinates":[[127.16038,37.49794],[127.16034,37.4979],[127.16026,37.49785],[127.16019,37.49781],[127.16013,37.49779],[127.16006,37.49778],[127.1599,37.49777],[127.15973,37.49777]]}},{"type":"Feature","properties":{"class":"major","highway":"primary_link","sidewalk":"likely","lanes":0,"name":"","oneway":true},"geometry":{"type":"LineString","coordinates":[[127.16038,37.49794],[127.16037,37.49789],[127.16036,37.49786],[127.16036,37.4978],[127.16037,37.49774]]}},{"type":"Feature","properties":{"class":"minor","highway":"residential","sidewalk":"unknown","lanes":0,"name":"","oneway":true},"geometry":{"type":"LineString","coordinates":[[127.16054,37.49778],[127.16048,37.49783],[127.16045,37.49786],[127.16044,37.4979],[127.16043,37.49795],[127.16043,37.498]]}},{"type":"Feature","properties":{"class":"major","highway":"primary_link","sidewalk":"likely","lanes":0,"name":"","oneway":true},"geometry":{"type":"LineString","coordinates":[[127.16041,37.49736],[127.16042,37.49735],[127.16043,37.49733],[127.16044,37.49729],[127.16044,37.49723],[127.16043,37.49716],[127.16041,37.49708],[127.16036,37.49691]]}},{"type":"Feature","properties":{"class":"major","highway":"secondary_link","sidewalk":"likely","lanes":0,"name":"","oneway":true},"geometry":{"type":"LineString","coordinates":[[127.16072,37.49706],[127.16078,37.49726],[127.16082,37.49734],[127.16084,37.49735],[127.16088,37.49739],[127.16098,37.49744],[127.16108,37.49747],[127.16121,37.49749],[127.16151,37.49748],[127.16158,37.49749],[127.1616,37.4975],[127.16168,37.49752]]}},{"type":"Feature","properties":{"class":"major","highway":"primary_link","sidewalk":"likely","lanes":0,"name":"","oneway":true},"geometry":{"type":"LineString","coordinates":[[127.16168,37.49752],[127.16154,37.49755],[127.16146,37.49756],[127.16129,37.49757],[127.16117,37.4976],[127.16104,37.49767],[127.16099,37.49774],[127.16096,37.49781],[127.16096,37.49786],[127.161,37.49798]]}},{"type":"Feature","properties":{"class":"major","highway":"primary_link","sidewalk":"likely","lanes":0,"name":"","oneway":true},"geometry":{"type":"LineString","coordinates":[[127.16079,37.49765],[127.16079,37.49769],[127.16081,37.49772],[127.16085,37.4978],[127.1609,37.49787],[127.161,37.49798]]}},{"type":"Feature","properties":{"class":"major","highway":"secondary","sidewalk":"likely","lanes":0,"name":"","oneway":true},"geometry":{"type":"LineString","coordinates":[[127.16119,37.49754],[127.16112,37.49756],[127.16105,37.49756],[127.16094,37.49758],[127.16085,37.4976],[127.16082,37.49762],[127.16079,37.49764]]}},{"type":"Feature","properties":{"class":"major","highway":"secondary","sidewalk":"likely","lanes":0,"name":"","oneway":true},"geometry":{"type":"LineString","coordinates":[[127.16076,37.49743],[127.16078,37.49745],[127.1608,37.49746],[127.16085,37.49749],[127.16094,37.49751],[127.16104,37.49752],[127.16112,37.49752],[127.16119,37.49754]]}},{"type":"Feature","properties":{"class":"major","highway":"primary_link","sidewalk":"likely","lanes":0,"name":"","oneway":true},"geometry":{"type":"LineString","coordinates":[[127.16072,37.49706],[127.16071,37.49723],[127.16071,37.49731],[127.16072,37.49735],[127.16073,37.4974]]}},{"type":"Feature","properties":{"class":"major","highway":"primary_link","sidewalk":"likely","lanes":0,"name":"","oneway":true},"geometry":{"type":"LineString","coordinates":[[127.16067,37.49685],[127.1607,37.49699],[127.16072,37.49706]]}},{"type":"Feature","properties":{"class":"major","highway":"primary_link","sidewalk":"likely","lanes":0,"name":"","oneway":true},"geometry":{"type":"LineString","coordinates":[[127.161,37.49798],[127.16113,37.49817]]}},{"type":"Feature","properties":{"class":"major","highway":"primary_link","sidewalk":"likely","lanes":0,"name":"","oneway":true},"geometry":{"type":"LineString","coordinates":[[127.16078,37.49826],[127.1607,37.498],[127.16065,37.49787],[127.16062,37.49783],[127.16059,37.49777]]}},{"type":"Feature","properties":{"class":"minor","highway":"unclassified","sidewalk":"unknown","lanes":0,"name":"","oneway":false},"geometry":{"type":"LineString","coordinates":[[127.16112,37.49643],[127.16071,37.49643],[127.16067,37.49643],[127.16059,37.49643]]}},{"type":"Feature","properties":{"class":"minor","highway":"unclassified","sidewalk":"unknown","lanes":0,"name":"","oneway":false},"geometry":{"type":"LineString","coordinates":[[127.16074,37.49388],[127.1607,37.49463],[127.16066,37.49503],[127.1607,37.49605],[127.16071,37.49643]]}},{"type":"Feature","properties":{"class":"minor","highway":"residential","sidewalk":"unknown","lanes":0,"name":"감이남로40번길","oneway":false},"geometry":{"type":"LineString","coordinates":[[127.16246,37.49237],[127.16232,37.49259],[127.16221,37.49278],[127.16215,37.49288],[127.16209,37.49295],[127.162,37.49301],[127.16196,37.49303],[127.16179,37.49312],[127.16164,37.49324],[127.16155,37.49332],[127.16144,37.49335],[127.1613,37.49346],[127.16118,37.49356],[127.16097,37.49377],[127.16079,37.49387],[127.16074,37.49388],[127.1607,37.49388]]}},{"type":"Feature","properties":{"class":"minor","highway":"unclassified","sidewalk":"unknown","lanes":0,"name":"","oneway":false},"geometry":{"type":"LineString","coordinates":[[127.1607,37.49388],[127.1603,37.49386]]}},{"type":"Feature","properties":{"class":"minor","highway":"unclassified","sidewalk":"unknown","lanes":0,"name":"","oneway":false},"geometry":{"type":"LineString","coordinates":[[127.1603,37.49386],[127.16011,37.49381],[127.15997,37.4937],[127.15982,37.49365],[127.15971,37.49368]]}},{"type":"Feature","properties":{"class":"major","highway":"primary_link","sidewalk":"likely","lanes":2,"name":"","oneway":false},"geometry":{"type":"LineString","coordinates":[[127.16037,37.49738],[127.16038,37.49738],[127.1604,37.49737],[127.16041,37.49736]]}},{"type":"Feature","properties":{"class":"major","highway":"primary_link","sidewalk":"likely","lanes":0,"name":"","oneway":false},"geometry":{"type":"LineString","coordinates":[[127.16073,37.4974],[127.16074,37.49741],[127.16075,37.49742],[127.16076,37.49743]]}},{"type":"Feature","properties":{"class":"alley","highway":"service","sidewalk":"unknown","lanes":0,"name":"","oneway":false},"geometry":{"type":"LineString","coordinates":[[127.16129,37.48609],[127.16147,37.48604],[127.16159,37.48592]]}},{"type":"Feature","properties":{"class":"alley","highway":"service","sidewalk":"unknown","lanes":0,"name":"","oneway":false},"geometry":{"type":"LineString","coordinates":[[127.16334,37.48603],[127.16342,37.486],[127.16353,37.48595],[127.16367,37.48587],[127.16371,37.48583],[127.16373,37.4858],[127.16376,37.48574],[127.16377,37.48567],[127.16376,37.48562],[127.16374,37.48556],[127.16369,37.48551],[127.16363,37.48545],[127.16356,37.48541],[127.16344,37.48538],[127.16328,37.48538],[127.16316,37.48538]]}},{"type":"Feature","properties":{"class":"major","highway":"tertiary","sidewalk":"likely","lanes":0,"name":"","oneway":true},"geometry":{"type":"LineString","coordinates":[[127.16009,37.49732],[127.16006,37.49724]]}},{"type":"Feature","properties":{"class":"minor","highway":"residential","sidewalk":"unknown","lanes":0,"name":"","oneway":true},"geometry":{"type":"LineString","coordinates":[[127.16043,37.498],[127.16039,37.49795],[127.16038,37.49794]]}},{"type":"Feature","properties":{"class":"alley","highway":"service","sidewalk":"unknown","lanes":0,"name":"","oneway":false},"geometry":{"type":"LineString","coordinates":[[127.16101,37.48832],[127.16124,37.48854],[127.16141,37.48878]]}},{"type":"Feature","properties":{"class":"alley","highway":"service","sidewalk":"unknown","lanes":0,"name":"","oneway":false},"geometry":{"type":"LineString","coordinates":[[127.16321,37.49236],[127.16318,37.49236],[127.16298,37.49234],[127.16288,37.49234],[127.16267,37.49236],[127.16256,37.49237],[127.16246,37.49237]]}},{"type":"Feature","properties":{"class":"alley","highway":"service","sidewalk":"unknown","lanes":0,"name":"감이남로40번길","oneway":false},"geometry":{"type":"LineString","coordinates":[[127.16309,37.49145],[127.16306,37.49156],[127.163,37.49162],[127.16262,37.49179],[127.16257,37.49184],[127.16249,37.49201],[127.16249,37.49217],[127.16248,37.49229],[127.16246,37.49237]]}},{"type":"Feature","properties":{"class":"alley","highway":"service","sidewalk":"unknown","lanes":0,"name":"","oneway":false},"geometry":{"type":"LineString","coordinates":[[127.16318,37.49236],[127.1633,37.49224]]}},{"type":"Feature","properties":{"class":"alley","highway":"service","sidewalk":"unknown","lanes":0,"name":"","oneway":false},"geometry":{"type":"LineString","coordinates":[[127.162,37.49301],[127.16221,37.49316],[127.16232,37.49337],[127.16253,37.49348],[127.16287,37.49349],[127.16302,37.49355],[127.16317,37.49357],[127.16327,37.49355],[127.16335,37.49352],[127.16377,37.49329]]}},{"type":"Feature","properties":{"class":"minor","highway":"residential","sidewalk":"unknown","lanes":0,"name":"","oneway":false},"geometry":{"type":"LineString","coordinates":[[127.16355,37.48723],[127.16345,37.48726]]}}]}