{"type":"FeatureCollection","features":[{"type":"Feature","properties":{"class":"major","highway":"trunk_link","sidewalk":"likely","lanes":0,"name":"","oneway":true},"geometry":{"type":"LineString","coordinates":[[127.08201,37.49867],[127.08306,37.49834],[127.08364,37.49815],[127.08469,37.49796]]}},{"type":"Feature","properties":{"class":"major","highway":"tertiary","sidewalk":"likely","lanes":0,"name":"일원로3길","oneway":false},"geometry":{"type":"LineString","coordinates":[[127.08693,37.49347],[127.08645,37.49331],[127.08535,37.49294],[127.08432,37.4926],[127.08381,37.49241],[127.08364,37.49235],[127.08352,37.49231],[127.08329,37.4922],[127.08309,37.4921],[127.08229,37.49174],[127.08192,37.49156],[127.08077,37.49102]]}},{"type":"Feature","properties":{"class":"major","highway":"tertiary","sidewalk":"likely","lanes":0,"name":"일원로","oneway":false},"geometry":{"type":"LineString","coordinates":[[127.08386,37.48328],[127.08376,37.4837],[127.08359,37.48443],[127.08334,37.48549]]}},{"type":"Feature","properties":{"class":"major","highway":"primary","sidewalk":"likely","lanes":0,"name":"남부순환로","oneway":true},"geometry":{"type":"LineString","coordinates":[[127.09761,37.4922],[127.09709,37.49302]]}},{"type":"Feature","properties":{"class":"major","highway":"trunk","sidewalk":"likely","lanes":3,"name":"분당수서로","oneway":true},"geometry":{"type":"LineString","coordinates":[[127.08628,37.49781],[127.0889,37.49692],[127.09664,37.49435],[127.09756,37.49402],[127.09811,37.4938],[127.09904,37.49341],[127.09953,37.49318]]}},{"type":"Feature","properties":{"class":"major","highway":"trunk","sidewalk":"likely","lanes":3,"name":"분당수서로","oneway":true},"geometry":{"type":"LineString","coordinates":[[127.08161,37.49953],[127.08046,37.49994],[127.07973,37.50017]]}},{"type":"Feature","properties":{"class":"major","highway":"tertiary","sidewalk":"no","lanes":1,"name":"탄천동로","oneway":false},"geometry":{"type":"LineString","coordinates":[[127.09893,37.49616],[127.09813,37.49643],[127.09738,37.49671],[127.09659,37.497],[127.09587,37.49726],[127.09503,37.4975],[127.09354,37.49801],[127.09195,37.49853],[127.08995,37.49921],[127.08898,37.49952],[127.08675,37.50029],[127.08639,37.50038],[127.08483,37.50068],[127.08421,37.50085],[127.08401,37.50093],[127.08361,37.50109],[127.08295,37.50135],[127.08225,37.50162],[127.08177,37.50173],[127.08084,37.50193]]}},{"type":"Feature","properties":{"class":"major","highway":"tertiary","sidewalk":"likely","lanes":0,"name":"삼학사로2길","oneway":false},"geometry":{"type":"LineString","coordinates":[[127.09736,37.49694],[127.09657,37.4972]]}},{"type":"Feature","properties":{"class":"major","highway":"tertiary","sidewalk":"likely","lanes":1,"name":"삼전로2길","oneway":false},"geometry":{"type":"LineString","coordinates":[[127.08639,37.50069],[127.08654,37.50064],[127.0869,37.50052],[127.08763,37.50028],[127.08786,37.50019],[127.08864,37.49993],[127.08908,37.49978],[127.0906,37.49925],[127.09073,37.49921]]}},{"type":"Feature","properties":{"class":"minor","highway":"residential","sidewalk":"unknown","lanes":0,"name":"백제고분로22길","oneway":true},"geometry":{"type":"LineString","coordinates":[[127.08908,37.49978],[127.0893,37.50031],[127.08947,37.50066],[127.08963,37.50101],[127.08979,37.50136],[127.08993,37.50169]]}},{"type":"Feature","properties":{"class":"major","highway":"trunk","sidewalk":"likely","lanes":3,"name":"분당수서로","oneway":true},"geometry":{"type":"LineString","coordinates":[[127.07975,37.50003],[127.08072,37.49972],[127.08157,37.49942]]}},{"type":"Feature","properties":{"class":"major","highway":"tertiary","sidewalk":"likely","lanes":0,"name":"삼학사로2길","oneway":false},"geometry":{"type":"LineString","coordinates":[[127.09893,37.49616],[127.09871,37.49631],[127.09744,37.4969],[127.09736,37.49694]]}},{"type":"Feature","properties":{"class":"major","highway":"secondary","sidewalk":"likely","lanes":0,"name":"","oneway":true},"geometry":{"type":"LineString","coordinates":[[127.08091,37.4997],[127.08181,37.49996],[127.0837,37.50054],[127.08417,37.50072],[127.08467,37.50088],[127.08493,37.501],[127.08517,37.50116],[127.08546,37.50138],[127.08569,37.50166]]}},{"type":"Feature","properties":{"class":"major","highway":"secondary","sidewalk":"likely","lanes":0,"name":"","oneway":true},"geometry":{"type":"LineString","coordinates":[[127.08569,37.50166],[127.08539,37.50142],[127.08517,37.50124],[127.0849,37.50107],[127.08458,37.50094],[127.08359,37.50066],[127.08178,37.50007],[127.08082,37.4998]]}},{"type":"Feature","properties":{"class":"major","highway":"secondary","sidewalk":"likely","lanes":0,"name":"삼전로","oneway":true},"geometry":{"type":"LineString","coordinates":[[127.08082,37.4998],[127.08069,37.49976],[127.08032,37.49966],[127.08019,37.49963],[127.07965,37.49948],[127.07799,37.49899],[127.07749,37.4988]]}},{"type":"Feature","properties":{"class":"major","highway":"trunk_link","sidewalk":"likely","lanes":0,"name":"","oneway":true},"geometry":{"type":"LineString","coordinates":[[127.09556,37.49204],[127.09643,37.49217]]}},{"type":"Feature","properties":{"class":"major","highway":"primary","sidewalk":"likely","lanes":0,"name":"양재대로","oneway":true},"geometry":{"type":"LineString","coordinates":[[127.08835,37.49063],[127.08865,37.49072],[127.08892,37.4908],[127.09056,37.49129],[127.09184,37.49158],[127.09265,37.49175],[127.09368,37.49191]]}},{"type":"Feature","properties":{"class":"major","highway":"trunk_link","sidewalk":"likely","lanes":0,"name":"","oneway":true},"geometry":{"type":"LineString","coordinates":[[127.091,37.49599],[127.09018,37.49636],[127.08822,37.49706]]}},{"type":"Feature","properties":{"class":"major","highway":"primary","sidewalk":"likely","lanes":0,"name":"양재대로","oneway":true},"geometry":{"type":"LineString","coordinates":[[127.09976,37.49291],[127.10032,37.49306]]}},{"type":"Feature","properties":{"class":"major","highway":"trunk_link","sidewalk":"likely","lanes":0,"name":"","oneway":true},"geometry":{"type":"LineString","coordinates":[[127.08822,37.49706],[127.08742,37.49733],[127.08723,37.49741],[127.08708,37.49752],[127.08697,37.49764],[127.08686,37.49783],[127.08668,37.49799],[127.08648,37.49811],[127.08618,37.49821],[127.08506,37.49855],[127.08383,37.49892]]}},{"type":"Feature","properties":{"class":"major","highway":"primary_link","sidewalk":"likely","lanes":0,"name":"","oneway":true},"geometry":{"type":"LineString","coordinates":[[127.0976,37.49377],[127.0973,37.49382],[127.09708,37.4938],[127.09691,37.49373],[127.09684,37.49366]]}},{"type":"Feature","properties":{"class":"major","highway":"primary_link","sidewalk":"likely","lanes":0,"name":"","oneway":true},"geometry":{"type":"LineString","coordinates":[[127.09556,37.49204],[127.09599,37.49206],[127.09635,37.49206],[127.09666,37.492],[127.09704,37.49188],[127.09737,37.4917],[127.09755,37.49156],[127.09774,37.49137],[127.09833,37.49068]]}},{"type":"Feature","properties":{"class":"major","highway":"primary","sidewalk":"likely","lanes":0,"name":"양재대로","oneway":true},"geometry":{"type":"LineString","coordinates":[[127.09982,37.49307],[127.09866,37.49275],[127.09762,37.49259]]}},{"type":"Feature","properties":{"class":"major","highway":"primary","sidewalk":"likely","lanes":0,"name":"밤고개로","oneway":true},"geometry":{"type":"LineString","coordinates":[[127.09801,37.49148],[127.09787,37.49173]]}},{"type":"Feature","properties":{"class":"major","highway":"trunk_link","sidewalk":"likely","lanes":0,"name":"","oneway":true},"geometry":{"type":"LineString","coordinates":[[127.08383,37.49892],[127.08279,37.49922],[127.08161,37.49953]]}},{"type":"Feature","properties":{"class":"major","highway":"primary_link","sidewalk":"likely","lanes":0,"name":"남부순환로","oneway":true},"geometry":{"type":"LineString","coordinates":[[127.09982,37.49307],[127.09944,37.49305],[127.09939,37.49305],[127.09921,37.49305],[127.09885,37.49308],[127.09848,37.49321],[127.09797,37.49353],[127.0976,37.49377],[127.09735,37.49393],[127.09696,37.49408],[127.09626,37.49431],[127.09511,37.49464]]}},{"type":"Feature","properties":{"class":"major","highway":"primary","sidewalk":"likely","lanes":0,"name":"양재대로","oneway":true},"geometry":{"type":"LineString","coordinates":[[127.09697,37.49236],[127.0977,37.49246]]}},{"type":"Feature","properties":{"class":"major","highway":"primary","sidewalk":"likely","lanes":0,"name":"양재대로","oneway":true},"geometry":{"type":"LineString","coordinates":[[127.0977,37.49246],[127.09797,37.49249],[127.09876,37.49263],[127.09976,37.49291]]}},{"type":"Feature","properties":{"class":"major","highway":"primary_link","sidewalk":"likely","lanes":0,"name":"","oneway":true},"geometry":{"type":"LineString","coordinates":[[127.09684,37.49366],[127.09678,37.49358],[127.09673,37.49345],[127.09673,37.49337],[127.09675,37.49327]]}},{"type":"Feature","properties":{"class":"major","highway":"trunk_link","sidewalk":"likely","lanes":0,"name":"","oneway":true},"geometry":{"type":"LineString","coordinates":[[127.07734,37.5006],[127.07766,37.50046],[127.07882,37.50015],[127.0789,37.50013],[127.07979,37.49991],[127.07994,37.49983],[127.08006,37.49974],[127.08036,37.4993],[127.08052,37.49918],[127.08072,37.49908],[127.08098,37.499],[127.08201,37.49867]]}},{"type":"Feature","properties":{"class":"major","highway":"primary","sidewalk":"likely","lanes":0,"name":"양재대로","oneway":true},"geometry":{"type":"LineString","coordinates":[[127.09688,37.4925],[127.09597,37.49237],[127.09516,37.49231]]}},{"type":"Feature","properties":{"class":"major","highway":"trunk_link","sidewalk":"likely","lanes":0,"name":"","oneway":true},"geometry":{"type":"LineString","coordinates":[[127.09631,37.49255],[127.09586,37.49251]]}},{"type":"Feature","properties":{"class":"major","highway":"primary_link","sidewalk":"likely","lanes":1,"name":"","oneway":true},"geometry":{"type":"LineString","coordinates":[[127.09912,37.48968],[127.09902,37.48994],[127.09875,37.4905],[127.09868,37.49082],[127.09866,37.49112],[127.09869,37.49154],[127.09877,37.49185]]}},{"type":"Feature","properties":{"class":"major","highway":"primary","sidewalk":"likely","lanes":0,"name":"양재대로","oneway":true},"geometry":{"type":"LineString","coordinates":[[127.09762,37.49259],[127.09688,37.4925]]}},{"type":"Feature","properties":{"class":"major","highway":"primary","sidewalk":"likely","lanes":0,"name":"밤고개로","oneway":true},"geometry":{"type":"LineString","coordinates":[[127.09935,37.48932],[127.09912,37.48968],[127.0988,37.4901],[127.09801,37.49148]]}},{"type":"Feature","properties":{"class":"major","highway":"trunk_link","sidewalk":"likely","lanes":0,"name":"","oneway":true},"geometry":{"type":"LineString","coordinates":[[127.10261,37.49199],[127.10128,37.49279],[127.10082,37.49306],[127.10064,37.49316],[127.10044,37.49325],[127.10016,37.49334],[127.09985,37.49339],[127.09952,37.49338],[127.09921,37.49332],[127.0989,37.49326],[127.09631,37.49255]]}},{"type":"Feature","properties":{"class":"major","highway":"trunk_link","sidewalk":"likely","lanes":0,"name":"","oneway":true},"geometry":{"type":"LineString","coordinates":[[127.09643,37.49217],[127.09875,37.49253],[127.0996,37.49266],[127.09974,37.49267],[127.09989,37.49267],[127.10007,37.49265],[127.10034,37.49258],[127.10059,37.4925],[127.10151,37.49211]]}},{"type":"Feature","properties":{"class":"major","highway":"primary_link","sidewalk":"likely","lanes":0,"name":"남부순환로","oneway":true},"geometry":{"type":"LineString","coordinates":[[127.09763,37.49181],[127.0978,37.49166],[127.0979,37.4916],[127.09805,37.49154],[127.09827,37.49154],[127.09847,37.49159],[127.09862,37.49168],[127.09872,37.49179],[127.09877,37.49185],[127.09902,37.49229],[127.09928,37.49253],[127.09976,37.49291]]}},{"type":"Feature","properties":{"class":"major","highway":"primary_link","sidewalk":"likely","lanes":0,"name":"","oneway":true},"geometry":{"type":"LineString","coordinates":[[127.09709,37.49302],[127.09703,37.49322],[127.09702,37.4933],[127.09707,37.49346],[127.09718,37.49358],[127.09734,37.49364],[127.09749,37.49365],[127.09764,37.49362],[127.09782,37.49351],[127.09815,37.49329],[127.09826,37.49315],[127.09825,37.49299],[127.09821,37.49286],[127.09805,37.49275],[127.09793,37.49268],[127.09762,37.49259]]}},{"type":"Feature","properties":{"class":"major","highway":"primary_link","sidewalk":"likely","lanes":1,"name":"","oneway":true},"geometry":{"type":"LineString","coordinates":[[127.09617,37.49382],[127.09636,37.49349],[127.09644,37.49326],[127.0964,37.49302],[127.09628,37.49278],[127.09616,37.49264],[127.09604,37.49257],[127.09586,37.49251]]}},{"type":"Feature","properties":{"class":"minor","highway":"residential","sidewalk":"unknown","lanes":0,"name":"백제고분로34길","oneway":false},"geometry":{"type":"LineString","coordinates":[[127.09877,37.5025],[127.09877,37.50242],[127.09877,37.50203],[127.09876,37.50164],[127.09876,37.50157],[127.09878,37.50127],[127.09878,37.50122],[127.09879,37.50088],[127.09879,37.50083],[127.0988,37.50049],[127.0988,37.50041],[127.09881,37.5001],[127.09881,37.50005],[127.09878,37.49967],[127.0988,37.49935],[127.09879,37.4988],[127.0988,37.49836]]}},{"type":"Feature","properties":{"class":"minor","highway":"residential","sidewalk":"unknown","lanes":0,"name":"삼학사로4길","oneway":true},"geometry":{"type":"LineString","coordinates":[[127.10036,37.49962],[127.0988,37.49935],[127.09674,37.49919]]}},{"type":"Feature","properties":{"class":"minor","highway":"residential","sidewalk":"unknown","lanes":0,"name":"송파대로37길","oneway":false},"geometry":{"type":"LineString","coordinates":[[127.09736,37.49694],[127.09765,37.49738],[127.09883,37.49775],[127.10064,37.49828],[127.10103,37.49839],[127.10132,37.49848],[127.10138,37.49849],[127.10276,37.4989],[127.10298,37.49897],[127.10378,37.49921],[127.10384,37.49923],[127.10426,37.49935],[127.10455,37.49944],[127.1046,37.49946],[127.10464,37.49947],[127.10541,37.49972],[127.10588,37.49986],[127.10653,37.50006],[127.1069,37.50017],[127.10734,37.5003],[127.10805,37.50051],[127.10882,37.50074],[127.10976,37.50103]]}},{"type":"Feature","properties":{"class":"major","highway":"secondary","sidewalk":"likely","lanes":0,"name":"삼전로","oneway":true},"geometry":{"type":"LineString","coordinates":[[127.07904,37.49911],[127.07974,37.49934],[127.08027,37.4995],[127.08039,37.49954],[127.08088,37.49969],[127.08091,37.4997]]}},{"type":"Feature","properties":{"class":"major","highway":"primary","sidewalk":"likely","lanes":0,"name":"밤고개로","oneway":true},"geometry":{"type":"LineString","coordinates":[[127.09763,37.49181],[127.09806,37.49111],[127.09833,37.49068]]}},{"type":"Feature","properties":{"class":"major","highway":"primary_link","sidewalk":"likely","lanes":0,"name":"개포로","oneway":true},"geometry":{"type":"LineString","coordinates":[[127.08795,37.49638],[127.08817,37.49647],[127.0883,37.49651],[127.08835,37.49652],[127.08845,37.49654],[127.08865,37.49654],[127.08886,37.4965],[127.08911,37.49645]]}},{"type":"Feature","properties":{"class":"major","highway":"tertiary","sidewalk":"likely","lanes":0,"name":"개포로140길","oneway":false},"geometry":{"type":"LineString","coordinates":[[127.08581,37.4957],[127.0859,37.49552],[127.08597,37.49539],[127.08647,37.4944],[127.08669,37.49392],[127.08675,37.4938],[127.08693,37.49347]]}},{"type":"Feature","properties":{"class":"major","highway":"primary_link","sidewalk":"likely","lanes":0,"name":"개포로","oneway":true},"geometry":{"type":"LineString","coordinates":[[127.08804,37.49681],[127.08811,37.49675],[127.08814,37.49671],[127.08816,37.49669],[127.08818,37.49666],[127.08818,37.49663],[127.08817,37.49659],[127.08814,37.49655],[127.08807,37.49648],[127.08795,37.49638]]}},{"type":"Feature","properties":{"class":"minor","highway":"residential","sidewalk":"unknown","lanes":0,"name":"광평로10길","oneway":false},"geometry":{"type":"LineString","coordinates":[[127.0799,37.4827],[127.08015,37.48168]]}},{"type":"Feature","properties":{"class":"minor","highway":"residential","sidewalk":"unknown","lanes":0,"name":"광평로31길","oneway":false},"geometry":{"type":"LineString","coordinates":[[127.09317,37.48442],[127.09257,37.48495],[127.09202,37.48539],[127.09187,37.48548],[127.0917,37.48553],[127.09133,37.48554],[127.09094,37.48554],[127.09019,37.48551],[127.08969,37.48545],[127.08902,37.48535],[127.08861,37.48529],[127.0884,37.48529],[127.08794,37.48544],[127.08744,37.48559],[127.08681,37.48572],[127.08617,37.48583]]}},{"type":"Feature","properties":{"class":"alley","highway":"service","sidewalk":"unknown","lanes":2,"name":"","oneway":false},"geometry":{"type":"LineString","coordinates":[[127.08356,37.48128],[127.08373,37.48028],[127.08379,37.48012],[127.08384,37.48002],[127.08404,37.48001],[127.08421,37.48],[127.08473,37.48003],[127.08565,37.4801],[127.08566,37.48003]]}},{"type":"Feature","properties":{"class":"minor","highway":"residential","sidewalk":"unknown","lanes":2,"name":"광평로19길","oneway":false},"geometry":{"type":"LineString","coordinates":[[127.08617,37.48583],[127.08644,37.48463],[127.08665,37.48369]]}},{"type":"Feature","properties":{"class":"alley","highway":"service","sidewalk":"unknown","lanes":0,"name":"","oneway":false},"geometry":{"type":"LineString","coordinates":[[127.0827,37.48115],[127.08291,37.48018]]}},{"type":"Feature","properties":{"class":"alley","highway":"service","sidewalk":"unknown","lanes":0,"name":"","oneway":false},"geometry":{"type":"LineString","coordinates":[[127.08302,37.48211],[127.0841,37.48224]]}},{"type":"Feature","properties":{"class":"alley","highway":"service","sidewalk":"unknown","lanes":0,"name":"","oneway":false},"geometry":{"type":"LineString","coordinates":[[127.08195,37.48041],[127.08183,37.48102]]}},{"type":"Feature","properties":{"class":"alley","highway":"service","sidewalk":"unknown","lanes":0,"name":"","oneway":false},"geometry":{"type":"LineString","coordinates":[[127.08145,37.48132],[127.08134,37.48194],[127.08106,37.4819],[127.08109,37.48181],[127.08015,37.48168]]}},{"type":"Feature","properties":{"class":"alley","highway":"service","sidewalk":"unknown","lanes":0,"name":"","oneway":false},"geometry":{"type":"LineString","coordinates":[[127.0829,37.48267],[127.08295,37.48243],[127.08302,37.48211],[127.08313,37.48155]]}},{"type":"Feature","properties":{"class":"minor","highway":"residential","sidewalk":"unknown","lanes":0,"name":"일원로","oneway":false},"geometry":{"type":"LineString","coordinates":[[127.08429,37.48139],[127.0841,37.48224],[127.08386,37.48328]]}},{"type":"Feature","properties":{"class":"minor","highway":"residential","sidewalk":"unknown","lanes":0,"name":"일원로14길","oneway":false},"geometry":{"type":"LineString","coordinates":[[127.08334,37.48549],[127.08224,37.48534],[127.08138,37.48522],[127.08109,37.48515]]}},{"type":"Feature","properties":{"class":"alley","highway":"service","sidewalk":"unknown","lanes":0,"name":"","oneway":false},"geometry":{"type":"LineString","coordinates":[[127.08811,37.49021],[127.08855,37.48938],[127.0886,37.48923],[127.08856,37.48902],[127.08844,37.48881],[127.08835,37.48872],[127.08834,37.4887],[127.08828,37.48864],[127.08819,37.48852],[127.08793,37.48838],[127.0877,37.48836],[127.08744,37.4883],[127.08686,37.4881],[127.08653,37.48798],[127.0862,37.48786]]}},{"type":"Feature","properties":{"class":"alley","highway":"service","sidewalk":"unknown","lanes":0,"name":"","oneway":true},"geometry":{"type":"LineString","coordinates":[[127.08675,37.4938],[127.08714,37.49393],[127.08722,37.49395],[127.08829,37.49429],[127.08823,37.4944],[127.08716,37.49407],[127.08708,37.49404],[127.08669,37.49392]]}},{"type":"Feature","properties":{"class":"alley","highway":"service","sidewalk":"unknown","lanes":0,"name":"","oneway":true},"geometry":{"type":"LineString","coordinates":[[127.08386,37.48865],[127.08392,37.48852]]}},{"type":"Feature","properties":{"class":"minor","highway":"residential","sidewalk":"unknown","lanes":0,"name":"개포로124길","oneway":false},"geometry":{"type":"LineString","coordinates":[[127.08251,37.49461],[127.08255,37.49452],[127.08266,37.49429],[127.08313,37.49334],[127.08364,37.49235]]}},{"type":"Feature","properties":{"class":"alley","highway":"service","sidewalk":"unknown","lanes":0,"name":"","oneway":true},"geometry":{"type":"LineString","coordinates":[[127.08279,37.4867],[127.08296,37.48674],[127.08349,37.48689],[127.08398,37.48703],[127.08471,37.48725],[127.08468,37.48734],[127.08457,37.48756],[127.0841,37.48857],[127.08406,37.48869]]}},{"type":"Feature","properties":{"class":"alley","highway":"service","sidewalk":"unknown","lanes":0,"name":"","oneway":false},"geometry":{"type":"LineString","coordinates":[[127.08372,37.48888],[127.08362,37.48881],[127.08365,37.48871],[127.08381,37.48863],[127.08386,37.48865],[127.08406,37.48869]]}},{"type":"Feature","properties":{"class":"minor","highway":"residential","sidewalk":"unknown","lanes":0,"name":"개포로116길","oneway":false},"geometry":{"type":"LineString","coordinates":[[127.08117,37.49417],[127.08121,37.49409],[127.08131,37.49387],[127.08176,37.4929],[127.08228,37.49177],[127.08229,37.49174]]}},{"type":"Feature","properties":{"class":"alley","highway":"living_street","sidewalk":"unknown","lanes":0,"name":"개포로128길","oneway":false},"geometry":{"type":"LineString","coordinates":[[127.08341,37.49454],[127.08355,37.49424],[127.0837,37.49392],[127.08387,37.49356],[127.08414,37.49299],[127.08432,37.4926]]}},{"type":"Feature","properties":{"class":"alley","highway":"service","sidewalk":"unknown","lanes":0,"name":"","oneway":true},"geometry":{"type":"LineString","coordinates":[[127.08392,37.48852],[127.08432,37.48768],[127.08426,37.48751],[127.08397,37.48728],[127.08382,37.48715],[127.08372,37.48708]]}},{"type":"Feature","properties":{"class":"major","highway":"primary","sidewalk":"likely","lanes":0,"name":"양재대로","oneway":true},"geometry":{"type":"LineString","coordinates":[[127.08829,37.49077],[127.08718,37.49045],[127.08477,37.48972],[127.08342,37.48931],[127.08283,37.48911],[127.08219,37.48892],[127.08181,37.48881]]}},{"type":"Feature","properties":{"class":"alley","highway":"service","sidewalk":"unknown","lanes":0,"name":"","oneway":false},"geometry":{"type":"LineString","coordinates":[[127.08059,37.49445],[127.08214,37.49494],[127.08231,37.495],[127.08313,37.49526],[127.0824,37.49676],[127.08166,37.49824],[127.07912,37.49747],[127.07972,37.49624],[127.08059,37.49445],[127.08076,37.49415],[127.0808,37.49406]]}},{"type":"Feature","properties":{"class":"minor","highway":"residential","sidewalk":"unknown","lanes":0,"name":"일원로9길","oneway":false},"geometry":{"type":"LineString","coordinates":[[127.08318,37.48983],[127.08363,37.48996],[127.08403,37.49008],[127.08447,37.49022],[127.08487,37.49034],[127.08531,37.49047],[127.08573,37.49059],[127.08614,37.49071],[127.08661,37.49085],[127.08707,37.49099],[127.08752,37.49112]]}},{"type":"Feature","properties":{"class":"alley","highway":"service","sidewalk":"unknown","lanes":0,"name":"","oneway":false},"geometry":{"type":"LineString","coordinates":[[127.0824,37.49676],[127.0816,37.4965]]}},{"type":"Feature","properties":{"class":"alley","highway":"service","sidewalk":"unknown","lanes":0,"name":"","oneway":false},"geometry":{"type":"LineString","coordinates":[[127.08067,37.49874],[127.08183,37.49839],[127.08166,37.49824]]}},{"type":"Feature","properties":{"class":"minor","highway":"residential","sidewalk":"unknown","lanes":0,"name":"","oneway":false},"geometry":{"type":"LineString","coordinates":[[127.08183,37.49839],[127.08506,37.49739]]}},{"type":"Feature","properties":{"class":"alley","highway":"service","sidewalk":"unknown","lanes":0,"name":"","oneway":false},"geometry":{"type":"LineString","coordinates":[[127.08506,37.49739],[127.08682,37.49685],[127.08706,37.49645],[127.08715,37.4963]]}},{"type":"Feature","properties":{"class":"alley","highway":"service","sidewalk":"unknown","lanes":0,"name":"","oneway":false},"geometry":{"type":"LineString","coordinates":[[127.08313,37.49526],[127.08697,37.49641],[127.08706,37.49645]]}},{"type":"Feature","properties":{"class":"alley","highway":"service","sidewalk":"unknown","lanes":0,"name":"","oneway":false},"geometry":{"type":"LineString","coordinates":[[127.08934,37.49611],[127.0915,37.49532],[127.09172,37.49501],[127.09229,37.49519]]}},{"type":"Feature","properties":{"class":"alley","highway":"service","sidewalk":"unknown","lanes":0,"name":"","oneway":false},"geometry":{"type":"LineString","coordinates":[[127.0862,37.48786],[127.0852,37.48745]]}},{"type":"Feature","properties":{"class":"major","highway":"tertiary","sidewalk":"likely","lanes":0,"name":"일원로","oneway":false},"geometry":{"type":"LineString","coordinates":[[127.08275,37.48681],[127.08263,37.48705],[127.08187,37.48868]]}},{"type":"Feature","properties":{"class":"alley","highway":"service","sidewalk":"unknown","lanes":0,"name":"","oneway":true},"geometry":{"type":"LineString","coordinates":[[127.0852,37.48745],[127.08468,37.48734]]}},{"type":"Feature","properties":{"class":"alley","highway":"service","sidewalk":"unknown","lanes":0,"name":"","oneway":true},"geometry":{"type":"LineString","coordinates":[[127.08471,37.48725],[127.08508,37.48736],[127.0852,37.48745]]}},{"type":"Feature","properties":{"class":"alley","highway":"service","sidewalk":"unknown","lanes":0,"name":"","oneway":true},"geometry":{"type":"LineString","coordinates":[[127.08468,37.48734],[127.08372,37.48708],[127.08323,37.48695],[127.08275,37.48681]]}},{"type":"Feature","properties":{"class":"alley","highway":"living_street","sidewalk":"unknown","lanes":0,"name":"개포로120길","oneway":false},"geometry":{"type":"LineString","coordinates":[[127.08176,37.4929],[127.0822,37.49304],[127.08264,37.49318],[127.08313,37.49334],[127.08387,37.49356],[127.08429,37.49369],[127.08431,37.4937],[127.08435,37.49372],[127.08554,37.4941],[127.08598,37.49424],[127.08638,37.49437],[127.08647,37.4944]]}},{"type":"Feature","properties":{"class":"alley","highway":"living_street","sidewalk":"unknown","lanes":0,"name":"개포로118길","oneway":false},"geometry":{"type":"LineString","coordinates":[[127.08131,37.49387],[127.08175,37.494],[127.08217,37.49414],[127.08266,37.49429],[127.08341,37.49454],[127.08387,37.49468],[127.08426,37.49481],[127.08447,37.49488],[127.08466,37.49494],[127.08506,37.49507],[127.08548,37.49522],[127.08589,37.49536],[127.08597,37.49539]]}},{"type":"Feature","properties":{"class":"minor","highway":"residential","sidewalk":"unknown","lanes":0,"name":"","oneway":false},"geometry":{"type":"LineString","coordinates":[[127.09706,37.48489],[127.09761,37.48526],[127.0978,37.4854],[127.09809,37.4856],[127.09811,37.48561],[127.09815,37.48564],[127.09826,37.48572],[127.09851,37.48589],[127.09888,37.48615],[127.09905,37.48626],[127.09936,37.48644],[127.09948,37.48647],[127.09948,37.48656],[127.09941,37.48667]]}},{"type":"Feature","properties":{"class":"minor","highway":"residential","sidewalk":"unknown","lanes":0,"name":"밤고개로12길","oneway":false},"geometry":{"type":"LineString","coordinates":[[127.09991,37.4812],[127.09992,37.48119],[127.09995,37.48119],[127.10031,37.48118],[127.10035,37.48118],[127.10068,37.48117],[127.10074,37.4812],[127.10109,37.48146],[127.10123,37.48155],[127.10141,37.48168],[127.10173,37.48192],[127.10188,37.48203],[127.10296,37.48282],[127.10301,37.48284],[127.10448,37.4832]]}},{"type":"Feature","properties":{"class":"alley","highway":"living_street","sidewalk":"unknown","lanes":0,"name":"","oneway":false},"geometry":{"type":"LineString","coordinates":[[127.08429,37.49517],[127.08433,37.4951],[127.08447,37.49488]]}},{"type":"Feature","properties":{"class":"alley","highway":"living_street","sidewalk":"unknown","lanes":0,"name":"양재대로31길","oneway":false},"geometry":{"type":"LineString","coordinates":[[127.08226,37.49079],[127.08276,37.4897]]}},{"type":"Feature","properties":{"class":"minor","highway":"residential","sidewalk":"unknown","lanes":0,"name":"일원로9길","oneway":false},"geometry":{"type":"LineString","coordinates":[[127.08752,37.49112],[127.08805,37.49125]]}},{"type":"Feature","properties":{"class":"minor","highway":"residential","sidewalk":"unknown","lanes":0,"name":"","oneway":false},"geometry":{"type":"LineString","coordinates":[[127.09909,37.48535],[127.09946,37.48559]]}},{"type":"Feature","properties":{"class":"minor","highway":"residential","sidewalk":"unknown","lanes":0,"name":"일원로5길","oneway":false},"geometry":{"type":"LineString","coordinates":[[127.08662,37.49293],[127.0871,37.49311]]}},{"type":"Feature","properties":{"class":"minor","highway":"residential","sidewalk":"unknown","lanes":0,"name":"","oneway":false},"geometry":{"type":"LineString","coordinates":[[127.0978,37.4854],[127.09815,37.48507]]}},{"type":"Feature","properties":{"class":"alley","highway":"living_street","sidewalk":"unknown","lanes":0,"name":"","oneway":false},"geometry":{"type":"LineString","coordinates":[[127.08713,37.49191],[127.08761,37.49206]]}},{"type":"Feature","properties":{"class":"alley","highway":"living_street","sidewalk":"unknown","lanes":0,"name":"","oneway":false},"geometry":{"type":"LineString","coordinates":[[127.08403,37.49116],[127.08444,37.49128]]}},{"type":"Feature","properties":{"class":"alley","highway":"living_street","sidewalk":"unknown","lanes":0,"name":"개포로118길","oneway":false},"geometry":{"type":"LineString","coordinates":[[127.08217,37.49414],[127.08264,37.49318]]}},{"type":"Feature","properties":{"class":"alley","highway":"service","sidewalk":"unknown","lanes":0,"name":"","oneway":false},"geometry":{"type":"LineString","coordinates":[[127.0879,37.49153],[127.08843,37.4917],[127.08897,37.49187],[127.09118,37.49257],[127.09215,37.49287],[127.09238,37.4932]]}},{"type":"Feature","properties":{"class":"alley","highway":"living_street","sidewalk":"unknown","lanes":0,"name":"개포로128길","oneway":false},"geometry":{"type":"LineString","coordinates":[[127.08326,37.49379],[127.0837,37.49392]]}},{"type":"Feature","properties":{"class":"alley","highway":"living_street","sidewalk":"unknown","lanes":0,"name":"개포로128길","oneway":false},"geometry":{"type":"LineString","coordinates":[[127.08311,37.4941],[127.08355,37.49424]]}},{"type":"Feature","properties":{"class":"alley","highway":"living_street","sidewalk":"unknown","lanes":0,"name":"개포로118길","oneway":false},"geometry":{"type":"LineString","coordinates":[[127.08465,37.49402],[127.08426,37.49481]]}},{"type":"Feature","properties":{"class":"alley","highway":"living_street","sidewalk":"unknown","lanes":0,"name":"개포로118길","oneway":false},"geometry":{"type":"LineString","coordinates":[[127.08175,37.494],[127.0822,37.49304]]}},{"type":"Feature","properties":{"class":"alley","highway":"living_street","sidewalk":"unknown","lanes":0,"name":"개포로118길","oneway":false},"geometry":{"type":"LineString","coordinates":[[127.08466,37.49494],[127.08505,37.49416]]}},{"type":"Feature","properties":{"class":"alley","highway":"living_street","sidewalk":"unknown","lanes":0,"name":"개포로130길","oneway":false},"geometry":{"type":"LineString","coordinates":[[127.08441,37.49352],[127.08564,37.49392]]}},{"type":"Feature","properties":{"class":"alley","highway":"service","sidewalk":"unknown","lanes":0,"name":"양재대로39길","oneway":false},"geometry":{"type":"LineString","coordinates":[[127.08419,37.4908],[127.08461,37.49092]]}},{"type":"Feature","properties":{"class":"alley","highway":"living_street","sidewalk":"unknown","lanes":0,"name":"양재대로29길","oneway":false},"geometry":{"type":"LineString","coordinates":[[127.08188,37.49062],[127.08235,37.48958]]}},{"type":"Feature","properties":{"class":"minor","highway":"residential","sidewalk":"unknown","lanes":0,"name":"광평로","oneway":false},"geometry":{"type":"LineString","coordinates":[[127.09788,37.48499],[127.09739,37.48467],[127.09728,37.48466]]}},{"type":"Feature","properties":{"class":"minor","highway":"residential","sidewalk":"unknown","lanes":0,"name":"광평로39길","oneway":false},"geometry":{"type":"LineString","coordinates":[[127.09794,37.48572],[127.0978,37.48584],[127.09752,37.48615],[127.09731,37.48657],[127.09728,37.487],[127.09741,37.48732],[127.09757,37.48757],[127.09765,37.48767],[127.09814,37.48819],[127.09834,37.48838],[127.09849,37.48852],[127.09864,37.48873],[127.09871,37.48885],[127.09875,37.48904],[127.09876,37.48931],[127.09861,37.48967],[127.09836,37.49004],[127.09799,37.49049],[127.09784,37.4906],[127.09766,37.4907],[127.09749,37.49074],[127.09707,37.49081],[127.09687,37.49087],[127.09678,37.49091],[127.09616,37.4912],[127.09553,37.4915]]}},{"type":"Feature","properties":{"class":"alley","highway":"service","sidewalk":"unknown","lanes":0,"name":"","oneway":false},"geometry":{"type":"LineString","coordinates":[[127.09734,37.48356],[127.09733,37.4836],[127.09732,37.48366],[127.09737,37.48376],[127.09757,37.48388]]}},{"type":"Feature","properties":{"class":"alley","highway":"living_street","sidewalk":"unknown","lanes":0,"name":"양재대로51길","oneway":false},"geometry":{"type":"LineString","coordinates":[[127.0863,37.49148],[127.08678,37.4916]]}},{"type":"Feature","properties":{"class":"alley","highway":"service","sidewalk":"unknown","lanes":0,"name":"양재대로33길","oneway":false},"geometry":{"type":"LineString","coordinates":[[127.08293,37.49036],[127.08333,37.49049],[127.08337,37.49051]]}},{"type":"Feature","properties":{"class":"alley","highway":"service","sidewalk":"unknown","lanes":0,"name":"","oneway":false},"geometry":{"type":"LineString","coordinates":[[127.08276,37.49074],[127.0832,37.49088],[127.08361,37.491]]}},{"type":"Feature","properties":{"class":"alley","highway":"service","sidewalk":"unknown","lanes":0,"name":"","oneway":false},"geometry":{"type":"LineString","coordinates":[[127.08502,37.49109],[127.08545,37.49121],[127.08586,37.49132]]}},{"type":"Feature","properties":{"class":"minor","highway":"residential","sidewalk":"unknown","lanes":0,"name":"광평로","oneway":false},"geometry":{"type":"LineString","coordinates":[[127.09761,37.48526],[127.09788,37.48499],[127.098,37.48488],[127.09802,37.48485],[127.09803,37.48483],[127.098,37.48477]]}},{"type":"Feature","properties":{"class":"minor","highway":"residential","sidewalk":"unknown","lanes":0,"name":"","oneway":false},"geometry":{"type":"LineString","coordinates":[[127.08359,37.48443],[127.08368,37.48445],[127.08444,37.48457],[127.085,37.48463],[127.08506,37.48437],[127.08528,37.48349]]}},{"type":"Feature","properties":{"class":"alley","highway":"service","sidewalk":"unknown","lanes":0,"name":"","oneway":false},"geometry":{"type":"LineString","coordinates":[[127.08613,37.49183],[127.08659,37.49197]]}},{"type":"Feature","properties":{"class":"minor","highway":"residential","sidewalk":"unknown","lanes":0,"name":"광평로47길","oneway":false},"geometry":{"type":"LineString","coordinates":[[127.09834,37.48838],[127.10015,37.48712],[127.10035,37.48697]]}},{"type":"Feature","properties":{"class":"minor","highway":"residential","sidewalk":"unknown","lanes":0,"name":"광평로","oneway":false},"geometry":{"type":"LineString","coordinates":[[127.09693,37.48499],[127.09706,37.48489],[127.09728,37.48466]]}},{"type":"Feature","properties":{"class":"alley","highway":"service","sidewalk":"unknown","lanes":0,"name":"","oneway":false},"geometry":{"type":"LineString","coordinates":[[127.08485,37.49146],[127.08527,37.49158]]}},{"type":"Feature","properties":{"class":"minor","highway":"residential","sidewalk":"unknown","lanes":0,"name":"광평로46길","oneway":false},"geometry":{"type":"LineString","coordinates":[[127.09948,37.48647],[127.09967,37.48623],[127.09968,37.48622],[127.09968,37.4862],[127.09967,37.48618],[127.09919,37.48586]]}},{"type":"Feature","properties":{"class":"alley","highway":"living_street","sidewalk":"unknown","lanes":0,"name":"","oneway":false},"geometry":{"type":"LineString","coordinates":[[127.08389,37.49089],[127.08349,37.4918],[127.08329,37.4922]]}},{"type":"Feature","properties":{"class":"minor","highway":"residential","sidewalk":"unknown","lanes":0,"name":"광평로34길","oneway":false},"geometry":{"type":"LineString","coordinates":[[127.0946,37.48438],[127.0946,37.48427],[127.0946,37.48365],[127.09461,37.48342],[127.09461,37.48306],[127.09461,37.48281],[127.0946,37.48251],[127.09457,37.48241],[127.09451,37.4823],[127.09413,37.4818],[127.094,37.48164],[127.09386,37.48155],[127.09373,37.48148],[127.09369,37.48146],[127.09354,37.48142],[127.09266,37.48131],[127.09247,37.48129],[127.09232,37.48132],[127.09219,37.48134],[127.09214,37.48134],[127.092,37.48139],[127.09185,37.48145],[127.09174,37.48152],[127.09098,37.48196],[127.09089,37.482],[127.09083,37.48202],[127.09074,37.48203],[127.09062,37.48206],[127.09047,37.48205],[127.09032,37.48206],[127.09011,37.48203],[127.08994,37.48199],[127.08973,37.48189],[127.08959,37.48178],[127.08917,37.48151],[127.08841,37.48106],[127.08797,37.48083],[127.08771,37.48073],[127.08766,37.48067],[127.08775,37.48061],[127.08853,37.48016]]}},{"type":"Feature","properties":{"class":"alley","highway":"living_street","sidewalk":"unknown","lanes":0,"name":"양재대로45길","oneway":false},"geometry":{"type":"LineString","coordinates":[[127.08494,37.49232],[127.08527,37.49158],[127.08545,37.49121],[127.08573,37.49059]]}},{"type":"Feature","properties":{"class":"alley","highway":"service","sidewalk":"unknown","lanes":0,"name":"","oneway":false},"geometry":{"type":"LineString","coordinates":[[127.08576,37.49152],[127.08599,37.49159],[127.08622,37.49165]]}},{"type":"Feature","properties":{"class":"minor","highway":"residential","sidewalk":"unknown","lanes":0,"name":"","oneway":false},"geometry":{"type":"LineString","coordinates":[[127.09696,37.48795],[127.09717,37.48785],[127.09729,37.48776],[127.09734,37.48769]]}},{"type":"Feature","properties":{"class":"alley","highway":"living_street","sidewalk":"unknown","lanes":0,"name":"개포로128길","oneway":false},"geometry":{"type":"LineString","coordinates":[[127.08414,37.49299],[127.0846,37.49315],[127.08513,37.49332]]}},{"type":"Feature","properties":{"class":"alley","highway":"living_street","sidewalk":"unknown","lanes":0,"name":"개포로130길","oneway":false},"geometry":{"type":"LineString","coordinates":[[127.08424,37.4939],[127.08465,37.49402],[127.08505,37.49416],[127.08546,37.49428]]}},{"type":"Feature","properties":{"class":"minor","highway":"residential","sidewalk":"unknown","lanes":0,"name":"일원로5길","oneway":false},"geometry":{"type":"LineString","coordinates":[[127.08094,37.49065],[127.08109,37.4907],[127.08133,37.49079],[127.08249,37.49132]]}},{"type":"Feature","properties":{"class":"alley","highway":"living_street","sidewalk":"unknown","lanes":0,"name":"","oneway":false},"geometry":{"type":"LineString","coordinates":[[127.08513,37.49332],[127.08535,37.49294],[127.08554,37.49252],[127.08599,37.49159]]}},{"type":"Feature","properties":{"class":"alley","highway":"living_street","sidewalk":"unknown","lanes":0,"name":"개포로138길","oneway":false},"geometry":{"type":"LineString","coordinates":[[127.08645,37.49331],[127.08624,37.4937],[127.08598,37.49424],[127.08548,37.49522]]}},{"type":"Feature","properties":{"class":"alley","highway":"living_street","sidewalk":"unknown","lanes":0,"name":"양재대로33길","oneway":true},"geometry":{"type":"LineString","coordinates":[[127.08148,37.49043],[127.08188,37.49062],[127.08226,37.49079],[127.08265,37.49097]]}},{"type":"Feature","properties":{"class":"minor","highway":"residential","sidewalk":"unknown","lanes":0,"name":"","oneway":false},"geometry":{"type":"LineString","coordinates":[[127.09989,37.48156],[127.10035,37.48156],[127.10081,37.48155]]}},{"type":"Feature","properties":{"class":"alley","highway":"service","sidewalk":"unknown","lanes":0,"name":"광평로31길","oneway":false},"geometry":{"type":"LineString","coordinates":[[127.09257,37.48495],[127.0931,37.48524],[127.09309,37.48526],[127.09307,37.48528],[127.09287,37.4854]]}},{"type":"Feature","properties":{"class":"alley","highway":"living_street","sidewalk":"unknown","lanes":0,"name":"양재대로49길","oneway":false},"geometry":{"type":"LineString","coordinates":[[127.08576,37.49261],[127.08613,37.49183],[127.08622,37.49165],[127.0863,37.49148],[127.08661,37.49085]]}},{"type":"Feature","properties":{"class":"alley","highway":"living_street","sidewalk":"unknown","lanes":0,"name":"양재대로35길","oneway":false},"geometry":{"type":"LineString","coordinates":[[127.0829,37.49151],[127.0832,37.49088],[127.08329,37.49069],[127.08337,37.49051],[127.08363,37.48996]]}},{"type":"Feature","properties":{"class":"alley","highway":"living_street","sidewalk":"unknown","lanes":0,"name":"양재대로51길","oneway":false},"geometry":{"type":"LineString","coordinates":[[127.08707,37.49099],[127.08678,37.4916],[127.08669,37.49178],[127.08659,37.49197],[127.0862,37.49278]]}},{"type":"Feature","properties":{"class":"alley","highway":"living_street","sidewalk":"unknown","lanes":0,"name":"개포로130길","oneway":false},"geometry":{"type":"LineString","coordinates":[[127.08387,37.49468],[127.08424,37.4939],[127.08431,37.4937],[127.08441,37.49352],[127.0846,37.49315]]}},{"type":"Feature","properties":{"class":"alley","highway":"living_street","sidewalk":"unknown","lanes":0,"name":"양재대로47길","oneway":false},"geometry":{"type":"LineString","coordinates":[[127.08614,37.49071],[127.08586,37.49132],[127.08576,37.49152],[127.08568,37.4917],[127.08533,37.49245]]}},{"type":"Feature","properties":{"class":"alley","highway":"living_street","sidewalk":"unknown","lanes":0,"name":"양재대로39길","oneway":false},"geometry":{"type":"LineString","coordinates":[[127.0837,37.49189],[127.08403,37.49116],[127.08411,37.49097],[127.08419,37.4908],[127.08447,37.49022]]}},{"type":"Feature","properties":{"class":"minor","highway":"residential","sidewalk":"unknown","lanes":0,"name":"광평로46길","oneway":false},"geometry":{"type":"LineString","coordinates":[[127.10028,37.48483],[127.09992,37.48515],[127.09946,37.48559],[127.09919,37.48586],[127.09888,37.48615]]}},{"type":"Feature","properties":{"class":"alley","highway":"living_street","sidewalk":"unknown","lanes":0,"name":"개포로136길","oneway":false},"geometry":{"type":"LineString","coordinates":[[127.08581,37.49355],[127.08564,37.49392],[127.08554,37.4941],[127.08546,37.49428],[127.08506,37.49507]]}},{"type":"Feature","properties":{"class":"minor","highway":"residential","sidewalk":"unknown","lanes":0,"name":"광평로42길","oneway":false},"geometry":{"type":"LineString","coordinates":[[127.09851,37.48589],[127.09909,37.48535],[127.09956,37.48491],[127.09967,37.48499],[127.09992,37.48515]]}},{"type":"Feature","properties":{"class":"alley","highway":"living_street","sidewalk":"unknown","lanes":0,"name":"양재대로37길","oneway":false},"geometry":{"type":"LineString","coordinates":[[127.08328,37.4917],[127.08361,37.491],[127.08369,37.49083],[127.08377,37.49064],[127.08403,37.49008]]}},{"type":"Feature","properties":{"class":"alley","highway":"living_street","sidewalk":"unknown","lanes":0,"name":"양재대로41길","oneway":false},"geometry":{"type":"LineString","coordinates":[[127.08407,37.49205],[127.08444,37.49128],[127.08453,37.4911],[127.08461,37.49092],[127.08487,37.49034]]}},{"type":"Feature","properties":{"class":"alley","highway":"service","sidewalk":"unknown","lanes":0,"name":"광평로42길","oneway":false},"geometry":{"type":"LineString","coordinates":[[127.09981,37.48442],[127.0998,37.48445],[127.09964,37.48459],[127.09959,37.48465],[127.09964,37.48471],[127.09982,37.48484],[127.09967,37.48499]]}},{"type":"Feature","properties":{"class":"alley","highway":"living_street","sidewalk":"unknown","lanes":0,"name":"양재대로27길","oneway":false},"geometry":{"type":"LineString","coordinates":[[127.08133,37.49079],[127.08148,37.49043],[127.08194,37.48945]]}},{"type":"Feature","properties":{"class":"alley","highway":"service","sidewalk":"unknown","lanes":0,"name":"","oneway":false},"geometry":{"type":"LineString","coordinates":[[127.08329,37.49069],[127.08369,37.49083],[127.08389,37.49089],[127.08408,37.49095],[127.08411,37.49097]]}},{"type":"Feature","properties":{"class":"minor","highway":"residential","sidewalk":"unknown","lanes":0,"name":"","oneway":false},"geometry":{"type":"LineString","coordinates":[[127.09616,37.48756],[127.09638,37.48759],[127.09661,37.4877],[127.09684,37.48775],[127.09718,37.48771],[127.09734,37.48769],[127.09738,37.48768],[127.09757,37.48757]]}},{"type":"Feature","properties":{"class":"major","highway":"tertiary","sidewalk":"likely","lanes":2,"name":"가락로","oneway":false},"geometry":{"type":"LineString","coordinates":[[127.0988,37.49836],[127.10055,37.49893],[127.1011,37.49911],[127.10245,37.49952],[127.10298,37.4997],[127.10399,37.50001],[127.10424,37.50009],[127.10509,37.50039],[127.10645,37.50078],[127.1069,37.50092],[127.1083,37.50139],[127.10984,37.50187],[127.11002,37.50193]]}},{"type":"Feature","properties":{"class":"major","highway":"tertiary","sidewalk":"likely","lanes":0,"name":"가락로","oneway":false},"geometry":{"type":"LineString","coordinates":[[127.0988,37.49836],[127.09738,37.49794],[127.097,37.49784],[127.09661,37.49772]]}},{"type":"Feature","properties":{"class":"alley","highway":"service","sidewalk":"unknown","lanes":0,"name":"","oneway":false},"geometry":{"type":"LineString","coordinates":[[127.08235,37.49456],[127.0823,37.49465],[127.08214,37.49494],[127.08208,37.49507],[127.082,37.49521],[127.08125,37.49548],[127.08157,37.49491],[127.08208,37.49507]]}},{"type":"Feature","properties":{"class":"major","highway":"tertiary","sidewalk":"likely","lanes":0,"name":"개포로110길","oneway":false},"geometry":{"type":"LineString","coordinates":[[127.08077,37.49102],[127.07939,37.49068],[127.07931,37.49067],[127.07865,37.4906],[127.07758,37.49058],[127.07738,37.49057],[127.07726,37.49057]]}},{"type":"Feature","properties":{"class":"minor","highway":"residential","sidewalk":"unknown","lanes":0,"name":"양재대로33길","oneway":false},"geometry":{"type":"LineString","coordinates":[[127.08229,37.49174],[127.08249,37.49132],[127.08265,37.49097],[127.08276,37.49074],[127.08293,37.49036],[127.08318,37.48983]]}},{"type":"Feature","properties":{"class":"minor","highway":"residential","sidewalk":"unknown","lanes":0,"name":"양재대로43길","oneway":false},"geometry":{"type":"LineString","coordinates":[[127.08432,37.4926],[127.08451,37.49219],[127.08485,37.49146],[127.08496,37.49123],[127.08502,37.49109],[127.08531,37.49047]]}},{"type":"Feature","properties":{"class":"major","highway":"tertiary","sidewalk":"likely","lanes":0,"name":"양재대로55길","oneway":false},"geometry":{"type":"LineString","coordinates":[[127.08693,37.49347],[127.0871,37.49311],[127.08725,37.4928],[127.08761,37.49206],[127.0879,37.49153],[127.08805,37.49125],[127.08829,37.49077]]}},{"type":"Feature","properties":{"class":"minor","highway":"residential","sidewalk":"unknown","lanes":0,"name":"일원로5길","oneway":false},"geometry":{"type":"LineString","coordinates":[[127.08662,37.49293],[127.0862,37.49278],[127.08576,37.49261],[127.08554,37.49252],[127.08533,37.49245],[127.08494,37.49232],[127.08451,37.49219],[127.08407,37.49205],[127.0837,37.49189],[127.08349,37.4918],[127.08328,37.4917],[127.0829,37.49151],[127.08249,37.49132]]}},{"type":"Feature","properties":{"class":"minor","highway":"residential","sidewalk":"unknown","lanes":0,"name":"양재대로53길","oneway":false},"geometry":{"type":"LineString","coordinates":[[127.08752,37.49112],[127.08721,37.49174],[127.08713,37.49191],[127.08703,37.49211],[127.08662,37.49293]]}},{"type":"Feature","properties":{"class":"minor","highway":"residential","sidewalk":"unknown","lanes":0,"name":"일원로9길","oneway":false},"geometry":{"type":"LineString","coordinates":[[127.08194,37.48945],[127.08155,37.48933]]}},{"type":"Feature","properties":{"class":"minor","highway":"residential","sidewalk":"unknown","lanes":0,"name":"일원로9길","oneway":false},"geometry":{"type":"LineString","coordinates":[[127.08194,37.48945],[127.08235,37.48958],[127.08276,37.4897],[127.08318,37.48983]]}},{"type":"Feature","properties":{"class":"alley","highway":"service","sidewalk":"unknown","lanes":0,"name":"","oneway":false},"geometry":{"type":"LineString","coordinates":[[127.08678,37.4916],[127.08721,37.49174]]}},{"type":"Feature","properties":{"class":"minor","highway":"residential","sidewalk":"unknown","lanes":0,"name":"광평로9길","oneway":false},"geometry":{"type":"LineString","coordinates":[[127.08109,37.48515],[127.08086,37.48502],[127.08034,37.48459],[127.08012,37.48439],[127.0797,37.484],[127.07966,37.48376],[127.07971,37.48357],[127.07983,37.48301],[127.0799,37.4827]]}},{"type":"Feature","properties":{"class":"minor","highway":"residential","sidewalk":"unknown","lanes":0,"name":"광평로20길","oneway":false},"geometry":{"type":"LineString","coordinates":[[127.08356,37.48128],[127.08429,37.48139],[127.08645,37.4817],[127.08661,37.48173],[127.08674,37.48181],[127.08681,37.48187],[127.0869,37.48198],[127.08694,37.48207],[127.08696,37.48218],[127.08696,37.4823],[127.0869,37.48257],[127.08684,37.48285],[127.08677,37.48316],[127.08669,37.48351],[127.08665,37.48369]]}},{"type":"Feature","properties":{"class":"minor","highway":"residential","sidewalk":"unknown","lanes":0,"name":"일원로13길","oneway":false},"geometry":{"type":"LineString","coordinates":[[127.08617,37.48583],[127.08559,37.48583],[127.08496,37.48576],[127.08334,37.48549]]}},{"type":"Feature","properties":{"class":"alley","highway":"service","sidewalk":"unknown","lanes":0,"name":"","oneway":false},"geometry":{"type":"LineString","coordinates":[[127.09728,37.48466],[127.09728,37.48462],[127.09721,37.48451],[127.09716,37.4844],[127.09714,37.48433],[127.09716,37.48429],[127.09721,37.48422],[127.09726,37.48415],[127.09734,37.48407],[127.09757,37.48388],[127.09765,37.48388],[127.0978,37.48375],[127.09786,37.48373],[127.09794,37.48377],[127.09804,37.48379],[127.09816,37.48381],[127.09827,37.48382],[127.09833,37.48383],[127.09838,37.48384],[127.09844,37.48386],[127.0985,37.48394],[127.09853,37.48397],[127.09867,37.48408],[127.09874,37.48413],[127.09882,37.48417],[127.09891,37.48422],[127.09907,37.48428],[127.09936,37.48431],[127.09974,37.4844],[127.09981,37.48442],[127.09988,37.4844],[127.10015,37.48435]]}},{"type":"Feature","properties":{"class":"minor","highway":"residential","sidewalk":"unknown","lanes":0,"name":"백제고분로32길","oneway":false},"geometry":{"type":"LineString","coordinates":[[127.09304,37.49926],[127.09468,37.49878]]}},{"type":"Feature","properties":{"class":"minor","highway":"residential","sidewalk":"unknown","lanes":0,"name":"가락로2길","oneway":false},"geometry":{"type":"LineString","coordinates":[[127.0988,37.49836],[127.09879,37.49798],[127.09883,37.49775]]}},{"type":"Feature","properties":{"class":"minor","highway":"residential","sidewalk":"unknown","lanes":0,"name":"가락로","oneway":false},"geometry":{"type":"LineString","coordinates":[[127.09765,37.49738],[127.09755,37.49759],[127.09755,37.4976],[127.09738,37.49794]]}},{"type":"Feature","properties":{"class":"minor","highway":"residential","sidewalk":"unknown","lanes":0,"name":"","oneway":false},"geometry":{"type":"LineString","coordinates":[[127.10092,37.49128],[127.10072,37.49167],[127.10063,37.49187],[127.10057,37.49201],[127.10027,37.49211],[127.10014,37.49207],[127.09941,37.49186],[127.09916,37.49179],[127.09904,37.49158],[127.09902,37.49118],[127.09903,37.49092],[127.09919,37.49047],[127.09934,37.49013],[127.09953,37.48983],[127.09968,37.48968],[127.10075,37.48997],[127.10103,37.49005],[127.10127,37.49011],[127.10143,37.49015]]}},{"type":"Feature","properties":{"class":"minor","highway":"residential","sidewalk":"unknown","lanes":0,"name":"","oneway":false},"geometry":{"type":"LineString","coordinates":[[127.0998,37.49051],[127.09973,37.49069],[127.09979,37.49071],[127.10029,37.49084],[127.10079,37.49098]]}},{"type":"Feature","properties":{"class":"minor","highway":"residential","sidewalk":"unknown","lanes":0,"name":"","oneway":false},"geometry":{"type":"LineString","coordinates":[[127.10072,37.49167],[127.09996,37.49148],[127.09958,37.49138],[127.09939,37.49131],[127.09957,37.49099]]}},{"type":"Feature","properties":{"class":"minor","highway":"residential","sidewalk":"unknown","lanes":0,"name":"","oneway":false},"geometry":{"type":"LineString","coordinates":[[127.09996,37.49148],[127.10011,37.49111]]}},{"type":"Feature","properties":{"class":"minor","highway":"residential","sidewalk":"unknown","lanes":0,"name":"","oneway":false},"geometry":{"type":"LineString","coordinates":[[127.09941,37.49186],[127.09956,37.49168],[127.1003,37.49189],[127.10014,37.49207]]}},{"type":"Feature","properties":{"class":"minor","highway":"residential","sidewalk":"unknown","lanes":0,"name":"","oneway":false},"geometry":{"type":"LineString","coordinates":[[127.1,37.49026],[127.09984,37.4902]]}},{"type":"Feature","properties":{"class":"alley","highway":"service","sidewalk":"unknown","lanes":2,"name":"","oneway":false},"geometry":{"type":"LineString","coordinates":[[127.08506,37.48437],[127.08514,37.48438],[127.08561,37.48446],[127.08564,37.48452],[127.08618,37.4846],[127.08644,37.48463]]}},{"type":"Feature","properties":{"class":"alley","highway":"service","sidewalk":"unknown","lanes":2,"name":"","oneway":false},"geometry":{"type":"LineString","coordinates":[[127.08564,37.48452],[127.08552,37.48501],[127.08547,37.48521],[127.08586,37.48525],[127.08591,37.48506],[127.08552,37.48501]]}},{"type":"Feature","properties":{"class":"alley","highway":"service","sidewalk":"unknown","lanes":2,"name":"","oneway":false},"geometry":{"type":"LineString","coordinates":[[127.08547,37.48521],[127.08531,37.48521],[127.08519,37.48521],[127.08433,37.48509],[127.08381,37.48502],[127.08378,37.48516],[127.08514,37.48536],[127.08519,37.48521]]}},{"type":"Feature","properties":{"class":"alley","highway":"service","sidewalk":"unknown","lanes":2,"name":"","oneway":false},"geometry":{"type":"LineString","coordinates":[[127.08618,37.4846],[127.08625,37.4843],[127.08623,37.48425],[127.08619,37.48422],[127.0861,37.4842],[127.08595,37.48418],[127.08541,37.4841],[127.08544,37.48397],[127.08613,37.48408],[127.0861,37.4842]]}},{"type":"Feature","properties":{"class":"minor","highway":"residential","sidewalk":"unknown","lanes":0,"name":"광평로10길","oneway":false},"geometry":{"type":"LineString","coordinates":[[127.08015,37.48168],[127.07954,37.48158],[127.07917,37.48153],[127.07686,37.4812]]}},{"type":"Feature","properties":{"class":"minor","highway":"residential","sidewalk":"unknown","lanes":0,"name":"광평로10길","oneway":false},"geometry":{"type":"LineString","coordinates":[[127.08015,37.48168],[127.08034,37.4814],[127.08052,37.48118],[127.08073,37.48103],[127.08101,37.48099],[127.08127,37.48095],[127.08183,37.48102],[127.08221,37.48108],[127.0827,37.48115],[127.08356,37.48128]]}},{"type":"Feature","properties":{"class":"minor","highway":"residential","sidewalk":"unknown","lanes":0,"name":"","oneway":false},"geometry":{"type":"LineString","coordinates":[[127.09973,37.49069],[127.09955,37.49065]]}},{"type":"Feature","properties":{"class":"minor","highway":"residential","sidewalk":"unknown","lanes":0,"name":"","oneway":false},"geometry":{"type":"LineString","coordinates":[[127.09955,37.49065],[127.09963,37.49046]]}},{"type":"Feature","properties":{"class":"minor","highway":"residential","sidewalk":"unknown","lanes":0,"name":"","oneway":false},"geometry":{"type":"LineString","coordinates":[[127.09984,37.4902],[127.09992,37.49003]]}},{"type":"Feature","properties":{"class":"major","highway":"primary","sidewalk":"yes","lanes":0,"name":"광평로","oneway":false},"geometry":{"type":"LineString","coordinates":[[127.08665,37.48369],[127.08792,37.48385],[127.09076,37.48427],[127.09111,37.48433],[127.09146,37.48438],[127.0917,37.4844],[127.09195,37.48443],[127.09219,37.48444],[127.09247,37.48444],[127.09299,37.48443],[127.09317,37.48442],[127.09365,37.48441],[127.09398,37.4844],[127.0946,37.48438]]}},{"type":"Feature","properties":{"class":"major","highway":"tertiary","sidewalk":"likely","lanes":0,"name":"일원로","oneway":false},"geometry":{"type":"LineString","coordinates":[[127.08279,37.4867],[127.08275,37.48681]]}},{"type":"Feature","properties":{"class":"alley","highway":"service","sidewalk":"unknown","lanes":0,"name":"","oneway":true},"geometry":{"type":"LineString","coordinates":[[127.0841,37.48857],[127.08392,37.48852]]}},{"type":"Feature","properties":{"class":"alley","highway":"service","sidewalk":"unknown","lanes":0,"name":"","oneway":false},"geometry":{"type":"LineString","coordinates":[[127.08406,37.48869],[127.08565,37.48915],[127.08628,37.48936],[127.08683,37.48952],[127.08704,37.48963],[127.08708,37.48973],[127.08811,37.49021]]}},{"type":"Feature","properties":{"class":"alley","highway":"service","sidewalk":"unknown","lanes":0,"name":"","oneway":false},"geometry":{"type":"LineString","coordinates":[[127.08811,37.49021],[127.08865,37.49044],[127.08881,37.4905],[127.08899,37.49053],[127.08915,37.49046],[127.08924,37.49037],[127.08932,37.49013],[127.08933,37.49002],[127.08937,37.48988],[127.0895,37.48961],[127.08969,37.48957],[127.08985,37.48962],[127.08995,37.48968],[127.08994,37.48976],[127.08986,37.48994]]}},{"type":"Feature","properties":{"class":"major","highway":"tertiary","sidewalk":"likely","lanes":0,"name":"개포로","oneway":false},"geometry":{"type":"LineString","coordinates":[[127.07956,37.49364],[127.07972,37.49369],[127.0808,37.49406],[127.08117,37.49417],[127.08227,37.49454],[127.08235,37.49456],[127.08251,37.49461],[127.08272,37.49468],[127.08421,37.49515],[127.08429,37.49517],[127.08565,37.49564],[127.08581,37.4957],[127.08603,37.49577],[127.08716,37.49611],[127.08795,37.49638]]}},{"type":"Feature","properties":{"class":"major","highway":"primary","sidewalk":"likely","lanes":0,"name":"광평로","oneway":false},"geometry":{"type":"LineString","coordinates":[[127.0799,37.4827],[127.08386,37.48328]]}},{"type":"Feature","properties":{"class":"major","highway":"primary","sidewalk":"yes","lanes":0,"name":"광평로","oneway":false},"geometry":{"type":"LineString","coordinates":[[127.0946,37.48438],[127.0953,37.48436],[127.09554,37.48438],[127.09576,37.48442],[127.0959,37.48446],[127.09612,37.48452],[127.09622,37.48457],[127.09635,37.48463],[127.09644,37.48468],[127.09655,37.48474],[127.09668,37.48481],[127.09681,37.4849],[127.09693,37.48499],[127.09702,37.48506],[127.09711,37.48513],[127.09732,37.48528],[127.0974,37.48533],[127.09775,37.48558],[127.09794,37.48572],[127.09817,37.48588],[127.09835,37.48602],[127.09853,37.48615],[127.0987,37.48627],[127.09885,37.48636],[127.099,37.48647],[127.09914,37.48654],[127.09941,37.48667],[127.09965,37.48676],[127.09983,37.48681],[127.10019,37.48692],[127.10035,37.48697],[127.10074,37.48707],[127.10117,37.48719],[127.10169,37.48734]]}},{"type":"Feature","properties":{"class":"major","highway":"primary","sidewalk":"likely","lanes":0,"name":"남부순환로","oneway":true},"geometry":{"type":"LineString","coordinates":[[127.09709,37.49302],[127.09671,37.49357],[127.09657,37.49372],[127.09633,37.49393],[127.09608,37.49413],[127.09578,37.49433],[127.09543,37.49449],[127.09511,37.49464]]}},{"type":"Feature","properties":{"class":"major","highway":"primary","sidewalk":"likely","lanes":0,"name":"양재대로","oneway":true},"geometry":{"type":"LineString","coordinates":[[127.07873,37.48768],[127.07992,37.48808],[127.08076,37.48835],[127.08187,37.48868]]}},{"type":"Feature","properties":{"class":"major","highway":"primary","sidewalk":"likely","lanes":0,"name":"양재대로","oneway":true},"geometry":{"type":"LineString","coordinates":[[127.09368,37.49191],[127.09439,37.492],[127.09602,37.49221],[127.09697,37.49236]]}},{"type":"Feature","properties":{"class":"major","highway":"primary","sidewalk":"likely","lanes":0,"name":"밤고개로","oneway":true},"geometry":{"type":"LineString","coordinates":[[127.09833,37.49068],[127.09868,37.49009],[127.09886,37.48984],[127.09907,37.48958],[127.09935,37.48932]]}},{"type":"Feature","properties":{"class":"major","highway":"primary","sidewalk":"likely","lanes":8,"name":"밤고개로","oneway":false},"geometry":{"type":"LineString","coordinates":[[127.10169,37.48734],[127.10144,37.48751],[127.10133,37.48759],[127.10074,37.48808],[127.09935,37.48932]]}},{"type":"Feature","properties":{"class":"major","highway":"tertiary","sidewalk":"likely","lanes":4,"name":"일원로","oneway":false},"geometry":{"type":"LineString","coordinates":[[127.08077,37.49102],[127.08067,37.49121],[127.0796,37.49356],[127.07956,37.49364]]}},{"type":"Feature","properties":{"class":"minor","highway":"residential","sidewalk":"unknown","lanes":0,"name":"양재대로55길","oneway":false},"geometry":{"type":"LineString","coordinates":[[127.08829,37.49077],[127.08835,37.49063]]}},{"type":"Feature","properties":{"class":"major","highway":"trunk","sidewalk":"likely","lanes":3,"name":"분당수서로","oneway":true},"geometry":{"type":"LineString","coordinates":[[127.09959,37.49327],[127.09787,37.49402],[127.09723,37.49425],[127.09646,37.49451],[127.08893,37.49705],[127.08633,37.49792]]}},{"type":"Feature","properties":{"class":"major","highway":"primary_link","sidewalk":"likely","lanes":0,"name":"","oneway":true},"geometry":{"type":"LineString","coordinates":[[127.09586,37.49251],[127.09516,37.49231]]}},{"type":"Feature","properties":{"class":"major","highway":"primary","sidewalk":"likely","lanes":0,"name":"양재대로","oneway":true},"geometry":{"type":"LineString","coordinates":[[127.09516,37.49231],[127.09429,37.49218],[127.09234,37.49185],[127.09154,37.49169],[127.09057,37.49145],[127.08895,37.49097],[127.08829,37.49077]]}},{"type":"Feature","properties":{"class":"major","highway":"primary_link","sidewalk":"likely","lanes":1,"name":"","oneway":true},"geometry":{"type":"LineString","coordinates":[[127.09797,37.49249],[127.09829,37.49244],[127.09851,37.49238],[127.09866,37.49225],[127.09871,37.49212],[127.0987,37.49201],[127.09863,37.49189],[127.09851,37.4918],[127.0984,37.49178],[127.09826,37.49178],[127.0981,37.49181],[127.0979,37.49193],[127.09761,37.4922]]}},{"type":"Feature","properties":{"class":"minor","highway":"residential","sidewalk":"unknown","lanes":0,"name":"가락로3길","oneway":true},"geometry":{"type":"LineString","coordinates":[[127.09879,37.4988],[127.10042,37.49933]]}},{"type":"Feature","properties":{"class":"minor","highway":"residential","sidewalk":"unknown","lanes":0,"name":"삼학사로6길","oneway":true},"geometry":{"type":"LineString","coordinates":[[127.09878,37.49967],[127.09729,37.4996],[127.09677,37.4996]]}},{"type":"Feature","properties":{"class":"minor","highway":"residential","sidewalk":"unknown","lanes":0,"name":"삼학사로3길","oneway":true},"geometry":{"type":"LineString","coordinates":[[127.09675,37.49928],[127.09662,37.49929],[127.09616,37.49931],[127.09515,37.49938],[127.09493,37.49939],[127.09476,37.4994]]}},{"type":"Feature","properties":{"class":"minor","highway":"residential","sidewalk":"unknown","lanes":0,"name":"백제고분로32길","oneway":false},"geometry":{"type":"LineString","coordinates":[[127.09474,37.49929],[127.09468,37.49878],[127.09462,37.49837],[127.09452,37.49794],[127.09449,37.49789]]}},{"type":"Feature","properties":{"class":"minor","highway":"residential","sidewalk":"unknown","lanes":0,"name":"삼학사로3길","oneway":false},"geometry":{"type":"LineString","coordinates":[[127.09315,37.49963],[127.09474,37.49929]]}},{"type":"Feature","properties":{"class":"minor","highway":"residential","sidewalk":"unknown","lanes":0,"name":"백제고분로32길","oneway":false},"geometry":{"type":"LineString","coordinates":[[127.09529,37.50242],[127.09528,37.50236],[127.0952,37.50194],[127.09513,37.50158],[127.09506,37.50121],[127.09501,37.50085],[127.09495,37.50048],[127.09487,37.50011],[127.09482,37.49974],[127.09476,37.4994],[127.09474,37.49929]]}},{"type":"Feature","properties":{"class":"minor","highway":"residential","sidewalk":"unknown","lanes":0,"name":"삼학사로9길","oneway":true},"geometry":{"type":"LineString","coordinates":[[127.09625,37.50041],[127.09624,37.50004],[127.09619,37.49968],[127.09616,37.49931]]}},{"type":"Feature","properties":{"class":"minor","highway":"residential","sidewalk":"unknown","lanes":0,"name":"백제고분로32길","oneway":true},"geometry":{"type":"LineString","coordinates":[[127.09325,37.49999],[127.09482,37.49974],[127.09619,37.49968]]}},{"type":"Feature","properties":{"class":"minor","highway":"residential","sidewalk":"unknown","lanes":0,"name":"백제고분로32길","oneway":true},"geometry":{"type":"LineString","coordinates":[[127.09315,37.49963],[127.09325,37.49999],[127.09336,37.50036],[127.09347,37.50072],[127.09359,37.50108],[127.0937,37.50143],[127.09382,37.50179],[127.09394,37.50215],[127.0952,37.50194]]}},{"type":"Feature","properties":{"class":"minor","highway":"residential","sidewalk":"unknown","lanes":0,"name":"백제고분로28길","oneway":true},"geometry":{"type":"LineString","coordinates":[[127.09163,37.50123],[127.09171,37.50121],[127.09303,37.50082],[127.09291,37.50047],[127.09281,37.50012],[127.0927,37.49974]]}},{"type":"Feature","properties":{"class":"minor","highway":"residential","sidewalk":"unknown","lanes":0,"name":"백제고분로28길","oneway":true},"geometry":{"type":"LineString","coordinates":[[127.09102,37.49983],[127.09258,37.49938]]}},{"type":"Feature","properties":{"class":"minor","highway":"residential","sidewalk":"unknown","lanes":0,"name":"백제고분로28길","oneway":true},"geometry":{"type":"LineString","coordinates":[[127.09258,37.49938],[127.09247,37.49907],[127.09088,37.49953]]}},{"type":"Feature","properties":{"class":"minor","highway":"residential","sidewalk":"unknown","lanes":0,"name":"백제고분로28길","oneway":true},"geometry":{"type":"LineString","coordinates":[[127.09102,37.49983],[127.08976,37.50019],[127.0893,37.50031]]}},{"type":"Feature","properties":{"class":"minor","highway":"residential","sidewalk":"unknown","lanes":0,"name":"삼학사로3길","oneway":true},"geometry":{"type":"LineString","coordinates":[[127.0927,37.49974],[127.09117,37.50018]]}},{"type":"Feature","properties":{"class":"major","highway":"tertiary","sidewalk":"likely","lanes":0,"name":"삼학사로1길","oneway":true},"geometry":{"type":"LineString","coordinates":[[127.09657,37.4972],[127.09644,37.49728],[127.09625,37.49734],[127.09544,37.49763],[127.09452,37.49794],[127.09278,37.49854],[127.09082,37.49921],[127.09073,37.49921]]}},{"type":"Feature","properties":{"class":"major","highway":"tertiary","sidewalk":"yes","lanes":4,"name":"삼학사로","oneway":false},"geometry":{"type":"LineString","coordinates":[[127.09657,37.4972],[127.0966,37.49749],[127.09661,37.49772],[127.09665,37.4981],[127.09667,37.49833],[127.09674,37.49919],[127.09675,37.49928],[127.09677,37.4996],[127.09681,37.49999],[127.09684,37.50036],[127.09692,37.50151],[127.09694,37.50187],[127.09696,37.50219],[127.09698,37.50238]]}},{"type":"Feature","properties":{"class":"minor","highway":"residential","sidewalk":"unknown","lanes":0,"name":"삼학사로2길","oneway":false},"geometry":{"type":"LineString","coordinates":[[127.09744,37.4969],[127.09749,37.49692],[127.09754,37.49691],[127.09762,37.49689],[127.09796,37.49673],[127.099,37.49635],[127.09999,37.49598],[127.10062,37.49572],[127.10107,37.49549],[127.10178,37.49517],[127.10205,37.49504]]}},{"type":"Feature","properties":{"class":"minor","highway":"residential","sidewalk":"unknown","lanes":0,"name":"백제고분로28길","oneway":false},"geometry":{"type":"LineString","coordinates":[[127.09073,37.49921],[127.09088,37.49953],[127.09102,37.49983],[127.09117,37.50018],[127.09132,37.50053],[127.09148,37.50088],[127.09161,37.50118],[127.09163,37.50123],[127.09165,37.50128],[127.09167,37.50131],[127.09178,37.50157],[127.09193,37.50191],[127.0921,37.50228],[127.09226,37.50262],[127.0924,37.50291],[127.09243,37.50298],[127.09247,37.50308]]}},{"type":"Feature","properties":{"class":"major","highway":"tertiary","sidewalk":"likely","lanes":0,"name":"삼학사로1길","oneway":true},"geometry":{"type":"LineString","coordinates":[[127.09073,37.49921],[127.09079,37.49916],[127.09275,37.49848],[127.09449,37.49789],[127.09544,37.49756],[127.09634,37.49725],[127.09657,37.4972]]}},{"type":"Feature","properties":{"class":"minor","highway":"residential","sidewalk":"unknown","lanes":0,"name":"가락로2길","oneway":true},"geometry":{"type":"LineString","coordinates":[[127.1006,37.49856],[127.09879,37.49798],[127.09755,37.49759],[127.09714,37.49747]]}},{"type":"Feature","properties":{"class":"minor","highway":"residential","sidewalk":"unknown","lanes":0,"name":"","oneway":true},"geometry":{"type":"LineString","coordinates":[[127.09948,37.48647],[127.09981,37.48661],[127.09998,37.48666],[127.10018,37.48669],[127.10039,37.48671],[127.10126,37.48674],[127.10166,37.48675],[127.102,37.48669],[127.10217,37.48664],[127.10229,37.48662],[127.10248,37.48659]]}},{"type":"Feature","properties":{"class":"major","highway":"primary","sidewalk":"likely","lanes":0,"name":"남부순환로","oneway":true},"geometry":{"type":"LineString","coordinates":[[127.08117,37.49915],[127.08077,37.49927],[127.08048,37.49935],[127.08001,37.49942],[127.07956,37.49938]]}},{"type":"Feature","properties":{"class":"major","highway":"primary_link","sidewalk":"likely","lanes":0,"name":"","oneway":true},"geometry":{"type":"LineString","coordinates":[[127.0843,37.49824],[127.08326,37.49861],[127.08118,37.49926],[127.08103,37.49927],[127.08085,37.49929],[127.08074,37.4993],[127.08063,37.49932],[127.08055,37.49935],[127.08048,37.49939],[127.08043,37.49947],[127.08039,37.49954],[127.08032,37.49966]]}},{"type":"Feature","properties":{"class":"major","highway":"primary_link","sidewalk":"likely","lanes":0,"name":"","oneway":true},"geometry":{"type":"LineString","coordinates":[[127.08118,37.49926],[127.08089,37.49935],[127.08082,37.49937],[127.08077,37.4994],[127.08076,37.49943],[127.08076,37.49947],[127.08078,37.49951],[127.08088,37.49969]]}},{"type":"Feature","properties":{"class":"major","highway":"primary_link","sidewalk":"likely","lanes":0,"name":"","oneway":true},"geometry":{"type":"LineString","coordinates":[[127.08118,37.49926],[127.08107,37.49925],[127.08104,37.49923],[127.08103,37.49922],[127.08103,37.49918],[127.08106,37.49915],[127.08109,37.49912],[127.08129,37.49901]]}},{"type":"Feature","properties":{"class":"major","highway":"primary_link","sidewalk":"likely","lanes":0,"name":"","oneway":true},"geometry":{"type":"LineString","coordinates":[[127.08019,37.49963],[127.08027,37.4995],[127.0804,37.49933],[127.08046,37.49928],[127.08052,37.49925],[127.0806,37.49921],[127.08071,37.49917],[127.08129,37.49901]]}},{"type":"Feature","properties":{"class":"major","highway":"primary","sidewalk":"likely","lanes":0,"name":"밤고개로","oneway":true},"geometry":{"type":"LineString","coordinates":[[127.09787,37.49173],[127.09761,37.4922]]}},{"type":"Feature","properties":{"class":"major","highway":"primary","sidewalk":"likely","lanes":0,"name":"남부순환로","oneway":true},"geometry":{"type":"LineString","coordinates":[[127.0744,37.49779],[127.07447,37.49781],[127.07904,37.49911],[127.07948,37.49915],[127.08012,37.49918],[127.08043,37.49916],[127.08083,37.4991],[127.08129,37.49901],[127.0831,37.49844],[127.08418,37.49812],[127.08469,37.49796],[127.08804,37.49681],[127.08911,37.49645],[127.09093,37.49586],[127.09505,37.49449]]}},{"type":"Feature","properties":{"class":"major","highway":"primary","sidewalk":"likely","lanes":0,"name":"양재대로","oneway":true},"geometry":{"type":"LineString","coordinates":[[127.08187,37.48868],[127.08539,37.48977],[127.08725,37.49031],[127.08835,37.49063]]}},{"type":"Feature","properties":{"class":"major","highway":"tertiary","sidewalk":"likely","lanes":0,"name":"일원로","oneway":false},"geometry":{"type":"LineString","coordinates":[[127.08181,37.48881],[127.08167,37.48909],[127.08155,37.48933],[127.08112,37.49022],[127.08094,37.49065],[127.08077,37.49102]]}},{"type":"Feature","properties":{"class":"minor","highway":"residential","sidewalk":"unknown","lanes":0,"name":"일원로8길","oneway":false},"geometry":{"type":"LineString","coordinates":[[127.07739,37.4893],[127.07787,37.48953],[127.07834,37.48973],[127.08112,37.49022]]}},{"type":"Feature","properties":{"class":"alley","highway":"service","sidewalk":"unknown","lanes":0,"name":"","oneway":false},"geometry":{"type":"LineString","coordinates":[[127.08095,37.48241],[127.08101,37.48214],[127.08106,37.4819]]}},{"type":"Feature","properties":{"class":"alley","highway":"service","sidewalk":"unknown","lanes":0,"name":"","oneway":false},"geometry":{"type":"LineString","coordinates":[[127.0803,37.48204],[127.08101,37.48214]]}},{"type":"Feature","properties":{"class":"alley","highway":"service","sidewalk":"unknown","lanes":0,"name":"","oneway":false},"geometry":{"type":"LineString","coordinates":[[127.0813,37.48219],[127.08295,37.48243]]}},{"type":"Feature","properties":{"class":"alley","highway":"service","sidewalk":"unknown","lanes":0,"name":"","oneway":false},"geometry":{"type":"LineString","coordinates":[[127.08095,37.48241],[127.0829,37.48267]]}},{"type":"Feature","properties":{"class":"alley","highway":"service","sidewalk":"unknown","lanes":0,"name":"","oneway":false},"geometry":{"type":"LineString","coordinates":[[127.09918,37.48241],[127.09916,37.48235],[127.09917,37.4822],[127.09919,37.48212],[127.09934,37.48206],[127.0995,37.48197],[127.09977,37.4818],[127.0998,37.48173],[127.0998,37.4816],[127.09983,37.48155],[127.09989,37.48152]]}},{"type":"Feature","properties":{"class":"alley","highway":"service","sidewalk":"unknown","lanes":0,"name":"","oneway":false},"geometry":{"type":"LineString","coordinates":[[127.08853,37.48016],[127.08886,37.48],[127.08892,37.47988]]}},{"type":"Feature","properties":{"class":"alley","highway":"service","sidewalk":"unknown","lanes":0,"name":"","oneway":false},"geometry":{"type":"LineString","coordinates":[[127.08792,37.48385],[127.08796,37.48361],[127.088,37.4834],[127.0882,37.48342],[127.08816,37.48363],[127.08796,37.48361]]}},{"type":"Feature","properties":{"class":"major","highway":"primary","sidewalk":"likely","lanes":0,"name":"남부순환로","oneway":true},"geometry":{"type":"LineString","coordinates":[[127.09511,37.49464],[127.09359,37.49516],[127.091,37.49599],[127.0867,37.49741],[127.0843,37.49824],[127.08314,37.49856],[127.0813,37.49912],[127.08117,37.49915]]}},{"type":"Feature","properties":{"class":"major","highway":"primary","sidewalk":"likely","lanes":0,"name":"남부순환로","oneway":true},"geometry":{"type":"LineString","coordinates":[[127.09505,37.49449],[127.09542,37.49433],[127.09565,37.49421],[127.09586,37.49407],[127.09608,37.4939],[127.09617,37.49382],[127.09631,37.4937],[127.09652,37.49346],[127.0966,37.49334]]}},{"type":"Feature","properties":{"class":"minor","highway":"residential","sidewalk":"unknown","lanes":0,"name":"","oneway":false},"geometry":{"type":"LineString","coordinates":[[127.09809,37.4856],[127.09794,37.48572]]}},{"type":"Feature","properties":{"class":"minor","highway":"residential","sidewalk":"unknown","lanes":0,"name":"","oneway":false},"geometry":{"type":"LineString","coordinates":[[127.09841,37.48539],[127.09815,37.48564]]}},{"type":"Feature","properties":{"class":"alley","highway":"living_street","sidewalk":"unknown","lanes":0,"name":"개포로138길","oneway":false},"geometry":{"type":"LineString","coordinates":[[127.08513,37.49332],[127.08581,37.49355],[127.08624,37.4937]]}},{"type":"Feature","properties":{"class":"minor","highway":"residential","sidewalk":"unknown","lanes":0,"name":"광평로34길","oneway":false},"geometry":{"type":"LineString","coordinates":[[127.09457,37.48241],[127.09524,37.48241],[127.09611,37.48241],[127.09616,37.48241],[127.09624,37.48241],[127.09624,37.48308],[127.09596,37.48308],[127.09596,37.48283],[127.09526,37.48283],[127.09488,37.48283]]}},{"type":"Feature","properties":{"class":"minor","highway":"residential","sidewalk":"unknown","lanes":0,"name":"밤고개로12길","oneway":false},"geometry":{"type":"LineString","coordinates":[[127.0999,37.48199],[127.09989,37.48156],[127.09989,37.48152],[127.09989,37.48123],[127.0999,37.48121],[127.09991,37.4812]]}},{"type":"Feature","properties":{"class":"alley","highway":"service","sidewalk":"unknown","lanes":0,"name":"","oneway":false},"geometry":{"type":"LineString","coordinates":[[127.08659,37.49197],[127.08703,37.49211]]}},{"type":"Feature","properties":{"class":"alley","highway":"living_street","sidewalk":"unknown","lanes":0,"name":"양재대로51길","oneway":false},"geometry":{"type":"LineString","coordinates":[[127.08622,37.49165],[127.08669,37.49178]]}},{"type":"Feature","properties":{"class":"alley","highway":"living_street","sidewalk":"unknown","lanes":0,"name":"","oneway":false},"geometry":{"type":"LineString","coordinates":[[127.08527,37.49158],[127.08568,37.4917]]}},{"type":"Feature","properties":{"class":"alley","highway":"service","sidewalk":"unknown","lanes":0,"name":"","oneway":false},"geometry":{"type":"LineString","coordinates":[[127.08453,37.4911],[127.08496,37.49123]]}},{"type":"Feature","properties":{"class":"alley","highway":"service","sidewalk":"unknown","lanes":0,"name":"양재대로39길","oneway":false},"geometry":{"type":"LineString","coordinates":[[127.08411,37.49097],[127.08453,37.4911]]}},{"type":"Feature","properties":{"class":"minor","highway":"residential","sidewalk":"unknown","lanes":0,"name":"양재대로35길","oneway":false},"geometry":{"type":"LineString","coordinates":[[127.08337,37.49051],[127.08377,37.49064]]}},{"type":"Feature","properties":{"class":"alley","highway":"service","sidewalk":"unknown","lanes":0,"name":"","oneway":false},"geometry":{"type":"LineString","coordinates":[[127.08897,37.49187],[127.08885,37.49224],[127.08872,37.49259],[127.08834,37.49336],[127.08987,37.49385]]}},{"type":"Feature","properties":{"class":"alley","highway":"service","sidewalk":"unknown","lanes":0,"name":"","oneway":false},"geometry":{"type":"LineString","coordinates":[[127.09118,37.49257],[127.09115,37.49283],[127.09156,37.49296]]}},{"type":"Feature","properties":{"class":"alley","highway":"service","sidewalk":"unknown","lanes":0,"name":"","oneway":false},"geometry":{"type":"LineString","coordinates":[[127.08843,37.4917],[127.08863,37.4913]]}},{"type":"Feature","properties":{"class":"alley","highway":"service","sidewalk":"unknown","lanes":0,"name":"","oneway":false},"geometry":{"type":"LineString","coordinates":[[127.08895,37.49097],[127.08875,37.49106],[127.08844,37.49097]]}},{"type":"Feature","properties":{"class":"alley","highway":"service","sidewalk":"unknown","lanes":0,"name":"","oneway":false},"geometry":{"type":"LineString","coordinates":[[127.07822,37.4916],[127.0793,37.49179],[127.08005,37.49193]]}},{"type":"Feature","properties":{"class":"alley","highway":"service","sidewalk":"unknown","lanes":0,"name":"","oneway":false},"geometry":{"type":"LineString","coordinates":[[127.07847,37.49145],[127.0791,37.49157],[127.0801,37.49175]]}},{"type":"Feature","properties":{"class":"alley","highway":"service","sidewalk":"unknown","lanes":0,"name":"","oneway":false},"geometry":{"type":"LineString","coordinates":[[127.07927,37.49105],[127.0801,37.49122]]}},{"type":"Feature","properties":{"class":"alley","highway":"service","sidewalk":"unknown","lanes":0,"name":"","oneway":false},"geometry":{"type":"LineString","coordinates":[[127.0792,37.49126],[127.08003,37.4914]]}},{"type":"Feature","properties":{"class":"alley","highway":"service","sidewalk":"unknown","lanes":0,"name":"","oneway":false},"geometry":{"type":"LineString","coordinates":[[127.08865,37.49072],[127.08861,37.49048],[127.08717,37.49004],[127.08695,37.48991],[127.08708,37.48973]]}},{"type":"Feature","properties":{"class":"alley","highway":"service","sidewalk":"unknown","lanes":0,"name":"","oneway":false},"geometry":{"type":"LineString","coordinates":[[127.08695,37.48991],[127.08673,37.48984],[127.08552,37.48968],[127.08539,37.48977]]}},{"type":"Feature","properties":{"class":"minor","highway":"unclassified","sidewalk":"unknown","lanes":0,"name":"","oneway":false},"geometry":{"type":"LineString","coordinates":[[127.08076,37.48835],[127.08081,37.48812],[127.08117,37.48768],[127.08121,37.4875],[127.08068,37.48737]]}},{"type":"Feature","properties":{"class":"alley","highway":"service","sidewalk":"unknown","lanes":0,"name":"","oneway":false},"geometry":{"type":"LineString","coordinates":[[127.08766,37.48067],[127.08756,37.4806],[127.08729,37.48028],[127.08731,37.48021],[127.08812,37.47978]]}},{"type":"Feature","properties":{"class":"alley","highway":"service","sidewalk":"unknown","lanes":0,"name":"","oneway":false},"geometry":{"type":"LineString","coordinates":[[127.08729,37.48028],[127.0872,37.48028],[127.08701,37.48039],[127.08713,37.48054]]}},{"type":"Feature","properties":{"class":"minor","highway":"residential","sidewalk":"unknown","lanes":0,"name":"","oneway":false},"geometry":{"type":"LineString","coordinates":[[127.09527,37.48307],[127.09526,37.48283],[127.09524,37.48241]]}},{"type":"Feature","properties":{"class":"alley","highway":"service","sidewalk":"unknown","lanes":0,"name":"","oneway":false},"geometry":{"type":"LineString","coordinates":[[127.09554,37.48438],[127.0954,37.48478]]}},{"type":"Feature","properties":{"class":"major","highway":"primary","sidewalk":"likely","lanes":0,"name":"양재대로","oneway":true},"geometry":{"type":"LineString","coordinates":[[127.10012,37.49316],[127.10007,37.49315],[127.09982,37.49307]]}},{"type":"Feature","properties":{"class":"major","highway":"trunk","sidewalk":"likely","lanes":3,"name":"분당수서로","oneway":true},"geometry":{"type":"LineString","coordinates":[[127.10038,37.4929],[127.09959,37.49327]]}},{"type":"Feature","properties":{"class":"major","highway":"trunk","sidewalk":"likely","lanes":3,"name":"분당수서로","oneway":true},"geometry":{"type":"LineString","coordinates":[[127.09953,37.49318],[127.1003,37.49281]]}},{"type":"Feature","properties":{"class":"major","highway":"tertiary","sidewalk":"likely","lanes":0,"name":"일원로","oneway":false},"geometry":{"type":"LineString","coordinates":[[127.08334,37.48549],[127.08297,37.48631],[127.08279,37.4867]]}},{"type":"Feature","properties":{"class":"major","highway":"primary","sidewalk":"likely","lanes":0,"name":"광평로","oneway":false},"geometry":{"type":"LineString","coordinates":[[127.08386,37.48328],[127.0841,37.48332],[127.08528,37.48349],[127.08665,37.48369]]}},{"type":"Feature","properties":{"class":"major","highway":"primary","sidewalk":"likely","lanes":0,"name":"양재대로","oneway":true},"geometry":{"type":"LineString","coordinates":[[127.08181,37.48881],[127.0814,37.48869],[127.07988,37.48826],[127.07889,37.48791]]}},{"type":"Feature","properties":{"class":"major","highway":"tertiary","sidewalk":"likely","lanes":0,"name":"일원로","oneway":false},"geometry":{"type":"LineString","coordinates":[[127.08187,37.48868],[127.08181,37.48881]]}},{"type":"Feature","properties":{"class":"alley","highway":"pedestrian","sidewalk":"unknown","lanes":0,"name":"","oneway":false},"geometry":{"type":"LineString","coordinates":[[127.08165,37.485],[127.0823,37.48509]]}},{"type":"Feature","properties":{"class":"minor","highway":"residential","sidewalk":"unknown","lanes":0,"name":"","oneway":false},"geometry":{"type":"LineString","coordinates":[[127.08224,37.48534],[127.0823,37.48509],[127.08243,37.48497],[127.08247,37.48492],[127.08253,37.48467],[127.08247,37.48461],[127.08267,37.48379],[127.08284,37.48381],[127.08322,37.48385],[127.08326,37.48367],[127.08339,37.48366],[127.08376,37.4837]]}},{"type":"Feature","properties":{"class":"minor","highway":"residential","sidewalk":"unknown","lanes":0,"name":"","oneway":false},"geometry":{"type":"LineString","coordinates":[[127.08326,37.48367],[127.08287,37.48365],[127.08284,37.48381]]}},{"type":"Feature","properties":{"class":"minor","highway":"residential","sidewalk":"unknown","lanes":0,"name":"","oneway":false},"geometry":{"type":"LineString","coordinates":[[127.08243,37.48497],[127.08264,37.485],[127.0829,37.48504],[127.08296,37.48477],[127.08271,37.48473],[127.08264,37.485]]}},{"type":"Feature","properties":{"class":"minor","highway":"residential","sidewalk":"unknown","lanes":0,"name":"","oneway":false},"geometry":{"type":"LineString","coordinates":[[127.0829,37.48504],[127.083,37.48516],[127.08313,37.48517],[127.0831,37.48532]]}},{"type":"Feature","properties":{"class":"major","highway":"primary","sidewalk":"likely","lanes":0,"name":"남부순환로","oneway":true},"geometry":{"type":"LineString","coordinates":[[127.09687,37.49295],[127.09763,37.49181]]}},{"type":"Feature","properties":{"class":"major","highway":"primary","sidewalk":"likely","lanes":0,"name":"남부순환로","oneway":true},"geometry":{"type":"LineString","coordinates":[[127.0966,37.49334],[127.09668,37.49323],[127.09679,37.49309],[127.09687,37.49295]]}},{"type":"Feature","properties":{"class":"alley","highway":"service","sidewalk":"unknown","lanes":0,"name":"","oneway":false},"geometry":{"type":"LineString","coordinates":[[127.08617,37.4956],[127.0873,37.49597],[127.08865,37.49637],[127.08934,37.49611]]}},{"type":"Feature","properties":{"class":"alley","highway":"service","sidewalk":"unknown","lanes":0,"name":"","oneway":false},"geometry":{"type":"LineString","coordinates":[[127.08715,37.4963],[127.08727,37.49603]]}},{"type":"Feature","properties":{"class":"alley","highway":"service","sidewalk":"unknown","lanes":0,"name":"","oneway":false},"geometry":{"type":"LineString","coordinates":[[127.08727,37.49603],[127.0873,37.49597]]}},{"type":"Feature","properties":{"class":"alley","highway":"service","sidewalk":"unknown","lanes":0,"name":"","oneway":false},"geometry":{"type":"LineString","coordinates":[[127.07524,37.47745],[127.07529,37.47755],[127.0753,37.47767],[127.07539,37.47782],[127.07546,37.47789],[127.07559,37.47786],[127.07571,37.47784],[127.07582,37.47788],[127.07589,37.47795],[127.07594,37.47809],[127.07616,37.47832],[127.07627,37.47851],[127.07632,37.47864],[127.07641,37.47872],[127.07689,37.47895],[127.07712,37.47913],[127.07751,37.47935],[127.07752,37.47935],[127.07766,37.4794],[127.07779,37.47944],[127.07793,37.47945],[127.07804,37.47947],[127.07815,37.4795],[127.07826,37.47949],[127.07838,37.4795],[127.07846,37.47942],[127.07858,37.47941],[127.07872,37.4794],[127.07878,37.4794],[127.07885,37.47942],[127.07889,37.47944],[127.07893,37.47945],[127.07904,37.47942],[127.07917,37.47946],[127.07928,37.47946],[127.07941,37.47949],[127.07952,37.47955],[127.07964,37.47957],[127.07974,37.47952],[127.07976,37.47945],[127.07988,37.47945],[127.08,37.47951],[127.08012,37.47957],[127.08025,37.47961],[127.08041,37.47969],[127.08047,37.47969],[127.08056,37.47981],[127.08061,37.4799],[127.08067,37.47999],[127.08071,37.48009],[127.08074,37.48018],[127.08079,37.4803],[127.08089,37.48041],[127.08101,37.48043],[127.08102,37.48056],[127.08101,37.48099]]}},{"type":"Feature","properties":{"class":"major","highway":"tertiary","sidewalk":"no","lanes":3,"name":"탄천동로","oneway":false},"geometry":{"type":"LineString","coordinates":[[127.10233,37.49471],[127.10082,37.49538],[127.10031,37.49559],[127.09893,37.49616]]}},{"type":"Feature","properties":{"class":"alley","highway":"service","sidewalk":"unknown","lanes":0,"name":"","oneway":true},"geometry":{"type":"LineString","coordinates":[[127.08823,37.4944],[127.08816,37.49455],[127.08709,37.49421],[127.08716,37.49407]]}},{"type":"Feature","properties":{"class":"alley","highway":"service","sidewalk":"unknown","lanes":0,"name":"","oneway":true},"geometry":{"type":"LineString","coordinates":[[127.08722,37.49395],[127.08729,37.4938],[127.08836,37.49415],[127.08829,37.49429]]}},{"type":"Feature","properties":{"class":"major","highway":"primary_link","sidewalk":"likely","lanes":0,"name":"","oneway":true},"geometry":{"type":"LineString","coordinates":[[127.09368,37.49191],[127.09492,37.49198],[127.09556,37.49204]]}},{"type":"Feature","properties":{"class":"alley","highway":"service","sidewalk":"unknown","lanes":0,"name":"","oneway":false},"geometry":{"type":"LineString","coordinates":[[127.09429,37.49218],[127.09423,37.49236],[127.09424,37.49249],[127.09413,37.4928],[127.09473,37.49399]]}},{"type":"Feature","properties":{"class":"alley","highway":"service","sidewalk":"unknown","lanes":0,"name":"","oneway":false},"geometry":{"type":"LineString","coordinates":[[127.08834,37.4887],[127.08786,37.4887],[127.0875,37.48867],[127.08743,37.48864],[127.08739,37.48859],[127.08736,37.48853],[127.08739,37.48846],[127.08744,37.4883]]}},{"type":"Feature","properties":{"class":"major","highway":"tertiary_link","sidewalk":"likely","lanes":0,"name":"","oneway":true},"geometry":{"type":"LineString","coordinates":[[127.0966,37.49749],[127.09625,37.49734]]}},{"type":"Feature","properties":{"class":"major","highway":"tertiary_link","sidewalk":"likely","lanes":0,"name":"","oneway":true},"geometry":{"type":"LineString","coordinates":[[127.08219,37.48892],[127.08212,37.48893],[127.08198,37.48896],[127.08191,37.48899],[127.08179,37.48903],[127.08167,37.48909]]}},{"type":"Feature","properties":{"class":"major","highway":"primary_link","sidewalk":"likely","lanes":0,"name":"","oneway":true},"geometry":{"type":"LineString","coordinates":[[127.08167,37.48909],[127.08164,37.48902],[127.08159,37.48894],[127.08154,37.48884],[127.0815,37.48879],[127.0814,37.48869]]}},{"type":"Feature","properties":{"class":"minor","highway":"residential","sidewalk":"unknown","lanes":0,"name":"삼학사로6길","oneway":true},"geometry":{"type":"LineString","coordinates":[[127.09878,37.49967],[127.1003,37.49993],[127.10059,37.49993],[127.10076,37.49988]]}},{"type":"Feature","properties":{"class":"minor","highway":"residential","sidewalk":"unknown","lanes":0,"name":"삼학사로8길","oneway":true},"geometry":{"type":"LineString","coordinates":[[127.09681,37.49999],[127.09735,37.49999],[127.09881,37.5001]]}},{"type":"Feature","properties":{"class":"major","highway":"trunk","sidewalk":"likely","lanes":3,"name":"분당수서로","oneway":true},"geometry":{"type":"LineString","coordinates":[[127.08157,37.49942],[127.08379,37.49866],[127.08628,37.49781]]}},{"type":"Feature","properties":{"class":"major","highway":"trunk","sidewalk":"likely","lanes":3,"name":"분당수서로","oneway":true},"geometry":{"type":"LineString","coordinates":[[127.08633,37.49792],[127.08385,37.49876],[127.08161,37.49953]]}},{"type":"Feature","properties":{"class":"minor","highway":"residential","sidewalk":"unknown","lanes":0,"name":"백제고분로32길","oneway":false},"geometry":{"type":"LineString","coordinates":[[127.09292,37.49893],[127.09462,37.49837]]}},{"type":"Feature","properties":{"class":"major","highway":"tertiary_link","sidewalk":"likely","lanes":0,"name":"","oneway":true},"geometry":{"type":"LineString","coordinates":[[127.097,37.49784],[127.09688,37.49789],[127.09681,37.49793],[127.09665,37.4981]]}},{"type":"Feature","properties":{"class":"minor","highway":"residential","sidewalk":"unknown","lanes":0,"name":"삼학사로3길","oneway":true},"geometry":{"type":"LineString","coordinates":[[127.09315,37.49963],[127.0927,37.49974]]}},{"type":"Feature","properties":{"class":"minor","highway":"residential","sidewalk":"unknown","lanes":0,"name":"백제고분로32길","oneway":false},"geometry":{"type":"LineString","coordinates":[[127.09275,37.49848],[127.09278,37.49854],[127.09292,37.49893],[127.09304,37.49926]]}},{"type":"Feature","properties":{"class":"alley","highway":"service","sidewalk":"unknown","lanes":0,"name":"","oneway":false},"geometry":{"type":"LineString","coordinates":[[127.09687,37.49087],[127.09657,37.49045],[127.09599,37.49071]]}},{"type":"Feature","properties":{"class":"alley","highway":"service","sidewalk":"unknown","lanes":0,"name":"","oneway":false},"geometry":{"type":"LineString","coordinates":[[127.10052,37.49766],[127.10045,37.49784],[127.1004,37.49795],[127.10037,37.49799],[127.10033,37.49801],[127.10024,37.49799],[127.10018,37.49797],[127.10013,37.49795],[127.10005,37.49793],[127.09991,37.49789],[127.09982,37.49785],[127.09978,37.49784],[127.09977,37.49782],[127.09976,37.49779],[127.09984,37.4976],[127.09988,37.4975],[127.0999,37.49746],[127.09995,37.49734],[127.09998,37.49728],[127.09999,37.49725],[127.10002,37.4972],[127.10005,37.49714],[127.10008,37.49708],[127.1001,37.49707],[127.10014,37.49705],[127.10019,37.49706],[127.10041,37.49713],[127.10045,37.49714],[127.10057,37.49717],[127.10057,37.49718],[127.10068,37.49721],[127.1007,37.49722],[127.10071,37.49724],[127.10071,37.49728],[127.10069,37.49732],[127.10056,37.49758],[127.10053,37.49764],[127.10052,37.49766]]}},{"type":"Feature","properties":{"class":"alley","highway":"service","sidewalk":"unknown","lanes":0,"name":"","oneway":false},"geometry":{"type":"LineString","coordinates":[[127.0999,37.49746],[127.10022,37.49754],[127.10037,37.49759],[127.10041,37.4976],[127.10047,37.49762],[127.10053,37.49764]]}},{"type":"Feature","properties":{"class":"alley","highway":"service","sidewalk":"unknown","lanes":0,"name":"","oneway":false},"geometry":{"type":"LineString","coordinates":[[127.09988,37.4975],[127.09996,37.49755],[127.1,37.49756],[127.10003,37.49757],[127.10005,37.49758],[127.10006,37.49761],[127.10005,37.49763],[127.10002,37.49768],[127.10001,37.4977],[127.10001,37.49772],[127.10003,37.49773],[127.10006,37.49775],[127.10012,37.49776]]}},{"type":"Feature","properties":{"class":"alley","highway":"service","sidewalk":"unknown","lanes":0,"name":"","oneway":false},"geometry":{"type":"LineString","coordinates":[[127.09984,37.4976],[127.0999,37.49761],[127.09993,37.49762],[127.09995,37.49764],[127.09995,37.49766],[127.09994,37.49768],[127.09991,37.4977],[127.09988,37.49772],[127.09987,37.49774],[127.09987,37.49777],[127.09989,37.49779],[127.09992,37.4978],[127.10001,37.49781],[127.10009,37.49782]]}},{"type":"Feature","properties":{"class":"alley","highway":"service","sidewalk":"unknown","lanes":0,"name":"","oneway":false},"geometry":{"type":"LineString","coordinates":[[127.09995,37.49734],[127.10014,37.4974],[127.10027,37.49743]]}},{"type":"Feature","properties":{"class":"alley","highway":"service","sidewalk":"unknown","lanes":0,"name":"","oneway":false},"geometry":{"type":"LineString","coordinates":[[127.09998,37.49728],[127.1001,37.49732],[127.10029,37.49738]]}},{"type":"Feature","properties":{"class":"minor","highway":"residential","sidewalk":"unknown","lanes":0,"name":"","oneway":false},"geometry":{"type":"LineString","coordinates":[[127.0927,37.49974],[127.09258,37.49938]]}},{"type":"Feature","properties":{"class":"major","highway":"primary_link","sidewalk":"likely","lanes":0,"name":"","oneway":true},"geometry":{"type":"LineString","coordinates":[[127.09675,37.49327],[127.09679,37.49309]]}},{"type":"Feature","properties":{"class":"alley","highway":"service","sidewalk":"unknown","lanes":0,"name":"","oneway":false},"geometry":{"type":"LineString","coordinates":[[127.09749,37.49692],[127.09761,37.49706],[127.09776,37.49722],[127.09785,37.49729],[127.09803,37.49731],[127.09831,37.49732],[127.0987,37.49737],[127.09918,37.49747],[127.09949,37.49747],[127.09969,37.4974],[127.0998,37.49741],[127.0999,37.49746]]}},{"type":"Feature","properties":{"class":"alley","highway":"service","sidewalk":"unknown","lanes":0,"name":"","oneway":false},"geometry":{"type":"LineString","coordinates":[[127.0963,37.49913],[127.09519,37.4992],[127.09518,37.49902],[127.09515,37.49874]]}},{"type":"Feature","properties":{"class":"alley","highway":"service","sidewalk":"unknown","lanes":0,"name":"","oneway":false},"geometry":{"type":"LineString","coordinates":[[127.09545,37.49788],[127.09544,37.49781],[127.09513,37.49783],[127.09502,37.49783],[127.09506,37.49816]]}},{"type":"Feature","properties":{"class":"alley","highway":"service","sidewalk":"unknown","lanes":0,"name":"","oneway":false},"geometry":{"type":"LineString","coordinates":[[127.09667,37.49833],[127.09637,37.49835],[127.0964,37.49866],[127.09626,37.49867],[127.09628,37.49896],[127.0963,37.49913],[127.09631,37.49925]]}},{"type":"Feature","properties":{"class":"alley","highway":"service","sidewalk":"unknown","lanes":0,"name":"","oneway":false},"geometry":{"type":"LineString","coordinates":[[127.09626,37.49867],[127.09553,37.49872],[127.09515,37.49874]]}},{"type":"Feature","properties":{"class":"alley","highway":"service","sidewalk":"unknown","lanes":0,"name":"","oneway":false},"geometry":{"type":"LineString","coordinates":[[127.09628,37.49896],[127.09518,37.49902]]}},{"type":"Feature","properties":{"class":"alley","highway":"service","sidewalk":"unknown","lanes":0,"name":"","oneway":false},"geometry":{"type":"LineString","coordinates":[[127.09637,37.49835],[127.09624,37.49835],[127.0962,37.49784],[127.09618,37.49752]]}},{"type":"Feature","properties":{"class":"alley","highway":"service","sidewalk":"unknown","lanes":0,"name":"","oneway":false},"geometry":{"type":"LineString","coordinates":[[127.09515,37.49874],[127.09511,37.49872],[127.09506,37.49816],[127.09515,37.49815],[127.09548,37.49813],[127.09545,37.49788],[127.0962,37.49784]]}},{"type":"Feature","properties":{"class":"alley","highway":"service","sidewalk":"unknown","lanes":0,"name":"","oneway":false},"geometry":{"type":"LineString","coordinates":[[127.09667,37.49833],[127.09727,37.49831],[127.09721,37.49903],[127.09831,37.49908]]}},{"type":"Feature","properties":{"class":"alley","highway":"service","sidewalk":"unknown","lanes":0,"name":"","oneway":false},"geometry":{"type":"LineString","coordinates":[[127.09548,37.49813],[127.09553,37.49872]]}},{"type":"Feature","properties":{"class":"alley","highway":"service","sidewalk":"unknown","lanes":0,"name":"","oneway":false},"geometry":{"type":"LineString","coordinates":[[127.09513,37.49783],[127.09515,37.49815]]}}]}