{"type":"FeatureCollection","features":[{"type":"Feature","properties":{"class":"major","highway":"motorway","sidewalk":"likely","lanes":2,"name":"수도권제1순환고속도로","oneway":true},"geometry":{"type":"LineString","coordinates":[[127.19144,37.52232],[127.1909,37.52163],[127.19046,37.52122],[127.19013,37.52092],[127.1897,37.52058],[127.18905,37.52013],[127.18839,37.51972],[127.1876,37.51931],[127.18701,37.51905],[127.18637,37.51879],[127.18573,37.51856],[127.18484,37.51831],[127.18442,37.5182],[127.18309,37.51795]]}},{"type":"Feature","properties":{"class":"major","highway":"motorway","sidewalk":"likely","lanes":2,"name":"수도권제1순환고속도로","oneway":true},"geometry":{"type":"LineString","coordinates":[[127.1831,37.51825],[127.17511,37.51679]]}},{"type":"Feature","properties":{"class":"major","highway":"motorway","sidewalk":"likely","lanes":2,"name":"수도권제1순환고속도로","oneway":true},"geometry":{"type":"LineString","coordinates":[[127.19079,37.52166],[127.19044,37.52134],[127.19007,37.52102],[127.18946,37.52056],[127.18888,37.52019],[127.18816,37.51978],[127.18721,37.51933],[127.18634,37.519],[127.18562,37.51877],[127.1831,37.51825]]}},{"type":"Feature","properties":{"class":"major","highway":"motorway","sidewalk":"likely","lanes":4,"name":"수도권제1순환고속도로","oneway":true},"geometry":{"type":"LineString","coordinates":[[127.17551,37.51622],[127.18309,37.5177]]}},{"type":"Feature","properties":{"class":"major","highway":"motorway","sidewalk":"likely","lanes":2,"name":"수도권제1순환고속도로","oneway":true},"geometry":{"type":"LineString","coordinates":[[127.18309,37.51795],[127.17522,37.51651]]}},{"type":"Feature","properties":{"class":"major","highway":"motorway","sidewalk":"likely","lanes":4,"name":"수도권제1순환고속도로","oneway":true},"geometry":{"type":"LineString","coordinates":[[127.18309,37.5177],[127.18447,37.51806],[127.18567,37.51841],[127.18649,37.51869],[127.18728,37.519],[127.18797,37.51932],[127.18861,37.51965],[127.18933,37.5201],[127.19008,37.52065],[127.19054,37.52101],[127.19132,37.52176],[127.19181,37.52232]]}},{"type":"Feature","properties":{"class":"alley","highway":"service","sidewalk":"unknown","lanes":0,"name":"","oneway":false},"geometry":{"type":"LineString","coordinates":[[127.18565,37.51984],[127.18585,37.51977],[127.186,37.51972],[127.18617,37.51968],[127.18634,37.51965],[127.18645,37.51961],[127.1866,37.51958],[127.18667,37.51957],[127.18677,37.51957],[127.18693,37.5196],[127.18719,37.51966],[127.18747,37.5197],[127.18764,37.51974],[127.18769,37.51974],[127.18777,37.51974],[127.18785,37.51976],[127.18793,37.5198],[127.188,37.51984],[127.18804,37.51989],[127.18804,37.51993],[127.18802,37.51998],[127.18796,37.52002],[127.18791,37.52002],[127.18784,37.52001],[127.18777,37.51995],[127.1877,37.51987],[127.18767,37.5198],[127.18764,37.51974]]}},{"type":"Feature","properties":{"class":"alley","highway":"service","sidewalk":"unknown","lanes":0,"name":"","oneway":false},"geometry":{"type":"LineString","coordinates":[[127.1855,37.51767],[127.18543,37.51751],[127.18525,37.51716]]}},{"type":"Feature","properties":{"class":"alley","highway":"service","sidewalk":"unknown","lanes":0,"name":"","oneway":false},"geometry":{"type":"LineString","coordinates":[[127.18577,37.51835],[127.18583,37.51876],[127.18587,37.519]]}},{"type":"Feature","properties":{"class":"alley","highway":"service","sidewalk":"unknown","lanes":0,"name":"","oneway":false},"geometry":{"type":"LineString","coordinates":[[127.1855,37.51767],[127.18557,37.51788],[127.18567,37.51816],[127.18573,37.51827],[127.18577,37.51835]]}},{"type":"Feature","properties":{"class":"alley","highway":"service","sidewalk":"unknown","lanes":0,"name":"","oneway":false},"geometry":{"type":"LineString","coordinates":[[127.18587,37.519],[127.18583,37.51907],[127.18568,37.51919],[127.18558,37.51927],[127.18547,37.51942],[127.18547,37.51948],[127.18558,37.5196],[127.18564,37.51975],[127.18565,37.51984],[127.18553,37.51995],[127.18545,37.52002],[127.18539,37.52012],[127.18536,37.52023],[127.18536,37.5203],[127.1854,37.52038],[127.1855,37.52046],[127.18563,37.52055],[127.18576,37.52062],[127.18586,37.5207],[127.18595,37.52082],[127.18598,37.5209],[127.18601,37.52092],[127.18607,37.52099],[127.18622,37.52112],[127.18626,37.52119],[127.18623,37.52127]]}},{"type":"Feature","properties":{"class":"alley","highway":"service","sidewalk":"unknown","lanes":0,"name":"","oneway":false},"geometry":{"type":"LineString","coordinates":[[127.18612,37.51749],[127.18596,37.51754],[127.1855,37.51767]]}}]}