{"type":"FeatureCollection","features":[{"type":"Feature","properties":{"class":"minor","highway":"residential","sidewalk":"unknown","lanes":0,"name":"삼작로","oneway":false},"geometry":{"type":"LineString","coordinates":[[126.81447,37.51868],[126.8149,37.51866],[126.81534,37.51864],[126.81563,37.51862],[126.81659,37.51857],[126.81767,37.51851],[126.81783,37.5185],[126.81799,37.51849],[126.81947,37.51841],[126.8195,37.51841]]}},{"type":"Feature","properties":{"class":"major","highway":"tertiary","sidewalk":"likely","lanes":0,"name":"역곡로","oneway":false},"geometry":{"type":"LineString","coordinates":[[126.80847,37.49706],[126.80848,37.49716],[126.80853,37.49739],[126.80864,37.4979],[126.80869,37.49814],[126.80871,37.49821],[126.80882,37.49863],[126.80896,37.49919],[126.80929,37.50034],[126.81019,37.50296],[126.81135,37.50624]]}},{"type":"Feature","properties":{"class":"minor","highway":"residential","sidewalk":"unknown","lanes":0,"name":"까치로20번길","oneway":false},"geometry":{"type":"LineString","coordinates":[[126.80807,37.5083],[126.80877,37.5083],[126.8093,37.50831],[126.81051,37.50856],[126.81104,37.50868],[126.81149,37.50866],[126.81152,37.50871],[126.81155,37.50887],[126.81163,37.50923],[126.81174,37.50973]]}},{"type":"Feature","properties":{"class":"minor","highway":"residential","sidewalk":"unknown","lanes":0,"name":"까치로20번길","oneway":false},"geometry":{"type":"LineString","coordinates":[[126.81174,37.50973],[126.81102,37.50955],[126.81058,37.50943],[126.80997,37.50927],[126.80931,37.50927]]}},{"type":"Feature","properties":{"class":"minor","highway":"residential","sidewalk":"unknown","lanes":0,"name":"역곡로257번길","oneway":false},"geometry":{"type":"LineString","coordinates":[[126.81183,37.50773],[126.81141,37.5078]]}},{"type":"Feature","properties":{"class":"minor","highway":"residential","sidewalk":"unknown","lanes":0,"name":"","oneway":false},"geometry":{"type":"LineString","coordinates":[[126.81141,37.5078],[126.81155,37.50835]]}},{"type":"Feature","properties":{"class":"minor","highway":"residential","sidewalk":"unknown","lanes":0,"name":"역곡로257번가길","oneway":false},"geometry":{"type":"LineString","coordinates":[[126.81141,37.5078],[126.81122,37.50724],[126.81116,37.50706]]}},{"type":"Feature","properties":{"class":"minor","highway":"unclassified","sidewalk":"unknown","lanes":0,"name":"","oneway":false},"geometry":{"type":"LineString","coordinates":[[126.80956,37.50805],[126.80995,37.50823],[126.81063,37.50841],[126.81086,37.50843],[126.81103,37.50842],[126.81121,37.5084],[126.81155,37.50835]]}},{"type":"Feature","properties":{"class":"minor","highway":"residential","sidewalk":"unknown","lanes":0,"name":"","oneway":false},"geometry":{"type":"LineString","coordinates":[[126.81121,37.5084],[126.81116,37.5082]]}},{"type":"Feature","properties":{"class":"minor","highway":"residential","sidewalk":"unknown","lanes":0,"name":"역곡로257번길","oneway":false},"geometry":{"type":"LineString","coordinates":[[126.81141,37.5078],[126.81109,37.50785],[126.81079,37.50786],[126.81046,37.50776],[126.81036,37.50773],[126.81006,37.50763]]}},{"type":"Feature","properties":{"class":"minor","highway":"residential","sidewalk":"unknown","lanes":0,"name":"역곡로257번나길","oneway":false},"geometry":{"type":"LineString","coordinates":[[126.80975,37.50789],[126.81041,37.50814],[126.81079,37.50822],[126.81116,37.5082],[126.81109,37.50785]]}},{"type":"Feature","properties":{"class":"minor","highway":"residential","sidewalk":"unknown","lanes":0,"name":"","oneway":false},"geometry":{"type":"LineString","coordinates":[[126.81036,37.50773],[126.81122,37.50724]]}},{"type":"Feature","properties":{"class":"minor","highway":"residential","sidewalk":"unknown","lanes":0,"name":"역곡로258번길","oneway":false},"geometry":{"type":"LineString","coordinates":[[126.81183,37.50773],[126.81222,37.50768]]}},{"type":"Feature","properties":{"class":"minor","highway":"residential","sidewalk":"unknown","lanes":0,"name":"역곡로258번길","oneway":false},"geometry":{"type":"LineString","coordinates":[[126.81252,37.50857],[126.81243,37.5085],[126.81237,37.50826],[126.81222,37.50768],[126.81211,37.50716],[126.81203,37.50683]]}},{"type":"Feature","properties":{"class":"minor","highway":"residential","sidewalk":"unknown","lanes":0,"name":"역곡로258번길","oneway":false},"geometry":{"type":"LineString","coordinates":[[126.81252,37.50857],[126.81343,37.50844],[126.81341,37.50832],[126.81334,37.50821],[126.81321,37.50815],[126.81275,37.5082],[126.81249,37.5071],[126.81282,37.50704],[126.81299,37.50689],[126.81295,37.5067],[126.81203,37.50683]]}},{"type":"Feature","properties":{"class":"minor","highway":"unclassified","sidewalk":"unknown","lanes":0,"name":"","oneway":false},"geometry":{"type":"LineString","coordinates":[[126.81275,37.5082],[126.81237,37.50826]]}},{"type":"Feature","properties":{"class":"minor","highway":"unclassified","sidewalk":"unknown","lanes":0,"name":"","oneway":false},"geometry":{"type":"LineString","coordinates":[[126.81249,37.5071],[126.81211,37.50716]]}},{"type":"Feature","properties":{"class":"minor","highway":"residential","sidewalk":"unknown","lanes":0,"name":"작동로","oneway":false},"geometry":{"type":"LineString","coordinates":[[126.81234,37.51029],[126.81294,37.51022],[126.8133,37.51018]]}},{"type":"Feature","properties":{"class":"minor","highway":"residential","sidewalk":"unknown","lanes":0,"name":"작동로61번길","oneway":false},"geometry":{"type":"LineString","coordinates":[[126.81369,37.51245],[126.81334,37.5125],[126.81321,37.51176],[126.81356,37.51172]]}},{"type":"Feature","properties":{"class":"minor","highway":"residential","sidewalk":"unknown","lanes":0,"name":"작동로","oneway":false},"geometry":{"type":"LineString","coordinates":[[126.81369,37.51245],[126.81363,37.5121],[126.81356,37.51172],[126.8135,37.51135],[126.81344,37.51099],[126.81338,37.51061],[126.8133,37.51018]]}},{"type":"Feature","properties":{"class":"minor","highway":"residential","sidewalk":"unknown","lanes":0,"name":"","oneway":false},"geometry":{"type":"LineString","coordinates":[[126.81415,37.51241],[126.81433,37.51203],[126.81452,37.51164],[126.81463,37.5113],[126.81466,37.51123],[126.8147,37.51112],[126.8147,37.51084],[126.81458,37.51045],[126.81425,37.51007]]}},{"type":"Feature","properties":{"class":"minor","highway":"residential","sidewalk":"unknown","lanes":0,"name":"작동로62번길","oneway":false},"geometry":{"type":"LineString","coordinates":[[126.81356,37.51172],[126.81452,37.51164]]}},{"type":"Feature","properties":{"class":"minor","highway":"residential","sidewalk":"unknown","lanes":0,"name":"작동로58번길","oneway":false},"geometry":{"type":"LineString","coordinates":[[126.8135,37.51135],[126.81466,37.51123]]}},{"type":"Feature","properties":{"class":"minor","highway":"residential","sidewalk":"unknown","lanes":0,"name":"작동로54번길","oneway":false},"geometry":{"type":"LineString","coordinates":[[126.81344,37.51099],[126.8147,37.51084]]}},{"type":"Feature","properties":{"class":"minor","highway":"residential","sidewalk":"unknown","lanes":0,"name":"작동로50번길","oneway":false},"geometry":{"type":"LineString","coordinates":[[126.81338,37.51061],[126.81458,37.51045]]}},{"type":"Feature","properties":{"class":"minor","highway":"residential","sidewalk":"unknown","lanes":0,"name":"작동로","oneway":false},"geometry":{"type":"LineString","coordinates":[[126.80944,37.51162],[126.80962,37.51129],[126.8098,37.51098],[126.81027,37.51062],[126.81057,37.51038],[126.81091,37.51012],[126.81114,37.51001],[126.8113,37.51004],[126.81172,37.51023],[126.81205,37.51028],[126.81234,37.51029]]}},{"type":"Feature","properties":{"class":"minor","highway":"residential","sidewalk":"unknown","lanes":0,"name":"작동로21번길","oneway":false},"geometry":{"type":"LineString","coordinates":[[126.81192,37.51226],[126.81186,37.51194],[126.81183,37.51174],[126.81164,37.51111],[126.81161,37.51107],[126.81135,37.51062],[126.81091,37.51012]]}},{"type":"Feature","properties":{"class":"minor","highway":"residential","sidewalk":"unknown","lanes":0,"name":"까치로20번길","oneway":false},"geometry":{"type":"LineString","coordinates":[[126.81058,37.50943],[126.81068,37.50923],[126.81077,37.50908],[126.811,37.50897],[126.81112,37.50893],[126.81155,37.50887]]}},{"type":"Feature","properties":{"class":"minor","highway":"residential","sidewalk":"unknown","lanes":0,"name":"까치로20번길","oneway":false},"geometry":{"type":"LineString","coordinates":[[126.81102,37.50955],[126.81111,37.50934],[126.81122,37.50929],[126.81163,37.50923]]}},{"type":"Feature","properties":{"class":"minor","highway":"residential","sidewalk":"unknown","lanes":0,"name":"작동로3번길","oneway":false},"geometry":{"type":"LineString","coordinates":[[126.80962,37.51129],[126.81028,37.51152],[126.81093,37.51174],[126.81121,37.51183],[126.81141,37.5119],[126.81161,37.51194],[126.81186,37.51194]]}},{"type":"Feature","properties":{"class":"minor","highway":"unclassified","sidewalk":"unknown","lanes":0,"name":"","oneway":false},"geometry":{"type":"LineString","coordinates":[[126.8108,37.51133],[126.81118,37.51119],[126.81161,37.51107]]}},{"type":"Feature","properties":{"class":"alley","highway":"service","sidewalk":"unknown","lanes":0,"name":"","oneway":false},"geometry":{"type":"LineString","coordinates":[[126.81499,37.50574],[126.81496,37.50552],[126.81495,37.5055],[126.81493,37.50534],[126.8149,37.5052],[126.81488,37.50504]]}},{"type":"Feature","properties":{"class":"alley","highway":"service","sidewalk":"unknown","lanes":0,"name":"","oneway":false},"geometry":{"type":"LineString","coordinates":[[126.81496,37.50552],[126.81365,37.50567],[126.81362,37.50554],[126.81387,37.50546],[126.81423,37.50526],[126.81425,37.50525],[126.81454,37.50508],[126.81488,37.50504]]}},{"type":"Feature","properties":{"class":"alley","highway":"service","sidewalk":"unknown","lanes":0,"name":"","oneway":false},"geometry":{"type":"LineString","coordinates":[[126.81387,37.50546],[126.81493,37.50534]]}},{"type":"Feature","properties":{"class":"alley","highway":"service","sidewalk":"unknown","lanes":0,"name":"","oneway":false},"geometry":{"type":"LineString","coordinates":[[126.81423,37.50526],[126.8149,37.5052]]}},{"type":"Feature","properties":{"class":"alley","highway":"service","sidewalk":"unknown","lanes":0,"name":"","oneway":false},"geometry":{"type":"LineString","coordinates":[[126.81158,37.50403],[126.81159,37.50415],[126.81156,37.5043],[126.81155,37.50447],[126.81159,37.5046],[126.81161,37.50469],[126.81164,37.50508],[126.81164,37.50548],[126.81179,37.50558],[126.81213,37.50567],[126.8123,37.5057],[126.81262,37.50567],[126.81308,37.5056],[126.8134,37.50556],[126.81348,37.50553],[126.81374,37.50545],[126.81409,37.50525],[126.81439,37.50505],[126.81485,37.50487],[126.8151,37.50483],[126.81536,37.5048],[126.81555,37.50477],[126.81575,37.50468],[126.81586,37.50456],[126.81606,37.50431],[126.81625,37.50399],[126.81635,37.50384],[126.81645,37.50375]]}},{"type":"Feature","properties":{"class":"alley","highway":"service","sidewalk":"unknown","lanes":0,"name":"","oneway":false},"geometry":{"type":"LineString","coordinates":[[126.81822,37.50402],[126.81849,37.50391],[126.81852,37.50377],[126.81857,37.50335],[126.81867,37.50321],[126.8189,37.50308],[126.81923,37.50298],[126.81945,37.50292],[126.81969,37.50283],[126.81983,37.50278],[126.81997,37.50267],[126.82002,37.50253],[126.81997,37.50245],[126.81977,37.50234],[126.81956,37.50229],[126.81942,37.50227],[126.81923,37.5023],[126.81899,37.5024],[126.81871,37.5025],[126.81845,37.50261],[126.81821,37.50265],[126.8179,37.50278],[126.81753,37.50299],[126.81721,37.50328],[126.81697,37.5035],[126.81679,37.50361],[126.81673,37.5037],[126.81669,37.50376],[126.81665,37.5038],[126.81655,37.50379],[126.81645,37.50375]]}},{"type":"Feature","properties":{"class":"alley","highway":"service","sidewalk":"unknown","lanes":0,"name":"","oneway":false},"geometry":{"type":"LineString","coordinates":[[126.81645,37.50375],[126.81576,37.5032],[126.81566,37.50309],[126.81548,37.50297],[126.81534,37.50287],[126.81526,37.50278],[126.81518,37.50267],[126.81486,37.50247],[126.81467,37.50231],[126.8146,37.50195],[126.81453,37.50185],[126.81434,37.50182],[126.81403,37.50178]]}},{"type":"Feature","properties":{"class":"alley","highway":"service","sidewalk":"unknown","lanes":0,"name":"길주로594번길","oneway":false},"geometry":{"type":"LineString","coordinates":[[126.81152,37.50255],[126.81179,37.5025],[126.81219,37.50239],[126.81225,37.50235],[126.8123,37.50221],[126.81238,37.5021],[126.81252,37.50208],[126.8126,37.50204],[126.81271,37.50193],[126.81281,37.50182],[126.81291,37.50179],[126.81306,37.50181],[126.81319,37.50213],[126.81358,37.50283],[126.81375,37.50283],[126.81415,37.50236],[126.81404,37.50215],[126.81403,37.50178]]}},{"type":"Feature","properties":{"class":"alley","highway":"service","sidewalk":"unknown","lanes":0,"name":"길주로594번길","oneway":false},"geometry":{"type":"LineString","coordinates":[[126.81403,37.50178],[126.81408,37.50157],[126.81405,37.50135],[126.81401,37.50119],[126.81395,37.50106],[126.81393,37.50099],[126.81415,37.50071],[126.81436,37.50048],[126.81446,37.50039],[126.81452,37.50026],[126.81457,37.5001],[126.81475,37.49961],[126.81491,37.49926],[126.815,37.49907],[126.815,37.49875],[126.815,37.49864],[126.81507,37.49854],[126.81518,37.4985],[126.81532,37.49841]]}},{"type":"Feature","properties":{"class":"alley","highway":"service","sidewalk":"unknown","lanes":0,"name":"","oneway":false},"geometry":{"type":"LineString","coordinates":[[126.81553,37.51992],[126.81591,37.5199],[126.81629,37.51979],[126.81669,37.51967],[126.81704,37.51968],[126.81721,37.5197],[126.81741,37.51968],[126.81774,37.51964],[126.81809,37.51959],[126.81848,37.51963],[126.81883,37.51966],[126.81921,37.51969],[126.81942,37.51971]]}},{"type":"Feature","properties":{"class":"alley","highway":"service","sidewalk":"unknown","lanes":0,"name":"","oneway":false},"geometry":{"type":"LineString","coordinates":[[126.81654,37.51815],[126.81689,37.51813],[126.81726,37.51811],[126.81759,37.51809],[126.81796,37.51807],[126.81833,37.51805],[126.8187,37.51802],[126.81908,37.518],[126.81946,37.51798]]}},{"type":"Feature","properties":{"class":"minor","highway":"residential","sidewalk":"unknown","lanes":0,"name":"","oneway":false},"geometry":{"type":"LineString","coordinates":[[126.81545,37.51905],[126.81584,37.51903],[126.81622,37.51901],[126.81663,37.51898],[126.81698,37.51896],[126.81735,37.51894],[126.81767,37.51893],[126.81803,37.51891],[126.8184,37.51888],[126.81878,37.51886],[126.81913,37.51884],[126.81954,37.51882]]}},{"type":"Feature","properties":{"class":"alley","highway":"service","sidewalk":"unknown","lanes":0,"name":"삼작로507번길","oneway":false},"geometry":{"type":"LineString","coordinates":[[126.81809,37.51959],[126.81803,37.51891],[126.81799,37.51849]]}},{"type":"Feature","properties":{"class":"alley","highway":"service","sidewalk":"unknown","lanes":0,"name":"삼작로522번길","oneway":false},"geometry":{"type":"LineString","coordinates":[[126.81958,37.51926],[126.81954,37.51882],[126.8195,37.51841],[126.81946,37.51798],[126.81939,37.51719]]}},{"type":"Feature","properties":{"class":"alley","highway":"service","sidewalk":"unknown","lanes":0,"name":"삼작로496번길","oneway":false},"geometry":{"type":"LineString","coordinates":[[126.82135,37.51831],[126.82069,37.51802],[126.82022,37.51768],[126.81985,37.51742],[126.8198,37.51739],[126.81961,37.51726],[126.81939,37.51719],[126.81918,37.51713],[126.81899,37.51709],[126.81863,37.51711],[126.81828,37.51699],[126.81824,37.51699],[126.81787,37.51701],[126.8175,37.51704],[126.81717,37.51709],[126.81681,37.5172],[126.81648,37.5173]]}},{"type":"Feature","properties":{"class":"alley","highway":"service","sidewalk":"unknown","lanes":0,"name":"삼작로495번길","oneway":false},"geometry":{"type":"LineString","coordinates":[[126.81669,37.51967],[126.81663,37.51898],[126.81659,37.51857]]}},{"type":"Feature","properties":{"class":"alley","highway":"service","sidewalk":"unknown","lanes":0,"name":"삼작로502번길","oneway":false},"geometry":{"type":"LineString","coordinates":[[126.81726,37.51811],[126.81717,37.51709]]}},{"type":"Feature","properties":{"class":"alley","highway":"service","sidewalk":"unknown","lanes":0,"name":"삼작로516번길","oneway":false},"geometry":{"type":"LineString","coordinates":[[126.8187,37.51802],[126.81863,37.51711]]}},{"type":"Feature","properties":{"class":"alley","highway":"service","sidewalk":"unknown","lanes":0,"name":"삼작로513번길","oneway":false},"geometry":{"type":"LineString","coordinates":[[126.81878,37.51886],[126.81883,37.51966]]}},{"type":"Feature","properties":{"class":"alley","highway":"service","sidewalk":"unknown","lanes":0,"name":"삼작로501번길","oneway":false},"geometry":{"type":"LineString","coordinates":[[126.81735,37.51894],[126.81741,37.51968]]}},{"type":"Feature","properties":{"class":"alley","highway":"service","sidewalk":"unknown","lanes":0,"name":"삼작로487번길","oneway":false},"geometry":{"type":"LineString","coordinates":[[126.81584,37.51903],[126.81591,37.5199]]}},{"type":"Feature","properties":{"class":"minor","highway":"residential","sidewalk":"unknown","lanes":0,"name":"작동로66번길","oneway":false},"geometry":{"type":"LineString","coordinates":[[126.81363,37.5121],[126.81433,37.51203]]}},{"type":"Feature","properties":{"class":"minor","highway":"unclassified","sidewalk":"unknown","lanes":0,"name":"역곡로156번길","oneway":false},"geometry":{"type":"LineString","coordinates":[[126.81152,37.50255],[126.81132,37.50223],[126.81127,37.50189],[126.81109,37.50154],[126.81099,37.50142],[126.8108,37.50127],[126.81066,37.50114],[126.81052,37.50093],[126.81044,37.50081],[126.81032,37.50074],[126.81018,37.50065],[126.81008,37.50055],[126.8099,37.50016],[126.80981,37.50001],[126.80968,37.4999],[126.80946,37.49976],[126.80933,37.49962],[126.80924,37.4995],[126.80916,37.49931],[126.80909,37.49924],[126.80896,37.49919]]}},{"type":"Feature","properties":{"class":"major","highway":"tertiary","sidewalk":"likely","lanes":0,"name":"성지로","oneway":false},"geometry":{"type":"LineString","coordinates":[[126.81126,37.52178],[126.81125,37.52173],[126.81126,37.52163],[126.81132,37.52142],[126.81144,37.5212],[126.81152,37.5211],[126.81164,37.52096],[126.81199,37.52054],[126.81211,37.5204],[126.81232,37.52018],[126.81242,37.5201],[126.81272,37.51985],[126.81321,37.51949]]}},{"type":"Feature","properties":{"class":"major","highway":"tertiary","sidewalk":"likely","lanes":0,"name":"여월로","oneway":false},"geometry":{"type":"LineString","coordinates":[[126.80714,37.5123],[126.80804,37.51245],[126.81032,37.51263],[126.81206,37.51278],[126.81275,37.51283]]}},{"type":"Feature","properties":{"class":"major","highway":"tertiary","sidewalk":"likely","lanes":0,"name":"여월로","oneway":true},"geometry":{"type":"LineString","coordinates":[[126.81389,37.51287],[126.81404,37.51283],[126.81477,37.51283],[126.81497,37.51288],[126.81518,37.51283],[126.81599,37.51285],[126.81675,37.51286],[126.81719,37.51286],[126.81741,37.51281],[126.81757,37.51272],[126.81787,37.51247],[126.81804,37.51239],[126.81824,37.51235],[126.81976,37.5122],[126.82,37.51221],[126.82022,37.51223],[126.82044,37.5123],[126.82068,37.5124],[126.82139,37.51309],[126.82159,37.51323],[126.82193,37.51334],[126.82232,37.51337],[126.82299,37.51342]]}},{"type":"Feature","properties":{"class":"minor","highway":"residential","sidewalk":"unknown","lanes":0,"name":"까치로74번길","oneway":false},"geometry":{"type":"LineString","coordinates":[[126.80982,37.51283],[126.81,37.51289],[126.81025,37.51302],[126.81029,37.51305],[126.81051,37.51331],[126.8106,37.51351],[126.81065,37.51357],[126.81101,37.51375],[126.81112,37.51379],[126.81149,37.5138],[126.81181,37.51382],[126.81215,37.51387],[126.81241,37.51386]]}},{"type":"Feature","properties":{"class":"alley","highway":"service","sidewalk":"unknown","lanes":0,"name":"길주로594번길","oneway":false},"geometry":{"type":"LineString","coordinates":[[126.81065,37.50383],[126.81085,37.50367],[126.81103,37.50351],[126.81123,37.50334],[126.81129,37.50328],[126.81141,37.50304],[126.81147,37.50284],[126.81151,37.50264],[126.81152,37.50255]]}},{"type":"Feature","properties":{"class":"alley","highway":"service","sidewalk":"unknown","lanes":0,"name":"역곡로324번길","oneway":false},"geometry":{"type":"LineString","coordinates":[[126.81301,37.51368],[126.81322,37.51373],[126.81339,37.51412],[126.81406,37.51446],[126.81426,37.51452],[126.81449,37.51478],[126.81467,37.51487],[126.8148,37.51495],[126.81475,37.51508],[126.8148,37.51515],[126.81491,37.51521],[126.81516,37.51524],[126.81543,37.51521],[126.81566,37.51513],[126.81588,37.515],[126.81604,37.51513],[126.81636,37.51542],[126.81654,37.51557],[126.81664,37.51575],[126.8168,37.51587],[126.81687,37.51599],[126.81689,37.51608],[126.81691,37.51621],[126.81697,37.51638],[126.81717,37.51709]]}},{"type":"Feature","properties":{"class":"alley","highway":"service","sidewalk":"unknown","lanes":0,"name":"역곡로344번길","oneway":false},"geometry":{"type":"LineString","coordinates":[[126.8135,37.51537],[126.81368,37.51528],[126.81402,37.51481],[126.81415,37.51458],[126.81426,37.51452],[126.81457,37.51447],[126.81488,37.51436],[126.81509,37.5142],[126.81531,37.51391],[126.81544,37.51383],[126.81552,37.51378],[126.8157,37.51368],[126.81643,37.51343],[126.8168,37.51334],[126.8172,37.51337],[126.81782,37.51335],[126.81844,37.51322],[126.8185,37.51308]]}},{"type":"Feature","properties":{"class":"alley","highway":"service","sidewalk":"unknown","lanes":0,"name":"역곡로324번길","oneway":false},"geometry":{"type":"LineString","coordinates":[[126.81588,37.515],[126.8157,37.5147],[126.81565,37.51452],[126.81559,37.5144]]}},{"type":"Feature","properties":{"class":"alley","highway":"service","sidewalk":"unknown","lanes":0,"name":"삼작로479번길","oneway":false},"geometry":{"type":"LineString","coordinates":[[126.8149,37.51866],[126.81499,37.51907],[126.81523,37.51993]]}},{"type":"Feature","properties":{"class":"alley","highway":"service","sidewalk":"unknown","lanes":0,"name":"길주로594번길","oneway":false},"geometry":{"type":"LineString","coordinates":[[126.81129,37.50328],[126.81143,37.50334],[126.81151,37.50345],[126.81156,37.50358],[126.81155,37.50393],[126.81158,37.50403]]}},{"type":"Feature","properties":{"class":"alley","highway":"service","sidewalk":"unknown","lanes":0,"name":"역곡로344번길","oneway":false},"geometry":{"type":"LineString","coordinates":[[126.81559,37.5144],[126.81543,37.51408],[126.81552,37.51378]]}},{"type":"Feature","properties":{"class":"minor","highway":"residential","sidewalk":"unknown","lanes":0,"name":"","oneway":false},"geometry":{"type":"LineString","coordinates":[[126.81321,37.51176],[126.81294,37.51022]]}},{"type":"Feature","properties":{"class":"minor","highway":"residential","sidewalk":"unknown","lanes":0,"name":"작동로","oneway":false},"geometry":{"type":"LineString","coordinates":[[126.81369,37.51245],[126.81415,37.51241]]}},{"type":"Feature","properties":{"class":"minor","highway":"residential","sidewalk":"unknown","lanes":0,"name":"작동로17번길","oneway":false},"geometry":{"type":"LineString","coordinates":[[126.81057,37.51038],[126.81089,37.51069],[126.8111,37.51104],[126.81118,37.51119],[126.81137,37.51161],[126.81141,37.51175],[126.81141,37.5119]]}},{"type":"Feature","properties":{"class":"minor","highway":"residential","sidewalk":"unknown","lanes":0,"name":"작동로44번길","oneway":false},"geometry":{"type":"LineString","coordinates":[[126.8133,37.51018],[126.81425,37.51007]]}},{"type":"Feature","properties":{"class":"minor","highway":"residential","sidewalk":"unknown","lanes":0,"name":"작동로1번길","oneway":false},"geometry":{"type":"LineString","coordinates":[[126.80944,37.51162],[126.81079,37.51208],[126.81152,37.5123],[126.81192,37.51226]]}},{"type":"Feature","properties":{"class":"minor","highway":"residential","sidewalk":"unknown","lanes":0,"name":"","oneway":false},"geometry":{"type":"LineString","coordinates":[[126.81174,37.50973],[126.81179,37.50991],[126.81176,37.51002]]}},{"type":"Feature","properties":{"class":"minor","highway":"residential","sidewalk":"unknown","lanes":0,"name":"역곡로257번가길","oneway":false},"geometry":{"type":"LineString","coordinates":[[126.81116,37.50706],[126.81006,37.50763],[126.80975,37.50789],[126.80956,37.50805]]}},{"type":"Feature","properties":{"class":"alley","highway":"service","sidewalk":"unknown","lanes":0,"name":"삼작로479번길","oneway":false},"geometry":{"type":"LineString","coordinates":[[126.81499,37.51907],[126.81545,37.51905]]}},{"type":"Feature","properties":{"class":"alley","highway":"service","sidewalk":"unknown","lanes":0,"name":"","oneway":false},"geometry":{"type":"LineString","coordinates":[[126.81459,37.5191],[126.81499,37.51907]]}},{"type":"Feature","properties":{"class":"alley","highway":"service","sidewalk":"unknown","lanes":0,"name":"삼작로521번길","oneway":false},"geometry":{"type":"LineString","coordinates":[[126.81942,37.51971],[126.8195,37.51947],[126.81958,37.51926]]}},{"type":"Feature","properties":{"class":"alley","highway":"service","sidewalk":"unknown","lanes":0,"name":"삼작로491번길","oneway":false},"geometry":{"type":"LineString","coordinates":[[126.81622,37.51901],[126.81629,37.51979]]}},{"type":"Feature","properties":{"class":"alley","highway":"service","sidewalk":"unknown","lanes":0,"name":"삼작로483번길","oneway":false},"geometry":{"type":"LineString","coordinates":[[126.81553,37.51992],[126.81545,37.51905]]}},{"type":"Feature","properties":{"class":"alley","highway":"service","sidewalk":"unknown","lanes":0,"name":"삼작로497번길","oneway":false},"geometry":{"type":"LineString","coordinates":[[126.81698,37.51896],[126.81704,37.51968]]}},{"type":"Feature","properties":{"class":"alley","highway":"service","sidewalk":"unknown","lanes":0,"name":"삼작로505번길","oneway":false},"geometry":{"type":"LineString","coordinates":[[126.81767,37.51893],[126.81774,37.51964]]}},{"type":"Feature","properties":{"class":"alley","highway":"service","sidewalk":"unknown","lanes":0,"name":"삼작로511번길","oneway":false},"geometry":{"type":"LineString","coordinates":[[126.8184,37.51888],[126.81848,37.51963]]}},{"type":"Feature","properties":{"class":"alley","highway":"service","sidewalk":"unknown","lanes":0,"name":"삼작로517번길","oneway":false},"geometry":{"type":"LineString","coordinates":[[126.81913,37.51884],[126.81921,37.51969]]}},{"type":"Feature","properties":{"class":"alley","highway":"service","sidewalk":"unknown","lanes":0,"name":"삼작로525번길","oneway":false},"geometry":{"type":"LineString","coordinates":[[126.81988,37.51838],[126.81997,37.51921]]}},{"type":"Feature","properties":{"class":"alley","highway":"service","sidewalk":"unknown","lanes":0,"name":"삼작로496번길","oneway":false},"geometry":{"type":"LineString","coordinates":[[126.81435,37.51827],[126.81484,37.51824],[126.81654,37.51815]]}},{"type":"Feature","properties":{"class":"alley","highway":"service","sidewalk":"unknown","lanes":0,"name":"삼작로537번길","oneway":false},"geometry":{"type":"LineString","coordinates":[[126.81958,37.51926],[126.81997,37.51921],[126.82034,37.51926],[126.82073,37.51934],[126.8209,37.51938],[126.82113,37.51922],[126.82149,37.51896],[126.82142,37.51831]]}},{"type":"Feature","properties":{"class":"alley","highway":"service","sidewalk":"unknown","lanes":0,"name":"삼작로526번길","oneway":false},"geometry":{"type":"LineString","coordinates":[[126.8198,37.51739],[126.81988,37.51838]]}},{"type":"Feature","properties":{"class":"alley","highway":"service","sidewalk":"unknown","lanes":0,"name":"","oneway":false},"geometry":{"type":"LineString","coordinates":[[126.81648,37.5173],[126.81609,37.51736]]}},{"type":"Feature","properties":{"class":"alley","highway":"service","sidewalk":"unknown","lanes":0,"name":"삼작로508번길","oneway":false},"geometry":{"type":"LineString","coordinates":[[126.81799,37.51849],[126.81796,37.51807],[126.81787,37.51701]]}},{"type":"Feature","properties":{"class":"alley","highway":"service","sidewalk":"unknown","lanes":0,"name":"삼작로496번길","oneway":false},"geometry":{"type":"LineString","coordinates":[[126.81659,37.51857],[126.81654,37.51815],[126.81648,37.5173]]}},{"type":"Feature","properties":{"class":"alley","highway":"service","sidewalk":"unknown","lanes":0,"name":"삼작로518번길","oneway":false},"geometry":{"type":"LineString","coordinates":[[126.81899,37.51709],[126.81908,37.518]]}},{"type":"Feature","properties":{"class":"alley","highway":"service","sidewalk":"unknown","lanes":0,"name":"삼작로512번길","oneway":false},"geometry":{"type":"LineString","coordinates":[[126.81824,37.51699],[126.81833,37.51805]]}},{"type":"Feature","properties":{"class":"alley","highway":"service","sidewalk":"unknown","lanes":0,"name":"삼작로506번길","oneway":false},"geometry":{"type":"LineString","coordinates":[[126.8175,37.51704],[126.81759,37.51809]]}},{"type":"Feature","properties":{"class":"alley","highway":"service","sidewalk":"unknown","lanes":0,"name":"삼작로500번길","oneway":false},"geometry":{"type":"LineString","coordinates":[[126.81681,37.5172],[126.81689,37.51813]]}},{"type":"Feature","properties":{"class":"major","highway":"tertiary","sidewalk":"likely","lanes":0,"name":"여월로","oneway":true},"geometry":{"type":"LineString","coordinates":[[126.82299,37.51353],[126.82271,37.51352],[126.82231,37.51348],[126.8218,37.51343],[126.82156,37.51332],[126.82138,37.51321],[126.82124,37.5131],[126.82087,37.51271],[126.82067,37.51253],[126.82043,37.51241],[126.82022,37.51234],[126.81999,37.5123],[126.81974,37.51229],[126.81836,37.51244],[126.81814,37.51248],[126.81796,37.51255],[126.81772,37.51274],[126.81751,37.51288],[126.81722,37.51297],[126.8154,37.51294],[126.81518,37.51294],[126.81497,37.51288],[126.81475,37.51294],[126.81404,37.51294],[126.81389,37.51287]]}},{"type":"Feature","properties":{"class":"alley","highway":"service","sidewalk":"unknown","lanes":0,"name":"","oneway":false},"geometry":{"type":"LineString","coordinates":[[126.81354,37.50983],[126.81372,37.50981],[126.8139,37.50979],[126.81403,37.50979],[126.81417,37.50981],[126.81428,37.50983],[126.81441,37.50989],[126.81454,37.50997],[126.81463,37.51004],[126.81471,37.51013],[126.81478,37.51022],[126.8148,37.51028],[126.81477,37.51033],[126.81471,37.51037],[126.81463,37.51042],[126.81458,37.51045]]}},{"type":"Feature","properties":{"class":"alley","highway":"service","sidewalk":"unknown","lanes":0,"name":"","oneway":false},"geometry":{"type":"LineString","coordinates":[[126.81544,37.51383],[126.81537,37.51373],[126.81529,37.51359],[126.8152,37.51343],[126.81511,37.51328],[126.81505,37.51317],[126.81497,37.51305],[126.81497,37.51288],[126.81508,37.51273],[126.81514,37.5127],[126.81527,37.51263],[126.81543,37.51258],[126.81552,37.51254],[126.81556,37.5125],[126.81561,37.51243],[126.81567,37.51235],[126.81574,37.51225],[126.8158,37.5122],[126.81589,37.51214],[126.81594,37.51207],[126.81594,37.51203],[126.81588,37.51199],[126.81577,37.51192],[126.81567,37.51188],[126.8156,37.51186],[126.81551,37.51185],[126.8154,37.51182],[126.81534,37.51177],[126.81532,37.51172],[126.81531,37.51167],[126.81528,37.51164],[126.81523,37.51161],[126.81515,37.51158],[126.81508,37.51155],[126.81499,37.51153],[126.81491,37.51151],[126.81482,37.51146],[126.81473,37.51141],[126.81468,37.51135],[126.81463,37.5113]]}},{"type":"Feature","properties":{"class":"major","highway":"tertiary_link","sidewalk":"likely","lanes":0,"name":"","oneway":true},"geometry":{"type":"LineString","coordinates":[[126.81266,37.51226],[126.81272,37.51231],[126.81276,37.51234],[126.81279,37.5124],[126.81282,37.51248],[126.81283,37.51254],[126.81285,37.51259],[126.81287,37.51262],[126.81291,37.51266],[126.81295,37.5127],[126.81302,37.51273],[126.81307,37.51275],[126.81316,37.51277],[126.81324,37.51278],[126.81335,37.51279],[126.81346,37.51286]]}},{"type":"Feature","properties":{"class":"major","highway":"tertiary_link","sidewalk":"likely","lanes":0,"name":"","oneway":true},"geometry":{"type":"LineString","coordinates":[[126.81346,37.51286],[126.81307,37.51304],[126.81303,37.51307],[126.813,37.51311],[126.81299,37.51317],[126.81298,37.51324],[126.81295,37.51346]]}},{"type":"Feature","properties":{"class":"alley","highway":"service","sidewalk":"unknown","lanes":0,"name":"","oneway":false},"geometry":{"type":"LineString","coordinates":[[126.81965,37.50842],[126.81966,37.50816],[126.81969,37.50776],[126.81972,37.50744],[126.81973,37.5072]]}},{"type":"Feature","properties":{"class":"alley","highway":"service","sidewalk":"unknown","lanes":0,"name":"","oneway":false},"geometry":{"type":"LineString","coordinates":[[126.82025,37.50722],[126.82115,37.50727],[126.8213,37.50727],[126.82134,37.5073],[126.82137,37.50734],[126.82138,37.50738],[126.82138,37.50744],[126.82136,37.50763],[126.82128,37.50842],[126.82127,37.50845],[126.82123,37.50847],[126.82118,37.50849],[126.82115,37.50849],[126.82015,37.50844],[126.81965,37.50842],[126.81875,37.50838],[126.81771,37.50834],[126.81764,37.50832],[126.81762,37.50829],[126.81762,37.50825],[126.81765,37.50771],[126.81769,37.5074],[126.81772,37.50722],[126.81774,37.50718],[126.81778,37.50715],[126.81785,37.50713],[126.81821,37.50714],[126.81878,37.50715],[126.81958,37.50719],[126.81973,37.5072],[126.82025,37.50722]]}},{"type":"Feature","properties":{"class":"alley","highway":"service","sidewalk":"unknown","lanes":0,"name":"","oneway":false},"geometry":{"type":"LineString","coordinates":[[126.81706,37.50573],[126.8171,37.50587],[126.81712,37.50591],[126.81715,37.50594],[126.81722,37.50596],[126.81729,37.50597],[126.81765,37.50599],[126.8182,37.50605],[126.81876,37.50611],[126.81918,37.50616],[126.81941,37.5062],[126.81967,37.50627],[126.81985,37.50632],[126.81997,37.50637],[126.82004,37.50642],[126.82008,37.50648],[126.8201,37.50654],[126.82011,37.50663],[126.82011,37.50674],[126.82014,37.50683],[126.82019,37.50689],[126.82025,37.50696],[126.82035,37.50702],[126.82044,37.50705],[126.82057,37.50708],[126.8208,37.50712],[126.82097,37.50714],[126.82117,37.50719],[126.82124,37.50722],[126.8213,37.50727]]}},{"type":"Feature","properties":{"class":"alley","highway":"service","sidewalk":"unknown","lanes":0,"name":"","oneway":false},"geometry":{"type":"LineString","coordinates":[[126.81735,37.50557],[126.81736,37.50551],[126.81738,37.5053],[126.81737,37.50525],[126.81733,37.50521],[126.81729,37.50518],[126.81722,37.50517],[126.81675,37.50517],[126.81671,37.50518],[126.81667,37.5052],[126.81655,37.50533],[126.81636,37.50554]]}},{"type":"Feature","properties":{"class":"alley","highway":"service","sidewalk":"unknown","lanes":0,"name":"","oneway":false},"geometry":{"type":"LineString","coordinates":[[126.81773,37.50559],[126.81735,37.50557],[126.81674,37.50555],[126.81636,37.50554],[126.81624,37.50553],[126.81606,37.50553],[126.81591,37.50553],[126.81578,37.50553],[126.81561,37.50554],[126.81549,37.50555],[126.81543,37.50555],[126.81539,37.50553],[126.81536,37.50552],[126.81531,37.50549],[126.81525,37.50548],[126.81518,37.50548],[126.81511,37.50549],[126.81495,37.5055]]}},{"type":"Feature","properties":{"class":"alley","highway":"service","sidewalk":"unknown","lanes":0,"name":"","oneway":false},"geometry":{"type":"LineString","coordinates":[[126.81532,37.49841],[126.81549,37.49851],[126.81562,37.49861],[126.8157,37.49869],[126.81573,37.49876],[126.81572,37.49884],[126.81572,37.49894],[126.81573,37.499],[126.81576,37.49906],[126.81589,37.4992],[126.816,37.49931],[126.81608,37.49935],[126.81622,37.49943],[126.81627,37.49947],[126.81633,37.49954],[126.81634,37.4996],[126.81634,37.49968],[126.81632,37.49977],[126.81628,37.49984],[126.8162,37.4999],[126.81617,37.49993],[126.81613,37.49999],[126.81611,37.50011],[126.81611,37.50023],[126.81611,37.50032],[126.81608,37.50038],[126.81604,37.50046],[126.816,37.50051],[126.816,37.50056],[126.816,37.50064],[126.81601,37.50071],[126.81605,37.50092],[126.81608,37.50112]]}},{"type":"Feature","properties":{"class":"alley","highway":"service","sidewalk":"unknown","lanes":0,"name":"","oneway":false},"geometry":{"type":"LineString","coordinates":[[126.81502,37.5209],[126.81511,37.52082],[126.81519,37.5207],[126.81523,37.52059],[126.81529,37.52046],[126.81532,37.52041],[126.81536,37.52035],[126.8154,37.52032],[126.81545,37.52029],[126.81551,37.52027],[126.81581,37.52018],[126.81608,37.52007],[126.81626,37.52001],[126.81638,37.51998],[126.81646,37.51997],[126.81657,37.51996],[126.81663,37.51996],[126.81666,37.51995],[126.81673,37.51993],[126.81683,37.5199],[126.81691,37.51988],[126.81705,37.51985],[126.81721,37.51984],[126.81745,37.51981],[126.81773,37.51977],[126.81787,37.51975],[126.81794,37.51976],[126.81803,37.51976],[126.81813,37.51979],[126.81835,37.51987],[126.81846,37.5199],[126.81854,37.51991],[126.8187,37.51993],[126.81883,37.51993],[126.81893,37.51995],[126.81902,37.51997],[126.8191,37.51998],[126.81918,37.52],[126.81925,37.51999],[126.81939,37.51997],[126.81953,37.51994],[126.81971,37.5199],[126.81984,37.51984],[126.81996,37.51981],[126.82006,37.51979],[126.82022,37.51978],[126.82036,37.51977],[126.82058,37.51979],[126.82064,37.5198],[126.82071,37.51983],[126.82105,37.52006],[126.82142,37.52033],[126.82152,37.52039],[126.8216,37.52043],[126.82171,37.52047],[126.8218,37.52051],[126.82187,37.52056],[126.82196,37.52061],[126.82204,37.52067],[126.82207,37.5207],[126.82209,37.52074],[126.82209,37.5208],[126.82212,37.5211]]}},{"type":"Feature","properties":{"class":"major","highway":"tertiary_link","sidewalk":"likely","lanes":0,"name":"","oneway":true},"geometry":{"type":"LineString","coordinates":[[126.81286,37.51319],[126.81259,37.513],[126.81206,37.51278]]}},{"type":"Feature","properties":{"class":"major","highway":"tertiary_link","sidewalk":"likely","lanes":0,"name":"","oneway":true},"geometry":{"type":"LineString","coordinates":[[126.81206,37.51278],[126.81246,37.51267],[126.81255,37.51261],[126.81266,37.51226]]}},{"type":"Feature","properties":{"class":"major","highway":"tertiary","sidewalk":"likely","lanes":0,"name":"역곡로","oneway":false},"geometry":{"type":"LineString","coordinates":[[126.81135,37.50624],[126.81175,37.50748],[126.81176,37.5075],[126.81183,37.50773],[126.81234,37.51029],[126.81239,37.51062],[126.81243,37.51086],[126.81266,37.51226]]}},{"type":"Feature","properties":{"class":"major","highway":"tertiary","sidewalk":"likely","lanes":0,"name":"길주로","oneway":false},"geometry":{"type":"LineString","coordinates":[[126.81135,37.50624],[126.81371,37.5059],[126.81499,37.50574],[126.81566,37.50566],[126.81706,37.50573],[126.81894,37.50582],[126.82184,37.50597]]}},{"type":"Feature","properties":{"class":"major","highway":"tertiary","sidewalk":"likely","lanes":0,"name":"길주로","oneway":false},"geometry":{"type":"LineString","coordinates":[[126.80843,37.50661],[126.80891,37.50656],[126.80971,37.50646],[126.81021,37.50639],[126.81135,37.50624]]}},{"type":"Feature","properties":{"class":"major","highway":"tertiary","sidewalk":"likely","lanes":0,"name":"역곡로","oneway":false},"geometry":{"type":"LineString","coordinates":[[126.81447,37.51868],[126.81459,37.5191],[126.81464,37.51929],[126.81466,37.51936],[126.81484,37.51997],[126.81491,37.52022],[126.81497,37.52058],[126.81501,37.52087],[126.81502,37.5209]]}},{"type":"Feature","properties":{"class":"major","highway":"tertiary","sidewalk":"likely","lanes":0,"name":"삼작로","oneway":false},"geometry":{"type":"LineString","coordinates":[[126.81321,37.51949],[126.81334,37.51939],[126.81386,37.51902],[126.81399,37.51894],[126.81447,37.51868]]}},{"type":"Feature","properties":{"class":"major","highway":"tertiary","sidewalk":"likely","lanes":0,"name":"역곡로","oneway":false},"geometry":{"type":"LineString","coordinates":[[126.81275,37.51283],[126.81286,37.51319],[126.81295,37.51346],[126.81301,37.51368],[126.81336,37.51486],[126.81337,37.51491],[126.8135,37.51537],[126.81367,37.51599]]}},{"type":"Feature","properties":{"class":"major","highway":"tertiary","sidewalk":"likely","lanes":0,"name":"여월로","oneway":false},"geometry":{"type":"LineString","coordinates":[[126.81275,37.51283],[126.81346,37.51286]]}},{"type":"Feature","properties":{"class":"major","highway":"tertiary","sidewalk":"likely","lanes":0,"name":"삼작로","oneway":false},"geometry":{"type":"LineString","coordinates":[[126.81244,37.51966],[126.81259,37.51963],[126.81304,37.51953],[126.81321,37.51949]]}},{"type":"Feature","properties":{"class":"major","highway":"tertiary","sidewalk":"likely","lanes":0,"name":"역곡로","oneway":false},"geometry":{"type":"LineString","coordinates":[[126.81367,37.51599],[126.81425,37.51796],[126.81428,37.51806],[126.81435,37.51827],[126.81447,37.51868]]}},{"type":"Feature","properties":{"class":"major","highway":"tertiary","sidewalk":"likely","lanes":0,"name":"삼작로","oneway":false},"geometry":{"type":"LineString","coordinates":[[126.80718,37.51989],[126.80797,37.5199],[126.80877,37.5199],[126.80902,37.51991],[126.8092,37.51991],[126.80945,37.51991],[126.81127,37.51992],[126.81225,37.51971],[126.81244,37.51966]]}},{"type":"Feature","properties":{"class":"major","highway":"tertiary_link","sidewalk":"likely","lanes":0,"name":"","oneway":true},"geometry":{"type":"LineString","coordinates":[[126.81272,37.51985],[126.81277,37.51975],[126.81272,37.51966],[126.81259,37.51963]]}},{"type":"Feature","properties":{"class":"minor","highway":"residential","sidewalk":"unknown","lanes":0,"name":"삼작로","oneway":false},"geometry":{"type":"LineString","coordinates":[[126.8195,37.51841],[126.81988,37.51838],[126.82027,37.51836],[126.82065,37.51834],[126.82104,37.51832],[126.82135,37.51831],[126.82142,37.51831]]}},{"type":"Feature","properties":{"class":"major","highway":"tertiary","sidewalk":"likely","lanes":0,"name":"역곡로","oneway":false},"geometry":{"type":"LineString","coordinates":[[126.81266,37.51226],[126.81275,37.51283]]}},{"type":"Feature","properties":{"class":"major","highway":"tertiary","sidewalk":"likely","lanes":0,"name":"여월로","oneway":false},"geometry":{"type":"LineString","coordinates":[[126.81346,37.51286],[126.81389,37.51287]]}},{"type":"Feature","properties":{"class":"alley","highway":"service","sidewalk":"unknown","lanes":0,"name":"역곡로344번길","oneway":true},"geometry":{"type":"LineString","coordinates":[[126.81719,37.51286],[126.81751,37.51288],[126.81851,37.51298],[126.8185,37.51308],[126.81722,37.51297]]}},{"type":"Feature","properties":{"class":"minor","highway":"residential","sidewalk":"unknown","lanes":0,"name":"","oneway":false},"geometry":{"type":"LineString","coordinates":[[126.81484,37.51824],[126.81468,37.51762],[126.81578,37.51757]]}}]}