{"type":"FeatureCollection","features":[{"type":"Feature","properties":{"class":"major","highway":"secondary","sidewalk":"likely","lanes":0,"name":"서하남로","oneway":false},"geometry":{"type":"LineString","coordinates":[[127.16627,37.51588],[127.16601,37.51576],[127.16522,37.51545],[127.1645,37.51518],[127.16378,37.51499],[127.16314,37.51486],[127.16151,37.51459],[127.1613,37.51456],[127.16076,37.51451],[127.16024,37.51447],[127.15823,37.51441]]}},{"type":"Feature","properties":{"class":"major","highway":"motorway","sidewalk":"likely","lanes":4,"name":"수도권제1순환고속도로","oneway":true},"geometry":{"type":"LineString","coordinates":[[127.15629,37.51321],[127.16068,37.51392],[127.1635,37.5144],[127.1646,37.51458],[127.16548,37.51471],[127.16733,37.51497],[127.16941,37.5152],[127.17105,37.51541],[127.17551,37.51622]]}},{"type":"Feature","properties":{"class":"major","highway":"motorway","sidewalk":"likely","lanes":2,"name":"수도권제1순환고속도로","oneway":true},"geometry":{"type":"LineString","coordinates":[[127.17511,37.51679],[127.17424,37.51663],[127.17294,37.51636],[127.17135,37.51602],[127.17034,37.51579],[127.16614,37.515]]}},{"type":"Feature","properties":{"class":"major","highway":"motorway","sidewalk":"likely","lanes":2,"name":"수도권제1순환고속도로","oneway":true},"geometry":{"type":"LineString","coordinates":[[127.1831,37.51825],[127.17511,37.51679]]}},{"type":"Feature","properties":{"class":"major","highway":"motorway","sidewalk":"likely","lanes":2,"name":"수도권제1순환고속도로","oneway":true},"geometry":{"type":"LineString","coordinates":[[127.17522,37.51651],[127.17433,37.51635],[127.17353,37.5162],[127.17039,37.51565],[127.16959,37.51552],[127.16614,37.515]]}},{"type":"Feature","properties":{"class":"major","highway":"motorway","sidewalk":"likely","lanes":4,"name":"수도권제1순환고속도로","oneway":true},"geometry":{"type":"LineString","coordinates":[[127.17551,37.51622],[127.18309,37.5177]]}},{"type":"Feature","properties":{"class":"major","highway":"motorway","sidewalk":"likely","lanes":2,"name":"수도권제1순환고속도로","oneway":true},"geometry":{"type":"LineString","coordinates":[[127.18309,37.51795],[127.17522,37.51651]]}},{"type":"Feature","properties":{"class":"minor","highway":"residential","sidewalk":"unknown","lanes":0,"name":"감북로","oneway":false},"geometry":{"type":"LineString","coordinates":[[127.16601,37.51576],[127.16592,37.51587],[127.16581,37.51605],[127.16532,37.51609],[127.16525,37.51609],[127.16483,37.51607],[127.16458,37.51603],[127.16323,37.51595],[127.16315,37.51595],[127.16222,37.5159],[127.1614,37.51585]]}},{"type":"Feature","properties":{"class":"alley","highway":"service","sidewalk":"unknown","lanes":0,"name":"","oneway":false},"geometry":{"type":"LineString","coordinates":[[127.17621,37.51602],[127.17591,37.51595],[127.17506,37.51588],[127.1745,37.51583],[127.17425,37.51581],[127.17312,37.51559],[127.17236,37.51545],[127.1715,37.51529],[127.17121,37.51523],[127.17104,37.5152],[127.17065,37.51516],[127.16998,37.51508],[127.16972,37.51504],[127.1688,37.51497],[127.16818,37.5149],[127.16719,37.51477]]}},{"type":"Feature","properties":{"class":"minor","highway":"residential","sidewalk":"unknown","lanes":0,"name":"감북로","oneway":false},"geometry":{"type":"LineString","coordinates":[[127.15739,37.51446],[127.15753,37.51449],[127.15792,37.51455],[127.15794,37.51455],[127.15815,37.51463],[127.15885,37.51488],[127.1591,37.515],[127.1594,37.51521],[127.15971,37.51537],[127.15991,37.51546],[127.16017,37.51559],[127.16039,37.51572]]}},{"type":"Feature","properties":{"class":"major","highway":"tertiary","sidewalk":"likely","lanes":0,"name":"","oneway":false},"geometry":{"type":"LineString","coordinates":[[127.16136,37.5151],[127.1612,37.51511],[127.16112,37.51512],[127.16103,37.51509],[127.16098,37.51502],[127.16095,37.51494],[127.16098,37.51481],[127.16099,37.51473]]}},{"type":"Feature","properties":{"class":"minor","highway":"unclassified","sidewalk":"unknown","lanes":0,"name":"","oneway":false},"geometry":{"type":"LineString","coordinates":[[127.1614,37.51585],[127.1614,37.51574],[127.1614,37.51559],[127.16136,37.5151],[127.16135,37.51487],[127.16133,37.5147],[127.1613,37.51456]]}},{"type":"Feature","properties":{"class":"major","highway":"motorway","sidewalk":"likely","lanes":4,"name":"수도권제1순환고속도로","oneway":true},"geometry":{"type":"LineString","coordinates":[[127.16614,37.515],[127.16573,37.51493],[127.16454,37.51473],[127.16448,37.51472],[127.16168,37.51428],[127.16105,37.5142],[127.15791,37.51364],[127.1564,37.51342]]}},{"type":"Feature","properties":{"class":"minor","highway":"unclassified","sidewalk":"unknown","lanes":0,"name":"","oneway":false},"geometry":{"type":"LineString","coordinates":[[127.1731,37.52257],[127.17323,37.52252],[127.17331,37.52247],[127.17343,37.52235],[127.17355,37.52223],[127.1736,37.52216],[127.17363,37.52209],[127.17365,37.52198],[127.17367,37.52188],[127.1737,37.52175],[127.17378,37.52167],[127.17388,37.52161],[127.17406,37.52159],[127.17439,37.52158],[127.17469,37.52158],[127.175,37.52155],[127.17509,37.52153],[127.17514,37.52148],[127.17516,37.52132],[127.17517,37.52123],[127.17523,37.52089],[127.17527,37.52073],[127.17527,37.52056],[127.17527,37.52021],[127.17528,37.52001],[127.17531,37.51988],[127.17535,37.51977],[127.17539,37.51969]]}},{"type":"Feature","properties":{"class":"alley","highway":"service","sidewalk":"unknown","lanes":0,"name":"","oneway":false},"geometry":{"type":"LineString","coordinates":[[127.1707,37.51819],[127.1707,37.51902],[127.1707,37.51955],[127.1707,37.52007],[127.1707,37.52059],[127.1707,37.52142]]}},{"type":"Feature","properties":{"class":"alley","highway":"service","sidewalk":"unknown","lanes":0,"name":"","oneway":false},"geometry":{"type":"LineString","coordinates":[[127.1707,37.52142],[127.17161,37.52144],[127.17254,37.52145],[127.17258,37.52143],[127.17261,37.52139],[127.17261,37.52061],[127.17261,37.52008],[127.17259,37.51818]]}},{"type":"Feature","properties":{"class":"alley","highway":"service","sidewalk":"unknown","lanes":0,"name":"","oneway":false},"geometry":{"type":"LineString","coordinates":[[127.1707,37.52142],[127.17062,37.52141],[127.17055,37.52137],[127.17048,37.52131],[127.1704,37.52122],[127.17034,37.5211],[127.17029,37.5209],[127.17025,37.52081],[127.17022,37.52071],[127.17021,37.52051],[127.17018,37.52018],[127.17018,37.51977],[127.17019,37.51935],[127.1702,37.51896],[127.17022,37.51855],[127.17023,37.5185],[127.17026,37.51844],[127.17037,37.51833],[127.17047,37.51824],[127.17057,37.5182],[127.1707,37.51819],[127.17244,37.51818],[127.17259,37.51818],[127.17331,37.51817],[127.17392,37.51815],[127.17401,37.51816],[127.17408,37.51819],[127.1741,37.51823],[127.17411,37.51877],[127.17413,37.51904],[127.17416,37.5191],[127.17424,37.51913],[127.17449,37.51912],[127.17477,37.51911],[127.17504,37.51907],[127.1751,37.51906],[127.17517,37.51906],[127.17528,37.51905]]}},{"type":"Feature","properties":{"class":"alley","highway":"service","sidewalk":"unknown","lanes":0,"name":"","oneway":false},"geometry":{"type":"LineString","coordinates":[[127.1707,37.51955],[127.17194,37.51955]]}},{"type":"Feature","properties":{"class":"alley","highway":"service","sidewalk":"unknown","lanes":0,"name":"","oneway":false},"geometry":{"type":"LineString","coordinates":[[127.1707,37.51902],[127.17194,37.51902]]}},{"type":"Feature","properties":{"class":"alley","highway":"service","sidewalk":"unknown","lanes":0,"name":"","oneway":false},"geometry":{"type":"LineString","coordinates":[[127.17244,37.51818],[127.17244,37.518],[127.17247,37.51788],[127.17254,37.51782],[127.17268,37.51775]]}},{"type":"Feature","properties":{"class":"minor","highway":"residential","sidewalk":"unknown","lanes":0,"name":"감북로","oneway":false},"geometry":{"type":"LineString","coordinates":[[127.16039,37.51572],[127.16051,37.51578],[127.1607,37.51581],[127.16087,37.51583],[127.16108,37.51585],[127.16124,37.51585],[127.1614,37.51585]]}},{"type":"Feature","properties":{"class":"minor","highway":"residential","sidewalk":"unknown","lanes":0,"name":"","oneway":false},"geometry":{"type":"LineString","coordinates":[[127.16039,37.51572],[127.16019,37.51586],[127.15993,37.51601],[127.15981,37.5161],[127.15988,37.51623],[127.15998,37.51639],[127.16003,37.51655],[127.16008,37.5167],[127.16012,37.5169],[127.16016,37.51705],[127.16023,37.51729],[127.16032,37.51748],[127.16045,37.51763],[127.16059,37.51782],[127.1607,37.518],[127.16083,37.51814],[127.16096,37.51828],[127.16105,37.51841],[127.16111,37.51853],[127.16114,37.51867],[127.16115,37.51878],[127.16115,37.51885],[127.16119,37.51896],[127.16127,37.51908],[127.16139,37.5192],[127.16149,37.51929],[127.16155,37.51933],[127.16161,37.5194],[127.16165,37.51949],[127.16167,37.51958],[127.16169,37.51966],[127.16172,37.51975],[127.16175,37.51987],[127.16175,37.51997],[127.16175,37.52003],[127.16174,37.5201],[127.16173,37.52022],[127.16172,37.52027],[127.16167,37.52033]]}},{"type":"Feature","properties":{"class":"minor","highway":"residential","sidewalk":"unknown","lanes":0,"name":"","oneway":false},"geometry":{"type":"LineString","coordinates":[[127.15976,37.52028],[127.15995,37.52025],[127.15999,37.52024],[127.16011,37.52021],[127.16024,37.52016],[127.16044,37.52008],[127.16061,37.52002],[127.16072,37.51998],[127.16081,37.51997],[127.16092,37.52002],[127.16108,37.5201],[127.16124,37.52019],[127.16137,37.52024],[127.1615,37.52027],[127.16161,37.52029],[127.16167,37.52033]]}},{"type":"Feature","properties":{"class":"major","highway":"secondary","sidewalk":"likely","lanes":0,"name":"서하남로","oneway":true},"geometry":{"type":"LineString","coordinates":[[127.17552,37.52041],[127.17548,37.52009],[127.17539,37.51969]]}},{"type":"Feature","properties":{"class":"major","highway":"secondary","sidewalk":"likely","lanes":0,"name":"서하남로","oneway":true},"geometry":{"type":"LineString","coordinates":[[127.17539,37.51969],[127.17532,37.51946],[127.17526,37.51928]]}},{"type":"Feature","properties":{"class":"major","highway":"secondary","sidewalk":"likely","lanes":0,"name":"서하남로","oneway":true},"geometry":{"type":"LineString","coordinates":[[127.17526,37.51928],[127.17517,37.51906],[127.17507,37.51888],[127.17494,37.51869],[127.17478,37.51852],[127.17463,37.51836],[127.17444,37.5182],[127.17417,37.51804],[127.17399,37.51794],[127.17371,37.5178],[127.17194,37.51708]]}},{"type":"Feature","properties":{"class":"major","highway":"motorway_link","sidewalk":"likely","lanes":0,"name":"","oneway":true},"geometry":{"type":"LineString","coordinates":[[127.16533,37.5219],[127.16611,37.52049],[127.1662,37.5203],[127.16644,37.51982],[127.16661,37.51947],[127.16671,37.51932]]}},{"type":"Feature","properties":{"class":"major","highway":"motorway_link","sidewalk":"likely","lanes":2,"name":"","oneway":true},"geometry":{"type":"LineString","coordinates":[[127.16918,37.51778],[127.1687,37.5182],[127.16824,37.51864],[127.16782,37.51912],[127.16745,37.51968]]}},{"type":"Feature","properties":{"class":"alley","highway":"service","sidewalk":"unknown","lanes":0,"name":"","oneway":false},"geometry":{"type":"LineString","coordinates":[[127.1747,37.51546],[127.17476,37.51542],[127.17483,37.51542],[127.17513,37.51549],[127.1752,37.51556],[127.17521,37.51557]]}},{"type":"Feature","properties":{"class":"alley","highway":"service","sidewalk":"unknown","lanes":0,"name":"","oneway":false},"geometry":{"type":"LineString","coordinates":[[127.17152,37.51537],[127.17153,37.51558]]}},{"type":"Feature","properties":{"class":"alley","highway":"service","sidewalk":"unknown","lanes":0,"name":"","oneway":false},"geometry":{"type":"LineString","coordinates":[[127.17151,37.51575],[127.17142,37.51611]]}},{"type":"Feature","properties":{"class":"alley","highway":"service","sidewalk":"unknown","lanes":0,"name":"","oneway":false},"geometry":{"type":"LineString","coordinates":[[127.17142,37.51611],[127.17129,37.51664],[127.17124,37.5167],[127.17121,37.51675]]}},{"type":"Feature","properties":{"class":"alley","highway":"service","sidewalk":"unknown","lanes":0,"name":"","oneway":false},"geometry":{"type":"LineString","coordinates":[[127.1745,37.51583],[127.1747,37.51546],[127.17466,37.51539],[127.17453,37.51521],[127.17438,37.51506],[127.17423,37.51497],[127.17411,37.51491],[127.17403,37.51487],[127.17389,37.51485],[127.17383,37.51483],[127.17372,37.51476],[127.17361,37.5147],[127.17351,37.51468],[127.17336,37.51462],[127.17325,37.51455],[127.17315,37.51445],[127.17306,37.5143],[127.17301,37.51425],[127.17279,37.51413],[127.17266,37.51405],[127.17257,37.51399],[127.1725,37.51397],[127.17242,37.51397],[127.17238,37.51398],[127.17221,37.51405],[127.1721,37.5141],[127.17195,37.51415],[127.17187,37.51417],[127.17179,37.51417],[127.1717,37.51417],[127.17168,37.51418],[127.17166,37.51419],[127.17156,37.51424],[127.17145,37.51432],[127.17139,37.5144],[127.17133,37.51449],[127.17132,37.51456],[127.1713,37.51463],[127.17135,37.5148],[127.1715,37.51524],[127.1715,37.51529],[127.17152,37.51537]]}},{"type":"Feature","properties":{"class":"major","highway":"motorway_link","sidewalk":"likely","lanes":1,"name":"","oneway":true},"geometry":{"type":"LineString","coordinates":[[127.16815,37.51449],[127.16843,37.51459],[127.16864,37.51469],[127.16886,37.51482],[127.16908,37.51498],[127.16933,37.51525],[127.16949,37.51546],[127.16962,37.51571],[127.16971,37.51593],[127.16977,37.51622],[127.1698,37.51648],[127.16976,37.51673],[127.16974,37.51684],[127.16971,37.51695]]}},{"type":"Feature","properties":{"class":"major","highway":"motorway","sidewalk":"likely","lanes":3,"name":"세종포천고속도로","oneway":true},"geometry":{"type":"LineString","coordinates":[[127.16628,37.52082],[127.16697,37.51955],[127.16739,37.51878],[127.16807,37.51749],[127.16846,37.51668]]}},{"type":"Feature","properties":{"class":"major","highway":"motorway","sidewalk":"likely","lanes":3,"name":"세종포천고속도로","oneway":true},"geometry":{"type":"LineString","coordinates":[[127.16863,37.51672],[127.16846,37.51707],[127.16795,37.51808],[127.16687,37.52016],[127.16648,37.52088]]}},{"type":"Feature","properties":{"class":"major","highway":"motorway","sidewalk":"likely","lanes":3,"name":"세종포천고속도로","oneway":true},"geometry":{"type":"LineString","coordinates":[[127.16846,37.51668],[127.1698,37.51409]]}},{"type":"Feature","properties":{"class":"major","highway":"motorway","sidewalk":"likely","lanes":3,"name":"세종포천고속도로","oneway":true},"geometry":{"type":"LineString","coordinates":[[127.16997,37.51413],[127.16981,37.51447],[127.1695,37.51508],[127.16863,37.51672]]}},{"type":"Feature","properties":{"class":"major","highway":"motorway_link","sidewalk":"likely","lanes":0,"name":"","oneway":true},"geometry":{"type":"LineString","coordinates":[[127.17049,37.51454],[127.17032,37.51481],[127.17013,37.51504],[127.16988,37.51527],[127.16966,37.51544],[127.16958,37.51549],[127.1694,37.51561],[127.16914,37.51572],[127.16894,37.51578],[127.16874,37.51586],[127.16845,37.51594]]}},{"type":"Feature","properties":{"class":"major","highway":"motorway_link","sidewalk":"likely","lanes":0,"name":"","oneway":true},"geometry":{"type":"LineString","coordinates":[[127.16719,37.51643],[127.16704,37.51621],[127.1669,37.51604],[127.16673,37.51587],[127.16655,37.51574],[127.16601,37.51545]]}},{"type":"Feature","properties":{"class":"major","highway":"motorway_link","sidewalk":"likely","lanes":0,"name":"","oneway":true},"geometry":{"type":"LineString","coordinates":[[127.16845,37.51594],[127.16803,37.51596],[127.1676,37.51592],[127.16715,37.51582]]}},{"type":"Feature","properties":{"class":"major","highway":"motorway_link","sidewalk":"likely","lanes":0,"name":"","oneway":true},"geometry":{"type":"LineString","coordinates":[[127.16715,37.51582],[127.16664,37.51566],[127.16601,37.51545]]}},{"type":"Feature","properties":{"class":"major","highway":"motorway_link","sidewalk":"likely","lanes":0,"name":"","oneway":true},"geometry":{"type":"LineString","coordinates":[[127.16795,37.51808],[127.16779,37.51859],[127.16775,37.51882],[127.16774,37.51906]]}},{"type":"Feature","properties":{"class":"major","highway":"motorway_link","sidewalk":"likely","lanes":0,"name":"","oneway":true},"geometry":{"type":"LineString","coordinates":[[127.1677,37.51947],[127.16766,37.51972],[127.16762,37.51989],[127.16755,37.52012],[127.16745,37.52038],[127.16736,37.52059],[127.16726,37.52079],[127.16716,37.52098],[127.16709,37.52107],[127.16684,37.52146],[127.16661,37.52179]]}},{"type":"Feature","properties":{"class":"major","highway":"motorway_link","sidewalk":"likely","lanes":0,"name":"","oneway":true},"geometry":{"type":"LineString","coordinates":[[127.16774,37.51906],[127.1677,37.51947]]}},{"type":"Feature","properties":{"class":"major","highway":"motorway_link","sidewalk":"likely","lanes":0,"name":"","oneway":true},"geometry":{"type":"LineString","coordinates":[[127.16824,37.51658],[127.16948,37.51425]]}},{"type":"Feature","properties":{"class":"major","highway":"motorway_link","sidewalk":"likely","lanes":0,"name":"","oneway":true},"geometry":{"type":"LineString","coordinates":[[127.16589,37.52004],[127.16594,37.51974],[127.16604,37.51948],[127.16611,37.51934],[127.16617,37.51921],[127.16626,37.51909],[127.1664,37.51891],[127.16653,37.51879],[127.16682,37.51854],[127.16705,37.51839],[127.16722,37.51827],[127.16736,37.51815],[127.16747,37.51804],[127.16759,37.51789],[127.16774,37.51766],[127.16801,37.51704],[127.16814,37.51679],[127.16824,37.51658]]}},{"type":"Feature","properties":{"class":"major","highway":"motorway_link","sidewalk":"likely","lanes":0,"name":"","oneway":true},"geometry":{"type":"LineString","coordinates":[[127.16741,37.5178],[127.16744,37.51765],[127.16746,37.5174],[127.16744,37.51711],[127.16735,37.51677],[127.16719,37.51643]]}},{"type":"Feature","properties":{"class":"major","highway":"motorway_link","sidewalk":"likely","lanes":0,"name":"","oneway":true},"geometry":{"type":"LineString","coordinates":[[127.16718,37.5184],[127.16741,37.5178]]}},{"type":"Feature","properties":{"class":"major","highway":"motorway_link","sidewalk":"likely","lanes":0,"name":"","oneway":true},"geometry":{"type":"LineString","coordinates":[[127.16472,37.52261],[127.16513,37.52188],[127.16526,37.5216],[127.16534,37.52139],[127.16538,37.52114],[127.16544,37.52084],[127.16551,37.52058],[127.16559,37.52037],[127.16571,37.52013],[127.16581,37.51998]]}},{"type":"Feature","properties":{"class":"alley","highway":"service","sidewalk":"unknown","lanes":0,"name":"","oneway":false},"geometry":{"type":"LineString","coordinates":[[127.17424,37.51913],[127.17404,37.5197]]}},{"type":"Feature","properties":{"class":"alley","highway":"service","sidewalk":"unknown","lanes":0,"name":"","oneway":false},"geometry":{"type":"LineString","coordinates":[[127.17398,37.51994],[127.17392,37.51994],[127.17387,37.51994],[127.17381,37.51992],[127.17377,37.51989],[127.17375,37.51985],[127.17374,37.5198],[127.17375,37.51976],[127.17378,37.51972],[127.17382,37.51968],[127.17387,37.51967],[127.17393,37.51966],[127.17399,37.51967],[127.17404,37.5197],[127.17408,37.51973],[127.1741,37.51978],[127.17409,37.51983],[127.17407,37.51987],[127.17403,37.51991],[127.17398,37.51994]]}},{"type":"Feature","properties":{"class":"major","highway":"motorway_link","sidewalk":"likely","lanes":0,"name":"","oneway":true},"geometry":{"type":"LineString","coordinates":[[127.16408,37.51482],[127.16105,37.5142]]}},{"type":"Feature","properties":{"class":"major","highway":"motorway_link","sidewalk":"likely","lanes":0,"name":"","oneway":true},"geometry":{"type":"LineString","coordinates":[[127.16601,37.51545],[127.16483,37.51502],[127.16428,37.51487],[127.16408,37.51482]]}},{"type":"Feature","properties":{"class":"major","highway":"motorway_link","sidewalk":"likely","lanes":0,"name":"","oneway":true},"geometry":{"type":"LineString","coordinates":[[127.16608,37.51961],[127.16618,37.51949],[127.16632,37.51936],[127.1665,37.51921],[127.16666,37.51908],[127.1668,37.51897],[127.16703,37.51869],[127.16718,37.5184]]}},{"type":"Feature","properties":{"class":"major","highway":"motorway_link","sidewalk":"likely","lanes":0,"name":"","oneway":true},"geometry":{"type":"LineString","coordinates":[[127.16581,37.51998],[127.16608,37.51961]]}},{"type":"Feature","properties":{"class":"major","highway":"motorway_link","sidewalk":"likely","lanes":0,"name":"","oneway":true},"geometry":{"type":"LineString","coordinates":[[127.16671,37.51932],[127.16703,37.51869]]}},{"type":"Feature","properties":{"class":"major","highway":"motorway_link","sidewalk":"likely","lanes":0,"name":"","oneway":true},"geometry":{"type":"LineString","coordinates":[[127.16745,37.51968],[127.16678,37.52095],[127.16667,37.52114],[127.16657,37.52133],[127.16631,37.52183]]}},{"type":"Feature","properties":{"class":"alley","highway":"service","sidewalk":"unknown","lanes":0,"name":"","oneway":false},"geometry":{"type":"LineString","coordinates":[[127.16323,37.51595],[127.16322,37.5161],[127.16323,37.51617],[127.16325,37.51622],[127.16329,37.51627],[127.16337,37.51634],[127.16347,37.51641],[127.16356,37.51648],[127.16362,37.51653],[127.16369,37.51659],[127.16375,37.51665],[127.1638,37.51669],[127.16387,37.51675],[127.1639,37.51679],[127.16391,37.51683],[127.16393,37.5169],[127.16395,37.51697],[127.16397,37.51705],[127.16401,37.51719],[127.16403,37.5173],[127.16404,37.51738],[127.16403,37.51743],[127.16402,37.51748],[127.16401,37.51753],[127.16401,37.51756],[127.16403,37.51759],[127.16405,37.51763],[127.1641,37.51766],[127.16414,37.51769],[127.16419,37.51775],[127.16422,37.51778],[127.16425,37.51783],[127.16426,37.51788],[127.16426,37.51793],[127.16426,37.51798],[127.16426,37.51801],[127.16426,37.51804],[127.16428,37.51808],[127.16433,37.51813],[127.16436,37.51816]]}},{"type":"Feature","properties":{"class":"alley","highway":"service","sidewalk":"unknown","lanes":0,"name":"","oneway":false},"geometry":{"type":"LineString","coordinates":[[127.16369,37.51659],[127.16384,37.51654],[127.16393,37.51652],[127.16405,37.5165],[127.16421,37.51648],[127.16433,37.51646],[127.16435,37.51645]]}},{"type":"Feature","properties":{"class":"alley","highway":"service","sidewalk":"unknown","lanes":0,"name":"","oneway":false},"geometry":{"type":"LineString","coordinates":[[127.16435,37.51645],[127.16438,37.51642],[127.16439,37.5164],[127.16439,37.51637],[127.1644,37.51635],[127.16447,37.51633],[127.16451,37.51635],[127.16454,37.51636],[127.16458,37.51639],[127.16463,37.51641],[127.1647,37.51643],[127.1648,37.51644],[127.16488,37.51645],[127.16496,37.51647],[127.16502,37.51647],[127.1651,37.51646],[127.16516,37.51645],[127.16521,37.51644],[127.16524,37.51642],[127.16526,37.51639],[127.16527,37.51632],[127.16532,37.51609]]}},{"type":"Feature","properties":{"class":"minor","highway":"residential","sidewalk":"unknown","lanes":0,"name":"","oneway":false},"geometry":{"type":"LineString","coordinates":[[127.16051,37.51947],[127.16062,37.51937],[127.16078,37.51923],[127.16083,37.51911],[127.1609,37.519],[127.16105,37.51892],[127.16115,37.51885]]}},{"type":"Feature","properties":{"class":"minor","highway":"residential","sidewalk":"unknown","lanes":0,"name":"","oneway":false},"geometry":{"type":"LineString","coordinates":[[127.15897,37.51876],[127.15918,37.51871],[127.1597,37.51859],[127.15981,37.51859],[127.15988,37.51863],[127.16007,37.51887],[127.16022,37.51899],[127.16028,37.51912],[127.16026,37.51926],[127.16031,37.51935],[127.16039,37.51945],[127.16051,37.51947],[127.16064,37.51957],[127.1608,37.51966],[127.16085,37.51979],[127.16081,37.51997]]}},{"type":"Feature","properties":{"class":"major","highway":"motorway_link","sidewalk":"likely","lanes":0,"name":"","oneway":true},"geometry":{"type":"LineString","coordinates":[[127.16745,37.51968],[127.16734,37.52002],[127.16726,37.52029],[127.16714,37.52061],[127.16699,37.52093],[127.16679,37.5213],[127.16657,37.52163],[127.16647,37.52182],[127.16624,37.52225],[127.16585,37.52302],[127.16583,37.52307],[127.16528,37.52405]]}},{"type":"Feature","properties":{"class":"minor","highway":"unclassified","sidewalk":"unknown","lanes":0,"name":"","oneway":false},"geometry":{"type":"LineString","coordinates":[[127.17481,37.51841],[127.17487,37.51838],[127.17499,37.51831],[127.17506,37.51829],[127.17515,37.5183],[127.17521,37.51834],[127.17558,37.51865],[127.17598,37.51888],[127.17606,37.51888],[127.17612,37.51887],[127.17617,37.51884],[127.17618,37.5188],[127.17617,37.51875],[127.17614,37.51869],[127.17617,37.51865],[127.17622,37.51863],[127.17629,37.51863],[127.17636,37.51866],[127.17654,37.51883],[127.17668,37.519],[127.17673,37.51912],[127.17671,37.51925],[127.17668,37.51938],[127.1767,37.51946],[127.17682,37.5195],[127.17703,37.51956],[127.17727,37.51959],[127.17748,37.51971],[127.1777,37.51973],[127.17786,37.51979],[127.17794,37.51989],[127.17803,37.52001],[127.17808,37.52013],[127.17822,37.52017],[127.17841,37.52017],[127.1785,37.52024],[127.17853,37.5204],[127.1785,37.5205],[127.17836,37.52062]]}},{"type":"Feature","properties":{"class":"alley","highway":"service","sidewalk":"unknown","lanes":0,"name":"","oneway":false},"geometry":{"type":"LineString","coordinates":[[127.16998,37.51508],[127.17,37.51499],[127.17006,37.51491],[127.17013,37.51487],[127.17023,37.51486],[127.17029,37.51488],[127.1704,37.51491],[127.17052,37.51496],[127.17059,37.51499],[127.17066,37.515],[127.17071,37.515],[127.17078,37.51497]]}},{"type":"Feature","properties":{"class":"alley","highway":"service","sidewalk":"unknown","lanes":0,"name":"","oneway":false},"geometry":{"type":"LineString","coordinates":[[127.17433,37.51635],[127.17424,37.51663]]}},{"type":"Feature","properties":{"class":"major","highway":"motorway_link","sidewalk":"likely","lanes":1,"name":"","oneway":true},"geometry":{"type":"LineString","coordinates":[[127.16971,37.51695],[127.16962,37.51725],[127.16946,37.51747],[127.16918,37.51778]]}},{"type":"Feature","properties":{"class":"major","highway":"secondary","sidewalk":"likely","lanes":0,"name":"서하남로","oneway":true},"geometry":{"type":"LineString","coordinates":[[127.16627,37.51588],[127.16671,37.51597],[127.16708,37.51609],[127.1674,37.51618],[127.16766,37.51623],[127.16793,37.51627],[127.16825,37.51628],[127.16909,37.51627],[127.16936,37.51629],[127.1697,37.51632],[127.17058,37.51646],[127.17086,37.51654],[127.17124,37.5167],[127.17208,37.51704],[127.17379,37.51774],[127.1741,37.51789],[127.17432,37.51802],[127.17452,37.51816],[127.1747,37.5183],[127.17481,37.51841],[127.17497,37.51857],[127.17508,37.51871],[127.17519,37.51888],[127.17528,37.51905],[127.17537,37.51925],[127.17547,37.51952],[127.17549,37.5196]]}},{"type":"Feature","properties":{"class":"minor","highway":"unclassified","sidewalk":"unknown","lanes":0,"name":"","oneway":true},"geometry":{"type":"LineString","coordinates":[[127.17549,37.5196],[127.17539,37.51969]]}},{"type":"Feature","properties":{"class":"major","highway":"secondary","sidewalk":"likely","lanes":0,"name":"서하남로","oneway":true},"geometry":{"type":"LineString","coordinates":[[127.17549,37.5196],[127.17551,37.51969],[127.17556,37.51992],[127.17557,37.51998],[127.17562,37.52024],[127.17565,37.5204],[127.17568,37.52054],[127.17573,37.52066],[127.17579,37.52078],[127.17591,37.52094],[127.17595,37.52099],[127.17608,37.52114],[127.1762,37.52125],[127.17635,37.52135],[127.17759,37.52208],[127.17774,37.52215],[127.17789,37.52223]]}},{"type":"Feature","properties":{"class":"major","highway":"secondary","sidewalk":"likely","lanes":0,"name":"서하남로","oneway":true},"geometry":{"type":"LineString","coordinates":[[127.17194,37.51708],[127.17161,37.51693],[127.17121,37.51675],[127.17098,37.51668],[127.17071,37.51662],[127.17034,37.51656],[127.16988,37.5165],[127.1693,37.51643],[127.16899,37.51641],[127.16821,37.51641],[127.16787,37.51639],[127.16752,37.51634],[127.16718,37.51626],[127.16667,37.51609],[127.16627,37.51588]]}},{"type":"Feature","properties":{"class":"alley","highway":"service","sidewalk":"unknown","lanes":0,"name":"","oneway":false},"geometry":{"type":"LineString","coordinates":[[127.17153,37.51558],[127.17151,37.51575]]}},{"type":"Feature","properties":{"class":"major","highway":"tertiary","sidewalk":"likely","lanes":0,"name":"","oneway":false},"geometry":{"type":"LineString","coordinates":[[127.1612,37.5138],[127.16099,37.51473]]}},{"type":"Feature","properties":{"class":"minor","highway":"unclassified","sidewalk":"unknown","lanes":0,"name":"","oneway":false},"geometry":{"type":"LineString","coordinates":[[127.16212,37.50656],[127.16222,37.50653],[127.16281,37.50629],[127.16285,37.50628],[127.16301,37.50623],[127.16322,37.50626],[127.16493,37.5067],[127.16497,37.50678],[127.16563,37.50692],[127.16603,37.50686],[127.16716,37.50666],[127.16777,37.50653],[127.16847,37.50636],[127.16996,37.50616],[127.17052,37.50616],[127.1706,37.50617]]}},{"type":"Feature","properties":{"class":"major","highway":"tertiary","sidewalk":"likely","lanes":0,"name":"","oneway":false},"geometry":{"type":"LineString","coordinates":[[127.16347,37.50893],[127.16368,37.50932],[127.16397,37.50979],[127.16436,37.5105],[127.16458,37.51096],[127.1647,37.51124],[127.16475,37.5115],[127.16472,37.51175],[127.16467,37.51198],[127.16456,37.51222],[127.16443,37.51241],[127.16425,37.51259],[127.16393,37.51281],[127.16378,37.51289],[127.16351,37.51301],[127.16328,37.51307],[127.16304,37.51311],[127.16262,37.51311],[127.16132,37.51306]]}},{"type":"Feature","properties":{"class":"major","highway":"primary_link","sidewalk":"likely","lanes":0,"name":"","oneway":true},"geometry":{"type":"LineString","coordinates":[[127.16113,37.49817],[127.16146,37.49922],[127.1615,37.49961],[127.16151,37.50004],[127.16141,37.50048],[127.16131,37.50071],[127.1612,37.50091]]}},{"type":"Feature","properties":{"class":"major","highway":"primary","sidewalk":"likely","lanes":0,"name":"위례대로","oneway":true},"geometry":{"type":"LineString","coordinates":[[127.16101,37.4982],[127.16135,37.49925],[127.16138,37.49945],[127.16141,37.49965],[127.16142,37.49987],[127.16142,37.5001],[127.1614,37.50027],[127.16136,37.50045],[127.1612,37.50091]]}},{"type":"Feature","properties":{"class":"major","highway":"primary","sidewalk":"likely","lanes":0,"name":"위례대로","oneway":true},"geometry":{"type":"LineString","coordinates":[[127.16105,37.50086],[127.1612,37.50053],[127.16128,37.50032],[127.16132,37.50005],[127.16131,37.49985],[127.1613,37.49966],[127.16127,37.49946],[127.16123,37.49925],[127.1609,37.49822]]}},{"type":"Feature","properties":{"class":"major","highway":"primary","sidewalk":"likely","lanes":0,"name":"위례대로","oneway":true},"geometry":{"type":"LineString","coordinates":[[127.1612,37.50091],[127.16099,37.50117],[127.16075,37.50144],[127.16032,37.50178],[127.15991,37.50203]]}},{"type":"Feature","properties":{"class":"major","highway":"primary","sidewalk":"likely","lanes":0,"name":"위례대로","oneway":true},"geometry":{"type":"LineString","coordinates":[[127.15983,37.50194],[127.15999,37.50185],[127.16017,37.50173],[127.16034,37.50161],[127.16059,37.50141],[127.16079,37.50121],[127.16105,37.50086]]}},{"type":"Feature","properties":{"class":"major","highway":"primary_link","sidewalk":"likely","lanes":0,"name":"","oneway":true},"geometry":{"type":"LineString","coordinates":[[127.16105,37.50086],[127.16116,37.50053],[127.16123,37.50028],[127.16125,37.50016],[127.16126,37.50003],[127.16122,37.49967],[127.16115,37.49936],[127.16098,37.49882],[127.1608,37.49832],[127.16078,37.49826]]}},{"type":"Feature","properties":{"class":"major","highway":"tertiary","sidewalk":"likely","lanes":0,"name":"감일순환로","oneway":false},"geometry":{"type":"LineString","coordinates":[[127.16116,37.50495],[127.16127,37.50513],[127.16212,37.50656],[127.16241,37.5071],[127.16275,37.50769],[127.16347,37.50893]]}},{"type":"Feature","properties":{"class":"minor","highway":"residential","sidewalk":"unknown","lanes":0,"name":"","oneway":false},"geometry":{"type":"LineString","coordinates":[[127.16347,37.50893],[127.16361,37.50888],[127.16392,37.50877],[127.16413,37.50869],[127.16432,37.5086],[127.16462,37.50835],[127.1649,37.50795],[127.16511,37.50775],[127.16539,37.50762],[127.16573,37.50754],[127.16621,37.50749],[127.16643,37.50746],[127.16777,37.50732],[127.16827,37.50726],[127.16902,37.50718],[127.16933,37.50711],[127.16958,37.50702],[127.16983,37.50687],[127.17023,37.50643],[127.17052,37.50616]]}},{"type":"Feature","properties":{"class":"minor","highway":"residential","sidewalk":"unknown","lanes":0,"name":"","oneway":false},"geometry":{"type":"LineString","coordinates":[[127.16368,37.50932],[127.16358,37.50935],[127.162,37.50995],[127.16178,37.50954]]}},{"type":"Feature","properties":{"class":"alley","highway":"service","sidewalk":"unknown","lanes":0,"name":"","oneway":false},"geometry":{"type":"LineString","coordinates":[[127.16316,37.5116],[127.16334,37.5119],[127.16345,37.51209],[127.16377,37.51266],[127.16386,37.51275],[127.16393,37.51281]]}},{"type":"Feature","properties":{"class":"alley","highway":"service","sidewalk":"unknown","lanes":0,"name":"","oneway":false},"geometry":{"type":"LineString","coordinates":[[127.16055,37.5039],[127.16052,37.50377],[127.16052,37.50375],[127.16052,37.50373],[127.16056,37.50357],[127.1606,37.50343],[127.16066,37.50323],[127.16069,37.50319],[127.16091,37.50302]]}},{"type":"Feature","properties":{"class":"minor","highway":"residential","sidewalk":"unknown","lanes":0,"name":"","oneway":false},"geometry":{"type":"LineString","coordinates":[[127.16073,37.50422],[127.16116,37.50405],[127.16232,37.5036],[127.16273,37.50344],[127.16285,37.50344],[127.16305,37.50351],[127.1632,37.50357]]}},{"type":"Feature","properties":{"class":"minor","highway":"residential","sidewalk":"unknown","lanes":0,"name":"","oneway":false},"geometry":{"type":"LineString","coordinates":[[127.16116,37.50405],[127.16138,37.50446],[127.16175,37.50432],[127.16196,37.5042],[127.16233,37.50394],[127.16242,37.50386],[127.16242,37.50379],[127.16232,37.5036]]}},{"type":"Feature","properties":{"class":"minor","highway":"residential","sidewalk":"unknown","lanes":0,"name":"","oneway":false},"geometry":{"type":"LineString","coordinates":[[127.16313,37.50013],[127.16326,37.50012],[127.16341,37.50011],[127.16365,37.50004],[127.16393,37.49991],[127.16447,37.49958],[127.16471,37.49983],[127.16417,37.50015],[127.16393,37.49991]]}},{"type":"Feature","properties":{"class":"minor","highway":"residential","sidewalk":"unknown","lanes":0,"name":"감일순환로","oneway":false},"geometry":{"type":"LineString","coordinates":[[127.16069,37.50415],[127.16073,37.50422],[127.16111,37.50485],[127.16116,37.50495]]}},{"type":"Feature","properties":{"class":"major","highway":"secondary","sidewalk":"likely","lanes":0,"name":"감일백제로","oneway":false},"geometry":{"type":"LineString","coordinates":[[127.16168,37.49752],[127.1618,37.49753],[127.16189,37.49754],[127.16212,37.49758],[127.16231,37.49764],[127.16257,37.49777],[127.16276,37.4979],[127.16297,37.4981],[127.16315,37.4984],[127.1632,37.49857],[127.16322,37.49873],[127.16319,37.49903],[127.16315,37.49963],[127.16313,37.49991],[127.16313,37.50013],[127.16313,37.50049],[127.16315,37.50079],[127.16322,37.50112],[127.16338,37.50161],[127.16344,37.50183],[127.16346,37.5019],[127.16351,37.50211],[127.16353,37.50226],[127.16354,37.5024],[127.16355,37.50252],[127.16354,37.50265],[127.16352,37.50279],[127.16349,37.50291],[127.16345,37.50303],[127.1634,37.50317],[127.16325,37.50346],[127.1632,37.50357],[127.16311,37.50368],[127.1629,37.50395],[127.16264,37.50416],[127.16212,37.50454],[127.16189,37.50466],[127.16163,37.50476],[127.1613,37.50489],[127.16116,37.50495]]}},{"type":"Feature","properties":{"class":"major","highway":"tertiary","sidewalk":"likely","lanes":0,"name":"신우실로","oneway":false},"geometry":{"type":"LineString","coordinates":[[127.16347,37.50893],[127.16333,37.50898],[127.16178,37.50954],[127.16172,37.50955],[127.15987,37.51026]]}},{"type":"Feature","properties":{"class":"major","highway":"tertiary","sidewalk":"likely","lanes":0,"name":"","oneway":false},"geometry":{"type":"LineString","coordinates":[[127.15987,37.51026],[127.16066,37.51162],[127.16092,37.51205],[127.16106,37.51228],[127.16115,37.51245],[127.16126,37.51272],[127.1613,37.51292],[127.16132,37.51306]]}},{"type":"Feature","properties":{"class":"major","highway":"secondary","sidewalk":"likely","lanes":0,"name":"감일백제로","oneway":false},"geometry":{"type":"LineString","coordinates":[[127.16116,37.50495],[127.16102,37.505],[127.16021,37.50531],[127.15988,37.50546],[127.15964,37.50559],[127.15939,37.50575],[127.15909,37.50597],[127.15887,37.50612],[127.15861,37.50626],[127.15828,37.5064],[127.15791,37.50656],[127.15774,37.50663]]}},{"type":"Feature","properties":{"class":"major","highway":"tertiary","sidewalk":"likely","lanes":0,"name":"","oneway":false},"geometry":{"type":"LineString","coordinates":[[127.16132,37.51306],[127.1613,37.51326],[127.1613,37.51328],[127.16128,37.51349],[127.1612,37.5138]]}},{"type":"Feature","properties":{"class":"minor","highway":"residential","sidewalk":"unknown","lanes":0,"name":"감일순환로","oneway":false},"geometry":{"type":"LineString","coordinates":[[127.1606,37.504],[127.16069,37.50415]]}},{"type":"Feature","properties":{"class":"minor","highway":"residential","sidewalk":"unknown","lanes":0,"name":"","oneway":false},"geometry":{"type":"LineString","coordinates":[[127.1606,37.504],[127.16055,37.5039]]}},{"type":"Feature","properties":{"class":"alley","highway":"service","sidewalk":"unknown","lanes":0,"name":"","oneway":false},"geometry":{"type":"LineString","coordinates":[[127.16115,37.50284],[127.16102,37.50273],[127.16078,37.50292],[127.16091,37.50302]]}},{"type":"Feature","properties":{"class":"alley","highway":"service","sidewalk":"unknown","lanes":0,"name":"","oneway":false},"geometry":{"type":"LineString","coordinates":[[127.16091,37.50302],[127.161,37.50295],[127.16107,37.5029],[127.16115,37.50284]]}},{"type":"Feature","properties":{"class":"alley","highway":"service","sidewalk":"unknown","lanes":0,"name":"","oneway":false},"geometry":{"type":"LineString","coordinates":[[127.16115,37.50284],[127.16122,37.50278]]}},{"type":"Feature","properties":{"class":"alley","highway":"service","sidewalk":"unknown","lanes":0,"name":"","oneway":false},"geometry":{"type":"LineString","coordinates":[[127.16052,37.50377],[127.16116,37.50329],[127.16159,37.50311],[127.16175,37.50297]]}},{"type":"Feature","properties":{"class":"alley","highway":"service","sidewalk":"unknown","lanes":0,"name":"","oneway":false},"geometry":{"type":"LineString","coordinates":[[127.16175,37.50297],[127.16146,37.50276],[127.16143,37.50274]]}},{"type":"Feature","properties":{"class":"alley","highway":"service","sidewalk":"unknown","lanes":0,"name":"","oneway":false},"geometry":{"type":"LineString","coordinates":[[127.16175,37.50297],[127.1619,37.50283]]}},{"type":"Feature","properties":{"class":"alley","highway":"service","sidewalk":"unknown","lanes":0,"name":"","oneway":false},"geometry":{"type":"LineString","coordinates":[[127.1619,37.50283],[127.16207,37.50297],[127.16233,37.50317]]}},{"type":"Feature","properties":{"class":"alley","highway":"service","sidewalk":"unknown","lanes":0,"name":"","oneway":false},"geometry":{"type":"LineString","coordinates":[[127.1619,37.50283],[127.1619,37.50274],[127.16188,37.50263]]}},{"type":"Feature","properties":{"class":"alley","highway":"service","sidewalk":"unknown","lanes":0,"name":"","oneway":false},"geometry":{"type":"LineString","coordinates":[[127.16188,37.50263],[127.16128,37.5022],[127.16119,37.5022],[127.161,37.50234]]}},{"type":"Feature","properties":{"class":"alley","highway":"service","sidewalk":"unknown","lanes":0,"name":"","oneway":false},"geometry":{"type":"LineString","coordinates":[[127.16188,37.50263],[127.16189,37.50256],[127.16236,37.50222],[127.16238,37.5022],[127.16267,37.50199],[127.16294,37.5018]]}},{"type":"Feature","properties":{"class":"alley","highway":"service","sidewalk":"unknown","lanes":0,"name":"","oneway":false},"geometry":{"type":"LineString","coordinates":[[127.16128,37.5022],[127.16129,37.50215],[127.16151,37.50196],[127.16158,37.50196],[127.16238,37.5022]]}},{"type":"Feature","properties":{"class":"alley","highway":"service","sidewalk":"unknown","lanes":0,"name":"","oneway":false},"geometry":{"type":"LineString","coordinates":[[127.16236,37.50222],[127.16285,37.50266]]}},{"type":"Feature","properties":{"class":"alley","highway":"service","sidewalk":"unknown","lanes":0,"name":"","oneway":false},"geometry":{"type":"LineString","coordinates":[[127.16346,37.5019],[127.16336,37.50191],[127.16316,37.50194],[127.16308,37.50192],[127.16304,37.50189],[127.16294,37.5018],[127.16286,37.50173]]}},{"type":"Feature","properties":{"class":"alley","highway":"service","sidewalk":"unknown","lanes":0,"name":"","oneway":true},"geometry":{"type":"LineString","coordinates":[[127.16286,37.50173],[127.16297,37.50174],[127.16301,37.50176],[127.16305,37.50182],[127.16305,37.50186],[127.16304,37.50189]]}},{"type":"Feature","properties":{"class":"alley","highway":"service","sidewalk":"unknown","lanes":0,"name":"","oneway":false},"geometry":{"type":"LineString","coordinates":[[127.16286,37.50173],[127.1627,37.5016],[127.16267,37.50157]]}},{"type":"Feature","properties":{"class":"alley","highway":"service","sidewalk":"unknown","lanes":0,"name":"","oneway":false},"geometry":{"type":"LineString","coordinates":[[127.16109,37.50189],[127.16147,37.5016],[127.16156,37.5016],[127.16179,37.50175],[127.16199,37.50159],[127.16205,37.50157],[127.16211,37.50159],[127.16233,37.50173],[127.16242,37.50181],[127.16256,37.50193],[127.1626,37.50193],[127.1627,37.50185],[127.16286,37.50173]]}},{"type":"Feature","properties":{"class":"alley","highway":"service","sidewalk":"unknown","lanes":0,"name":"","oneway":false},"geometry":{"type":"LineString","coordinates":[[127.16242,37.50181],[127.16251,37.50175],[127.16255,37.50174],[127.1626,37.50176],[127.1627,37.50185]]}},{"type":"Feature","properties":{"class":"major","highway":"motorway_link","sidewalk":"likely","lanes":0,"name":"","oneway":true},"geometry":{"type":"LineString","coordinates":[[127.16068,37.51392],[127.16444,37.51438],[127.16528,37.51442],[127.16618,37.51441],[127.16685,37.51435]]}},{"type":"Feature","properties":{"class":"alley","highway":"service","sidewalk":"unknown","lanes":0,"name":"","oneway":false},"geometry":{"type":"LineString","coordinates":[[127.16172,37.50955],[127.16155,37.50913],[127.16159,37.50904]]}},{"type":"Feature","properties":{"class":"alley","highway":"service","sidewalk":"unknown","lanes":0,"name":"","oneway":false},"geometry":{"type":"LineString","coordinates":[[127.16275,37.50769],[127.16265,37.50772],[127.16241,37.5078],[127.1622,37.50788]]}},{"type":"Feature","properties":{"class":"alley","highway":"service","sidewalk":"unknown","lanes":0,"name":"","oneway":false},"geometry":{"type":"LineString","coordinates":[[127.16285,37.50628],[127.16295,37.50638]]}},{"type":"Feature","properties":{"class":"alley","highway":"service","sidewalk":"unknown","lanes":0,"name":"","oneway":false},"geometry":{"type":"LineString","coordinates":[[127.16458,37.51096],[127.1645,37.511],[127.16416,37.51118],[127.16388,37.51135],[127.16316,37.5116]]}},{"type":"Feature","properties":{"class":"alley","highway":"service","sidewalk":"unknown","lanes":0,"name":"","oneway":false},"geometry":{"type":"LineString","coordinates":[[127.16286,37.51133],[127.16298,37.51129]]}},{"type":"Feature","properties":{"class":"alley","highway":"service","sidewalk":"unknown","lanes":0,"name":"","oneway":false},"geometry":{"type":"LineString","coordinates":[[127.163,37.51131],[127.16328,37.51121]]}},{"type":"Feature","properties":{"class":"alley","highway":"service","sidewalk":"unknown","lanes":0,"name":"","oneway":false},"geometry":{"type":"LineString","coordinates":[[127.16273,37.51148],[127.16265,37.51151],[127.16269,37.51157]]}},{"type":"Feature","properties":{"class":"alley","highway":"service","sidewalk":"unknown","lanes":0,"name":"","oneway":false},"geometry":{"type":"LineString","coordinates":[[127.16316,37.5116],[127.16307,37.51162],[127.16304,37.51163],[127.16303,37.51159],[127.16294,37.51141],[127.1629,37.51142],[127.16286,37.51133],[127.16268,37.51139],[127.16273,37.51148],[127.16283,37.51165],[127.16303,37.51159]]}},{"type":"Feature","properties":{"class":"alley","highway":"service","sidewalk":"unknown","lanes":0,"name":"","oneway":false},"geometry":{"type":"LineString","coordinates":[[127.1628,37.51097],[127.16298,37.51129],[127.163,37.51131]]}},{"type":"Feature","properties":{"class":"alley","highway":"service","sidewalk":"unknown","lanes":0,"name":"","oneway":false},"geometry":{"type":"LineString","coordinates":[[127.163,37.51131],[127.16316,37.5116]]}},{"type":"Feature","properties":{"class":"alley","highway":"service","sidewalk":"unknown","lanes":0,"name":"","oneway":false},"geometry":{"type":"LineString","coordinates":[[127.16334,37.5119],[127.16319,37.51195],[127.16338,37.51226],[127.16319,37.51232],[127.16308,37.51212],[127.16302,37.51202],[127.16319,37.51195]]}},{"type":"Feature","properties":{"class":"alley","highway":"service","sidewalk":"unknown","lanes":0,"name":"","oneway":false},"geometry":{"type":"LineString","coordinates":[[127.16308,37.51212],[127.16295,37.51217],[127.16299,37.51224]]}},{"type":"Feature","properties":{"class":"minor","highway":"residential","sidewalk":"unknown","lanes":0,"name":"","oneway":false},"geometry":{"type":"LineString","coordinates":[[127.162,37.50995],[127.16211,37.51017]]}},{"type":"Feature","properties":{"class":"minor","highway":"residential","sidewalk":"unknown","lanes":0,"name":"","oneway":false},"geometry":{"type":"LineString","coordinates":[[127.16792,37.50409],[127.1679,37.50408],[127.16782,37.50405],[127.16748,37.50389],[127.16686,37.50385],[127.16666,37.50381],[127.16629,37.50365],[127.16594,37.50354],[127.16574,37.50353],[127.1652,37.50365],[127.16501,37.50369],[127.16458,37.50371],[127.16425,37.5037],[127.16353,37.50368],[127.16339,37.50363],[127.1632,37.50357]]}}]}