{"type":"FeatureCollection","features":[{"type":"Feature","properties":{"class":"major","highway":"trunk","sidewalk":"likely","lanes":5,"name":"올림픽대로","oneway":true},"geometry":{"type":"LineString","coordinates":[[126.99917,37.50999],[127.00104,37.51081],[127.00115,37.51085],[127.00249,37.51151],[127.00309,37.51187],[127.00342,37.51208],[127.00403,37.51257],[127.00525,37.51363],[127.00731,37.51549],[127.01046,37.5183],[127.0119,37.5196],[127.01295,37.52067],[127.01397,37.52165],[127.01525,37.52286],[127.01587,37.5234],[127.01644,37.52384],[127.01699,37.52424],[127.01811,37.52508],[127.0193,37.52597],[127.01978,37.52633],[127.02032,37.52675],[127.02072,37.52708],[127.02111,37.52748],[127.02155,37.52792],[127.02243,37.52923],[127.02326,37.53032],[127.02381,37.53115],[127.02446,37.53192],[127.02476,37.53228],[127.02509,37.53261],[127.02542,37.53292],[127.02577,37.5332],[127.02611,37.53339],[127.0265,37.53357],[127.02701,37.53375],[127.02755,37.5339],[127.02834,37.53402],[127.02885,37.53406],[127.02934,37.53408],[127.03019,37.53399],[127.03086,37.53382],[127.03117,37.53373],[127.03209,37.53346],[127.03379,37.53293],[127.03473,37.53269],[127.0361,37.53233],[127.03793,37.5319],[127.0393,37.5316],[127.04095,37.53121],[127.04164,37.53103],[127.04532,37.52989],[127.04582,37.52973],[127.04831,37.52908],[127.05143,37.52836],[127.05253,37.52812],[127.05295,37.52798],[127.05339,37.52778],[127.05355,37.52768],[127.05371,37.52758],[127.05393,37.52742],[127.05398,37.52739],[127.05433,37.52717],[127.05465,37.52687],[127.05485,37.52664],[127.05499,37.52639],[127.05542,37.52602],[127.05575,37.52572],[127.0561,37.52544],[127.05651,37.52515],[127.05695,37.52484],[127.05748,37.52451],[127.05815,37.52411],[127.05856,37.52388],[127.0607,37.52271],[127.06104,37.52247],[127.06127,37.52222],[127.06149,37.52192],[127.06168,37.52162],[127.06178,37.52146],[127.062,37.52107],[127.06212,37.52089],[127.06233,37.52069],[127.06275,37.52033],[127.06323,37.51995],[127.06465,37.51891],[127.06472,37.51888],[127.06495,37.51869],[127.06513,37.51861],[127.06547,37.51849]]}},{"type":"Feature","properties":{"class":"major","highway":"trunk","sidewalk":"likely","lanes":4,"name":"강변북로","oneway":true},"geometry":{"type":"LineString","coordinates":[[126.99176,37.51793],[126.9922,37.51819],[126.99318,37.51867],[126.9948,37.51933],[126.99569,37.51968],[126.99781,37.5205],[126.99954,37.52123],[126.99969,37.5213],[127.00069,37.52178],[127.00137,37.52232],[127.00169,37.52261],[127.00205,37.52311],[127.00232,37.52352],[127.00264,37.52406],[127.00309,37.5248],[127.00355,37.52542],[127.00411,37.52596],[127.00509,37.52667],[127.00613,37.52731],[127.00635,37.52743],[127.00707,37.52778],[127.00742,37.52794]]}},{"type":"Feature","properties":{"class":"minor","highway":"unclassified","sidewalk":"unknown","lanes":0,"name":"서빙고로62길","oneway":false},"geometry":{"type":"LineString","coordinates":[[126.99375,37.51996],[126.99376,37.51982],[126.99376,37.51978],[126.99376,37.51975],[126.99374,37.51971],[126.99372,37.51967],[126.99366,37.51963],[126.99366,37.51958],[126.99363,37.51953],[126.9936,37.51946],[126.99357,37.51939],[126.99353,37.51934],[126.99344,37.5193],[126.99339,37.51924],[126.99328,37.51905],[126.99323,37.51894],[126.99322,37.51889],[126.99315,37.51875],[126.9931,37.51869],[126.99273,37.51837],[126.99255,37.5182],[126.99219,37.51781],[126.99206,37.51769],[126.99124,37.51716],[126.99042,37.51672],[126.98961,37.51641],[126.98885,37.51623],[126.98799,37.51613],[126.98778,37.51608],[126.98769,37.51605],[126.98765,37.51602],[126.98763,37.51601],[126.98759,37.51597],[126.98755,37.51592],[126.98747,37.51584],[126.98736,37.51573],[126.98725,37.51564],[126.98716,37.51559],[126.98704,37.51555],[126.9869,37.51553],[126.98676,37.51551],[126.98649,37.51549],[126.98642,37.5155],[126.98638,37.51552],[126.98635,37.51556],[126.98633,37.5156],[126.98633,37.51565],[126.98635,37.51586],[126.98636,37.516],[126.98637,37.51612],[126.98637,37.51617]]}},{"type":"Feature","properties":{"class":"major","highway":"trunk","sidewalk":"likely","lanes":0,"name":"강변북로","oneway":true},"geometry":{"type":"LineString","coordinates":[[126.99301,37.51901],[126.99222,37.51865],[126.99069,37.51758],[126.98999,37.51726],[126.98907,37.51701],[126.98826,37.51689],[126.98741,37.5168],[126.98669,37.51673],[126.98484,37.51657],[126.98317,37.5164],[126.98173,37.5163],[126.98036,37.51626],[126.97969,37.51627],[126.97865,37.51632],[126.97847,37.51633],[126.97699,37.51643],[126.97544,37.51674],[126.9737,37.51719],[126.97272,37.51749],[126.97151,37.51796],[126.97047,37.51841],[126.96936,37.51893],[126.96915,37.51902]]}},{"type":"Feature","properties":{"class":"major","highway":"primary_link","sidewalk":"likely","lanes":0,"name":"","oneway":true},"geometry":{"type":"LineString","coordinates":[[126.98653,37.52014],[126.986,37.52009],[126.98528,37.51996]]}},{"type":"Feature","properties":{"class":"major","highway":"trunk_link","sidewalk":"likely","lanes":0,"name":"","oneway":true},"geometry":{"type":"LineString","coordinates":[[126.98752,37.50592],[126.9856,37.50504]]}},{"type":"Feature","properties":{"class":"major","highway":"tertiary","sidewalk":"likely","lanes":0,"name":"신반포로3길","oneway":false},"geometry":{"type":"LineString","coordinates":[[126.98556,37.50488],[126.98559,37.50476],[126.98571,37.50439],[126.98581,37.50408],[126.9859,37.5038],[126.986,37.50349],[126.9861,37.50317],[126.98628,37.50262],[126.98632,37.50247],[126.9864,37.5022],[126.98668,37.50148],[126.98675,37.50132],[126.98683,37.50122]]}},{"type":"Feature","properties":{"class":"major","highway":"trunk_link","sidewalk":"likely","lanes":0,"name":"","oneway":true},"geometry":{"type":"LineString","coordinates":[[126.98556,37.50488],[126.98803,37.50542],[126.98899,37.5057],[126.99008,37.50615]]}},{"type":"Feature","properties":{"class":"major","highway":"trunk","sidewalk":"likely","lanes":2,"name":"올림픽대로","oneway":true},"geometry":{"type":"LineString","coordinates":[[126.97953,37.50473],[126.98192,37.50471],[126.98278,37.50476],[126.98338,37.50482],[126.98394,37.50491],[126.98465,37.50504],[126.98701,37.50553],[126.98912,37.50592]]}},{"type":"Feature","properties":{"class":"minor","highway":"unclassified","sidewalk":"unknown","lanes":2,"name":"서빙고지하차도","oneway":false},"geometry":{"type":"LineString","coordinates":[[126.98627,37.51696],[126.98613,37.5169],[126.98577,37.51687],[126.98565,37.51686],[126.98556,37.51688]]}},{"type":"Feature","properties":{"class":"major","highway":"primary","sidewalk":"yes","lanes":4,"name":"동작대로","oneway":true},"geometry":{"type":"LineString","coordinates":[[126.98088,37.50659],[126.98201,37.51075],[126.98304,37.51466],[126.98313,37.51501],[126.98322,37.51534],[126.98333,37.51573],[126.98337,37.51619],[126.9834,37.51691],[126.98342,37.51848],[126.98344,37.51857],[126.98362,37.51914],[126.98362,37.51916],[126.98363,37.51918],[126.98369,37.51928],[126.98372,37.51933],[126.98377,37.51937],[126.9838,37.5194],[126.98383,37.51943],[126.98386,37.51945],[126.98393,37.51949],[126.98397,37.51951],[126.98403,37.51953],[126.98414,37.51957],[126.98419,37.51958],[126.98427,37.51959],[126.98454,37.51962],[126.98564,37.51972],[126.98596,37.51977]]}},{"type":"Feature","properties":{"class":"major","highway":"trunk_link","sidewalk":"likely","lanes":0,"name":"","oneway":true},"geometry":{"type":"LineString","coordinates":[[126.9856,37.50504],[126.98531,37.50494],[126.98504,37.50487],[126.9832,37.50455]]}},{"type":"Feature","properties":{"class":"alley","highway":"service","sidewalk":"unknown","lanes":0,"name":"","oneway":false},"geometry":{"type":"LineString","coordinates":[[126.97722,37.49858],[126.97728,37.49861],[126.97753,37.49876],[126.97767,37.49883],[126.97774,37.4989],[126.97781,37.49897],[126.97797,37.49901],[126.97814,37.49902],[126.97833,37.49902],[126.97854,37.49904],[126.97914,37.4992],[126.97955,37.4996],[126.98015,37.5006],[126.98005,37.50077],[126.9795,37.50172],[126.97937,37.50191]]}},{"type":"Feature","properties":{"class":"major","highway":"trunk","sidewalk":"likely","lanes":4,"name":"올림픽대로","oneway":true},"geometry":{"type":"LineString","coordinates":[[126.98191,37.50499],[126.97937,37.50503]]}},{"type":"Feature","properties":{"class":"major","highway":"trunk_link","sidewalk":"likely","lanes":0,"name":"","oneway":true},"geometry":{"type":"LineString","coordinates":[[126.9832,37.50455],[126.98275,37.50452],[126.98213,37.5044],[126.98194,37.50439],[126.98174,37.50438],[126.98102,37.5044]]}},{"type":"Feature","properties":{"class":"major","highway":"trunk_link","sidewalk":"likely","lanes":1,"name":"","oneway":true},"geometry":{"type":"LineString","coordinates":[[126.98322,37.51534],[126.98349,37.51584],[126.98361,37.51613],[126.98375,37.51627],[126.98397,37.51634],[126.9845,37.51641]]}},{"type":"Feature","properties":{"class":"alley","highway":"pedestrian","sidewalk":"unknown","lanes":0,"name":"","oneway":false},"geometry":{"type":"LineString","coordinates":[[126.98043,37.50222],[126.98049,37.50213],[126.98041,37.50164]]}},{"type":"Feature","properties":{"class":"major","highway":"trunk_link","sidewalk":"likely","lanes":0,"name":"","oneway":true},"geometry":{"type":"LineString","coordinates":[[126.98157,37.51616],[126.9826,37.51616],[126.98273,37.51611],[126.98282,37.51603],[126.98289,37.5159],[126.98289,37.5157],[126.98287,37.51497]]}},{"type":"Feature","properties":{"class":"major","highway":"primary","sidewalk":"likely","lanes":2,"name":"이수고가차도","oneway":true},"geometry":{"type":"LineString","coordinates":[[126.98515,37.49986],[126.98459,37.50031]]}},{"type":"Feature","properties":{"class":"major","highway":"primary","sidewalk":"likely","lanes":2,"name":"","oneway":true},"geometry":{"type":"LineString","coordinates":[[126.98596,37.51977],[126.98671,37.5199],[126.98721,37.52002]]}},{"type":"Feature","properties":{"class":"major","highway":"primary_link","sidewalk":"likely","lanes":0,"name":"동작대로","oneway":true},"geometry":{"type":"LineString","coordinates":[[126.98528,37.51996],[126.9848,37.5199],[126.98413,37.51987],[126.98386,37.51987],[126.98363,37.51989],[126.98361,37.51989],[126.98359,37.51989],[126.98357,37.51989],[126.98355,37.51989],[126.98349,37.51989],[126.98343,37.51987],[126.98339,37.51985],[126.98332,37.51982],[126.98329,37.51979],[126.98326,37.51977],[126.98323,37.51972],[126.9832,37.51968],[126.98319,37.51964],[126.98319,37.51959],[126.98311,37.51863]]}},{"type":"Feature","properties":{"class":"major","highway":"primary","sidewalk":"likely","lanes":0,"name":"서빙고로","oneway":true},"geometry":{"type":"LineString","coordinates":[[126.98577,37.51993],[126.98623,37.51993],[126.98665,37.51998],[126.98684,37.52],[126.987,37.52001]]}},{"type":"Feature","properties":{"class":"major","highway":"primary_link","sidewalk":"likely","lanes":0,"name":"","oneway":true},"geometry":{"type":"LineString","coordinates":[[126.9807,37.52032],[126.98162,37.52003],[126.98256,37.51973],[126.98272,37.51966],[126.98276,37.51964],[126.9828,37.5196],[126.98287,37.51953],[126.98289,37.51951],[126.98291,37.51948],[126.98297,37.51937],[126.98298,37.51935],[126.98299,37.51933],[126.98299,37.51931],[126.983,37.51928],[126.98304,37.51901],[126.98305,37.51894],[126.98311,37.51863]]}},{"type":"Feature","properties":{"class":"major","highway":"trunk_link","sidewalk":"likely","lanes":0,"name":"","oneway":true},"geometry":{"type":"LineString","coordinates":[[126.9832,37.50455],[126.98229,37.50437],[126.98206,37.50434],[126.98179,37.50432],[126.97977,37.5043]]}},{"type":"Feature","properties":{"class":"major","highway":"trunk_link","sidewalk":"likely","lanes":0,"name":"","oneway":true},"geometry":{"type":"LineString","coordinates":[[126.98102,37.5044],[126.98089,37.50442],[126.98079,37.50447],[126.9807,37.50457],[126.98067,37.50471],[126.98069,37.50488],[126.9806,37.50514],[126.98056,37.50554]]}},{"type":"Feature","properties":{"class":"major","highway":"primary","sidewalk":"likely","lanes":2,"name":"동작대로","oneway":true},"geometry":{"type":"LineString","coordinates":[[126.98333,37.49722],[126.98342,37.49737],[126.98353,37.49753],[126.98435,37.49837],[126.98467,37.49875],[126.98477,37.49892],[126.98482,37.49908],[126.98486,37.49927],[126.98486,37.49952],[126.98479,37.49981],[126.98466,37.50006],[126.98457,37.50019],[126.98447,37.50029],[126.98433,37.50041]]}},{"type":"Feature","properties":{"class":"major","highway":"primary","sidewalk":"likely","lanes":3,"name":"동작대로","oneway":true},"geometry":{"type":"LineString","coordinates":[[126.98159,37.50177],[126.98133,37.50184],[126.98109,37.50189],[126.98065,37.50195],[126.97998,37.502]]}},{"type":"Feature","properties":{"class":"major","highway":"primary","sidewalk":"likely","lanes":2,"name":"이수고가차도","oneway":true},"geometry":{"type":"LineString","coordinates":[[126.98128,37.50172],[126.98164,37.50165],[126.98211,37.50151],[126.98237,37.50141],[126.98262,37.50128],[126.98288,37.50112],[126.98317,37.50093],[126.98408,37.5004],[126.98452,37.50009],[126.98496,37.49969],[126.98574,37.49899],[126.98598,37.4988],[126.98625,37.49864],[126.98647,37.49852],[126.9867,37.49843],[126.98696,37.49835],[126.98727,37.49828],[126.98758,37.49824],[126.98779,37.49822],[126.98819,37.49825]]}},{"type":"Feature","properties":{"class":"major","highway":"secondary","sidewalk":"likely","lanes":6,"name":"신반포로","oneway":true},"geometry":{"type":"LineString","coordinates":[[126.98555,37.50036],[126.98577,37.50046],[126.98596,37.50062],[126.9862,37.50083],[126.98627,37.50089],[126.98637,37.50097]]}},{"type":"Feature","properties":{"class":"major","highway":"primary","sidewalk":"likely","lanes":2,"name":"동작대로","oneway":true},"geometry":{"type":"LineString","coordinates":[[126.98407,37.50032],[126.98441,37.50001],[126.98455,37.49987],[126.98461,37.49977],[126.98463,37.49965],[126.98461,37.49947],[126.98461,37.49924]]}},{"type":"Feature","properties":{"class":"alley","highway":"service","sidewalk":"unknown","lanes":0,"name":"","oneway":true},"geometry":{"type":"LineString","coordinates":[[126.98584,37.50644],[126.98532,37.50658],[126.98506,37.50661],[126.9847,37.50662],[126.98457,37.5066],[126.98464,37.50649],[126.98478,37.50644],[126.98499,37.5064],[126.98524,37.50645],[126.98533,37.50647],[126.98584,37.50644]]}},{"type":"Feature","properties":{"class":"alley","highway":"service","sidewalk":"unknown","lanes":0,"name":"","oneway":false},"geometry":{"type":"LineString","coordinates":[[126.98584,37.50644],[126.98614,37.5064],[126.98663,37.50641],[126.98676,37.50641],[126.98697,37.50641],[126.9872,37.50639],[126.98766,37.50633],[126.98816,37.50636]]}},{"type":"Feature","properties":{"class":"major","highway":"primary","sidewalk":"likely","lanes":0,"name":"서빙고로","oneway":false},"geometry":{"type":"LineString","coordinates":[[126.97965,37.52076],[126.98015,37.5206],[126.98073,37.52042],[126.98234,37.51994],[126.98261,37.51987],[126.98284,37.51982],[126.98303,37.51981],[126.98323,37.51979],[126.98351,37.51976],[126.98441,37.51977],[126.98496,37.51981],[126.98577,37.51993]]}},{"type":"Feature","properties":{"class":"alley","highway":"service","sidewalk":"unknown","lanes":0,"name":"","oneway":false},"geometry":{"type":"LineString","coordinates":[[126.98303,37.51981],[126.98306,37.51994]]}},{"type":"Feature","properties":{"class":"alley","highway":"service","sidewalk":"unknown","lanes":0,"name":"","oneway":false},"geometry":{"type":"LineString","coordinates":[[126.98323,37.51979],[126.98328,37.51993],[126.98331,37.52005]]}},{"type":"Feature","properties":{"class":"major","highway":"trunk_link","sidewalk":"likely","lanes":1,"name":"","oneway":true},"geometry":{"type":"LineString","coordinates":[[126.97985,37.51607],[126.98157,37.51616]]}},{"type":"Feature","properties":{"class":"minor","highway":"unclassified","sidewalk":"unknown","lanes":2,"name":"서빙고나들목","oneway":false},"geometry":{"type":"LineString","coordinates":[[126.98641,37.51661],[126.98645,37.51685],[126.98643,37.51691],[126.98639,37.51696],[126.98633,37.51697],[126.98627,37.51696]]}},{"type":"Feature","properties":{"class":"minor","highway":"unclassified","sidewalk":"unknown","lanes":0,"name":"","oneway":false},"geometry":{"type":"LineString","coordinates":[[126.98637,37.51617],[126.9864,37.51643]]}},{"type":"Feature","properties":{"class":"minor","highway":"unclassified","sidewalk":"unknown","lanes":0,"name":"","oneway":false},"geometry":{"type":"LineString","coordinates":[[126.9864,37.51643],[126.98641,37.51661]]}},{"type":"Feature","properties":{"class":"minor","highway":"residential","sidewalk":"unknown","lanes":0,"name":"이촌로89길","oneway":false},"geometry":{"type":"LineString","coordinates":[[126.97915,37.51823],[126.97959,37.51911],[126.97958,37.51919],[126.97972,37.5192],[126.98048,37.519]]}},{"type":"Feature","properties":{"class":"minor","highway":"residential","sidewalk":"unknown","lanes":0,"name":"이촌로89길","oneway":false},"geometry":{"type":"LineString","coordinates":[[126.98094,37.51939],[126.98113,37.51971],[126.98128,37.51973],[126.98165,37.51958],[126.98167,37.51949],[126.98098,37.51922],[126.98048,37.519]]}},{"type":"Feature","properties":{"class":"minor","highway":"residential","sidewalk":"unknown","lanes":0,"name":"이촌로89길","oneway":false},"geometry":{"type":"LineString","coordinates":[[126.98098,37.51922],[126.98094,37.51939]]}},{"type":"Feature","properties":{"class":"minor","highway":"residential","sidewalk":"unknown","lanes":0,"name":"이촌로87길","oneway":false},"geometry":{"type":"LineString","coordinates":[[126.97899,37.52019],[126.98069,37.51967],[126.98084,37.51941],[126.98094,37.51939]]}},{"type":"Feature","properties":{"class":"major","highway":"tertiary","sidewalk":"likely","lanes":0,"name":"이촌로","oneway":false},"geometry":{"type":"LineString","coordinates":[[126.98279,37.5178],[126.98369,37.51781]]}},{"type":"Feature","properties":{"class":"major","highway":"tertiary","sidewalk":"likely","lanes":0,"name":"이촌로","oneway":false},"geometry":{"type":"LineString","coordinates":[[126.98369,37.51781],[126.98513,37.51783],[126.9855,37.51783]]}},{"type":"Feature","properties":{"class":"alley","highway":"service","sidewalk":"unknown","lanes":0,"name":"","oneway":false},"geometry":{"type":"LineString","coordinates":[[126.98959,37.5187],[126.98678,37.51867]]}},{"type":"Feature","properties":{"class":"alley","highway":"service","sidewalk":"unknown","lanes":0,"name":"","oneway":false},"geometry":{"type":"LineString","coordinates":[[126.98679,37.51812],[126.98655,37.51788]]}},{"type":"Feature","properties":{"class":"alley","highway":"service","sidewalk":"unknown","lanes":0,"name":"","oneway":false},"geometry":{"type":"LineString","coordinates":[[126.98655,37.51788],[126.98681,37.51777]]}},{"type":"Feature","properties":{"class":"alley","highway":"service","sidewalk":"unknown","lanes":0,"name":"","oneway":false},"geometry":{"type":"LineString","coordinates":[[126.98655,37.51788],[126.98573,37.51787],[126.9855,37.51783]]}},{"type":"Feature","properties":{"class":"alley","highway":"service","sidewalk":"unknown","lanes":0,"name":"","oneway":false},"geometry":{"type":"LineString","coordinates":[[126.98679,37.51822],[126.9896,37.51825]]}},{"type":"Feature","properties":{"class":"alley","highway":"service","sidewalk":"unknown","lanes":0,"name":"","oneway":false},"geometry":{"type":"LineString","coordinates":[[126.98568,37.51896],[126.9857,37.51839],[126.98573,37.51787],[126.98575,37.51726],[126.98576,37.51709]]}},{"type":"Feature","properties":{"class":"alley","highway":"service","sidewalk":"unknown","lanes":0,"name":"","oneway":false},"geometry":{"type":"LineString","coordinates":[[126.98568,37.51896],[126.98678,37.51897]]}},{"type":"Feature","properties":{"class":"alley","highway":"service","sidewalk":"unknown","lanes":0,"name":"","oneway":false},"geometry":{"type":"LineString","coordinates":[[126.98679,37.51812],[126.98679,37.51822],[126.98678,37.51839],[126.98678,37.51867],[126.98678,37.51897]]}},{"type":"Feature","properties":{"class":"alley","highway":"service","sidewalk":"unknown","lanes":0,"name":"","oneway":false},"geometry":{"type":"LineString","coordinates":[[126.98812,37.51725],[126.98676,37.51723]]}},{"type":"Feature","properties":{"class":"alley","highway":"service","sidewalk":"unknown","lanes":0,"name":"","oneway":false},"geometry":{"type":"LineString","coordinates":[[126.98575,37.51726],[126.98669,37.51728]]}},{"type":"Feature","properties":{"class":"alley","highway":"service","sidewalk":"unknown","lanes":0,"name":"","oneway":false},"geometry":{"type":"LineString","coordinates":[[126.98669,37.51728],[126.98668,37.51748],[126.98682,37.51756],[126.98682,37.5176],[126.98681,37.51777]]}},{"type":"Feature","properties":{"class":"alley","highway":"service","sidewalk":"unknown","lanes":0,"name":"","oneway":false},"geometry":{"type":"LineString","coordinates":[[126.98676,37.51723],[126.98669,37.51728]]}},{"type":"Feature","properties":{"class":"alley","highway":"service","sidewalk":"unknown","lanes":0,"name":"","oneway":false},"geometry":{"type":"LineString","coordinates":[[126.98682,37.5176],[126.98961,37.51767]]}},{"type":"Feature","properties":{"class":"alley","highway":"service","sidewalk":"unknown","lanes":0,"name":"","oneway":false},"geometry":{"type":"LineString","coordinates":[[126.98678,37.51839],[126.9857,37.51839]]}},{"type":"Feature","properties":{"class":"alley","highway":"service","sidewalk":"unknown","lanes":0,"name":"","oneway":false},"geometry":{"type":"LineString","coordinates":[[126.98116,37.51669],[126.98276,37.51697]]}},{"type":"Feature","properties":{"class":"alley","highway":"service","sidewalk":"unknown","lanes":0,"name":"","oneway":false},"geometry":{"type":"LineString","coordinates":[[126.98154,37.51731],[126.98278,37.51751],[126.9829,37.51753],[126.98294,37.51753]]}},{"type":"Feature","properties":{"class":"alley","highway":"service","sidewalk":"unknown","lanes":0,"name":"","oneway":false},"geometry":{"type":"LineString","coordinates":[[126.98276,37.51674],[126.98276,37.51697],[126.98278,37.51751]]}},{"type":"Feature","properties":{"class":"minor","highway":"residential","sidewalk":"unknown","lanes":0,"name":"이촌로","oneway":true},"geometry":{"type":"LineString","coordinates":[[126.98294,37.51771],[126.98294,37.51786]]}},{"type":"Feature","properties":{"class":"major","highway":"trunk_link","sidewalk":"likely","lanes":0,"name":"","oneway":true},"geometry":{"type":"LineString","coordinates":[[126.98279,37.51656],[126.98269,37.51649],[126.98254,37.51645],[126.98242,37.51643],[126.98173,37.5163]]}},{"type":"Feature","properties":{"class":"minor","highway":"residential","sidewalk":"unknown","lanes":0,"name":"이촌로","oneway":true},"geometry":{"type":"LineString","coordinates":[[126.98294,37.51786],[126.98169,37.51785],[126.98162,37.51779]]}},{"type":"Feature","properties":{"class":"minor","highway":"residential","sidewalk":"unknown","lanes":0,"name":"이촌로","oneway":true},"geometry":{"type":"LineString","coordinates":[[126.98162,37.51779],[126.98169,37.51771],[126.98208,37.5177],[126.98294,37.51771]]}},{"type":"Feature","properties":{"class":"minor","highway":"residential","sidewalk":"unknown","lanes":0,"name":"","oneway":true},"geometry":{"type":"LineString","coordinates":[[126.98513,37.51783],[126.98495,37.51786],[126.98362,37.51785],[126.98362,37.51774],[126.98379,37.51774],[126.98423,37.51775],[126.98486,37.51775],[126.98513,37.51783]]}},{"type":"Feature","properties":{"class":"minor","highway":"residential","sidewalk":"unknown","lanes":0,"name":"이촌로","oneway":false},"geometry":{"type":"LineString","coordinates":[[126.98294,37.51771],[126.98294,37.51753],[126.98291,37.5168],[126.98288,37.51666],[126.98279,37.51656]]}},{"type":"Feature","properties":{"class":"alley","highway":"service","sidewalk":"unknown","lanes":0,"name":"","oneway":false},"geometry":{"type":"LineString","coordinates":[[126.97093,37.51753],[126.97109,37.51749],[126.97154,37.51738],[126.97259,37.51711],[126.97272,37.51707],[126.97305,37.51697],[126.97364,37.5168],[126.97384,37.51673],[126.97442,37.51644],[126.97449,37.51641],[126.97459,37.51639],[126.97497,37.51633],[126.97503,37.51631],[126.97516,37.51629],[126.97524,37.51628],[126.97559,37.51621],[126.976,37.51615],[126.97698,37.51596],[126.97711,37.51594],[126.97729,37.51594],[126.97869,37.5159],[126.97906,37.51587],[126.97923,37.51586],[126.9814,37.51582],[126.98144,37.51582],[126.98153,37.51582],[126.98163,37.5158],[126.98174,37.51578],[126.98228,37.51565],[126.98241,37.51563],[126.98255,37.51562],[126.98279,37.51561],[126.98309,37.51561],[126.98321,37.51561],[126.98347,37.51564],[126.98359,37.51567],[126.98416,37.51581],[126.9844,37.51587],[126.98451,37.51588],[126.98468,37.5159],[126.98508,37.51592],[126.98596,37.516],[126.98609,37.51599],[126.98636,37.516]]}},{"type":"Feature","properties":{"class":"major","highway":"trunk_link","sidewalk":"likely","lanes":1,"name":"","oneway":true},"geometry":{"type":"LineString","coordinates":[[126.9845,37.51641],[126.98476,37.51643],[126.98494,37.51642],[126.98516,37.5164],[126.98535,37.51636],[126.98552,37.51633],[126.98596,37.5163]]}},{"type":"Feature","properties":{"class":"major","highway":"tertiary","sidewalk":"likely","lanes":0,"name":"이촌로","oneway":false},"geometry":{"type":"LineString","coordinates":[[126.96541,37.52173],[126.96619,37.52163],[126.96765,37.52146],[126.96779,37.52144],[126.96877,37.52134],[126.96957,37.52124],[126.96972,37.5212],[126.97024,37.52108],[126.9706,37.52097],[126.97153,37.52069],[126.97156,37.52068],[126.97193,37.52056],[126.97234,37.52041],[126.97248,37.52037],[126.97339,37.52007],[126.9738,37.51994],[126.97454,37.51971],[126.97478,37.51963],[126.97574,37.51933],[126.97635,37.51913],[126.97708,37.5189],[126.97818,37.51855],[126.97915,37.51823],[126.97947,37.51813],[126.98011,37.51795],[126.98084,37.51784],[126.98162,37.51779],[126.98279,37.5178]]}},{"type":"Feature","properties":{"class":"alley","highway":"service","sidewalk":"unknown","lanes":0,"name":"","oneway":false},"geometry":{"type":"LineString","coordinates":[[126.97958,37.51919],[126.97958,37.51926],[126.97975,37.51966],[126.9803,37.51951]]}},{"type":"Feature","properties":{"class":"minor","highway":"residential","sidewalk":"yes","lanes":1,"name":"이촌로","oneway":false},"geometry":{"type":"LineString","coordinates":[[126.9927,37.51928],[126.99149,37.51832],[126.99107,37.51802],[126.99064,37.51775],[126.99022,37.51752],[126.98975,37.51734],[126.98951,37.51727],[126.98907,37.51716],[126.98863,37.51708],[126.98813,37.51701],[126.98614,37.51682],[126.98564,37.51677]]}},{"type":"Feature","properties":{"class":"alley","highway":"service","sidewalk":"unknown","lanes":0,"name":"","oneway":false},"geometry":{"type":"LineString","coordinates":[[126.9855,37.51783],[126.98547,37.51901],[126.98541,37.51904],[126.98499,37.51904]]}},{"type":"Feature","properties":{"class":"minor","highway":"residential","sidewalk":"unknown","lanes":0,"name":"","oneway":false},"geometry":{"type":"LineString","coordinates":[[126.98362,37.51785],[126.98361,37.51789],[126.98336,37.51824],[126.98337,37.51895],[126.98328,37.519],[126.98319,37.51903],[126.98309,37.519],[126.983,37.51894],[126.98294,37.51786]]}},{"type":"Feature","properties":{"class":"alley","highway":"service","sidewalk":"unknown","lanes":0,"name":"","oneway":true},"geometry":{"type":"LineString","coordinates":[[126.98495,37.51786],[126.98486,37.51792],[126.98378,37.51794],[126.98361,37.51789]]}},{"type":"Feature","properties":{"class":"alley","highway":"service","sidewalk":"unknown","lanes":0,"name":"","oneway":false},"geometry":{"type":"LineString","coordinates":[[126.98499,37.51904],[126.98499,37.51857]]}},{"type":"Feature","properties":{"class":"alley","highway":"service","sidewalk":"unknown","lanes":0,"name":"","oneway":true},"geometry":{"type":"LineString","coordinates":[[126.98379,37.51774],[126.98384,37.51761],[126.98423,37.5176],[126.98423,37.51775]]}},{"type":"Feature","properties":{"class":"alley","highway":"service","sidewalk":"unknown","lanes":0,"name":"","oneway":false},"geometry":{"type":"LineString","coordinates":[[126.98534,37.51697],[126.98555,37.51698]]}},{"type":"Feature","properties":{"class":"major","highway":"trunk_link","sidewalk":"likely","lanes":0,"name":"","oneway":true},"geometry":{"type":"LineString","coordinates":[[126.98555,37.51696],[126.9855,37.51689],[126.98543,37.5168],[126.98532,37.51673],[126.98515,37.51668],[126.98484,37.51657]]}},{"type":"Feature","properties":{"class":"major","highway":"trunk","sidewalk":"likely","lanes":4,"name":"강변북로","oneway":true},"geometry":{"type":"LineString","coordinates":[[126.95314,37.52675],[126.95318,37.52655],[126.95329,37.5261],[126.95337,37.52584],[126.95348,37.52562],[126.95365,37.5253],[126.95382,37.52508],[126.95425,37.52471],[126.9565,37.52306],[126.95731,37.52258],[126.95801,37.52238],[126.95998,37.52207],[126.96031,37.522],[126.96098,37.52181],[126.9613,37.52168],[126.96188,37.52145],[126.96476,37.52035],[126.96557,37.52001],[126.97078,37.51807],[126.97257,37.51735],[126.97353,37.51703],[126.97465,37.51675],[126.97533,37.51658],[126.97601,37.51645],[126.97716,37.51625],[126.97787,37.51616],[126.97855,37.5161],[126.97974,37.51607],[126.97985,37.51607],[126.98248,37.51604],[126.98295,37.51609],[126.98375,37.5161],[126.98461,37.51614],[126.98596,37.5163],[126.98621,37.51633]]}},{"type":"Feature","properties":{"class":"major","highway":"primary","sidewalk":"likely","lanes":0,"name":"동작대로","oneway":true},"geometry":{"type":"LineString","coordinates":[[126.98172,37.50156],[126.9821,37.50142],[126.98238,37.5013],[126.98278,37.50108],[126.98363,37.50056],[126.98407,37.50032]]}},{"type":"Feature","properties":{"class":"major","highway":"trunk_link","sidewalk":"likely","lanes":0,"name":"","oneway":true},"geometry":{"type":"LineString","coordinates":[[126.98311,37.51863],[126.98306,37.51837],[126.98305,37.51833],[126.98304,37.51829],[126.98304,37.51826],[126.98301,37.51705],[126.98295,37.51669]]}},{"type":"Feature","properties":{"class":"major","highway":"trunk_link","sidewalk":"likely","lanes":0,"name":"","oneway":true},"geometry":{"type":"LineString","coordinates":[[126.98295,37.51669],[126.98293,37.51663],[126.9829,37.51659],[126.98287,37.51655],[126.98285,37.51653],[126.98283,37.51652],[126.98281,37.51651],[126.98279,37.51649],[126.98275,37.51648],[126.98271,37.51647],[126.98269,37.51646],[126.98266,37.51645],[126.98263,37.51645],[126.98242,37.51643]]}},{"type":"Feature","properties":{"class":"major","highway":"primary","sidewalk":"likely","lanes":0,"name":"동작대로","oneway":true},"geometry":{"type":"LineString","coordinates":[[126.98407,37.50032],[126.98453,37.49999],[126.98484,37.49971]]}},{"type":"Feature","properties":{"class":"major","highway":"primary","sidewalk":"likely","lanes":8,"name":"현충로","oneway":true},"geometry":{"type":"LineString","coordinates":[[126.9799,37.50186],[126.98062,37.5018],[126.98097,37.50176],[126.98128,37.50172]]}},{"type":"Feature","properties":{"class":"major","highway":"primary","sidewalk":"yes","lanes":4,"name":"동작대로","oneway":true},"geometry":{"type":"LineString","coordinates":[[126.98311,37.51863],[126.98313,37.51691],[126.98311,37.51632],[126.98307,37.51578],[126.98299,37.51541],[126.98287,37.51497],[126.98272,37.51446],[126.98056,37.50639]]}},{"type":"Feature","properties":{"class":"major","highway":"trunk_link","sidewalk":"likely","lanes":0,"name":"","oneway":true},"geometry":{"type":"LineString","coordinates":[[126.98741,37.5168],[126.98665,37.51681],[126.9858,37.51673],[126.9857,37.51674],[126.98564,37.51677]]}},{"type":"Feature","properties":{"class":"alley","highway":"service","sidewalk":"unknown","lanes":0,"name":"","oneway":true},"geometry":{"type":"LineString","coordinates":[[126.98499,37.51904],[126.98407,37.51903],[126.98337,37.51895]]}},{"type":"Feature","properties":{"class":"major","highway":"trunk_link","sidewalk":"likely","lanes":0,"name":"","oneway":true},"geometry":{"type":"LineString","coordinates":[[126.97981,37.50423],[126.98187,37.50424],[126.98219,37.50427],[126.98511,37.50479],[126.98556,37.50488]]}},{"type":"Feature","properties":{"class":"major","highway":"primary","sidewalk":"likely","lanes":0,"name":"","oneway":true},"geometry":{"type":"LineString","coordinates":[[126.98316,37.50127],[126.98269,37.50148],[126.9822,37.50169],[126.9819,37.5018],[126.9818,37.50184],[126.98171,37.50189],[126.98162,37.50193]]}},{"type":"Feature","properties":{"class":"major","highway":"secondary","sidewalk":"likely","lanes":0,"name":"신반포로","oneway":false},"geometry":{"type":"LineString","coordinates":[[126.98506,37.49992],[126.98536,37.50019]]}},{"type":"Feature","properties":{"class":"major","highway":"primary","sidewalk":"likely","lanes":2,"name":"이수고가차도","oneway":true},"geometry":{"type":"LineString","coordinates":[[126.98459,37.50031],[126.98424,37.50054],[126.98333,37.50109]]}},{"type":"Feature","properties":{"class":"major","highway":"primary_link","sidewalk":"likely","lanes":1,"name":"","oneway":true},"geometry":{"type":"LineString","coordinates":[[126.98333,37.50109],[126.98303,37.50128],[126.98269,37.50148]]}},{"type":"Feature","properties":{"class":"major","highway":"primary","sidewalk":"likely","lanes":2,"name":"","oneway":true},"geometry":{"type":"LineString","coordinates":[[126.98433,37.50041],[126.98362,37.50084],[126.98333,37.50103],[126.98299,37.50123]]}},{"type":"Feature","properties":{"class":"major","highway":"primary","sidewalk":"likely","lanes":1,"name":"","oneway":true},"geometry":{"type":"LineString","coordinates":[[126.98485,37.49997],[126.98427,37.50039],[126.98311,37.50106],[126.98284,37.50123],[126.98257,37.50143],[126.98201,37.50167],[126.98159,37.50177]]}},{"type":"Feature","properties":{"class":"major","highway":"primary_link","sidewalk":"likely","lanes":1,"name":"","oneway":true},"geometry":{"type":"LineString","coordinates":[[126.9854,37.49994],[126.98542,37.50003],[126.98546,37.50012],[126.98555,37.50036]]}},{"type":"Feature","properties":{"class":"major","highway":"primary_link","sidewalk":"likely","lanes":1,"name":"","oneway":true},"geometry":{"type":"LineString","coordinates":[[126.98555,37.50036],[126.98527,37.50028],[126.98511,37.50024],[126.98493,37.50024]]}},{"type":"Feature","properties":{"class":"major","highway":"primary_link","sidewalk":"likely","lanes":0,"name":"","oneway":true},"geometry":{"type":"LineString","coordinates":[[126.98555,37.50036],[126.98522,37.50019],[126.98509,37.50012],[126.98507,37.5001]]}},{"type":"Feature","properties":{"class":"major","highway":"primary_link","sidewalk":"likely","lanes":0,"name":"","oneway":true},"geometry":{"type":"LineString","coordinates":[[126.98492,37.50002],[126.98485,37.49997]]}},{"type":"Feature","properties":{"class":"major","highway":"primary_link","sidewalk":"likely","lanes":0,"name":"","oneway":true},"geometry":{"type":"LineString","coordinates":[[126.98507,37.5001],[126.98492,37.50002]]}},{"type":"Feature","properties":{"class":"alley","highway":"service","sidewalk":"unknown","lanes":0,"name":"","oneway":false},"geometry":{"type":"LineString","coordinates":[[126.98005,37.50077],[126.97928,37.50021],[126.97926,37.50021],[126.97925,37.50021],[126.97923,37.50022],[126.97913,37.5003],[126.97871,37.49998],[126.97851,37.50013]]}},{"type":"Feature","properties":{"class":"major","highway":"primary","sidewalk":"likely","lanes":3,"name":"동작대로","oneway":true},"geometry":{"type":"LineString","coordinates":[[126.98162,37.50193],[126.98142,37.50205],[126.98126,37.50217],[126.98114,37.50227],[126.98101,37.50238],[126.98092,37.50248],[126.98082,37.50259],[126.98072,37.50271]]}},{"type":"Feature","properties":{"class":"major","highway":"primary","sidewalk":"likely","lanes":3,"name":"동작대로","oneway":true},"geometry":{"type":"LineString","coordinates":[[126.98072,37.50271],[126.98066,37.50281],[126.98059,37.50292],[126.98054,37.50305],[126.98049,37.50317],[126.98042,37.50343],[126.98039,37.50368],[126.98036,37.50399],[126.98036,37.5043],[126.98038,37.50456],[126.98042,37.50482],[126.98051,37.50518],[126.98056,37.50554]]}},{"type":"Feature","properties":{"class":"major","highway":"primary","sidewalk":"likely","lanes":4,"name":"동작대로","oneway":true},"geometry":{"type":"LineString","coordinates":[[126.98056,37.50639],[126.98043,37.50597],[126.98031,37.50551],[126.98012,37.50481],[126.97998,37.50422]]}},{"type":"Feature","properties":{"class":"major","highway":"trunk_link","sidewalk":"likely","lanes":0,"name":"","oneway":true},"geometry":{"type":"LineString","coordinates":[[126.98031,37.50551],[126.97997,37.50508]]}},{"type":"Feature","properties":{"class":"major","highway":"primary","sidewalk":"likely","lanes":0,"name":"동작대로","oneway":true},"geometry":{"type":"LineString","coordinates":[[126.98128,37.50172],[126.98172,37.50156]]}},{"type":"Feature","properties":{"class":"major","highway":"primary_link","sidewalk":"likely","lanes":1,"name":"","oneway":true},"geometry":{"type":"LineString","coordinates":[[126.98493,37.50024],[126.98485,37.50028],[126.98452,37.50045]]}},{"type":"Feature","properties":{"class":"major","highway":"primary","sidewalk":"likely","lanes":0,"name":"동작대로","oneway":true},"geometry":{"type":"LineString","coordinates":[[126.98499,37.49986],[126.98485,37.49997],[126.98469,37.50022]]}},{"type":"Feature","properties":{"class":"major","highway":"primary","sidewalk":"likely","lanes":0,"name":"동작대로","oneway":true},"geometry":{"type":"LineString","coordinates":[[126.98469,37.50022],[126.98452,37.50045],[126.98316,37.50127]]}},{"type":"Feature","properties":{"class":"alley","highway":"service","sidewalk":"unknown","lanes":0,"name":"","oneway":true},"geometry":{"type":"LineString","coordinates":[[126.98637,37.51612],[126.98633,37.5161],[126.98626,37.51606],[126.98618,37.51602],[126.98609,37.51599]]}},{"type":"Feature","properties":{"class":"alley","highway":"service","sidewalk":"unknown","lanes":0,"name":"","oneway":true},"geometry":{"type":"LineString","coordinates":[[126.98609,37.51599],[126.98616,37.51595],[126.98624,37.51594],[126.9863,37.51591],[126.98632,37.51589],[126.98635,37.51586]]}},{"type":"Feature","properties":{"class":"major","highway":"secondary","sidewalk":"likely","lanes":0,"name":"신반포로","oneway":false},"geometry":{"type":"LineString","coordinates":[[126.98536,37.50019],[126.98555,37.50036]]}},{"type":"Feature","properties":{"class":"major","highway":"primary_link","sidewalk":"likely","lanes":1,"name":"","oneway":true},"geometry":{"type":"LineString","coordinates":[[126.98333,37.50109],[126.98299,37.50123]]}},{"type":"Feature","properties":{"class":"major","highway":"primary","sidewalk":"likely","lanes":3,"name":"","oneway":true},"geometry":{"type":"LineString","coordinates":[[126.98299,37.50123],[126.98257,37.50143]]}},{"type":"Feature","properties":{"class":"major","highway":"primary_link","sidewalk":"likely","lanes":0,"name":"","oneway":true},"geometry":{"type":"LineString","coordinates":[[126.98056,37.50639],[126.98021,37.506],[126.98002,37.50527],[126.97997,37.50508]]}},{"type":"Feature","properties":{"class":"major","highway":"primary","sidewalk":"likely","lanes":4,"name":"동작대로","oneway":true},"geometry":{"type":"LineString","coordinates":[[126.98056,37.50554],[126.98067,37.50592],[126.98075,37.50617],[126.98088,37.50659]]}},{"type":"Feature","properties":{"class":"major","highway":"primary_link","sidewalk":"likely","lanes":0,"name":"","oneway":true},"geometry":{"type":"LineString","coordinates":[[126.98069,37.50488],[126.98073,37.50524],[126.98083,37.5058],[126.98075,37.50617]]}},{"type":"Feature","properties":{"class":"major","highway":"secondary","sidewalk":"likely","lanes":0,"name":"신반포로","oneway":true},"geometry":{"type":"LineString","coordinates":[[126.98637,37.50097],[126.98668,37.50114],[126.98675,37.50118],[126.98683,37.50122],[126.98723,37.5013],[126.9884,37.50156],[126.98866,37.50162],[126.9896,37.50183],[126.9897,37.50185],[126.99073,37.50206],[126.99081,37.50208],[126.99102,37.50213],[126.99259,37.50246],[126.99286,37.50254],[126.99332,37.50266],[126.99506,37.50311],[126.9952,37.50316],[126.99546,37.50322],[126.99752,37.50381],[126.99794,37.50394],[126.99811,37.50399],[126.99824,37.50403]]}},{"type":"Feature","properties":{"class":"major","highway":"secondary","sidewalk":"yes","lanes":0,"name":"신반포로","oneway":true},"geometry":{"type":"LineString","coordinates":[[126.9907,37.50217],[126.99049,37.50215],[126.98951,37.50194],[126.9893,37.50189],[126.98755,37.50155],[126.98731,37.5015],[126.98694,37.50142],[126.98675,37.50132],[126.9866,37.50124],[126.98655,37.50121],[126.98644,37.50112],[126.98577,37.50061],[126.98555,37.50036]]}},{"type":"Feature","properties":{"class":"alley","highway":"living_street","sidewalk":"unknown","lanes":0,"name":"","oneway":false},"geometry":{"type":"LineString","coordinates":[[126.9864,37.5022],[126.98729,37.50238],[126.98731,37.50231]]}},{"type":"Feature","properties":{"class":"alley","highway":"service","sidewalk":"unknown","lanes":0,"name":"","oneway":false},"geometry":{"type":"LineString","coordinates":[[126.98362,37.51774],[126.98354,37.51767],[126.98354,37.51745],[126.98354,37.51707],[126.98346,37.51703],[126.98345,37.51674],[126.98353,37.51669]]}},{"type":"Feature","properties":{"class":"major","highway":"trunk","sidewalk":"likely","lanes":4,"name":"강변북로","oneway":true},"geometry":{"type":"LineString","coordinates":[[126.98621,37.51633],[126.98722,37.51641]]}},{"type":"Feature","properties":{"class":"minor","highway":"residential","sidewalk":"yes","lanes":1,"name":"이촌로","oneway":false},"geometry":{"type":"LineString","coordinates":[[126.98556,37.51688],[126.98555,37.51696]]}},{"type":"Feature","properties":{"class":"minor","highway":"residential","sidewalk":"yes","lanes":1,"name":"이촌로","oneway":false},"geometry":{"type":"LineString","coordinates":[[126.98555,37.51698],[126.98554,37.51708],[126.98553,37.51728],[126.9855,37.51783]]}},{"type":"Feature","properties":{"class":"minor","highway":"residential","sidewalk":"yes","lanes":1,"name":"이촌로","oneway":false},"geometry":{"type":"LineString","coordinates":[[126.98555,37.51696],[126.98555,37.51698]]}},{"type":"Feature","properties":{"class":"minor","highway":"residential","sidewalk":"yes","lanes":1,"name":"이촌로","oneway":false},"geometry":{"type":"LineString","coordinates":[[126.98564,37.51677],[126.98559,37.51679],[126.98556,37.51688]]}},{"type":"Feature","properties":{"class":"major","highway":"primary","sidewalk":"likely","lanes":0,"name":"서빙고로","oneway":true},"geometry":{"type":"LineString","coordinates":[[126.98714,37.52026],[126.98704,37.52025],[126.98675,37.52019],[126.98653,37.52014],[126.98577,37.51993]]}},{"type":"Feature","properties":{"class":"alley","highway":"service","sidewalk":"unknown","lanes":0,"name":"","oneway":false},"geometry":{"type":"LineString","coordinates":[[126.98306,37.51994],[126.98307,37.52005]]}},{"type":"Feature","properties":{"class":"major","highway":"trunk","sidewalk":"likely","lanes":4,"name":"강변북로","oneway":true},"geometry":{"type":"LineString","coordinates":[[126.98248,37.51604],[126.983,37.51598],[126.98351,37.516],[126.98461,37.51614]]}},{"type":"Feature","properties":{"class":"major","highway":"trunk_link","sidewalk":"likely","lanes":2,"name":"","oneway":true},"geometry":{"type":"LineString","coordinates":[[126.98201,37.50167],[126.98166,37.50183],[126.98144,37.5019],[126.98115,37.50197],[126.98061,37.50205],[126.98051,37.50207],[126.98039,37.50212],[126.9803,37.50218],[126.98019,37.50227],[126.97889,37.50376],[126.97864,37.50415]]}},{"type":"Feature","properties":{"class":"major","highway":"trunk","sidewalk":"likely","lanes":2,"name":"올림픽대로","oneway":true},"geometry":{"type":"LineString","coordinates":[[126.9796,37.50461],[126.98165,37.5046],[126.98205,37.50461],[126.98266,37.50464],[126.9831,37.50468],[126.98356,37.50474],[126.98401,37.50481],[126.98494,37.50499],[126.98661,37.50535],[126.98706,37.50544],[126.98912,37.50592]]}},{"type":"Feature","properties":{"class":"major","highway":"trunk","sidewalk":"likely","lanes":4,"name":"올림픽대로","oneway":true},"geometry":{"type":"LineString","coordinates":[[126.9983,37.51022],[126.99634,37.5093],[126.99557,37.50888],[126.99497,37.50856],[126.99458,37.50837],[126.99327,37.50771],[126.99236,37.50729],[126.99092,37.5067],[126.98959,37.50623],[126.9875,37.50579],[126.98475,37.50522],[126.98416,37.50512],[126.98354,37.50505],[126.98282,37.505],[126.98191,37.50499]]}},{"type":"Feature","properties":{"class":"major","highway":"primary_link","sidewalk":"likely","lanes":0,"name":"녹사평대로11길","oneway":true},"geometry":{"type":"LineString","coordinates":[[126.9933,37.52321],[126.99339,37.52291],[126.99353,37.52215],[126.99354,37.52207],[126.99381,37.52043],[126.99384,37.52033],[126.99383,37.52028],[126.99386,37.52009],[126.99389,37.51998]]}},{"type":"Feature","properties":{"class":"major","highway":"primary","sidewalk":"likely","lanes":4,"name":"반포대로","oneway":true},"geometry":{"type":"LineString","coordinates":[[126.99874,37.51013],[126.99869,37.51022],[126.99848,37.51066],[126.99753,37.51256],[126.99628,37.51511],[126.99615,37.51538]]}},{"type":"Feature","properties":{"class":"major","highway":"trunk","sidewalk":"likely","lanes":4,"name":"올림픽대로","oneway":true},"geometry":{"type":"LineString","coordinates":[[127.00268,37.51239],[127.00246,37.51225],[127.00202,37.51198],[127.00173,37.51183],[127.00159,37.51176],[126.99925,37.51067],[126.99881,37.51047]]}},{"type":"Feature","properties":{"class":"major","highway":"trunk_link","sidewalk":"likely","lanes":0,"name":"","oneway":true},"geometry":{"type":"LineString","coordinates":[[126.99092,37.5067],[126.99056,37.50664],[126.98938,37.5064],[126.98869,37.50627],[126.98831,37.50619],[126.98787,37.50609],[126.98752,37.50592]]}},{"type":"Feature","properties":{"class":"major","highway":"trunk","sidewalk":"likely","lanes":4,"name":"올림픽대로","oneway":true},"geometry":{"type":"LineString","coordinates":[[126.99835,37.50966],[126.99917,37.50999]]}},{"type":"Feature","properties":{"class":"major","highway":"trunk_link","sidewalk":"likely","lanes":1,"name":"","oneway":true},"geometry":{"type":"LineString","coordinates":[[126.98982,37.5169],[126.99009,37.51709],[126.99057,37.51734],[126.9913,37.51784],[126.99198,37.51836],[126.99223,37.51853],[126.9925,37.51867],[126.9928,37.51881]]}},{"type":"Feature","properties":{"class":"major","highway":"primary","sidewalk":"likely","lanes":0,"name":"사평지하도로","oneway":true},"geometry":{"type":"LineString","coordinates":[[127.00251,37.50179],[127.00068,37.50107],[126.99985,37.50077]]}},{"type":"Feature","properties":{"class":"major","highway":"trunk_link","sidewalk":"likely","lanes":0,"name":"","oneway":true},"geometry":{"type":"LineString","coordinates":[[126.99651,37.50884],[126.99712,37.50902],[126.99813,37.50945],[126.99826,37.50948],[126.99834,37.50949],[126.9984,37.50949],[126.99851,37.50947],[126.99857,37.50946],[126.99864,37.50944],[126.99869,37.50942],[126.99876,37.50938],[126.99879,37.50935],[126.99883,37.5093],[126.99885,37.50926],[126.99902,37.50903]]}},{"type":"Feature","properties":{"class":"major","highway":"trunk_link","sidewalk":"likely","lanes":0,"name":"","oneway":true},"geometry":{"type":"LineString","coordinates":[[127.00268,37.51239],[127.00221,37.51197],[127.00184,37.51171],[127.00095,37.51096],[127.00047,37.51069],[126.99933,37.51019],[126.9991,37.51008],[126.99904,37.51006],[126.99896,37.51005],[126.9989,37.51006],[126.99882,37.51008],[126.99874,37.51013]]}},{"type":"Feature","properties":{"class":"major","highway":"trunk_link","sidewalk":"likely","lanes":0,"name":"","oneway":true},"geometry":{"type":"LineString","coordinates":[[126.99921,37.50932],[126.99917,37.50953],[126.99917,37.5096],[126.99918,37.50966],[126.99919,37.50972],[126.9992,37.50978],[126.99925,37.50985],[126.99929,37.50989],[126.99935,37.50998],[127.00036,37.5104],[127.00104,37.51081]]}},{"type":"Feature","properties":{"class":"major","highway":"primary_link","sidewalk":"likely","lanes":0,"name":"","oneway":true},"geometry":{"type":"LineString","coordinates":[[127.00293,37.50274],[127.00294,37.50249],[127.00292,37.50237],[127.00285,37.50225],[127.00264,37.50202],[127.00258,37.50195],[127.00248,37.50187],[127.00209,37.5017],[127.00062,37.50112],[126.99985,37.50077]]}},{"type":"Feature","properties":{"class":"major","highway":"trunk","sidewalk":"likely","lanes":4,"name":"올림픽대로","oneway":true},"geometry":{"type":"LineString","coordinates":[[126.98912,37.50592],[126.98954,37.506],[126.99008,37.50615],[126.99072,37.50636],[126.99164,37.50674],[126.99438,37.50792],[126.99596,37.5086],[126.99651,37.50884]]}},{"type":"Feature","properties":{"class":"major","highway":"secondary","sidewalk":"likely","lanes":0,"name":"신반포로","oneway":true},"geometry":{"type":"LineString","coordinates":[[126.99824,37.50403],[126.99946,37.50439],[127.00064,37.50476],[127.00091,37.50483],[127.00101,37.50487]]}},{"type":"Feature","properties":{"class":"major","highway":"primary","sidewalk":"likely","lanes":0,"name":"서빙고로","oneway":true},"geometry":{"type":"LineString","coordinates":[[126.9921,37.51992],[126.99256,37.5199],[126.99262,37.51991],[126.99304,37.51991],[126.99341,37.51993]]}},{"type":"Feature","properties":{"class":"major","highway":"tertiary","sidewalk":"likely","lanes":1,"name":"서빙고지하차도","oneway":false},"geometry":{"type":"LineString","coordinates":[[126.9927,37.51928],[126.9928,37.51939],[126.99285,37.51954],[126.99281,37.51973],[126.99269,37.51987],[126.99247,37.51997],[126.99218,37.52003]]}},{"type":"Feature","properties":{"class":"major","highway":"primary","sidewalk":"likely","lanes":0,"name":"서빙고로","oneway":true},"geometry":{"type":"LineString","coordinates":[[126.99341,37.51993],[126.99358,37.51995],[126.99367,37.51995],[126.99375,37.51996],[126.99389,37.51998],[126.99403,37.52]]}},{"type":"Feature","properties":{"class":"minor","highway":"residential","sidewalk":"unknown","lanes":0,"name":"","oneway":false},"geometry":{"type":"LineString","coordinates":[[126.99542,37.50787],[126.99546,37.50784],[126.9955,37.5078],[126.99586,37.5073],[126.99641,37.50651],[126.99717,37.50545]]}},{"type":"Feature","properties":{"class":"alley","highway":"pedestrian","sidewalk":"unknown","lanes":0,"name":"","oneway":false},"geometry":{"type":"LineString","coordinates":[[126.99091,37.50228],[126.99099,37.50206]]}},{"type":"Feature","properties":{"class":"minor","highway":"residential","sidewalk":"unknown","lanes":0,"name":"사평대로26길","oneway":false},"geometry":{"type":"LineString","coordinates":[[126.99863,37.5002],[126.99872,37.50005],[126.99895,37.49964]]}},{"type":"Feature","properties":{"class":"minor","highway":"residential","sidewalk":"unknown","lanes":0,"name":"사평대로28길","oneway":false},"geometry":{"type":"LineString","coordinates":[[126.99968,37.50052],[126.99971,37.50047],[126.99979,37.50032],[126.99986,37.50012],[126.99988,37.49993],[126.99994,37.49976],[127.00004,37.49966],[127.0001,37.49953],[127.00007,37.49925],[127.00007,37.49915],[127.00009,37.4991],[127.00024,37.49873],[127.00033,37.49853],[127.00041,37.49833],[127.00049,37.49812],[127.00049,37.49809],[127.00053,37.49768],[127.00051,37.49751],[127.00051,37.49736],[127.00053,37.49724]]}},{"type":"Feature","properties":{"class":"alley","highway":"service","sidewalk":"unknown","lanes":0,"name":"","oneway":false},"geometry":{"type":"LineString","coordinates":[[126.99984,37.50061],[126.99988,37.50054],[126.99994,37.50044],[127.00007,37.50025],[127.00009,37.50022],[127.0003,37.50009],[127.00059,37.49992],[127.00102,37.49969]]}},{"type":"Feature","properties":{"class":"alley","highway":"service","sidewalk":"unknown","lanes":0,"name":"","oneway":false},"geometry":{"type":"LineString","coordinates":[[127.00129,37.49985],[127.00098,37.50037],[127.00081,37.50066],[127.00065,37.50062],[127.00056,37.50067],[126.99994,37.50044]]}},{"type":"Feature","properties":{"class":"alley","highway":"service","sidewalk":"unknown","lanes":0,"name":"","oneway":false},"geometry":{"type":"LineString","coordinates":[[126.99566,37.50194],[126.99551,37.5019],[126.99521,37.50181],[126.99507,37.50174],[126.99495,37.50165],[126.99485,37.50157],[126.99476,37.50152],[126.99466,37.50152],[126.99461,37.50157]]}},{"type":"Feature","properties":{"class":"minor","highway":"residential","sidewalk":"unknown","lanes":0,"name":"신반포로16길","oneway":false},"geometry":{"type":"LineString","coordinates":[[126.99697,37.50231],[126.99716,37.50192],[126.99773,37.5007],[126.99786,37.50041],[126.99787,37.50039]]}},{"type":"Feature","properties":{"class":"minor","highway":"residential","sidewalk":"unknown","lanes":0,"name":"신반포로15길","oneway":false},"geometry":{"type":"LineString","coordinates":[[126.99512,37.50329],[126.99509,37.50334],[126.99469,37.50403],[126.99458,37.50415],[126.99449,37.5043],[126.99416,37.50481],[126.99407,37.50491]]}},{"type":"Feature","properties":{"class":"minor","highway":"residential","sidewalk":"unknown","lanes":0,"name":"신반포로19길","oneway":false},"geometry":{"type":"LineString","coordinates":[[126.99449,37.5043],[126.99717,37.50545]]}},{"type":"Feature","properties":{"class":"alley","highway":"service","sidewalk":"unknown","lanes":0,"name":"","oneway":false},"geometry":{"type":"LineString","coordinates":[[126.99501,37.5059],[126.9953,37.50546]]}},{"type":"Feature","properties":{"class":"minor","highway":"residential","sidewalk":"unknown","lanes":0,"name":"신반포로11길","oneway":false},"geometry":{"type":"LineString","coordinates":[[126.99287,37.50266],[126.99285,37.50272],[126.99285,37.50275],[126.99284,37.50287],[126.99283,37.50297],[126.99272,37.50329],[126.9926,37.5036],[126.99255,37.50389],[126.99242,37.50418]]}},{"type":"Feature","properties":{"class":"alley","highway":"living_street","sidewalk":"unknown","lanes":0,"name":"","oneway":false},"geometry":{"type":"LineString","coordinates":[[126.9875,37.50176],[126.98731,37.50231]]}},{"type":"Feature","properties":{"class":"alley","highway":"living_street","sidewalk":"unknown","lanes":0,"name":"","oneway":false},"geometry":{"type":"LineString","coordinates":[[126.9875,37.50176],[126.98815,37.50189]]}},{"type":"Feature","properties":{"class":"alley","highway":"living_street","sidewalk":"unknown","lanes":0,"name":"","oneway":false},"geometry":{"type":"LineString","coordinates":[[126.98798,37.50243],[126.98815,37.50189]]}},{"type":"Feature","properties":{"class":"alley","highway":"service","sidewalk":"unknown","lanes":0,"name":"","oneway":false},"geometry":{"type":"LineString","coordinates":[[126.99662,37.50001],[126.99651,37.49997],[126.99586,37.49972],[126.9958,37.49971],[126.99575,37.49972],[126.99574,37.49975]]}},{"type":"Feature","properties":{"class":"alley","highway":"service","sidewalk":"unknown","lanes":0,"name":"","oneway":false},"geometry":{"type":"LineString","coordinates":[[126.99093,37.50145],[126.9911,37.50149],[126.99101,37.50177],[126.99272,37.50219]]}},{"type":"Feature","properties":{"class":"alley","highway":"service","sidewalk":"unknown","lanes":0,"name":"","oneway":false},"geometry":{"type":"LineString","coordinates":[[126.99947,37.50922],[127.00079,37.50962]]}},{"type":"Feature","properties":{"class":"alley","highway":"service","sidewalk":"unknown","lanes":0,"name":"","oneway":false},"geometry":{"type":"LineString","coordinates":[[126.9997,37.50872],[127.00103,37.50909]]}},{"type":"Feature","properties":{"class":"alley","highway":"service","sidewalk":"unknown","lanes":0,"name":"","oneway":false},"geometry":{"type":"LineString","coordinates":[[127.00153,37.50956],[127.00182,37.50893],[127.00159,37.50878],[127.00122,37.50868],[126.99989,37.5083]]}},{"type":"Feature","properties":{"class":"alley","highway":"service","sidewalk":"unknown","lanes":0,"name":"","oneway":false},"geometry":{"type":"LineString","coordinates":[[126.98951,37.51727],[126.9896,37.51736],[126.98965,37.51743]]}},{"type":"Feature","properties":{"class":"alley","highway":"service","sidewalk":"unknown","lanes":0,"name":"","oneway":false},"geometry":{"type":"LineString","coordinates":[[126.98959,37.51891],[126.99185,37.51893]]}},{"type":"Feature","properties":{"class":"alley","highway":"service","sidewalk":"unknown","lanes":0,"name":"","oneway":false},"geometry":{"type":"LineString","coordinates":[[126.98965,37.51743],[126.98961,37.51767],[126.9896,37.51825],[126.9896,37.5184],[126.98959,37.5187],[126.98959,37.51891]]}},{"type":"Feature","properties":{"class":"alley","highway":"service","sidewalk":"unknown","lanes":0,"name":"","oneway":false},"geometry":{"type":"LineString","coordinates":[[126.9896,37.5184],[126.99122,37.51839]]}},{"type":"Feature","properties":{"class":"alley","highway":"service","sidewalk":"unknown","lanes":0,"name":"","oneway":false},"geometry":{"type":"LineString","coordinates":[[126.99521,37.50181],[126.99527,37.50171],[126.99525,37.50161],[126.99521,37.50152],[126.99506,37.50141]]}},{"type":"Feature","properties":{"class":"minor","highway":"residential","sidewalk":"unknown","lanes":0,"name":"","oneway":false},"geometry":{"type":"LineString","coordinates":[[126.99281,37.50676],[126.9931,37.50631]]}},{"type":"Feature","properties":{"class":"minor","highway":"residential","sidewalk":"unknown","lanes":0,"name":"","oneway":false},"geometry":{"type":"LineString","coordinates":[[126.99374,37.50534],[126.99341,37.50585]]}},{"type":"Feature","properties":{"class":"major","highway":"primary","sidewalk":"likely","lanes":0,"name":"","oneway":true},"geometry":{"type":"LineString","coordinates":[[126.99998,37.50736],[126.9999,37.50771]]}},{"type":"Feature","properties":{"class":"major","highway":"primary","sidewalk":"no","lanes":0,"name":"강남터미널고가도로","oneway":false},"geometry":{"type":"LineString","coordinates":[[127.00044,37.50636],[126.99998,37.50736]]}},{"type":"Feature","properties":{"class":"alley","highway":"service","sidewalk":"unknown","lanes":0,"name":"","oneway":false},"geometry":{"type":"LineString","coordinates":[[127.00167,37.50402],[127.00163,37.504],[127.00139,37.50388],[127.00099,37.50368],[127.00094,37.50375],[127.00086,37.50382],[127.00076,37.50384],[127.00063,37.50384],[126.99992,37.50362],[126.99926,37.50343],[126.99857,37.50324],[126.99795,37.50306]]}},{"type":"Feature","properties":{"class":"major","highway":"primary","sidewalk":"likely","lanes":0,"name":"사평대로","oneway":true},"geometry":{"type":"LineString","coordinates":[[126.99985,37.50077],[126.99889,37.50036],[126.99878,37.50026]]}},{"type":"Feature","properties":{"class":"major","highway":"primary","sidewalk":"yes","lanes":0,"name":"반포대로","oneway":true},"geometry":{"type":"LineString","coordinates":[[127.00126,37.50495],[127.00123,37.50498],[127.00122,37.505],[127.00118,37.50509],[127.00113,37.50517],[127.00105,37.50535],[127.00096,37.50553],[127.00055,37.50642],[127.00001,37.50758],[126.9999,37.50771]]}},{"type":"Feature","properties":{"class":"major","highway":"trunk","sidewalk":"likely","lanes":4,"name":"강변북로","oneway":true},"geometry":{"type":"LineString","coordinates":[[126.99794,37.52094],[126.99675,37.52053],[126.99585,37.52018],[126.99545,37.52002],[126.99509,37.51988]]}},{"type":"Feature","properties":{"class":"major","highway":"trunk","sidewalk":"likely","lanes":4,"name":"올림픽대로","oneway":true},"geometry":{"type":"LineString","coordinates":[[126.99651,37.50884],[126.99835,37.50966]]}},{"type":"Feature","properties":{"class":"major","highway":"primary","sidewalk":"likely","lanes":0,"name":"반포대로","oneway":true},"geometry":{"type":"LineString","coordinates":[[126.99921,37.50932],[126.99907,37.50955],[126.9989,37.50984],[126.99887,37.50992]]}},{"type":"Feature","properties":{"class":"major","highway":"primary","sidewalk":"likely","lanes":3,"name":"반포대로","oneway":true},"geometry":{"type":"LineString","coordinates":[[126.9999,37.50771],[126.99956,37.50859],[126.99953,37.50865],[126.99951,37.5087]]}},{"type":"Feature","properties":{"class":"major","highway":"tertiary","sidewalk":"likely","lanes":2,"name":"반포대로","oneway":false},"geometry":{"type":"LineString","coordinates":[[126.99842,37.51052],[126.99906,37.50923]]}},{"type":"Feature","properties":{"class":"alley","highway":"service","sidewalk":"unknown","lanes":0,"name":"","oneway":false},"geometry":{"type":"LineString","coordinates":[[126.99408,37.50729],[126.99425,37.50706]]}},{"type":"Feature","properties":{"class":"alley","highway":"service","sidewalk":"unknown","lanes":0,"name":"","oneway":false},"geometry":{"type":"LineString","coordinates":[[126.99501,37.5059],[126.99476,37.50624]]}},{"type":"Feature","properties":{"class":"major","highway":"primary","sidewalk":"likely","lanes":0,"name":"서빙고로","oneway":true},"geometry":{"type":"LineString","coordinates":[[126.99067,37.52012],[126.9921,37.51992]]}},{"type":"Feature","properties":{"class":"major","highway":"primary_link","sidewalk":"no","lanes":1,"name":"","oneway":true},"geometry":{"type":"LineString","coordinates":[[126.99255,37.5201],[126.99242,37.52008],[126.99238,37.52004],[126.99238,37.52],[126.99244,37.51995],[126.99256,37.5199]]}},{"type":"Feature","properties":{"class":"major","highway":"primary_link","sidewalk":"no","lanes":1,"name":"","oneway":true},"geometry":{"type":"LineString","coordinates":[[126.9921,37.51992],[126.9922,37.51997],[126.99223,37.52],[126.99224,37.52006],[126.99222,37.52011],[126.99211,37.52016]]}},{"type":"Feature","properties":{"class":"alley","highway":"service","sidewalk":"unknown","lanes":0,"name":"","oneway":false},"geometry":{"type":"LineString","coordinates":[[126.99342,37.50519],[126.99374,37.50534]]}},{"type":"Feature","properties":{"class":"minor","highway":"residential","sidewalk":"unknown","lanes":0,"name":"","oneway":false},"geometry":{"type":"LineString","coordinates":[[126.99281,37.50676],[126.99408,37.50729],[126.99542,37.50787]]}},{"type":"Feature","properties":{"class":"major","highway":"trunk_link","sidewalk":"likely","lanes":1,"name":"","oneway":true},"geometry":{"type":"LineString","coordinates":[[126.99072,37.50636],[126.99104,37.50639],[126.99139,37.50646],[126.99167,37.50657],[126.99203,37.50674],[126.99217,37.5068],[126.99232,37.50686],[126.99246,37.5069],[126.99268,37.50685],[126.99281,37.50676]]}},{"type":"Feature","properties":{"class":"minor","highway":"residential","sidewalk":"unknown","lanes":0,"name":"신반포지하보차도","oneway":false},"geometry":{"type":"LineString","coordinates":[[126.9931,37.50631],[126.99341,37.50585]]}},{"type":"Feature","properties":{"class":"major","highway":"tertiary","sidewalk":"likely","lanes":1,"name":"반포대로","oneway":true},"geometry":{"type":"LineString","coordinates":[[126.99828,37.51081],[126.99825,37.51079],[126.99821,37.51077],[126.99817,37.51073],[126.99815,37.51067],[126.99816,37.51061],[126.9982,37.51055],[126.99823,37.51054],[126.99825,37.51052],[126.99831,37.51051],[126.99837,37.5105],[126.99842,37.51052]]}},{"type":"Feature","properties":{"class":"major","highway":"primary","sidewalk":"yes","lanes":0,"name":"반포대로","oneway":true},"geometry":{"type":"LineString","coordinates":[[126.99973,37.50766],[127.00081,37.50525],[127.00088,37.50508],[127.00092,37.50501],[127.00098,37.5049],[127.00101,37.50487]]}},{"type":"Feature","properties":{"class":"major","highway":"tertiary","sidewalk":"likely","lanes":2,"name":"반포대로","oneway":false},"geometry":{"type":"LineString","coordinates":[[126.99906,37.50923],[126.99924,37.50885],[126.99933,37.50866]]}},{"type":"Feature","properties":{"class":"major","highway":"primary","sidewalk":"likely","lanes":0,"name":"반포대로","oneway":true},"geometry":{"type":"LineString","coordinates":[[126.99902,37.50903],[126.9994,37.50826],[126.99948,37.50818],[126.99973,37.50766]]}},{"type":"Feature","properties":{"class":"major","highway":"trunk_link","sidewalk":"likely","lanes":0,"name":"","oneway":true},"geometry":{"type":"LineString","coordinates":[[126.99851,37.51074],[126.99867,37.51082],[126.99872,37.51085],[126.99876,37.51086],[126.9988,37.51087],[126.99889,37.5109],[126.99896,37.51092],[126.99914,37.51095],[126.99928,37.51096],[126.99936,37.51098],[126.99942,37.511],[126.99948,37.51102],[126.99956,37.51106],[127.00019,37.51139],[127.00026,37.51142],[127.0003,37.51146],[127.00034,37.51151],[127.00037,37.51156],[127.00042,37.51165],[127.00046,37.51174],[127.00048,37.51179],[127.00051,37.51182],[127.00055,37.51184],[127.0006,37.51186],[127.00066,37.51186],[127.00072,37.51186],[127.00077,37.51185],[127.00082,37.51183],[127.00086,37.51179],[127.00087,37.51175],[127.00087,37.5117],[127.00085,37.51166],[127.0008,37.51161],[127.0007,37.51155],[126.99983,37.51107],[126.999,37.51065],[126.99881,37.51047]]}},{"type":"Feature","properties":{"class":"alley","highway":"service","sidewalk":"unknown","lanes":0,"name":"","oneway":true},"geometry":{"type":"LineString","coordinates":[[126.9971,37.51031],[126.99653,37.51001],[126.99603,37.50974],[126.99535,37.50939]]}},{"type":"Feature","properties":{"class":"alley","highway":"service","sidewalk":"unknown","lanes":0,"name":"","oneway":true},"geometry":{"type":"LineString","coordinates":[[126.99817,37.51073],[126.99814,37.5107],[126.99806,37.51064],[126.99798,37.51059]]}},{"type":"Feature","properties":{"class":"alley","highway":"service","sidewalk":"unknown","lanes":0,"name":"","oneway":true},"geometry":{"type":"LineString","coordinates":[[126.9951,37.50888],[126.99502,37.50891],[126.99497,37.50892],[126.99495,37.50895],[126.99495,37.50898],[126.99498,37.50901],[126.99503,37.50906],[126.99513,37.50909],[126.99522,37.5091],[126.99532,37.50909],[126.99538,37.5091],[126.99545,37.50912],[126.99744,37.51019],[126.99765,37.51035],[126.99804,37.51052]]}},{"type":"Feature","properties":{"class":"alley","highway":"service","sidewalk":"unknown","lanes":0,"name":"","oneway":true},"geometry":{"type":"LineString","coordinates":[[126.99804,37.51052],[126.99811,37.51056],[126.99817,37.51057],[126.9982,37.51055]]}},{"type":"Feature","properties":{"class":"alley","highway":"service","sidewalk":"unknown","lanes":0,"name":"","oneway":false},"geometry":{"type":"LineString","coordinates":[[126.99408,37.5088],[126.99413,37.50872],[126.99423,37.50859],[126.99402,37.50848],[126.99391,37.50861],[126.99378,37.50881]]}},{"type":"Feature","properties":{"class":"alley","highway":"service","sidewalk":"unknown","lanes":0,"name":"","oneway":false},"geometry":{"type":"LineString","coordinates":[[126.99391,37.50861],[126.99413,37.50872]]}},{"type":"Feature","properties":{"class":"alley","highway":"pedestrian","sidewalk":"unknown","lanes":0,"name":"","oneway":false},"geometry":{"type":"LineString","coordinates":[[126.99242,37.50418],[126.99213,37.50471],[126.99208,37.50476],[126.9919,37.50505],[126.99183,37.50521],[126.99179,37.50554],[126.99185,37.50565],[126.99212,37.50592],[126.9923,37.50648],[126.99267,37.50666],[126.99272,37.5067],[126.99274,37.50672],[126.99281,37.50676]]}},{"type":"Feature","properties":{"class":"alley","highway":"service","sidewalk":"unknown","lanes":0,"name":"","oneway":false},"geometry":{"type":"LineString","coordinates":[[126.99393,37.50543],[126.99418,37.50508],[126.99398,37.505]]}},{"type":"Feature","properties":{"class":"alley","highway":"service","sidewalk":"unknown","lanes":0,"name":"","oneway":false},"geometry":{"type":"LineString","coordinates":[[126.98816,37.50636],[126.98831,37.50639],[126.98837,37.5064],[126.98898,37.5065],[126.98908,37.50655],[126.98916,37.50657],[126.98928,37.50656],[126.98934,37.50653],[126.9894,37.50654],[126.98954,37.50656],[126.98993,37.50668],[126.99056,37.5069],[126.9914,37.50722],[126.9917,37.50734],[126.99204,37.50749],[126.99233,37.50762],[126.99247,37.50768],[126.99285,37.50789],[126.99346,37.50823],[126.9937,37.50835]]}},{"type":"Feature","properties":{"class":"alley","highway":"service","sidewalk":"unknown","lanes":0,"name":"","oneway":true},"geometry":{"type":"LineString","coordinates":[[126.99496,37.50908],[126.99487,37.509],[126.99484,37.50894],[126.99481,37.50888],[126.99476,37.50881],[126.99469,37.50874],[126.99462,37.50869]]}},{"type":"Feature","properties":{"class":"alley","highway":"service","sidewalk":"unknown","lanes":0,"name":"","oneway":true},"geometry":{"type":"LineString","coordinates":[[126.99413,37.50845],[126.99379,37.5084],[126.9937,37.50835]]}},{"type":"Feature","properties":{"class":"alley","highway":"service","sidewalk":"unknown","lanes":0,"name":"","oneway":true},"geometry":{"type":"LineString","coordinates":[[126.9937,37.50835],[126.99369,37.50829],[126.99372,37.50823]]}},{"type":"Feature","properties":{"class":"alley","highway":"service","sidewalk":"unknown","lanes":0,"name":"","oneway":false},"geometry":{"type":"LineString","coordinates":[[126.9951,37.50888],[126.99485,37.50874],[126.99476,37.50872],[126.99462,37.50869],[126.99413,37.50845]]}},{"type":"Feature","properties":{"class":"alley","highway":"service","sidewalk":"unknown","lanes":0,"name":"","oneway":false},"geometry":{"type":"LineString","coordinates":[[126.99413,37.50845],[126.99385,37.5083],[126.99384,37.50829]]}},{"type":"Feature","properties":{"class":"major","highway":"trunk_link","sidewalk":"likely","lanes":0,"name":"","oneway":true},"geometry":{"type":"LineString","coordinates":[[126.99372,37.50823],[126.99272,37.5076],[126.99236,37.50729]]}},{"type":"Feature","properties":{"class":"alley","highway":"service","sidewalk":"unknown","lanes":0,"name":"","oneway":true},"geometry":{"type":"LineString","coordinates":[[126.99514,37.50923],[126.99543,37.50929],[126.99556,37.50932],[126.99565,37.50934],[126.99615,37.5096],[126.99667,37.50987],[126.99743,37.51027],[126.99765,37.51035]]}},{"type":"Feature","properties":{"class":"alley","highway":"service","sidewalk":"unknown","lanes":0,"name":"","oneway":true},"geometry":{"type":"LineString","coordinates":[[126.99653,37.51001],[126.99667,37.50987]]}},{"type":"Feature","properties":{"class":"alley","highway":"service","sidewalk":"unknown","lanes":0,"name":"","oneway":true},"geometry":{"type":"LineString","coordinates":[[126.99603,37.50974],[126.99615,37.5096]]}},{"type":"Feature","properties":{"class":"alley","highway":"service","sidewalk":"unknown","lanes":0,"name":"","oneway":true},"geometry":{"type":"LineString","coordinates":[[126.99669,37.51032],[126.99636,37.51014],[126.99619,37.51006],[126.99603,37.50997],[126.99586,37.50988],[126.99569,37.50979],[126.99536,37.50962],[126.99532,37.50953],[126.99531,37.5095],[126.99532,37.50946],[126.99535,37.50939]]}},{"type":"Feature","properties":{"class":"alley","highway":"service","sidewalk":"unknown","lanes":0,"name":"","oneway":true},"geometry":{"type":"LineString","coordinates":[[126.99669,37.51032],[126.99658,37.51035],[126.99652,37.51035],[126.99644,37.51035],[126.99622,37.51033],[126.99602,37.51027],[126.99584,37.51019],[126.99569,37.51009],[126.99561,37.51004],[126.99554,37.50997],[126.99546,37.50989],[126.99543,37.50984],[126.99536,37.50962]]}},{"type":"Feature","properties":{"class":"major","highway":"tertiary","sidewalk":"likely","lanes":2,"name":"녹사평대로","oneway":false},"geometry":{"type":"LineString","coordinates":[[126.99368,37.52181],[126.99371,37.52162],[126.99378,37.52105],[126.99393,37.5204],[126.99401,37.52014],[126.99407,37.51981],[126.99433,37.51907],[126.99437,37.51897]]}},{"type":"Feature","properties":{"class":"major","highway":"primary","sidewalk":"likely","lanes":0,"name":"","oneway":true},"geometry":{"type":"LineString","coordinates":[[126.99973,37.50766],[126.99998,37.50736]]}},{"type":"Feature","properties":{"class":"alley","highway":"pedestrian","sidewalk":"unknown","lanes":0,"name":"","oneway":false},"geometry":{"type":"LineString","coordinates":[[126.99787,37.50039],[126.99803,37.50013]]}},{"type":"Feature","properties":{"class":"major","highway":"tertiary","sidewalk":"likely","lanes":2,"name":"잠수교","oneway":false},"geometry":{"type":"LineString","coordinates":[[126.99437,37.51897],[126.99459,37.51848],[126.99482,37.51802],[126.99537,37.51689],[126.99629,37.51498],[126.99706,37.51337],[126.99824,37.5109]]}},{"type":"Feature","properties":{"class":"major","highway":"tertiary","sidewalk":"likely","lanes":0,"name":"신반포로16길","oneway":false},"geometry":{"type":"LineString","coordinates":[[126.99665,37.49994],[126.99662,37.50001],[126.99572,37.50183],[126.99566,37.50194],[126.99559,37.50208],[126.99525,37.50302],[126.9952,37.50316],[126.99518,37.5032],[126.99516,37.50323],[126.99512,37.50329]]}},{"type":"Feature","properties":{"class":"alley","highway":"service","sidewalk":"unknown","lanes":0,"name":"","oneway":false},"geometry":{"type":"LineString","coordinates":[[126.9945,37.50185],[126.99461,37.50157]]}},{"type":"Feature","properties":{"class":"alley","highway":"service","sidewalk":"unknown","lanes":0,"name":"","oneway":false},"geometry":{"type":"LineString","coordinates":[[126.99716,37.50192],[126.99792,37.50214],[126.99795,37.50208]]}},{"type":"Feature","properties":{"class":"major","highway":"trunk_link","sidewalk":"likely","lanes":1,"name":"","oneway":true},"geometry":{"type":"LineString","coordinates":[[126.9928,37.51881],[126.99297,37.51888],[126.99357,37.51912],[126.99376,37.51915],[126.99394,37.51913],[126.99407,37.51909],[126.99421,37.519],[126.99429,37.51892],[126.99454,37.51848]]}},{"type":"Feature","properties":{"class":"major","highway":"primary","sidewalk":"likely","lanes":4,"name":"반포대로","oneway":true},"geometry":{"type":"LineString","coordinates":[[126.99605,37.51533],[126.99627,37.51487],[126.99689,37.51361],[126.99757,37.51222],[126.99828,37.51072],[126.99853,37.51016],[126.99859,37.51003]]}},{"type":"Feature","properties":{"class":"major","highway":"trunk_link","sidewalk":"likely","lanes":0,"name":"","oneway":true},"geometry":{"type":"LineString","coordinates":[[126.99859,37.51003],[126.99859,37.50996],[126.99858,37.50991],[126.99854,37.50986],[126.9985,37.50982],[126.99844,37.50977],[126.99835,37.50973],[126.99711,37.5092],[126.99588,37.50875],[126.99458,37.50837]]}},{"type":"Feature","properties":{"class":"major","highway":"primary","sidewalk":"likely","lanes":0,"name":"반포대로","oneway":true},"geometry":{"type":"LineString","coordinates":[[126.99859,37.51003],[126.99874,37.50975],[126.99899,37.50915],[126.99902,37.50903]]}},{"type":"Feature","properties":{"class":"major","highway":"trunk_link","sidewalk":"likely","lanes":0,"name":"","oneway":true},"geometry":{"type":"LineString","coordinates":[[126.99859,37.51003],[126.99868,37.50997],[126.99876,37.50994],[126.99887,37.50992]]}},{"type":"Feature","properties":{"class":"major","highway":"trunk_link","sidewalk":"likely","lanes":0,"name":"","oneway":true},"geometry":{"type":"LineString","coordinates":[[126.99887,37.50992],[126.99894,37.50991],[126.99904,37.50991],[126.99914,37.50991],[126.99918,37.50992],[126.99926,37.50994],[126.99935,37.50998]]}},{"type":"Feature","properties":{"class":"major","highway":"tertiary","sidewalk":"likely","lanes":0,"name":"반포대로","oneway":true},"geometry":{"type":"LineString","coordinates":[[126.99887,37.50992],[126.99874,37.51013]]}},{"type":"Feature","properties":{"class":"alley","highway":"service","sidewalk":"unknown","lanes":0,"name":"신반포로16길","oneway":false},"geometry":{"type":"LineString","coordinates":[[126.99697,37.50231],[126.99684,37.50228],[126.99586,37.502],[126.99566,37.50194]]}},{"type":"Feature","properties":{"class":"minor","highway":"residential","sidewalk":"unknown","lanes":0,"name":"","oneway":false},"geometry":{"type":"LineString","coordinates":[[126.99407,37.50491],[126.99398,37.505],[126.99382,37.50527],[126.99374,37.50534],[126.99393,37.50543],[126.99501,37.5059],[126.99641,37.50651]]}},{"type":"Feature","properties":{"class":"minor","highway":"residential","sidewalk":"unknown","lanes":0,"name":"신반포로19길","oneway":false},"geometry":{"type":"LineString","coordinates":[[126.99717,37.50545],[126.9972,37.50539],[126.99766,37.50474],[126.998,37.5042],[126.99803,37.50412],[126.99809,37.50402],[126.99811,37.50399]]}},{"type":"Feature","properties":{"class":"alley","highway":"service","sidewalk":"unknown","lanes":0,"name":"","oneway":false},"geometry":{"type":"LineString","coordinates":[[126.9953,37.50546],[126.99508,37.50536],[126.99407,37.50491]]}},{"type":"Feature","properties":{"class":"major","highway":"trunk","sidewalk":"likely","lanes":4,"name":"강변북로","oneway":true},"geometry":{"type":"LineString","coordinates":[[126.99506,37.51987],[126.99301,37.51901]]}},{"type":"Feature","properties":{"class":"major","highway":"tertiary","sidewalk":"likely","lanes":2,"name":"","oneway":false},"geometry":{"type":"LineString","coordinates":[[126.99824,37.5109],[126.99828,37.51081]]}},{"type":"Feature","properties":{"class":"major","highway":"tertiary","sidewalk":"likely","lanes":2,"name":"반포대로","oneway":false},"geometry":{"type":"LineString","coordinates":[[126.99933,37.50866],[126.9995,37.5083],[126.99948,37.50818]]}},{"type":"Feature","properties":{"class":"major","highway":"primary","sidewalk":"likely","lanes":0,"name":"반포대로","oneway":true},"geometry":{"type":"LineString","coordinates":[[126.99951,37.5087],[126.99943,37.50888],[126.99921,37.50932]]}},{"type":"Feature","properties":{"class":"major","highway":"tertiary","sidewalk":"likely","lanes":1,"name":"반포대로","oneway":true},"geometry":{"type":"LineString","coordinates":[[126.99842,37.51052],[126.99847,37.51054],[126.99851,37.51057],[126.99853,37.51061],[126.99854,37.51065],[126.99853,37.5107],[126.99851,37.51074],[126.99848,37.51077],[126.99843,37.5108],[126.99837,37.51081],[126.99833,37.51081],[126.99828,37.51081]]}},{"type":"Feature","properties":{"class":"alley","highway":"service","sidewalk":"unknown","lanes":0,"name":"신반포2차아파트","oneway":false},"geometry":{"type":"LineString","coordinates":[[126.99989,37.5083],[126.99999,37.50808]]}},{"type":"Feature","properties":{"class":"alley","highway":"service","sidewalk":"unknown","lanes":0,"name":"신반포2차아파트","oneway":true},"geometry":{"type":"LineString","coordinates":[[127.00209,37.51077],[127.00056,37.51013],[126.99959,37.50972],[126.99943,37.50964],[126.99939,37.50961],[126.99937,37.50957],[126.99937,37.50953],[126.99937,37.50949],[126.9994,37.50938],[126.99947,37.50922],[126.9997,37.50872],[126.99979,37.50852],[126.99989,37.5083]]}},{"type":"Feature","properties":{"class":"alley","highway":"service","sidewalk":"unknown","lanes":0,"name":"","oneway":false},"geometry":{"type":"LineString","coordinates":[[126.99366,37.51963],[126.99362,37.51963],[126.99328,37.5196],[126.99307,37.51958],[126.99249,37.51955],[126.99219,37.51953],[126.99185,37.51949],[126.99148,37.51942],[126.99129,37.51942]]}},{"type":"Feature","properties":{"class":"major","highway":"trunk_link","sidewalk":"likely","lanes":0,"name":"","oneway":true},"geometry":{"type":"LineString","coordinates":[[126.99813,37.50945],[126.99847,37.5096],[126.99851,37.50962],[126.99853,37.50964],[126.99855,37.50967],[126.99853,37.50971],[126.99851,37.50975],[126.99848,37.50977],[126.99835,37.50973]]}},{"type":"Feature","properties":{"class":"major","highway":"trunk_link","sidewalk":"likely","lanes":0,"name":"","oneway":true},"geometry":{"type":"LineString","coordinates":[[126.9991,37.51008],[126.99903,37.51003],[126.99903,37.51001],[126.99904,37.50998],[126.99905,37.50996],[126.99907,37.50994],[126.9991,37.50993],[126.99914,37.50992],[126.99918,37.50992]]}},{"type":"Feature","properties":{"class":"major","highway":"primary","sidewalk":"likely","lanes":0,"name":"사평대로","oneway":false},"geometry":{"type":"LineString","coordinates":[[126.99863,37.5002],[126.99799,37.49995]]}},{"type":"Feature","properties":{"class":"major","highway":"primary","sidewalk":"likely","lanes":4,"name":"녹사평대로","oneway":true},"geometry":{"type":"LineString","coordinates":[[126.99352,37.52276],[126.99404,37.51985],[126.99418,37.51937],[126.99431,37.51902],[126.99454,37.51848],[126.99548,37.51653],[126.99605,37.51533]]}},{"type":"Feature","properties":{"class":"major","highway":"primary","sidewalk":"likely","lanes":4,"name":"녹사평대로","oneway":true},"geometry":{"type":"LineString","coordinates":[[126.99615,37.51538],[126.9946,37.51862],[126.99447,37.51891],[126.99435,37.51917],[126.99424,37.51941],[126.9942,37.51952],[126.99411,37.51994],[126.9936,37.52277]]}},{"type":"Feature","properties":{"class":"alley","highway":"service","sidewalk":"unknown","lanes":0,"name":"","oneway":false},"geometry":{"type":"LineString","coordinates":[[126.99037,37.50322],[126.99042,37.50304],[126.99052,37.50275],[126.99062,37.50243],[126.99067,37.50225],[126.9907,37.50217],[126.99071,37.50213],[126.99071,37.50212],[126.99072,37.50211],[126.99073,37.50206],[126.99075,37.50199],[126.99082,37.50178],[126.99089,37.50156],[126.99093,37.50145]]}},{"type":"Feature","properties":{"class":"alley","highway":"service","sidewalk":"unknown","lanes":0,"name":"","oneway":false},"geometry":{"type":"LineString","coordinates":[[126.99926,37.50343],[126.99923,37.50351],[126.99917,37.50356],[126.99907,37.50356],[126.999,37.50355]]}},{"type":"Feature","properties":{"class":"alley","highway":"service","sidewalk":"unknown","lanes":0,"name":"","oneway":false},"geometry":{"type":"LineString","coordinates":[[126.99992,37.50362],[126.9999,37.5037],[126.9999,37.50377],[126.99995,37.50382],[126.99999,37.50383]]}},{"type":"Feature","properties":{"class":"alley","highway":"service","sidewalk":"unknown","lanes":0,"name":"","oneway":false},"geometry":{"type":"LineString","coordinates":[[126.99677,37.50272],[126.99673,37.50278],[126.99665,37.50282],[126.99655,37.50282],[126.99648,37.5028]]}},{"type":"Feature","properties":{"class":"alley","highway":"service","sidewalk":"unknown","lanes":0,"name":"","oneway":false},"geometry":{"type":"LineString","coordinates":[[126.99744,37.50295],[126.99743,37.503],[126.99745,37.50305],[126.99749,37.50309],[126.99755,37.50312]]}},{"type":"Feature","properties":{"class":"alley","highway":"service","sidewalk":"unknown","lanes":0,"name":"","oneway":true},"geometry":{"type":"LineString","coordinates":[[127.00031,37.50243],[127.00012,37.50241],[126.99993,37.50242],[126.99979,37.50247],[126.99972,37.5025],[126.99964,37.50248],[126.9996,37.50242],[126.99963,37.50236],[126.9997,37.50232],[126.99986,37.50232],[127.00005,37.50235],[127.00031,37.50243]]}},{"type":"Feature","properties":{"class":"alley","highway":"service","sidewalk":"unknown","lanes":0,"name":"","oneway":false},"geometry":{"type":"LineString","coordinates":[[126.99648,37.5028],[126.99627,37.50274]]}},{"type":"Feature","properties":{"class":"alley","highway":"service","sidewalk":"unknown","lanes":0,"name":"","oneway":false},"geometry":{"type":"LineString","coordinates":[[126.99755,37.50312],[126.99775,37.50318]]}},{"type":"Feature","properties":{"class":"alley","highway":"service","sidewalk":"unknown","lanes":0,"name":"","oneway":false},"geometry":{"type":"LineString","coordinates":[[126.999,37.50355],[126.99871,37.50347]]}},{"type":"Feature","properties":{"class":"alley","highway":"service","sidewalk":"unknown","lanes":0,"name":"","oneway":false},"geometry":{"type":"LineString","coordinates":[[126.99999,37.50383],[127.00022,37.5039]]}},{"type":"Feature","properties":{"class":"alley","highway":"service","sidewalk":"unknown","lanes":0,"name":"","oneway":false},"geometry":{"type":"LineString","coordinates":[[126.9937,37.50835],[126.99366,37.50839],[126.99362,37.50843],[126.9935,37.50856],[126.99321,37.5084]]}},{"type":"Feature","properties":{"class":"alley","highway":"service","sidewalk":"unknown","lanes":0,"name":"","oneway":true},"geometry":{"type":"LineString","coordinates":[[126.99798,37.51059],[126.99751,37.51041]]}},{"type":"Feature","properties":{"class":"alley","highway":"service","sidewalk":"unknown","lanes":0,"name":"","oneway":true},"geometry":{"type":"LineString","coordinates":[[126.99535,37.50939],[126.99514,37.50923]]}},{"type":"Feature","properties":{"class":"alley","highway":"living_street","sidewalk":"unknown","lanes":0,"name":"","oneway":false},"geometry":{"type":"LineString","coordinates":[[126.9875,37.50176],[126.98755,37.50155]]}},{"type":"Feature","properties":{"class":"alley","highway":"service","sidewalk":"unknown","lanes":0,"name":"","oneway":false},"geometry":{"type":"LineString","coordinates":[[126.99622,37.51033],[126.99636,37.51014]]}},{"type":"Feature","properties":{"class":"alley","highway":"service","sidewalk":"unknown","lanes":0,"name":"","oneway":false},"geometry":{"type":"LineString","coordinates":[[126.99602,37.51027],[126.99619,37.51006]]}},{"type":"Feature","properties":{"class":"alley","highway":"service","sidewalk":"unknown","lanes":0,"name":"","oneway":false},"geometry":{"type":"LineString","coordinates":[[126.99584,37.51019],[126.99603,37.50997]]}},{"type":"Feature","properties":{"class":"alley","highway":"service","sidewalk":"unknown","lanes":0,"name":"","oneway":false},"geometry":{"type":"LineString","coordinates":[[126.99569,37.51009],[126.99586,37.50988]]}},{"type":"Feature","properties":{"class":"alley","highway":"service","sidewalk":"unknown","lanes":0,"name":"","oneway":false},"geometry":{"type":"LineString","coordinates":[[126.99554,37.50997],[126.99569,37.50979]]}},{"type":"Feature","properties":{"class":"alley","highway":"service","sidewalk":"unknown","lanes":0,"name":"","oneway":true},"geometry":{"type":"LineString","coordinates":[[126.99535,37.50939],[126.99543,37.50929]]}},{"type":"Feature","properties":{"class":"alley","highway":"service","sidewalk":"unknown","lanes":0,"name":"","oneway":true},"geometry":{"type":"LineString","coordinates":[[126.9971,37.51031],[126.99692,37.51036],[126.99685,37.51036],[126.99679,37.51036],[126.99669,37.51032]]}},{"type":"Feature","properties":{"class":"alley","highway":"service","sidewalk":"unknown","lanes":0,"name":"","oneway":true},"geometry":{"type":"LineString","coordinates":[[126.99751,37.51041],[126.99736,37.51037],[126.9971,37.51031]]}},{"type":"Feature","properties":{"class":"alley","highway":"service","sidewalk":"unknown","lanes":0,"name":"","oneway":false},"geometry":{"type":"LineString","coordinates":[[126.99717,37.50545],[126.99736,37.50553]]}},{"type":"Feature","properties":{"class":"major","highway":"trunk","sidewalk":"likely","lanes":4,"name":"강변북로","oneway":true},"geometry":{"type":"LineString","coordinates":[[126.99509,37.51988],[126.99506,37.51987]]}},{"type":"Feature","properties":{"class":"major","highway":"trunk_link","sidewalk":"likely","lanes":0,"name":"","oneway":true},"geometry":{"type":"LineString","coordinates":[[126.99693,37.52076],[126.9965,37.52059],[126.99596,37.52035],[126.99546,37.52015],[126.99509,37.51988]]}},{"type":"Feature","properties":{"class":"major","highway":"trunk_link","sidewalk":"likely","lanes":1,"name":"","oneway":true},"geometry":{"type":"LineString","coordinates":[[126.99569,37.51968],[126.99598,37.51988],[126.99636,37.52005],[126.99674,37.52022]]}},{"type":"Feature","properties":{"class":"major","highway":"trunk_link","sidewalk":"likely","lanes":0,"name":"","oneway":true},"geometry":{"type":"LineString","coordinates":[[126.99531,37.51988],[126.99556,37.51999],[126.99575,37.52006],[126.99588,37.52011],[126.99601,37.52014]]}},{"type":"Feature","properties":{"class":"major","highway":"trunk","sidewalk":"likely","lanes":4,"name":"강변북로","oneway":true},"geometry":{"type":"LineString","coordinates":[[126.98722,37.51641],[126.98838,37.51654],[126.98889,37.51663],[126.98933,37.51675],[126.98964,37.51684],[126.98982,37.5169],[126.99035,37.51711],[126.99087,37.51738],[126.99176,37.51793]]}},{"type":"Feature","properties":{"class":"alley","highway":"service","sidewalk":"unknown","lanes":0,"name":"","oneway":true},"geometry":{"type":"LineString","coordinates":[[126.99697,37.50231],[126.99677,37.50272]]}},{"type":"Feature","properties":{"class":"alley","highway":"service","sidewalk":"unknown","lanes":0,"name":"","oneway":true},"geometry":{"type":"LineString","coordinates":[[126.99677,37.50272],[126.99673,37.50264],[126.99672,37.50256],[126.99684,37.50228]]}},{"type":"Feature","properties":{"class":"alley","highway":"service","sidewalk":"unknown","lanes":0,"name":"","oneway":false},"geometry":{"type":"LineString","coordinates":[[126.99795,37.50306],[126.99758,37.50296],[126.99744,37.50295],[126.99731,37.50294],[126.9969,37.50281],[126.99683,37.50277],[126.99677,37.50272]]}},{"type":"Feature","properties":{"class":"alley","highway":"pedestrian","sidewalk":"unknown","lanes":0,"name":"","oneway":false},"geometry":{"type":"LineString","coordinates":[[126.99421,37.51969],[126.99422,37.51965],[126.99424,37.5196]]}},{"type":"Feature","properties":{"class":"alley","highway":"pedestrian","sidewalk":"unknown","lanes":0,"name":"","oneway":false},"geometry":{"type":"LineString","coordinates":[[126.99403,37.52045],[126.99421,37.51969]]}},{"type":"Feature","properties":{"class":"alley","highway":"pedestrian","sidewalk":"unknown","lanes":0,"name":"","oneway":false},"geometry":{"type":"LineString","coordinates":[[126.99817,37.50941],[126.99827,37.50945],[126.9984,37.50946],[126.99855,37.50944],[126.99867,37.5094],[126.99876,37.50935],[126.9988,37.50931],[126.99877,37.5093],[126.99872,37.50928],[126.99866,37.50925],[126.9986,37.50928],[126.99855,37.50933],[126.99855,37.50933],[126.99856,37.50935],[126.99855,37.50938],[126.99845,37.5094],[126.99835,37.50942],[126.99825,37.50942],[126.99817,37.50941]]}},{"type":"Feature","properties":{"class":"major","highway":"trunk_link","sidewalk":"likely","lanes":0,"name":"","oneway":true},"geometry":{"type":"LineString","coordinates":[[126.9946,37.51862],[126.99456,37.51879],[126.99453,37.51894],[126.99451,37.51903],[126.9945,37.5191],[126.99451,37.51919],[126.99453,37.51927],[126.99455,37.51934],[126.99457,37.51937],[126.9946,37.51944],[126.99465,37.5195],[126.99468,37.51954],[126.99473,37.5196],[126.9948,37.51965],[126.99488,37.5197],[126.99508,37.51979],[126.99531,37.51988]]}},{"type":"Feature","properties":{"class":"alley","highway":"service","sidewalk":"unknown","lanes":0,"name":"","oneway":false},"geometry":{"type":"LineString","coordinates":[[126.99325,37.50873],[126.99306,37.50864],[126.99316,37.50851],[126.99335,37.5086],[126.99325,37.50873],[126.99334,37.50877],[126.9934,37.5087],[126.9935,37.50856]]}},{"type":"Feature","properties":{"class":"alley","highway":"service","sidewalk":"unknown","lanes":0,"name":"","oneway":true},"geometry":{"type":"LineString","coordinates":[[126.9937,37.50835],[126.99376,37.50832],[126.99384,37.50829]]}},{"type":"Feature","properties":{"class":"alley","highway":"service","sidewalk":"unknown","lanes":0,"name":"","oneway":true},"geometry":{"type":"LineString","coordinates":[[126.99384,37.50829],[126.99372,37.50823]]}},{"type":"Feature","properties":{"class":"alley","highway":"service","sidewalk":"unknown","lanes":0,"name":"","oneway":false},"geometry":{"type":"LineString","coordinates":[[126.9935,37.50856],[126.99374,37.50869],[126.99386,37.50855],[126.99362,37.50843]]}},{"type":"Feature","properties":{"class":"alley","highway":"service","sidewalk":"unknown","lanes":0,"name":"","oneway":false},"geometry":{"type":"LineString","coordinates":[[126.9934,37.5087],[126.99354,37.50876]]}},{"type":"Feature","properties":{"class":"alley","highway":"service","sidewalk":"unknown","lanes":0,"name":"","oneway":true},"geometry":{"type":"LineString","coordinates":[[126.99514,37.50923],[126.99507,37.50917],[126.99496,37.50908]]}},{"type":"Feature","properties":{"class":"major","highway":"primary","sidewalk":"likely","lanes":0,"name":"사평대로","oneway":true},"geometry":{"type":"LineString","coordinates":[[126.99878,37.50026],[126.99895,37.50025],[126.99968,37.50052],[126.99984,37.50061],[127.00018,37.50074]]}},{"type":"Feature","properties":{"class":"major","highway":"primary","sidewalk":"likely","lanes":0,"name":"사평대로","oneway":false},"geometry":{"type":"LineString","coordinates":[[126.99878,37.50026],[126.99863,37.5002]]}},{"type":"Feature","properties":{"class":"major","highway":"secondary","sidewalk":"likely","lanes":0,"name":"신반포로","oneway":true},"geometry":{"type":"LineString","coordinates":[[127.00064,37.50493],[126.99803,37.50412],[126.99788,37.50407],[126.99717,37.50386],[126.9954,37.50336],[126.99512,37.50329],[126.99497,37.50325],[126.99363,37.50289],[126.99287,37.50266],[126.99227,37.5025],[126.99158,37.50236],[126.9907,37.50217]]}},{"type":"Feature","properties":{"class":"major","highway":"trunk_link","sidewalk":"likely","lanes":0,"name":"","oneway":true},"geometry":{"type":"LineString","coordinates":[[126.99634,37.5093],[126.99582,37.50914],[126.99555,37.50903],[126.9951,37.50888]]}},{"type":"Feature","properties":{"class":"major","highway":"trunk","sidewalk":"likely","lanes":4,"name":"올림픽대로","oneway":true},"geometry":{"type":"LineString","coordinates":[[126.99881,37.51047],[126.9983,37.51022]]}}]}