{"type":"FeatureCollection","features":[{"type":"Feature","properties":{"class":"major","highway":"tertiary","sidewalk":"likely","lanes":0,"name":"가로공원로","oneway":false},"geometry":{"type":"LineString","coordinates":[[126.81612,37.53386],[126.81772,37.53414],[126.81822,37.53422],[126.81831,37.53424],[126.81869,37.5343],[126.81891,37.53435],[126.81909,37.5343],[126.81936,37.53422],[126.81957,37.5342],[126.81976,37.53423],[126.82032,37.53439],[126.82043,37.53446],[126.82062,37.53465],[126.82085,37.53479],[126.82112,37.53486],[126.8214,37.5349]]}},{"type":"Feature","properties":{"class":"minor","highway":"residential","sidewalk":"no","lanes":2,"name":"소사로","oneway":false},"geometry":{"type":"LineString","coordinates":[[126.80718,37.53868],[126.80748,37.53933],[126.80751,37.53939],[126.80776,37.53983],[126.80873,37.54158],[126.80879,37.54169],[126.80895,37.54204],[126.809,37.54217],[126.80901,37.5423]]}},{"type":"Feature","properties":{"class":"major","highway":"motorway","sidewalk":"likely","lanes":4,"name":"경인고속도로","oneway":true},"geometry":{"type":"LineString","coordinates":[[126.83195,37.52512],[126.81665,37.52279],[126.81124,37.52202],[126.80822,37.52165],[126.80634,37.52148],[126.80585,37.52144],[126.80543,37.52141],[126.80472,37.52138],[126.80401,37.52139],[126.80317,37.52141],[126.80206,37.52147],[126.80116,37.52155]]}},{"type":"Feature","properties":{"class":"major","highway":"motorway","sidewalk":"likely","lanes":4,"name":"경인고속도로","oneway":true},"geometry":{"type":"LineString","coordinates":[[126.80117,37.5214],[126.80201,37.52132],[126.80311,37.52125],[126.80394,37.52123],[126.8047,37.52124],[126.80546,37.52125],[126.80636,37.52132],[126.80821,37.52151],[126.81124,37.52186],[126.81661,37.52264],[126.83142,37.5249]]}},{"type":"Feature","properties":{"class":"major","highway":"tertiary_link","sidewalk":"likely","lanes":0,"name":"봉오대로","oneway":true},"geometry":{"type":"LineString","coordinates":[[126.81643,37.53792],[126.81605,37.53792],[126.81578,37.53781],[126.81549,37.5377],[126.8132,37.53677],[126.81191,37.5362]]}},{"type":"Feature","properties":{"class":"major","highway":"tertiary","sidewalk":"likely","lanes":0,"name":"소사로","oneway":false},"geometry":{"type":"LineString","coordinates":[[126.80484,37.52534],[126.80485,37.52634],[126.80485,37.52645],[126.80485,37.52669],[126.80485,37.52692],[126.80487,37.5281]]}},{"type":"Feature","properties":{"class":"major","highway":"tertiary","sidewalk":"likely","lanes":0,"name":"봉오대로","oneway":true},"geometry":{"type":"LineString","coordinates":[[126.81706,37.53821],[126.81584,37.53774]]}},{"type":"Feature","properties":{"class":"major","highway":"tertiary","sidewalk":"likely","lanes":0,"name":"봉오대로","oneway":true},"geometry":{"type":"LineString","coordinates":[[126.81202,37.53608],[126.8159,37.53762]]}},{"type":"Feature","properties":{"class":"major","highway":"tertiary","sidewalk":"likely","lanes":0,"name":"봉오대로","oneway":true},"geometry":{"type":"LineString","coordinates":[[126.8159,37.53762],[126.81711,37.5381]]}},{"type":"Feature","properties":{"class":"major","highway":"tertiary_link","sidewalk":"likely","lanes":0,"name":"","oneway":true},"geometry":{"type":"LineString","coordinates":[[126.8162,37.53626],[126.81666,37.53724],[126.81682,37.53749],[126.81697,37.53768],[126.81714,37.53784],[126.81734,37.53799],[126.81775,37.53826]]}},{"type":"Feature","properties":{"class":"major","highway":"tertiary_link","sidewalk":"likely","lanes":0,"name":"","oneway":true},"geometry":{"type":"LineString","coordinates":[[126.81499,37.53715],[126.81523,37.53718],[126.81543,37.53719],[126.81559,37.53716],[126.81576,37.5371],[126.81591,37.53701],[126.81594,37.53699],[126.81603,37.53691],[126.8161,37.53682],[126.81614,37.53669],[126.8162,37.53626]]}},{"type":"Feature","properties":{"class":"major","highway":"tertiary_link","sidewalk":"likely","lanes":0,"name":"","oneway":true},"geometry":{"type":"LineString","coordinates":[[126.80332,37.53261],[126.80355,37.53264],[126.80377,37.53271]]}},{"type":"Feature","properties":{"class":"major","highway":"tertiary","sidewalk":"likely","lanes":0,"name":"봉오대로","oneway":true},"geometry":{"type":"LineString","coordinates":[[126.81191,37.5362],[126.81021,37.53553]]}},{"type":"Feature","properties":{"class":"major","highway":"tertiary_link","sidewalk":"likely","lanes":0,"name":"봉오대로","oneway":true},"geometry":{"type":"LineString","coordinates":[[126.81202,37.53608],[126.81412,37.5368],[126.81499,37.53715],[126.81597,37.53754],[126.8162,37.53764],[126.81643,37.53792]]}},{"type":"Feature","properties":{"class":"major","highway":"tertiary_link","sidewalk":"likely","lanes":0,"name":"","oneway":true},"geometry":{"type":"LineString","coordinates":[[126.80637,37.53414],[126.80553,37.53384]]}},{"type":"Feature","properties":{"class":"major","highway":"tertiary_link","sidewalk":"likely","lanes":0,"name":"","oneway":true},"geometry":{"type":"LineString","coordinates":[[126.81597,37.53754],[126.81603,37.5376],[126.81606,37.53765],[126.81605,37.53771],[126.81602,37.53775],[126.81596,37.5378],[126.81588,37.53782],[126.81578,37.53781]]}},{"type":"Feature","properties":{"class":"major","highway":"tertiary_link","sidewalk":"likely","lanes":0,"name":"","oneway":true},"geometry":{"type":"LineString","coordinates":[[126.81021,37.53553],[126.80834,37.53492],[126.80637,37.53414]]}},{"type":"Feature","properties":{"class":"major","highway":"tertiary","sidewalk":"likely","lanes":0,"name":"봉오대로","oneway":true},"geometry":{"type":"LineString","coordinates":[[126.82126,37.53916],[126.82083,37.53912],[126.82009,37.53906],[126.81918,37.53892],[126.81869,37.53881],[126.81811,37.53862],[126.81706,37.53821]]}},{"type":"Feature","properties":{"class":"major","highway":"tertiary","sidewalk":"likely","lanes":0,"name":"봉오대로","oneway":true},"geometry":{"type":"LineString","coordinates":[[126.80911,37.5351],[126.80465,37.53336],[126.80317,37.53278]]}},{"type":"Feature","properties":{"class":"major","highway":"tertiary","sidewalk":"likely","lanes":0,"name":"봉오대로","oneway":true},"geometry":{"type":"LineString","coordinates":[[126.81031,37.5354],[126.81202,37.53608]]}},{"type":"Feature","properties":{"class":"major","highway":"tertiary_link","sidewalk":"likely","lanes":0,"name":"","oneway":true},"geometry":{"type":"LineString","coordinates":[[126.80627,37.53341],[126.8064,37.53353],[126.8065,37.53364],[126.80659,37.53375],[126.80673,37.53384],[126.80832,37.53446],[126.80961,37.53503],[126.81031,37.5354]]}},{"type":"Feature","properties":{"class":"major","highway":"tertiary_link","sidewalk":"likely","lanes":0,"name":"","oneway":true},"geometry":{"type":"LineString","coordinates":[[126.817,37.5383],[126.81694,37.53824],[126.8169,37.53818],[126.81691,37.53811],[126.81695,37.53807],[126.81701,37.53803],[126.81708,37.53801],[126.81717,37.53802]]}},{"type":"Feature","properties":{"class":"major","highway":"tertiary_link","sidewalk":"likely","lanes":0,"name":"","oneway":true},"geometry":{"type":"LineString","coordinates":[[126.81645,37.53755],[126.81634,37.53733],[126.81629,37.53723],[126.81624,37.53717],[126.8162,37.53713],[126.81614,37.5371],[126.81607,37.53708],[126.816,37.53707],[126.81591,37.53709],[126.81584,37.53713],[126.8158,37.53718],[126.81577,37.53725],[126.81577,37.53731],[126.8158,37.53737],[126.81587,37.53745],[126.81597,37.53754]]}},{"type":"Feature","properties":{"class":"major","highway":"tertiary","sidewalk":"likely","lanes":0,"name":"봉오대로","oneway":true},"geometry":{"type":"LineString","coordinates":[[126.80373,37.53278],[126.80942,37.53506]]}},{"type":"Feature","properties":{"class":"major","highway":"tertiary","sidewalk":"likely","lanes":0,"name":"봉오대로","oneway":true},"geometry":{"type":"LineString","coordinates":[[126.81584,37.53774],[126.81191,37.5362]]}},{"type":"Feature","properties":{"class":"major","highway":"tertiary","sidewalk":"likely","lanes":0,"name":"역곡로","oneway":false},"geometry":{"type":"LineString","coordinates":[[126.81583,37.52532],[126.81608,37.52668]]}},{"type":"Feature","properties":{"class":"major","highway":"tertiary","sidewalk":"likely","lanes":0,"name":"봉오대로","oneway":true},"geometry":{"type":"LineString","coordinates":[[126.81711,37.5381],[126.81812,37.5385],[126.81858,37.53865],[126.81904,37.53877],[126.81966,37.53888],[126.82126,37.53916]]}},{"type":"Feature","properties":{"class":"major","highway":"tertiary_link","sidewalk":"likely","lanes":0,"name":"","oneway":true},"geometry":{"type":"LineString","coordinates":[[126.80439,37.53294],[126.80531,37.53328],[126.80544,37.53333],[126.80554,37.53334],[126.80564,37.53333],[126.80573,37.53331],[126.80582,37.53327],[126.80589,37.53322],[126.80596,37.53313],[126.80599,37.53307],[126.806,37.53301],[126.80601,37.53295],[126.80601,37.53262]]}},{"type":"Feature","properties":{"class":"major","highway":"tertiary_link","sidewalk":"likely","lanes":0,"name":"","oneway":true},"geometry":{"type":"LineString","coordinates":[[126.80377,37.53271],[126.80439,37.53294]]}},{"type":"Feature","properties":{"class":"major","highway":"tertiary_link","sidewalk":"likely","lanes":0,"name":"","oneway":true},"geometry":{"type":"LineString","coordinates":[[126.80553,37.53384],[126.8032,37.53287]]}},{"type":"Feature","properties":{"class":"major","highway":"tertiary_link","sidewalk":"likely","lanes":0,"name":"","oneway":true},"geometry":{"type":"LineString","coordinates":[[126.8032,37.53287],[126.80289,37.53268]]}},{"type":"Feature","properties":{"class":"major","highway":"tertiary","sidewalk":"likely","lanes":0,"name":"봉오대로","oneway":true},"geometry":{"type":"LineString","coordinates":[[126.79613,37.53201],[126.79912,37.53202],[126.80012,37.53204],[126.80059,37.53205],[126.80101,37.53208],[126.80144,37.53213],[126.80187,37.53219],[126.80242,37.53232],[126.80272,37.5324],[126.80325,37.53258],[126.80332,37.53261],[126.80373,37.53278]]}},{"type":"Feature","properties":{"class":"major","highway":"tertiary","sidewalk":"likely","lanes":0,"name":"봉오대로","oneway":true},"geometry":{"type":"LineString","coordinates":[[126.80289,37.53268],[126.80264,37.53261],[126.80218,37.53248],[126.80201,37.53244],[126.80135,37.53231],[126.80072,37.53225],[126.8002,37.53222],[126.79965,37.5322],[126.79695,37.53218],[126.79606,37.53217]]}},{"type":"Feature","properties":{"class":"minor","highway":"residential","sidewalk":"unknown","lanes":0,"name":"성오로128번길","oneway":false},"geometry":{"type":"LineString","coordinates":[[126.79951,37.52503],[126.80102,37.52556],[126.80177,37.52583],[126.8018,37.52584],[126.80261,37.52613],[126.80326,37.52636]]}},{"type":"Feature","properties":{"class":"minor","highway":"residential","sidewalk":"unknown","lanes":0,"name":"원종로9번길","oneway":false},"geometry":{"type":"LineString","coordinates":[[126.801,37.52406],[126.801,37.52469],[126.801,37.52534],[126.80102,37.52556],[126.80101,37.52592],[126.80101,37.52642],[126.80101,37.52695],[126.80101,37.52753]]}},{"type":"Feature","properties":{"class":"minor","highway":"residential","sidewalk":"unknown","lanes":0,"name":"원종로29번길","oneway":false},"geometry":{"type":"LineString","coordinates":[[126.80326,37.52406],[126.80326,37.52472],[126.80325,37.52533],[126.80326,37.52636]]}},{"type":"Feature","properties":{"class":"minor","highway":"residential","sidewalk":"unknown","lanes":0,"name":"원종로35번길","oneway":false},"geometry":{"type":"LineString","coordinates":[[126.80399,37.52406],[126.80398,37.52533],[126.80398,37.52662],[126.80398,37.527],[126.80397,37.5274],[126.80397,37.52797]]}},{"type":"Feature","properties":{"class":"alley","highway":"service","sidewalk":"unknown","lanes":0,"name":"성오로124번길","oneway":false},"geometry":{"type":"LineString","coordinates":[[126.79968,37.52467],[126.79987,37.52469],[126.801,37.52469],[126.80204,37.5247],[126.80261,37.52471],[126.80326,37.52472]]}},{"type":"Feature","properties":{"class":"minor","highway":"residential","sidewalk":"unknown","lanes":0,"name":"소사로775번길","oneway":false},"geometry":{"type":"LineString","coordinates":[[126.801,37.52534],[126.80173,37.52533],[126.80204,37.52532],[126.80261,37.52533],[126.80325,37.52533],[126.80398,37.52533],[126.80484,37.52534]]}},{"type":"Feature","properties":{"class":"minor","highway":"residential","sidewalk":"unknown","lanes":0,"name":"역곡로504번길","oneway":false},"geometry":{"type":"LineString","coordinates":[[126.81609,37.52955],[126.81689,37.52946],[126.81737,37.52941],[126.81804,37.52933],[126.81847,37.52928],[126.81849,37.52928],[126.81872,37.52925],[126.8194,37.52917],[126.82008,37.52909],[126.82074,37.52902],[126.82115,37.52897],[126.8214,37.52894],[126.82183,37.52889],[126.82206,37.52887]]}},{"type":"Feature","properties":{"class":"alley","highway":"living_street","sidewalk":"unknown","lanes":0,"name":"고리울로","oneway":false},"geometry":{"type":"LineString","coordinates":[[126.81609,37.52799],[126.8162,37.52799],[126.8169,37.52782],[126.81747,37.52769],[126.81776,37.52763],[126.8191,37.52748],[126.82043,37.52733],[126.82175,37.52717],[126.82297,37.52702],[126.823,37.52702],[126.82438,37.52685]]}},{"type":"Feature","properties":{"class":"major","highway":"tertiary","sidewalk":"likely","lanes":0,"name":"고강로","oneway":false},"geometry":{"type":"LineString","coordinates":[[126.80672,37.53274],[126.80698,37.53245],[126.80723,37.53217],[126.80732,37.53207],[126.80792,37.53147],[126.80847,37.53093],[126.80888,37.53052],[126.80892,37.53048],[126.80908,37.53032]]}},{"type":"Feature","properties":{"class":"alley","highway":"service","sidewalk":"unknown","lanes":0,"name":"성지로112번길","oneway":false},"geometry":{"type":"LineString","coordinates":[[126.81125,37.52898],[126.8121,37.52888],[126.81286,37.52879],[126.81366,37.5287]]}},{"type":"Feature","properties":{"class":"alley","highway":"service","sidewalk":"unknown","lanes":0,"name":"역곡로497번길","oneway":false},"geometry":{"type":"LineString","coordinates":[[126.81368,37.5299],[126.81379,37.52986],[126.81397,37.52979],[126.8146,37.52954],[126.81522,37.52932],[126.81609,37.52898]]}},{"type":"Feature","properties":{"class":"alley","highway":"service","sidewalk":"unknown","lanes":0,"name":"고리울로15번길","oneway":false},"geometry":{"type":"LineString","coordinates":[[126.81804,37.52933],[126.81795,37.52875],[126.81786,37.52822],[126.81776,37.52763]]}},{"type":"Feature","properties":{"class":"alley","highway":"service","sidewalk":"unknown","lanes":0,"name":"성지로102번길","oneway":false},"geometry":{"type":"LineString","coordinates":[[126.81125,37.5281],[126.8121,37.52813],[126.81352,37.52817],[126.81438,37.52819]]}},{"type":"Feature","properties":{"class":"alley","highway":"service","sidewalk":"unknown","lanes":0,"name":"고리울로8번길","oneway":false},"geometry":{"type":"LineString","coordinates":[[126.8169,37.52782],[126.8169,37.52732],[126.81689,37.52668],[126.81661,37.52533],[126.81637,37.52396],[126.81625,37.52328]]}},{"type":"Feature","properties":{"class":"alley","highway":"service","sidewalk":"unknown","lanes":0,"name":"고강로92번길","oneway":false},"geometry":{"type":"LineString","coordinates":[[126.81469,37.53017],[126.8146,37.52954],[126.81444,37.5286],[126.81438,37.52819],[126.81436,37.52747],[126.81434,37.52668]]}},{"type":"Feature","properties":{"class":"alley","highway":"service","sidewalk":"unknown","lanes":0,"name":"역곡로496번길","oneway":false},"geometry":{"type":"LineString","coordinates":[[126.8169,37.52886],[126.81795,37.52875],[126.81929,37.52859],[126.82063,37.52844],[126.82196,37.52829],[126.82321,37.52815],[126.82394,37.52807],[126.8246,37.528]]}},{"type":"Feature","properties":{"class":"alley","highway":"service","sidewalk":"unknown","lanes":0,"name":"역곡로456번길","oneway":false},"geometry":{"type":"LineString","coordinates":[[126.81878,37.52602],[126.81808,37.5257],[126.81771,37.52552],[126.81732,37.52534],[126.81661,37.52533],[126.81583,37.52532]]}},{"type":"Feature","properties":{"class":"minor","highway":"residential","sidewalk":"unknown","lanes":0,"name":"고강로40번길","oneway":false},"geometry":{"type":"LineString","coordinates":[[126.80879,37.52867],[126.80879,37.52806],[126.80881,37.52669]]}},{"type":"Feature","properties":{"class":"alley","highway":"service","sidewalk":"unknown","lanes":0,"name":"소사로776번길","oneway":false},"geometry":{"type":"LineString","coordinates":[[126.80484,37.52534],[126.80575,37.52534],[126.80644,37.52534],[126.80722,37.52534],[126.80799,37.52534],[126.8088,37.52534]]}},{"type":"Feature","properties":{"class":"alley","highway":"service","sidewalk":"unknown","lanes":0,"name":"원종로51번길","oneway":false},"geometry":{"type":"LineString","coordinates":[[126.80575,37.52822],[126.80575,37.52725],[126.80575,37.5267],[126.80576,37.52622],[126.80575,37.52589],[126.80575,37.52552],[126.80575,37.52534],[126.80575,37.52472],[126.80575,37.52406],[126.80575,37.52373],[126.80575,37.52342],[126.80575,37.52277],[126.80575,37.52224],[126.80575,37.52157]]}},{"type":"Feature","properties":{"class":"alley","highway":"service","sidewalk":"unknown","lanes":0,"name":"고강로56번길","oneway":false},"geometry":{"type":"LineString","coordinates":[[126.81047,37.52928],[126.80966,37.52942],[126.80879,37.52958]]}},{"type":"Feature","properties":{"class":"minor","highway":"residential","sidewalk":"unknown","lanes":0,"name":"소사로794번길","oneway":false},"geometry":{"type":"LineString","coordinates":[[126.80485,37.52692],[126.80506,37.52699],[126.80575,37.52725],[126.80681,37.52764],[126.80696,37.52769],[126.80706,37.52775],[126.80713,37.52782]]}},{"type":"Feature","properties":{"class":"alley","highway":"service","sidewalk":"unknown","lanes":0,"name":"소사로808번길","oneway":false},"geometry":{"type":"LineString","coordinates":[[126.807,37.52841],[126.80692,37.52839],[126.80575,37.52822],[126.80487,37.5281]]}},{"type":"Feature","properties":{"class":"alley","highway":"service","sidewalk":"unknown","lanes":0,"name":"소사로862번길","oneway":false},"geometry":{"type":"LineString","coordinates":[[126.80668,37.52985],[126.80724,37.52993]]}},{"type":"Feature","properties":{"class":"alley","highway":"service","sidewalk":"unknown","lanes":0,"name":"고강로24번길","oneway":false},"geometry":{"type":"LineString","coordinates":[[126.80792,37.53147],[126.80764,37.53049],[126.80762,37.53036],[126.80764,37.53022],[126.80767,37.5301],[126.8077,37.53],[126.80784,37.52944]]}},{"type":"Feature","properties":{"class":"alley","highway":"service","sidewalk":"unknown","lanes":0,"name":"고강로40번나길","oneway":false},"geometry":{"type":"LineString","coordinates":[[126.80879,37.52958],[126.80843,37.52953],[126.80784,37.52944]]}},{"type":"Feature","properties":{"class":"alley","highway":"service","sidewalk":"unknown","lanes":0,"name":"고강로40번가길","oneway":false},"geometry":{"type":"LineString","coordinates":[[126.80762,37.53036],[126.80825,37.53024],[126.80894,37.53011]]}},{"type":"Feature","properties":{"class":"alley","highway":"service","sidewalk":"unknown","lanes":0,"name":"원종로85번길","oneway":false},"geometry":{"type":"LineString","coordinates":[[126.80966,37.52942],[126.8096,37.52879],[126.8096,37.52807],[126.8096,37.52668],[126.80961,37.52533],[126.80961,37.52406]]}},{"type":"Feature","properties":{"class":"alley","highway":"service","sidewalk":"unknown","lanes":0,"name":"","oneway":false},"geometry":{"type":"LineString","coordinates":[[126.80517,37.53028],[126.80534,37.53023],[126.80574,37.5301],[126.80595,37.52997],[126.80609,37.52987],[126.80626,37.52979],[126.80643,37.52977],[126.8067,37.52973]]}},{"type":"Feature","properties":{"class":"alley","highway":"service","sidewalk":"unknown","lanes":0,"name":"소사로776번길","oneway":false},"geometry":{"type":"LineString","coordinates":[[126.80645,37.52621],[126.80645,37.52589],[126.80644,37.52534]]}},{"type":"Feature","properties":{"class":"alley","highway":"service","sidewalk":"unknown","lanes":0,"name":"원종로71번길","oneway":false},"geometry":{"type":"LineString","coordinates":[[126.80799,37.52668],[126.80799,37.52534],[126.80798,37.52406]]}},{"type":"Feature","properties":{"class":"alley","highway":"service","sidewalk":"unknown","lanes":0,"name":"원종로65번길","oneway":false},"geometry":{"type":"LineString","coordinates":[[126.80722,37.52406],[126.80721,37.52472],[126.80722,37.52534],[126.80721,37.52621],[126.80661,37.52621]]}},{"type":"Feature","properties":{"class":"alley","highway":"service","sidewalk":"unknown","lanes":0,"name":"고강로72번길","oneway":false},"geometry":{"type":"LineString","coordinates":[[126.81233,37.52968],[126.81228,37.5295],[126.81219,37.52918],[126.8121,37.52888],[126.81209,37.52863],[126.8121,37.52813],[126.8121,37.52743],[126.81211,37.52667]]}},{"type":"Feature","properties":{"class":"alley","highway":"service","sidewalk":"unknown","lanes":0,"name":"고강로72번길","oneway":false},"geometry":{"type":"LineString","coordinates":[[126.8121,37.52743],[126.81352,37.52745]]}},{"type":"Feature","properties":{"class":"alley","highway":"service","sidewalk":"unknown","lanes":0,"name":"원종로119번길","oneway":false},"geometry":{"type":"LineString","coordinates":[[126.81397,37.52979],[126.81366,37.5287],[126.81352,37.52817],[126.81352,37.52745],[126.81351,37.52668],[126.81351,37.52601],[126.81351,37.52533],[126.81351,37.52486],[126.8135,37.52471],[126.8135,37.52432],[126.8135,37.52406]]}},{"type":"Feature","properties":{"class":"alley","highway":"service","sidewalk":"unknown","lanes":0,"name":"원종로131번길","oneway":false},"geometry":{"type":"LineString","coordinates":[[126.81521,37.52668],[126.8151,37.52601],[126.81497,37.52533],[126.81488,37.52486],[126.81485,37.5247],[126.81472,37.52406]]}},{"type":"Feature","properties":{"class":"alley","highway":"service","sidewalk":"unknown","lanes":0,"name":"원종로107번길","oneway":false},"geometry":{"type":"LineString","coordinates":[[126.81211,37.52472],[126.8135,37.52471]]}},{"type":"Feature","properties":{"class":"alley","highway":"service","sidewalk":"unknown","lanes":0,"name":"원종로107번길","oneway":false},"geometry":{"type":"LineString","coordinates":[[126.81211,37.52601],[126.81351,37.52601]]}},{"type":"Feature","properties":{"class":"alley","highway":"service","sidewalk":"unknown","lanes":0,"name":"고강로98번길","oneway":false},"geometry":{"type":"LineString","coordinates":[[126.81521,37.5303],[126.81522,37.52932],[126.81522,37.52851],[126.81522,37.5279]]}},{"type":"Feature","properties":{"class":"alley","highway":"service","sidewalk":"unknown","lanes":0,"name":"역곡로471번가길","oneway":false},"geometry":{"type":"LineString","coordinates":[[126.81478,37.52805],[126.81487,37.52789],[126.81493,37.52755],[126.81498,37.52741],[126.81511,37.52727],[126.81537,37.52701],[126.81559,37.52668]]}},{"type":"Feature","properties":{"class":"alley","highway":"service","sidewalk":"unknown","lanes":0,"name":"고강로78번길","oneway":false},"geometry":{"type":"LineString","coordinates":[[126.81318,37.52977],[126.81286,37.52879]]}},{"type":"Feature","properties":{"class":"alley","highway":"service","sidewalk":"unknown","lanes":0,"name":"원종로107번길","oneway":false},"geometry":{"type":"LineString","coordinates":[[126.81211,37.52667],[126.81211,37.52601],[126.81211,37.52533],[126.81211,37.52472],[126.81211,37.52406]]}},{"type":"Feature","properties":{"class":"alley","highway":"living_street","sidewalk":"unknown","lanes":0,"name":"역곡로482번길","oneway":false},"geometry":{"type":"LineString","coordinates":[[126.81895,37.5266],[126.82021,37.52619],[126.82127,37.52582],[126.82236,37.52543],[126.82342,37.52507],[126.8245,37.52469],[126.82454,37.52468],[126.82551,37.52433],[126.8255,37.52427]]}},{"type":"Feature","properties":{"class":"alley","highway":"service","sidewalk":"unknown","lanes":0,"name":"역곡로490번길","oneway":false},"geometry":{"type":"LineString","coordinates":[[126.81609,37.52841],[126.8169,37.52832],[126.81786,37.52822],[126.8192,37.52806],[126.82053,37.52791],[126.82182,37.52776],[126.82186,37.52775]]}},{"type":"Feature","properties":{"class":"alley","highway":"service","sidewalk":"unknown","lanes":0,"name":"고강로120번길","oneway":false},"geometry":{"type":"LineString","coordinates":[[126.81766,37.53091],[126.81754,37.53029],[126.81737,37.52941]]}},{"type":"Feature","properties":{"class":"alley","highway":"service","sidewalk":"unknown","lanes":0,"name":"고강로132번가길","oneway":false},"geometry":{"type":"LineString","coordinates":[[126.81897,37.53064],[126.8193,37.53061],[126.81964,37.53057],[126.82033,37.53049],[126.82098,37.53042],[126.8214,37.53037]]}},{"type":"Feature","properties":{"class":"alley","highway":"service","sidewalk":"unknown","lanes":0,"name":"고강로132번길","oneway":false},"geometry":{"type":"LineString","coordinates":[[126.81907,37.53123],[126.81897,37.53064],[126.81895,37.53057],[126.81891,37.53032],[126.81889,37.5302],[126.81888,37.53013],[126.81872,37.52925]]}},{"type":"Feature","properties":{"class":"alley","highway":"service","sidewalk":"unknown","lanes":0,"name":"고강로120번길","oneway":false},"geometry":{"type":"LineString","coordinates":[[126.81754,37.53029],[126.8182,37.53021]]}},{"type":"Feature","properties":{"class":"major","highway":"tertiary","sidewalk":"likely","lanes":0,"name":"소사로819번길","oneway":false},"geometry":{"type":"LineString","coordinates":[[126.80094,37.52989],[126.80131,37.52986],[126.8017,37.52981],[126.80206,37.52972],[126.80213,37.5297],[126.80263,37.52953],[126.80289,37.52947],[126.80321,37.52941],[126.8034,37.5294],[126.80366,37.52938],[126.80488,37.52929]]}},{"type":"Feature","properties":{"class":"alley","highway":"service","sidewalk":"unknown","lanes":0,"name":"","oneway":false},"geometry":{"type":"LineString","coordinates":[[126.80204,37.52532],[126.80204,37.5247]]}},{"type":"Feature","properties":{"class":"alley","highway":"service","sidewalk":"unknown","lanes":0,"name":"성오로128번길","oneway":false},"geometry":{"type":"LineString","coordinates":[[126.80173,37.52533],[126.80177,37.52583]]}},{"type":"Feature","properties":{"class":"alley","highway":"service","sidewalk":"unknown","lanes":0,"name":"성오로128번길","oneway":false},"geometry":{"type":"LineString","coordinates":[[126.8018,37.52706],[126.8018,37.52644],[126.8018,37.52584]]}},{"type":"Feature","properties":{"class":"alley","highway":"service","sidewalk":"unknown","lanes":0,"name":"소사로797번길","oneway":false},"geometry":{"type":"LineString","coordinates":[[126.8018,37.52644],[126.80294,37.52674],[126.80398,37.527]]}},{"type":"Feature","properties":{"class":"alley","highway":"service","sidewalk":"unknown","lanes":0,"name":"소사로799번길","oneway":false},"geometry":{"type":"LineString","coordinates":[[126.79942,37.52672],[126.80101,37.52695],[126.8018,37.52706],[126.80258,37.52718],[126.80397,37.5274]]}},{"type":"Feature","properties":{"class":"alley","highway":"service","sidewalk":"unknown","lanes":0,"name":"원종로23번길","oneway":false},"geometry":{"type":"LineString","coordinates":[[126.80261,37.52406],[126.80261,37.52471],[126.80261,37.52533],[126.80261,37.52613]]}},{"type":"Feature","properties":{"class":"alley","highway":"service","sidewalk":"unknown","lanes":0,"name":"성오로140번길","oneway":false},"geometry":{"type":"LineString","coordinates":[[126.79891,37.52615],[126.79903,37.52616],[126.80086,37.52642],[126.80101,37.52642]]}},{"type":"Feature","properties":{"class":"alley","highway":"service","sidewalk":"unknown","lanes":0,"name":"성오로136번길","oneway":false},"geometry":{"type":"LineString","coordinates":[[126.79924,37.52564],[126.79931,37.52567],[126.80101,37.52592]]}},{"type":"Feature","properties":{"class":"alley","highway":"service","sidewalk":"unknown","lanes":0,"name":"고강로","oneway":false},"geometry":{"type":"LineString","coordinates":[[126.80847,37.53093],[126.80825,37.53024]]}},{"type":"Feature","properties":{"class":"alley","highway":"service","sidewalk":"unknown","lanes":0,"name":"소사로835번길","oneway":false},"geometry":{"type":"LineString","coordinates":[[126.80396,37.53193],[126.80441,37.53155],[126.80461,37.53131],[126.80479,37.53107],[126.80499,37.5309],[126.80531,37.53066]]}},{"type":"Feature","properties":{"class":"alley","highway":"service","sidewalk":"unknown","lanes":0,"name":"","oneway":false},"geometry":{"type":"LineString","coordinates":[[126.80411,37.53272],[126.80406,37.53245],[126.80396,37.53193],[126.8039,37.53177],[126.80378,37.53159],[126.80371,37.53147],[126.80357,37.53109],[126.80352,37.53083],[126.80359,37.53034],[126.80366,37.52938]]}},{"type":"Feature","properties":{"class":"alley","highway":"service","sidewalk":"unknown","lanes":0,"name":"","oneway":false},"geometry":{"type":"LineString","coordinates":[[126.80681,37.52764],[126.80687,37.52719],[126.80692,37.52698],[126.80695,37.52688]]}},{"type":"Feature","properties":{"class":"alley","highway":"service","sidewalk":"unknown","lanes":0,"name":"소사로820번길","oneway":false},"geometry":{"type":"LineString","coordinates":[[126.80489,37.52939],[126.80499,37.52937],[126.80539,37.52938],[126.80556,37.5294],[126.80574,37.52934],[126.80582,37.52931],[126.80599,37.52936],[126.80612,37.52931],[126.8063,37.52917],[126.80641,37.52897],[126.80641,37.52882],[126.80657,37.5286],[126.80671,37.52852],[126.80692,37.52839]]}},{"type":"Feature","properties":{"class":"alley","highway":"service","sidewalk":"unknown","lanes":0,"name":"","oneway":false},"geometry":{"type":"LineString","coordinates":[[126.80485,37.52669],[126.80575,37.5267]]}},{"type":"Feature","properties":{"class":"major","highway":"primary","sidewalk":"likely","lanes":0,"name":"방화대로","oneway":true},"geometry":{"type":"LineString","coordinates":[[126.81658,37.54822],[126.8165,37.54803],[126.8165,37.54524],[126.8164,37.53884],[126.81638,37.53822],[126.81643,37.53792]]}},{"type":"Feature","properties":{"class":"minor","highway":"residential","sidewalk":"unknown","lanes":0,"name":"봉오대로527번길","oneway":false},"geometry":{"type":"LineString","coordinates":[[126.81804,37.53872],[126.81748,37.54057],[126.81745,37.5406],[126.81741,37.54062],[126.81699,37.54063]]}},{"type":"Feature","properties":{"class":"major","highway":"primary","sidewalk":"likely","lanes":0,"name":"방화대로","oneway":true},"geometry":{"type":"LineString","coordinates":[[126.81643,37.53792],[126.81652,37.53824],[126.81655,37.53867],[126.81668,37.54524],[126.81667,37.54802],[126.81658,37.54822]]}},{"type":"Feature","properties":{"class":"major","highway":"tertiary_link","sidewalk":"likely","lanes":0,"name":"","oneway":true},"geometry":{"type":"LineString","coordinates":[[126.81726,37.53841],[126.81695,37.53835],[126.81686,37.53837],[126.81677,37.5384],[126.8167,37.53844],[126.81665,37.53849],[126.8166,37.53855],[126.81655,37.53867]]}},{"type":"Feature","properties":{"class":"major","highway":"tertiary_link","sidewalk":"likely","lanes":0,"name":"","oneway":true},"geometry":{"type":"LineString","coordinates":[[126.8164,37.53884],[126.81627,37.53858],[126.81618,37.53844],[126.81609,37.53829],[126.81599,37.53815],[126.81587,37.538],[126.81574,37.53789],[126.81549,37.5377]]}},{"type":"Feature","properties":{"class":"alley","highway":"service","sidewalk":"unknown","lanes":0,"name":"역곡로471번길","oneway":false},"geometry":{"type":"LineString","coordinates":[[126.81125,37.52667],[126.81211,37.52667],[126.81351,37.52668],[126.81427,37.52668],[126.81434,37.52668],[126.81513,37.52669]]}},{"type":"Feature","properties":{"class":"alley","highway":"service","sidewalk":"unknown","lanes":0,"name":"역곡로471번길","oneway":false},"geometry":{"type":"LineString","coordinates":[[126.81521,37.52668],[126.81559,37.52668],[126.81608,37.52668]]}},{"type":"Feature","properties":{"class":"minor","highway":"residential","sidewalk":"unknown","lanes":0,"name":"역곡로472번길","oneway":false},"geometry":{"type":"LineString","coordinates":[[126.81761,37.52643],[126.81781,37.52636],[126.81786,37.52635],[126.81816,37.52624],[126.81824,37.52621],[126.81878,37.52602],[126.81883,37.52601],[126.81972,37.5257],[126.81973,37.5257],[126.81986,37.52565]]}},{"type":"Feature","properties":{"class":"alley","highway":"service","sidewalk":"unknown","lanes":0,"name":"성지로71번길","oneway":false},"geometry":{"type":"LineString","coordinates":[[126.8088,37.52534],[126.80961,37.52533],[126.81039,37.52533],[126.81125,37.52533]]}},{"type":"Feature","properties":{"class":"minor","highway":"residential","sidewalk":"unknown","lanes":0,"name":"원종로79번길","oneway":false},"geometry":{"type":"LineString","coordinates":[[126.80881,37.52669],[126.80881,37.52557],[126.8088,37.52534]]}},{"type":"Feature","properties":{"class":"minor","highway":"residential","sidewalk":"unknown","lanes":0,"name":"성지로85번길","oneway":false},"geometry":{"type":"LineString","coordinates":[[126.80881,37.52669],[126.8096,37.52668],[126.81038,37.52667],[126.81125,37.52667]]}},{"type":"Feature","properties":{"class":"alley","highway":"service","sidewalk":"unknown","lanes":0,"name":"원종로51번길","oneway":false},"geometry":{"type":"LineString","coordinates":[[126.80645,37.52621],[126.80576,37.52622]]}},{"type":"Feature","properties":{"class":"alley","highway":"service","sidewalk":"unknown","lanes":0,"name":"원종로51번길","oneway":false},"geometry":{"type":"LineString","coordinates":[[126.80575,37.52472],[126.80721,37.52472]]}},{"type":"Feature","properties":{"class":"alley","highway":"service","sidewalk":"unknown","lanes":0,"name":"역곡로455번길","oneway":false},"geometry":{"type":"LineString","coordinates":[[126.81125,37.52533],[126.81211,37.52533],[126.81351,37.52533],[126.81497,37.52533],[126.81544,37.52533],[126.81583,37.52532]]}},{"type":"Feature","properties":{"class":"alley","highway":"service","sidewalk":"unknown","lanes":0,"name":"원종로51번길","oneway":false},"geometry":{"type":"LineString","coordinates":[[126.80575,37.52589],[126.80611,37.52589],[126.80645,37.52589]]}},{"type":"Feature","properties":{"class":"alley","highway":"service","sidewalk":"unknown","lanes":0,"name":"원종로51번길","oneway":false},"geometry":{"type":"LineString","coordinates":[[126.80611,37.52589],[126.80611,37.52553],[126.80575,37.52552]]}},{"type":"Feature","properties":{"class":"minor","highway":"residential","sidewalk":"unknown","lanes":0,"name":"","oneway":false},"geometry":{"type":"LineString","coordinates":[[126.80881,37.52557],[126.80828,37.52557]]}},{"type":"Feature","properties":{"class":"minor","highway":"residential","sidewalk":"unknown","lanes":0,"name":"성지로85번길","oneway":false},"geometry":{"type":"LineString","coordinates":[[126.80838,37.52668],[126.80824,37.52705]]}},{"type":"Feature","properties":{"class":"alley","highway":"service","sidewalk":"unknown","lanes":0,"name":"성지로85번길","oneway":false},"geometry":{"type":"LineString","coordinates":[[126.80796,37.52668],[126.80795,37.52683]]}},{"type":"Feature","properties":{"class":"alley","highway":"service","sidewalk":"unknown","lanes":0,"name":"","oneway":false},"geometry":{"type":"LineString","coordinates":[[126.80411,37.53272],[126.8038,37.5332],[126.80423,37.53337],[126.80638,37.53422]]}},{"type":"Feature","properties":{"class":"alley","highway":"service","sidewalk":"unknown","lanes":0,"name":"","oneway":false},"geometry":{"type":"LineString","coordinates":[[126.80627,37.53341],[126.80642,37.5335],[126.80664,37.53367],[126.80682,37.53377],[126.8085,37.53441],[126.80858,37.53448]]}},{"type":"Feature","properties":{"class":"alley","highway":"service","sidewalk":"unknown","lanes":0,"name":"","oneway":false},"geometry":{"type":"LineString","coordinates":[[126.80829,37.53502],[126.80821,37.53498],[126.80638,37.53422]]}},{"type":"Feature","properties":{"class":"alley","highway":"service","sidewalk":"unknown","lanes":0,"name":"","oneway":false},"geometry":{"type":"LineString","coordinates":[[126.80829,37.53502],[126.80876,37.53454]]}},{"type":"Feature","properties":{"class":"alley","highway":"service","sidewalk":"unknown","lanes":0,"name":"역곡로547번길","oneway":false},"geometry":{"type":"LineString","coordinates":[[126.81611,37.53312],[126.81586,37.53312],[126.81571,37.53319],[126.81547,37.53327],[126.81522,37.53334],[126.81496,37.5334],[126.8146,37.53347],[126.81446,37.53348],[126.81298,37.53367]]}},{"type":"Feature","properties":{"class":"alley","highway":"service","sidewalk":"unknown","lanes":0,"name":"역곡로547번길","oneway":false},"geometry":{"type":"LineString","coordinates":[[126.81309,37.53314],[126.81365,37.53307],[126.81405,37.53273]]}},{"type":"Feature","properties":{"class":"alley","highway":"service","sidewalk":"unknown","lanes":0,"name":"","oneway":false},"geometry":{"type":"LineString","coordinates":[[126.80858,37.53448],[126.80876,37.53454]]}},{"type":"Feature","properties":{"class":"minor","highway":"residential","sidewalk":"unknown","lanes":0,"name":"가로공원로45번길","oneway":false},"geometry":{"type":"LineString","coordinates":[[126.82112,37.53486],[126.82107,37.53502],[126.821,37.53517],[126.8209,37.53537],[126.82079,37.53553],[126.82064,37.53559],[126.82051,37.53559],[126.82034,37.53553],[126.82015,37.53542],[126.81992,37.53525],[126.8195,37.53497],[126.8191,37.53478],[126.81881,37.53464],[126.81861,37.53454],[126.81841,37.5345],[126.81823,37.5345],[126.81812,37.53453],[126.81795,37.53457],[126.81779,37.53464],[126.81769,37.53475],[126.81757,37.5349],[126.81752,37.53504],[126.81753,37.53534],[126.81745,37.53546],[126.81736,37.53556],[126.81724,37.5357],[126.81714,37.53586],[126.81703,37.53612]]}},{"type":"Feature","properties":{"class":"alley","highway":"service","sidewalk":"unknown","lanes":0,"name":"역곡로547번길","oneway":false},"geometry":{"type":"LineString","coordinates":[[126.81309,37.53314],[126.81303,37.53326],[126.813,37.53336],[126.81298,37.53349],[126.81298,37.53358],[126.81298,37.53367]]}},{"type":"Feature","properties":{"class":"minor","highway":"unclassified","sidewalk":"unknown","lanes":0,"name":"봉오대로556번길","oneway":false},"geometry":{"type":"LineString","coordinates":[[126.82144,37.53793],[126.82039,37.53783],[126.8193,37.53772],[126.81926,37.53772],[126.8192,37.53771],[126.81899,37.53769]]}},{"type":"Feature","properties":{"class":"alley","highway":"service","sidewalk":"unknown","lanes":0,"name":"","oneway":false},"geometry":{"type":"LineString","coordinates":[[126.81899,37.53769],[126.81697,37.53665],[126.8168,37.53686],[126.81751,37.53723],[126.81832,37.53765],[126.81898,37.53799],[126.81899,37.53769]]}},{"type":"Feature","properties":{"class":"alley","highway":"service","sidewalk":"unknown","lanes":0,"name":"","oneway":false},"geometry":{"type":"LineString","coordinates":[[126.81697,37.53665],[126.81686,37.53641]]}},{"type":"Feature","properties":{"class":"alley","highway":"service","sidewalk":"unknown","lanes":0,"name":"","oneway":false},"geometry":{"type":"LineString","coordinates":[[126.81784,37.53786],[126.81808,37.53794],[126.81817,37.53783],[126.81832,37.53765]]}},{"type":"Feature","properties":{"class":"alley","highway":"service","sidewalk":"unknown","lanes":0,"name":"","oneway":false},"geometry":{"type":"LineString","coordinates":[[126.81751,37.53723],[126.81731,37.53749],[126.8174,37.5376],[126.81753,37.53775],[126.81759,37.53777]]}},{"type":"Feature","properties":{"class":"alley","highway":"service","sidewalk":"unknown","lanes":0,"name":"","oneway":false},"geometry":{"type":"LineString","coordinates":[[126.8174,37.5376],[126.81817,37.53783],[126.81873,37.53811]]}},{"type":"Feature","properties":{"class":"major","highway":"tertiary","sidewalk":"likely","lanes":0,"name":"역곡로","oneway":false},"geometry":{"type":"LineString","coordinates":[[126.81612,37.53205],[126.81611,37.53312],[126.81612,37.53386]]}},{"type":"Feature","properties":{"class":"alley","highway":"service","sidewalk":"unknown","lanes":0,"name":"역곡로482번길","oneway":false},"geometry":{"type":"LineString","coordinates":[[126.81608,37.5276],[126.8169,37.52732],[126.81764,37.52706],[126.81895,37.5266]]}},{"type":"Feature","properties":{"class":"alley","highway":"service","sidewalk":"unknown","lanes":0,"name":"","oneway":false},"geometry":{"type":"LineString","coordinates":[[126.81759,37.53777],[126.81784,37.53786]]}},{"type":"Feature","properties":{"class":"minor","highway":"residential","sidewalk":"unknown","lanes":0,"name":"소사로807번길","oneway":false},"geometry":{"type":"LineString","coordinates":[[126.80215,37.5277],[126.8035,37.5279],[126.80361,37.52791],[126.80397,37.52797],[126.80487,37.5281]]}},{"type":"Feature","properties":{"class":"alley","highway":"service","sidewalk":"unknown","lanes":0,"name":"역곡로481번길","oneway":false},"geometry":{"type":"LineString","coordinates":[[126.81438,37.52819],[126.81478,37.52805],[126.81522,37.5279],[126.81608,37.5276]]}},{"type":"Feature","properties":{"class":"alley","highway":"service","sidewalk":"unknown","lanes":0,"name":"성지로101번길","oneway":false},"geometry":{"type":"LineString","coordinates":[[126.80879,37.52806],[126.8096,37.52807],[126.81038,37.52808],[126.81125,37.5281]]}},{"type":"Feature","properties":{"class":"alley","highway":"service","sidewalk":"unknown","lanes":0,"name":"소사로794번길","oneway":false},"geometry":{"type":"LineString","coordinates":[[126.80713,37.52782],[126.8072,37.52782],[126.80736,37.52783],[126.80783,37.52798],[126.8081,37.52803],[126.80879,37.52806]]}},{"type":"Feature","properties":{"class":"major","highway":"tertiary","sidewalk":"likely","lanes":0,"name":"상오정로184번길","oneway":false},"geometry":{"type":"LineString","coordinates":[[126.79707,37.52984],[126.79766,37.52997],[126.79798,37.53002],[126.79813,37.53003],[126.7984,37.53004],[126.79886,37.53004],[126.79939,37.53002],[126.80013,37.52996],[126.80094,37.52989]]}},{"type":"Feature","properties":{"class":"alley","highway":"service","sidewalk":"unknown","lanes":0,"name":"소사로861번길","oneway":false},"geometry":{"type":"LineString","coordinates":[[126.806,37.53301],[126.80595,37.53308],[126.80588,37.53314],[126.80581,37.53318],[126.80572,37.53322],[126.8056,37.53325],[126.8055,37.53325],[126.80539,37.53322],[126.80531,37.5332],[126.80411,37.53272]]}},{"type":"Feature","properties":{"class":"alley","highway":"service","sidewalk":"unknown","lanes":0,"name":"원종로51번길","oneway":false},"geometry":{"type":"LineString","coordinates":[[126.80661,37.52621],[126.80645,37.52621]]}},{"type":"Feature","properties":{"class":"minor","highway":"residential","sidewalk":"unknown","lanes":0,"name":"소사로862번길","oneway":false},"geometry":{"type":"LineString","coordinates":[[126.80713,37.52782],[126.80712,37.52795],[126.807,37.52841]]}},{"type":"Feature","properties":{"class":"minor","highway":"residential","sidewalk":"unknown","lanes":0,"name":"소사로862번길","oneway":false},"geometry":{"type":"LineString","coordinates":[[126.807,37.52841],[126.80678,37.52928],[126.8067,37.52973],[126.80668,37.52985],[126.80648,37.53098],[126.80623,37.53277],[126.80617,37.53309]]}},{"type":"Feature","properties":{"class":"alley","highway":"service","sidewalk":"unknown","lanes":0,"name":"","oneway":false},"geometry":{"type":"LineString","coordinates":[[126.80724,37.52993],[126.8077,37.53]]}},{"type":"Feature","properties":{"class":"alley","highway":"service","sidewalk":"unknown","lanes":0,"name":"성지로111번길","oneway":false},"geometry":{"type":"LineString","coordinates":[[126.81125,37.52898],[126.81101,37.529],[126.81038,37.52891],[126.8096,37.52879],[126.80879,37.52867]]}},{"type":"Feature","properties":{"class":"alley","highway":"service","sidewalk":"unknown","lanes":0,"name":"원종로93번길","oneway":false},"geometry":{"type":"LineString","coordinates":[[126.81038,37.52406],[126.81039,37.52533],[126.81038,37.52667]]}},{"type":"Feature","properties":{"class":"alley","highway":"service","sidewalk":"unknown","lanes":0,"name":"고강로56번길","oneway":false},"geometry":{"type":"LineString","coordinates":[[126.81038,37.52667],[126.81038,37.52808],[126.81038,37.52891],[126.81047,37.52928],[126.81062,37.5298],[126.81066,37.52996]]}},{"type":"Feature","properties":{"class":"alley","highway":"service","sidewalk":"unknown","lanes":0,"name":"역곡로489번길","oneway":false},"geometry":{"type":"LineString","coordinates":[[126.81366,37.5287],[126.81444,37.5286],[126.81522,37.52851],[126.81609,37.52841]]}},{"type":"Feature","properties":{"class":"alley","highway":"service","sidewalk":"unknown","lanes":0,"name":"원종로119번길","oneway":false},"geometry":{"type":"LineString","coordinates":[[126.81352,37.52745],[126.81436,37.52747]]}},{"type":"Feature","properties":{"class":"alley","highway":"service","sidewalk":"unknown","lanes":0,"name":"원종로119번길","oneway":false},"geometry":{"type":"LineString","coordinates":[[126.81351,37.52486],[126.81488,37.52486]]}},{"type":"Feature","properties":{"class":"alley","highway":"service","sidewalk":"unknown","lanes":0,"name":"역곡로","oneway":false},"geometry":{"type":"LineString","coordinates":[[126.81544,37.52533],[126.81537,37.52503]]}},{"type":"Feature","properties":{"class":"alley","highway":"service","sidewalk":"unknown","lanes":0,"name":"역곡로471번길","oneway":false},"geometry":{"type":"LineString","coordinates":[[126.81559,37.52668],[126.81566,37.52626],[126.81552,37.52585],[126.81544,37.52533]]}},{"type":"Feature","properties":{"class":"alley","highway":"service","sidewalk":"unknown","lanes":0,"name":"원종로119번길","oneway":false},"geometry":{"type":"LineString","coordinates":[[126.81351,37.52601],[126.81427,37.52601],[126.8151,37.52601]]}},{"type":"Feature","properties":{"class":"alley","highway":"service","sidewalk":"unknown","lanes":0,"name":"원종로119번길","oneway":false},"geometry":{"type":"LineString","coordinates":[[126.8135,37.52471],[126.81485,37.5247]]}},{"type":"Feature","properties":{"class":"alley","highway":"service","sidewalk":"unknown","lanes":0,"name":"고리울로7번길","oneway":false},"geometry":{"type":"LineString","coordinates":[[126.81689,37.52946],[126.8169,37.52886],[126.8169,37.52832],[126.8169,37.52782]]}},{"type":"Feature","properties":{"class":"alley","highway":"service","sidewalk":"unknown","lanes":0,"name":"고강로112번길","oneway":false},"geometry":{"type":"LineString","coordinates":[[126.8169,37.53073],[126.8169,37.53023],[126.81689,37.52946]]}},{"type":"Feature","properties":{"class":"alley","highway":"service","sidewalk":"unknown","lanes":0,"name":"고강로126번길","oneway":false},"geometry":{"type":"LineString","coordinates":[[126.8182,37.53021],[126.81888,37.53013]]}},{"type":"Feature","properties":{"class":"alley","highway":"service","sidewalk":"unknown","lanes":0,"name":"고강로126번길","oneway":false},"geometry":{"type":"LineString","coordinates":[[126.81835,37.53107],[126.8182,37.53021],[126.81804,37.52933]]}},{"type":"Feature","properties":{"class":"alley","highway":"service","sidewalk":"unknown","lanes":0,"name":"고리울로16번길","oneway":false},"geometry":{"type":"LineString","coordinates":[[126.81776,37.52763],[126.81764,37.52706],[126.81757,37.52664],[126.81754,37.52646],[126.81732,37.52534]]}},{"type":"Feature","properties":{"class":"alley","highway":"service","sidewalk":"unknown","lanes":0,"name":"","oneway":false},"geometry":{"type":"LineString","coordinates":[[126.81732,37.52534],[126.81748,37.52519]]}},{"type":"Feature","properties":{"class":"alley","highway":"service","sidewalk":"unknown","lanes":0,"name":"고리울로28번길","oneway":false},"geometry":{"type":"LineString","coordinates":[[126.8191,37.52748],[126.81895,37.5266],[126.81883,37.52601]]}},{"type":"Feature","properties":{"class":"alley","highway":"service","sidewalk":"unknown","lanes":0,"name":"고리울로27번길","oneway":false},"geometry":{"type":"LineString","coordinates":[[126.8194,37.52917],[126.81929,37.52859],[126.8192,37.52806],[126.8191,37.52748]]}},{"type":"Feature","properties":{"class":"alley","highway":"service","sidewalk":"unknown","lanes":0,"name":"고강로140번길","oneway":false},"geometry":{"type":"LineString","coordinates":[[126.81977,37.5313],[126.81964,37.53057],[126.8194,37.52917]]}},{"type":"Feature","properties":{"class":"alley","highway":"service","sidewalk":"unknown","lanes":0,"name":"고리울로40번길","oneway":false},"geometry":{"type":"LineString","coordinates":[[126.82043,37.52733],[126.82033,37.52678],[126.82021,37.52619],[126.81991,37.52563]]}},{"type":"Feature","properties":{"class":"major","highway":"tertiary","sidewalk":"likely","lanes":0,"name":"","oneway":true},"geometry":{"type":"LineString","coordinates":[[126.8114,37.52956],[126.81206,37.52969]]}},{"type":"Feature","properties":{"class":"alley","highway":"service","sidewalk":"unknown","lanes":0,"name":"","oneway":false},"geometry":{"type":"LineString","coordinates":[[126.80194,37.54088],[126.80193,37.54092],[126.80193,37.541],[126.80207,37.54112],[126.80246,37.54136],[126.80273,37.54155],[126.80284,37.54163],[126.80302,37.54171],[126.80321,37.54181],[126.80347,37.54183],[126.80376,37.5419],[126.80419,37.54198],[126.80483,37.54211],[126.80499,37.54214],[126.80513,37.5421],[126.8052,37.54204],[126.80523,37.54192],[126.80526,37.54174],[126.80534,37.54162],[126.80551,37.54151],[126.80556,37.54149],[126.80581,37.54142],[126.80591,37.54137],[126.80597,37.54131],[126.80608,37.54121],[126.80624,37.54111],[126.80632,37.54092],[126.80632,37.54086],[126.80616,37.54063],[126.806,37.54053],[126.80589,37.54038],[126.80573,37.54027],[126.80567,37.54018],[126.80551,37.54],[126.80529,37.53983],[126.80527,37.53982]]}},{"type":"Feature","properties":{"class":"alley","highway":"service","sidewalk":"unknown","lanes":0,"name":"","oneway":false},"geometry":{"type":"LineString","coordinates":[[126.80314,37.53971],[126.80299,37.53965],[126.80281,37.53955],[126.80238,37.53941],[126.80222,37.53934],[126.80207,37.53931],[126.80175,37.53924],[126.80161,37.53919],[126.80139,37.5392],[126.80127,37.53931],[126.80124,37.53933],[126.80112,37.53941],[126.80107,37.53946],[126.80092,37.53952],[126.80076,37.53961],[126.80052,37.53978],[126.80044,37.53986],[126.80043,37.53994],[126.80047,37.53999],[126.80065,37.54012],[126.80077,37.54012],[126.80112,37.54011],[126.80125,37.54015],[126.80151,37.54026],[126.80177,37.54043],[126.80193,37.54054],[126.80199,37.54068],[126.80196,37.5408]]}},{"type":"Feature","properties":{"class":"alley","highway":"service","sidewalk":"unknown","lanes":0,"name":"","oneway":false},"geometry":{"type":"LineString","coordinates":[[126.80517,37.53979],[126.80509,37.53979],[126.80502,37.53999],[126.80497,37.54008],[126.80491,37.54013],[126.80463,37.54002],[126.80443,37.53994],[126.8043,37.5399],[126.80414,37.53988],[126.80392,37.53988],[126.80348,37.53977],[126.80314,37.53971]]}},{"type":"Feature","properties":{"class":"alley","highway":"service","sidewalk":"unknown","lanes":0,"name":"","oneway":false},"geometry":{"type":"LineString","coordinates":[[126.80527,37.53982],[126.80517,37.53979]]}},{"type":"Feature","properties":{"class":"alley","highway":"service","sidewalk":"unknown","lanes":0,"name":"","oneway":false},"geometry":{"type":"LineString","coordinates":[[126.80124,37.53933],[126.80139,37.53943],[126.80149,37.53947],[126.80158,37.53954],[126.80166,37.53956],[126.80182,37.53958],[126.80194,37.53964],[126.80207,37.5397],[126.80227,37.53965],[126.80236,37.53964],[126.80251,37.53967],[126.80275,37.53973],[126.80302,37.53984],[126.80317,37.53991],[126.80325,37.54003],[126.80345,37.54048],[126.80343,37.5405],[126.8034,37.54054],[126.80326,37.54056],[126.80302,37.54056],[126.80293,37.54052],[126.80274,37.54039],[126.80264,37.54033],[126.80235,37.54021],[126.80223,37.54012],[126.80207,37.54006],[126.80198,37.54002],[126.80168,37.53989],[126.80158,37.53986],[126.80151,37.53976],[126.80114,37.53952],[126.80107,37.53946]]}},{"type":"Feature","properties":{"class":"alley","highway":"service","sidewalk":"unknown","lanes":0,"name":"","oneway":false},"geometry":{"type":"LineString","coordinates":[[126.81513,37.52669],[126.81511,37.5269],[126.81485,37.5269]]}},{"type":"Feature","properties":{"class":"major","highway":"tertiary","sidewalk":"likely","lanes":0,"name":"봉오대로","oneway":true},"geometry":{"type":"LineString","coordinates":[[126.80942,37.53506],[126.81031,37.5354]]}},{"type":"Feature","properties":{"class":"major","highway":"tertiary","sidewalk":"likely","lanes":0,"name":"봉오대로","oneway":true},"geometry":{"type":"LineString","coordinates":[[126.81021,37.53553],[126.80911,37.5351]]}},{"type":"Feature","properties":{"class":"major","highway":"tertiary","sidewalk":"likely","lanes":0,"name":"역곡로","oneway":false},"geometry":{"type":"LineString","coordinates":[[126.81608,37.52668],[126.8161,37.5268],[126.8161,37.52689],[126.81609,37.52721],[126.81608,37.5276],[126.81609,37.52799],[126.81609,37.52841]]}},{"type":"Feature","properties":{"class":"alley","highway":"living_street","sidewalk":"unknown","lanes":0,"name":"고리울로16번길","oneway":false},"geometry":{"type":"LineString","coordinates":[[126.81757,37.52664],[126.81831,37.52638],[126.81824,37.52621]]}},{"type":"Feature","properties":{"class":"alley","highway":"living_street","sidewalk":"unknown","lanes":0,"name":"역곡로456번길","oneway":false},"geometry":{"type":"LineString","coordinates":[[126.81771,37.52552],[126.81786,37.52635]]}},{"type":"Feature","properties":{"class":"alley","highway":"living_street","sidewalk":"unknown","lanes":0,"name":"역곡로456번길","oneway":false},"geometry":{"type":"LineString","coordinates":[[126.81816,37.52624],[126.81808,37.5257]]}},{"type":"Feature","properties":{"class":"major","highway":"tertiary_link","sidewalk":"likely","lanes":0,"name":"봉오대로","oneway":true},"geometry":{"type":"LineString","coordinates":[[126.81775,37.53826],[126.81801,37.53835],[126.81869,37.53859],[126.81933,37.53874],[126.82019,37.5389]]}},{"type":"Feature","properties":{"class":"major","highway":"tertiary_link","sidewalk":"likely","lanes":0,"name":"봉오대로","oneway":true},"geometry":{"type":"LineString","coordinates":[[126.82126,37.53916],[126.82008,37.53913],[126.8193,37.53903],[126.8187,37.5389],[126.81804,37.53872],[126.81726,37.53841],[126.817,37.5383],[126.81661,37.53814],[126.81643,37.53792]]}},{"type":"Feature","properties":{"class":"major","highway":"tertiary","sidewalk":"likely","lanes":0,"name":"역곡로","oneway":false},"geometry":{"type":"LineString","coordinates":[[126.8162,37.53626],[126.81632,37.53678],[126.81641,37.53722],[126.81645,37.53755],[126.81643,37.53792]]}},{"type":"Feature","properties":{"class":"minor","highway":"residential","sidewalk":"unknown","lanes":0,"name":"","oneway":false},"geometry":{"type":"LineString","coordinates":[[126.81831,37.53424],[126.81823,37.5345]]}},{"type":"Feature","properties":{"class":"major","highway":"tertiary","sidewalk":"likely","lanes":0,"name":"역곡로","oneway":false},"geometry":{"type":"LineString","coordinates":[[126.81612,37.53386],[126.81612,37.53492],[126.81612,37.53493],[126.81613,37.53591],[126.8162,37.53626]]}},{"type":"Feature","properties":{"class":"minor","highway":"residential","sidewalk":"unknown","lanes":0,"name":"소사로","oneway":false},"geometry":{"type":"LineString","coordinates":[[126.80637,37.53414],[126.80638,37.53422],[126.80644,37.53481],[126.80687,37.53587],[126.80701,37.53622]]}},{"type":"Feature","properties":{"class":"minor","highway":"residential","sidewalk":"unknown","lanes":0,"name":"소사로","oneway":false},"geometry":{"type":"LineString","coordinates":[[126.80701,37.53622],[126.80705,37.53633]]}},{"type":"Feature","properties":{"class":"minor","highway":"residential","sidewalk":"unknown","lanes":0,"name":"소사로","oneway":false},"geometry":{"type":"LineString","coordinates":[[126.80705,37.53633],[126.80706,37.53634],[126.80717,37.53661],[126.80746,37.53734],[126.80751,37.53749],[126.80751,37.53769],[126.80746,37.53786],[126.80736,37.53801],[126.80729,37.53811],[126.80722,37.53823],[126.80715,37.53836],[126.80714,37.53846],[126.80714,37.53856],[126.80715,37.5386]]}},{"type":"Feature","properties":{"class":"minor","highway":"residential","sidewalk":"unknown","lanes":0,"name":"소사로","oneway":false},"geometry":{"type":"LineString","coordinates":[[126.80715,37.5386],[126.80718,37.53868]]}},{"type":"Feature","properties":{"class":"major","highway":"tertiary","sidewalk":"likely","lanes":0,"name":"소사로","oneway":false},"geometry":{"type":"LineString","coordinates":[[126.80627,37.53341],[126.80633,37.53372],[126.80635,37.53393]]}},{"type":"Feature","properties":{"class":"minor","highway":"residential","sidewalk":"unknown","lanes":0,"name":"역곡로472번길","oneway":false},"geometry":{"type":"LineString","coordinates":[[126.81608,37.52668],[126.81689,37.52668],[126.81754,37.52646],[126.81761,37.52643]]}},{"type":"Feature","properties":{"class":"major","highway":"tertiary","sidewalk":"likely","lanes":0,"name":"고강로","oneway":false},"geometry":{"type":"LineString","coordinates":[[126.81612,37.53054],[126.8169,37.53073],[126.817,37.53075],[126.81707,37.53077],[126.81766,37.53091],[126.81835,37.53107],[126.81907,37.53123],[126.81926,37.53125],[126.81933,37.53126],[126.81977,37.5313],[126.82049,37.53138],[126.82116,37.53145],[126.82128,37.53146]]}},{"type":"Feature","properties":{"class":"major","highway":"tertiary","sidewalk":"likely","lanes":0,"name":"역곡로","oneway":false},"geometry":{"type":"LineString","coordinates":[[126.81609,37.52955],[126.81611,37.53007],[126.81611,37.53009],[126.81612,37.53054]]}},{"type":"Feature","properties":{"class":"major","highway":"tertiary","sidewalk":"likely","lanes":0,"name":"소사로","oneway":false},"geometry":{"type":"LineString","coordinates":[[126.80635,37.53393],[126.80637,37.53414]]}},{"type":"Feature","properties":{"class":"major","highway":"tertiary","sidewalk":"likely","lanes":0,"name":"소사로","oneway":false},"geometry":{"type":"LineString","coordinates":[[126.80617,37.53309],[126.80623,37.53327]]}},{"type":"Feature","properties":{"class":"major","highway":"tertiary","sidewalk":"likely","lanes":0,"name":"소사로","oneway":false},"geometry":{"type":"LineString","coordinates":[[126.80488,37.52929],[126.80489,37.52939],[126.80502,37.52986],[126.80517,37.53028],[126.80531,37.53066],[126.80557,37.53138],[126.8056,37.53148],[126.80601,37.53262]]}},{"type":"Feature","properties":{"class":"major","highway":"tertiary","sidewalk":"likely","lanes":0,"name":"역곡로","oneway":false},"geometry":{"type":"LineString","coordinates":[[126.81609,37.52841],[126.81609,37.52898],[126.81609,37.52955]]}},{"type":"Feature","properties":{"class":"major","highway":"tertiary","sidewalk":"likely","lanes":0,"name":"성지로","oneway":false},"geometry":{"type":"LineString","coordinates":[[126.8114,37.52956],[126.81134,37.52935],[126.81134,37.52931],[126.81125,37.52898]]}},{"type":"Feature","properties":{"class":"major","highway":"tertiary","sidewalk":"likely","lanes":0,"name":"고강로","oneway":false},"geometry":{"type":"LineString","coordinates":[[126.81206,37.52969],[126.81217,37.52968],[126.81233,37.52968],[126.8124,37.52969],[126.81251,37.5297],[126.81257,37.52971],[126.81318,37.52977],[126.81336,37.52982],[126.81352,37.52986],[126.81359,37.52988],[126.81368,37.5299],[126.81451,37.53012],[126.81469,37.53017],[126.81521,37.5303],[126.81612,37.53054]]}},{"type":"Feature","properties":{"class":"major","highway":"tertiary","sidewalk":"likely","lanes":0,"name":"성지로","oneway":false},"geometry":{"type":"LineString","coordinates":[[126.81125,37.52898],[126.81125,37.52837],[126.81125,37.52834],[126.81125,37.5281],[126.81125,37.5269],[126.81125,37.52682],[126.81125,37.52667]]}},{"type":"Feature","properties":{"class":"major","highway":"tertiary","sidewalk":"likely","lanes":0,"name":"역곡로","oneway":false},"geometry":{"type":"LineString","coordinates":[[126.8156,37.52406],[126.81572,37.52472],[126.81577,37.52497],[126.81583,37.52532]]}},{"type":"Feature","properties":{"class":"major","highway":"tertiary","sidewalk":"likely","lanes":0,"name":"성지로","oneway":false},"geometry":{"type":"LineString","coordinates":[[126.81125,37.52667],[126.81125,37.52591],[126.81125,37.52575],[126.81125,37.52533]]}},{"type":"Feature","properties":{"class":"major","highway":"tertiary","sidewalk":"likely","lanes":0,"name":"성지로","oneway":false},"geometry":{"type":"LineString","coordinates":[[126.81125,37.52533],[126.81126,37.52406]]}},{"type":"Feature","properties":{"class":"major","highway":"tertiary","sidewalk":"likely","lanes":0,"name":"역곡로","oneway":false},"geometry":{"type":"LineString","coordinates":[[126.81612,37.53054],[126.81612,37.53125],[126.81612,37.53189],[126.81612,37.53205]]}},{"type":"Feature","properties":{"class":"minor","highway":"residential","sidewalk":"unknown","lanes":0,"name":"역곡로472번길","oneway":false},"geometry":{"type":"LineString","coordinates":[[126.81986,37.52565],[126.81991,37.52563],[126.82097,37.52526]]}},{"type":"Feature","properties":{"class":"major","highway":"tertiary_link","sidewalk":"likely","lanes":0,"name":"봉오대로","oneway":true},"geometry":{"type":"LineString","coordinates":[[126.81643,37.53792],[126.81662,37.53784],[126.81717,37.53802],[126.81775,37.53826]]}},{"type":"Feature","properties":{"class":"major","highway":"tertiary","sidewalk":"likely","lanes":0,"name":"소사로","oneway":false},"geometry":{"type":"LineString","coordinates":[[126.80487,37.5281],[126.80487,37.52864],[126.80487,37.52867],[126.80488,37.52929]]}},{"type":"Feature","properties":{"class":"alley","highway":"service","sidewalk":"unknown","lanes":0,"name":"소사로808번길","oneway":false},"geometry":{"type":"LineString","coordinates":[[126.80879,37.52867],[126.807,37.52841]]}},{"type":"Feature","properties":{"class":"minor","highway":"residential","sidewalk":"unknown","lanes":0,"name":"고강로40번길","oneway":false},"geometry":{"type":"LineString","coordinates":[[126.80908,37.53032],[126.80896,37.53017],[126.80894,37.53011],[126.80879,37.52958],[126.80879,37.52867]]}},{"type":"Feature","properties":{"class":"major","highway":"tertiary","sidewalk":"likely","lanes":0,"name":"고강로","oneway":false},"geometry":{"type":"LineString","coordinates":[[126.80908,37.53032],[126.80915,37.53028],[126.81066,37.52996],[126.81142,37.52983],[126.81147,37.52982]]}},{"type":"Feature","properties":{"class":"major","highway":"tertiary","sidewalk":"likely","lanes":0,"name":"소사로","oneway":false},"geometry":{"type":"LineString","coordinates":[[126.80483,37.52406],[126.80484,37.52534]]}},{"type":"Feature","properties":{"class":"minor","highway":"residential","sidewalk":"unknown","lanes":0,"name":"원종로79번길","oneway":false},"geometry":{"type":"LineString","coordinates":[[126.8088,37.52534],[126.8088,37.52406]]}},{"type":"Feature","properties":{"class":"minor","highway":"residential","sidewalk":"unknown","lanes":0,"name":"성지로85번길","oneway":false},"geometry":{"type":"LineString","coordinates":[[126.80745,37.52669],[126.80796,37.52668],[126.80799,37.52668],[126.80838,37.52668],[126.80881,37.52669]]}},{"type":"Feature","properties":{"class":"major","highway":"tertiary","sidewalk":"likely","lanes":0,"name":"고강로","oneway":false},"geometry":{"type":"LineString","coordinates":[[126.81147,37.52982],[126.81184,37.52974],[126.81206,37.52969]]}},{"type":"Feature","properties":{"class":"major","highway":"tertiary","sidewalk":"likely","lanes":0,"name":"성지로","oneway":false},"geometry":{"type":"LineString","coordinates":[[126.81147,37.52982],[126.8114,37.52956]]}},{"type":"Feature","properties":{"class":"minor","highway":"residential","sidewalk":"unknown","lanes":0,"name":"소사로807번길","oneway":false},"geometry":{"type":"LineString","coordinates":[[126.80101,37.52753],[126.8019,37.52766],[126.80202,37.52768],[126.80215,37.5277]]}},{"type":"Feature","properties":{"class":"minor","highway":"residential","sidewalk":"unknown","lanes":0,"name":"성오로128번길","oneway":false},"geometry":{"type":"LineString","coordinates":[[126.80326,37.52636],[126.80398,37.52662],[126.80476,37.52689],[126.80485,37.52692]]}},{"type":"Feature","properties":{"class":"minor","highway":"residential","sidewalk":"unknown","lanes":0,"name":"원종로29번길","oneway":false},"geometry":{"type":"LineString","coordinates":[[126.80326,37.52636],[126.80294,37.52674],[126.80258,37.52718],[126.80215,37.5277]]}},{"type":"Feature","properties":{"class":"major","highway":"tertiary_link","sidewalk":"likely","lanes":0,"name":"","oneway":true},"geometry":{"type":"LineString","coordinates":[[126.80601,37.53262],[126.80623,37.53277],[126.80639,37.53282],[126.80655,37.53281],[126.80672,37.53274]]}},{"type":"Feature","properties":{"class":"major","highway":"tertiary","sidewalk":"likely","lanes":0,"name":"소사로","oneway":false},"geometry":{"type":"LineString","coordinates":[[126.80601,37.53262],[126.80617,37.53309]]}},{"type":"Feature","properties":{"class":"major","highway":"tertiary","sidewalk":"likely","lanes":0,"name":"고강로","oneway":false},"geometry":{"type":"LineString","coordinates":[[126.80623,37.53327],[126.80672,37.53274]]}},{"type":"Feature","properties":{"class":"major","highway":"tertiary","sidewalk":"likely","lanes":0,"name":"성오로160번길","oneway":false},"geometry":{"type":"LineString","coordinates":[[126.79972,37.52733],[126.79989,37.52736],[126.80101,37.52753]]}},{"type":"Feature","properties":{"class":"major","highway":"tertiary","sidewalk":"likely","lanes":0,"name":"소사로","oneway":false},"geometry":{"type":"LineString","coordinates":[[126.80623,37.53327],[126.80627,37.53341]]}},{"type":"Feature","properties":{"class":"major","highway":"tertiary","sidewalk":"likely","lanes":0,"name":"봉오대로","oneway":true},"geometry":{"type":"LineString","coordinates":[[126.80317,37.53278],[126.80289,37.53268]]}},{"type":"Feature","properties":{"class":"minor","highway":"residential","sidewalk":"unknown","lanes":0,"name":"","oneway":false},"geometry":{"type":"LineString","coordinates":[[126.80843,37.52953],[126.80838,37.52985]]}},{"type":"Feature","properties":{"class":"minor","highway":"residential","sidewalk":"unknown","lanes":0,"name":"","oneway":false},"geometry":{"type":"LineString","coordinates":[[126.80767,37.5301],[126.80805,37.53004]]}},{"type":"Feature","properties":{"class":"minor","highway":"residential","sidewalk":"unknown","lanes":0,"name":"","oneway":false},"geometry":{"type":"LineString","coordinates":[[126.80843,37.52953],[126.80847,37.52902]]}},{"type":"Feature","properties":{"class":"major","highway":"tertiary","sidewalk":"likely","lanes":0,"name":"성지로","oneway":false},"geometry":{"type":"LineString","coordinates":[[126.81126,37.52178],[126.81125,37.52173],[126.81126,37.52163],[126.81132,37.52142],[126.81144,37.5212],[126.81152,37.5211],[126.81164,37.52096],[126.81199,37.52054],[126.81211,37.5204],[126.81232,37.52018],[126.81242,37.5201],[126.81272,37.51985],[126.81321,37.51949]]}},{"type":"Feature","properties":{"class":"alley","highway":"service","sidewalk":"unknown","lanes":0,"name":"","oneway":false},"geometry":{"type":"LineString","coordinates":[[126.81502,37.5209],[126.81511,37.52082],[126.81519,37.5207],[126.81523,37.52059],[126.81529,37.52046],[126.81532,37.52041],[126.81536,37.52035],[126.8154,37.52032],[126.81545,37.52029],[126.81551,37.52027],[126.81581,37.52018],[126.81608,37.52007],[126.81626,37.52001],[126.81638,37.51998],[126.81646,37.51997],[126.81657,37.51996],[126.81663,37.51996],[126.81666,37.51995],[126.81673,37.51993],[126.81683,37.5199],[126.81691,37.51988],[126.81705,37.51985],[126.81721,37.51984],[126.81745,37.51981],[126.81773,37.51977],[126.81787,37.51975],[126.81794,37.51976],[126.81803,37.51976],[126.81813,37.51979],[126.81835,37.51987],[126.81846,37.5199],[126.81854,37.51991],[126.8187,37.51993],[126.81883,37.51993],[126.81893,37.51995],[126.81902,37.51997],[126.8191,37.51998],[126.81918,37.52],[126.81925,37.51999],[126.81939,37.51997],[126.81953,37.51994],[126.81971,37.5199],[126.81984,37.51984],[126.81996,37.51981],[126.82006,37.51979],[126.82022,37.51978],[126.82036,37.51977],[126.82058,37.51979],[126.82064,37.5198],[126.82071,37.51983],[126.82105,37.52006],[126.82142,37.52033],[126.82152,37.52039],[126.8216,37.52043],[126.82171,37.52047],[126.8218,37.52051],[126.82187,37.52056],[126.82196,37.52061],[126.82204,37.52067],[126.82207,37.5207],[126.82209,37.52074],[126.82209,37.5208],[126.82212,37.5211]]}},{"type":"Feature","properties":{"class":"major","highway":"tertiary","sidewalk":"likely","lanes":0,"name":"역곡로","oneway":false},"geometry":{"type":"LineString","coordinates":[[126.81447,37.51868],[126.81459,37.5191],[126.81464,37.51929],[126.81466,37.51936],[126.81484,37.51997],[126.81491,37.52022],[126.81497,37.52058],[126.81501,37.52087],[126.81502,37.5209]]}},{"type":"Feature","properties":{"class":"alley","highway":"service","sidewalk":"unknown","lanes":0,"name":"고리울로52번길","oneway":false},"geometry":{"type":"LineString","coordinates":[[126.81962,37.52346],[126.82034,37.52359],[126.82053,37.52363],[126.82186,37.52378]]}},{"type":"Feature","properties":{"class":"alley","highway":"service","sidewalk":"unknown","lanes":0,"name":"지양로152번길","oneway":false},"geometry":{"type":"LineString","coordinates":[[126.81968,37.52284],[126.81978,37.52295],[126.82054,37.52306],[126.8206,37.52306],[126.82067,37.52307],[126.82185,37.52324],[126.82194,37.52325],[126.82199,37.52326],[126.82326,37.52344],[126.82342,37.52346],[126.82352,37.52347],[126.82555,37.52377],[126.82558,37.52377],[126.8258,37.5238]]}},{"type":"Feature","properties":{"class":"alley","highway":"service","sidewalk":"unknown","lanes":0,"name":"","oneway":false},"geometry":{"type":"LineString","coordinates":[[126.82048,37.52384],[126.81943,37.52366]]}}]}