{"type":"FeatureCollection","features":[{"type":"Feature","properties":{"class":"minor","highway":"residential","sidewalk":"unknown","lanes":0,"name":"","oneway":false},"geometry":{"type":"LineString","coordinates":[[127.17526,37.53048],[127.17505,37.5305],[127.17495,37.53051],[127.17486,37.53047],[127.17479,37.5304],[127.17452,37.53046],[127.17443,37.53031],[127.17414,37.53044],[127.17371,37.53054],[127.17353,37.53049],[127.17333,37.53037],[127.17314,37.53027],[127.17308,37.53023]]}},{"type":"Feature","properties":{"class":"major","highway":"tertiary","sidewalk":"likely","lanes":0,"name":"초이로","oneway":false},"geometry":{"type":"LineString","coordinates":[[127.1721,37.54473],[127.17205,37.54454],[127.17196,37.54419],[127.17185,37.54382],[127.17176,37.54351],[127.17164,37.54309],[127.17158,37.54289],[127.17156,37.54281],[127.17153,37.54272],[127.17149,37.54262],[127.17145,37.54253],[127.17138,37.54239],[127.17133,37.54226],[127.17131,37.54216],[127.17131,37.54207],[127.17132,37.54197],[127.17133,37.54188],[127.17135,37.54178],[127.17137,37.5417],[127.1714,37.54161],[127.17142,37.54154],[127.17143,37.54147],[127.17144,37.54134],[127.17143,37.54123],[127.17142,37.54113],[127.17138,37.54102],[127.17132,37.5409],[127.17125,37.54078],[127.17118,37.54066],[127.17113,37.54055],[127.17109,37.54044],[127.17107,37.54033],[127.17106,37.54021],[127.17103,37.54007],[127.171,37.53995],[127.17095,37.53982],[127.17088,37.53966],[127.17082,37.53954],[127.17097,37.53947],[127.17109,37.53941]]}},{"type":"Feature","properties":{"class":"major","highway":"secondary","sidewalk":"likely","lanes":0,"name":"감초로","oneway":false},"geometry":{"type":"LineString","coordinates":[[127.15677,37.5145],[127.15679,37.51455],[127.15687,37.5147],[127.15764,37.51619],[127.15774,37.51639],[127.15848,37.51783],[127.15858,37.51803],[127.15869,37.51823],[127.1588,37.51844],[127.15881,37.51846],[127.15897,37.51876],[127.15912,37.51906],[127.15968,37.52013],[127.15976,37.52028],[127.15985,37.52045],[127.16044,37.52157],[127.16111,37.52279],[127.16207,37.5243],[127.16258,37.52515],[127.16264,37.52525],[127.16269,37.52534],[127.16272,37.52538],[127.16278,37.52547],[127.16316,37.52608],[127.16372,37.52697],[127.16443,37.52805],[127.1648,37.52861],[127.16514,37.52911],[127.1652,37.5292]]}},{"type":"Feature","properties":{"class":"minor","highway":"residential","sidewalk":"unknown","lanes":0,"name":"초이로4번길","oneway":false},"geometry":{"type":"LineString","coordinates":[[127.17244,37.53149],[127.17257,37.53224],[127.17261,37.53254],[127.17259,37.53263],[127.17246,37.53285],[127.17197,37.53308],[127.17183,37.53323],[127.1716,37.53359],[127.17138,37.53422],[127.17127,37.53459],[127.17121,37.53479]]}},{"type":"Feature","properties":{"class":"major","highway":"tertiary","sidewalk":"likely","lanes":0,"name":"서하남로","oneway":true},"geometry":{"type":"LineString","coordinates":[[127.18713,37.52161],[127.1867,37.52141],[127.18654,37.52135],[127.18636,37.5213],[127.18623,37.52127],[127.18607,37.52125],[127.18591,37.52123],[127.1857,37.52122],[127.18558,37.52124],[127.1836,37.5215],[127.18322,37.52156],[127.18296,37.52161],[127.18274,37.52167],[127.18256,37.52172],[127.18222,37.52184],[127.18197,37.52195],[127.18111,37.52232],[127.1808,37.52243],[127.18047,37.52253],[127.18017,37.52259],[127.17991,37.52262],[127.17961,37.52264],[127.1793,37.52263],[127.17903,37.52261],[127.17888,37.52258]]}},{"type":"Feature","properties":{"class":"major","highway":"tertiary","sidewalk":"likely","lanes":0,"name":"","oneway":false},"geometry":{"type":"LineString","coordinates":[[127.17069,37.53318],[127.17063,37.53318],[127.17058,37.53316],[127.17055,37.53313],[127.17053,37.53309],[127.17054,37.53305],[127.17056,37.53301],[127.1706,37.53298],[127.17065,37.53297],[127.1707,37.53297],[127.17075,37.53299],[127.17079,37.53302],[127.1708,37.53306],[127.1708,37.5331],[127.17078,37.53314],[127.17074,37.53317],[127.17069,37.53318]]}},{"type":"Feature","properties":{"class":"major","highway":"tertiary","sidewalk":"likely","lanes":0,"name":"초이로","oneway":false},"geometry":{"type":"LineString","coordinates":[[127.17075,37.53299],[127.17096,37.53277],[127.1719,37.53194],[127.17204,37.53182],[127.17244,37.53149],[127.17251,37.53144],[127.17258,37.5314]]}},{"type":"Feature","properties":{"class":"major","highway":"secondary_link","sidewalk":"likely","lanes":0,"name":"","oneway":true},"geometry":{"type":"LineString","coordinates":[[127.1761,37.52128],[127.17597,37.52127],[127.17585,37.52127],[127.17573,37.52133],[127.17564,37.52142],[127.17556,37.52156]]}},{"type":"Feature","properties":{"class":"major","highway":"secondary_link","sidewalk":"likely","lanes":0,"name":"","oneway":true},"geometry":{"type":"LineString","coordinates":[[127.17556,37.52156],[127.17554,37.52135],[127.17552,37.52105],[127.17551,37.52069],[127.17552,37.52041]]}},{"type":"Feature","properties":{"class":"major","highway":"secondary","sidewalk":"likely","lanes":0,"name":"감초로","oneway":false},"geometry":{"type":"LineString","coordinates":[[127.16704,37.53201],[127.16717,37.53221]]}},{"type":"Feature","properties":{"class":"major","highway":"tertiary","sidewalk":"likely","lanes":0,"name":"초광로","oneway":false},"geometry":{"type":"LineString","coordinates":[[127.17553,37.54216],[127.17553,37.54214],[127.17551,37.54206],[127.17549,37.54192],[127.17538,37.54105],[127.17547,37.54046],[127.17629,37.53808],[127.17637,37.53752],[127.17632,37.53724],[127.17624,37.53676],[127.17602,37.5363],[127.17538,37.53541]]}},{"type":"Feature","properties":{"class":"major","highway":"secondary","sidewalk":"likely","lanes":0,"name":"감초로","oneway":false},"geometry":{"type":"LineString","coordinates":[[127.1705,37.53772],[127.17054,37.53783],[127.17054,37.53785],[127.17099,37.53912]]}},{"type":"Feature","properties":{"class":"major","highway":"secondary","sidewalk":"likely","lanes":0,"name":"초이터널","oneway":true},"geometry":{"type":"LineString","coordinates":[[127.1693,37.53539],[127.16996,37.53651]]}},{"type":"Feature","properties":{"class":"alley","highway":"service","sidewalk":"unknown","lanes":0,"name":"","oneway":false},"geometry":{"type":"LineString","coordinates":[[127.17885,37.53832],[127.17891,37.53825],[127.17904,37.53812],[127.17913,37.53804],[127.17918,37.53799],[127.17975,37.53744],[127.17983,37.53737],[127.17995,37.53732],[127.18109,37.53694],[127.18136,37.53685],[127.18148,37.53681],[127.18214,37.53662],[127.18223,37.53656],[127.18232,37.53644],[127.18236,37.53632],[127.18235,37.5362],[127.18231,37.53607],[127.18222,37.53595],[127.18206,37.5358],[127.18191,37.53571],[127.18176,37.53562],[127.18168,37.53555],[127.18162,37.53548],[127.1816,37.5354],[127.18159,37.53531],[127.18155,37.53522],[127.1815,37.53515],[127.18142,37.53506],[127.18126,37.53491],[127.18116,37.53479],[127.1811,37.5347],[127.18107,37.53463],[127.18105,37.53457],[127.18104,37.53451],[127.18105,37.53445],[127.18108,37.5344],[127.18111,37.53434],[127.18115,37.53428],[127.18118,37.53422],[127.18119,37.53417],[127.1812,37.53411],[127.18121,37.53404],[127.18121,37.53398],[127.18121,37.53391],[127.1812,37.53385],[127.18118,37.5338],[127.18117,37.53375],[127.18115,37.5337],[127.18111,37.53365],[127.18088,37.53344]]}},{"type":"Feature","properties":{"class":"alley","highway":"service","sidewalk":"unknown","lanes":0,"name":"","oneway":false},"geometry":{"type":"LineString","coordinates":[[127.17891,37.53825],[127.1789,37.53814],[127.17885,37.53795],[127.17877,37.53771],[127.17876,37.53765],[127.1787,37.5375],[127.17861,37.53733],[127.17849,37.53719],[127.17843,37.53713],[127.17832,37.5371],[127.17806,37.53709],[127.17796,37.53706],[127.17788,37.537],[127.17785,37.5369],[127.17758,37.53561],[127.17761,37.53554],[127.17769,37.53548],[127.17798,37.53535],[127.178,37.5353],[127.17799,37.53522],[127.17674,37.53285],[127.17672,37.53279]]}},{"type":"Feature","properties":{"class":"alley","highway":"service","sidewalk":"unknown","lanes":0,"name":"","oneway":false},"geometry":{"type":"LineString","coordinates":[[127.17672,37.53279],[127.17668,37.53272],[127.17661,37.53257],[127.17649,37.53234],[127.1764,37.53227],[127.17628,37.5322]]}},{"type":"Feature","properties":{"class":"alley","highway":"service","sidewalk":"unknown","lanes":0,"name":"","oneway":false},"geometry":{"type":"LineString","coordinates":[[127.17672,37.53279],[127.1762,37.53248],[127.17615,37.53242],[127.17615,37.53234],[127.17628,37.5322],[127.17635,37.53211]]}},{"type":"Feature","properties":{"class":"alley","highway":"service","sidewalk":"unknown","lanes":0,"name":"","oneway":false},"geometry":{"type":"LineString","coordinates":[[127.17674,37.53285],[127.17803,37.53242]]}},{"type":"Feature","properties":{"class":"alley","highway":"service","sidewalk":"unknown","lanes":0,"name":"","oneway":false},"geometry":{"type":"LineString","coordinates":[[127.17803,37.53242],[127.17765,37.53171],[127.17777,37.53167],[127.17734,37.53084]]}},{"type":"Feature","properties":{"class":"alley","highway":"service","sidewalk":"unknown","lanes":0,"name":"","oneway":false},"geometry":{"type":"LineString","coordinates":[[127.176,37.53031],[127.1762,37.53016],[127.17655,37.53002],[127.17663,37.52997],[127.17673,37.52999],[127.1768,37.53001],[127.1769,37.53015],[127.177,37.53031]]}},{"type":"Feature","properties":{"class":"alley","highway":"service","sidewalk":"unknown","lanes":0,"name":"","oneway":false},"geometry":{"type":"LineString","coordinates":[[127.17662,37.53028],[127.1769,37.53015]]}},{"type":"Feature","properties":{"class":"minor","highway":"residential","sidewalk":"unknown","lanes":0,"name":"","oneway":false},"geometry":{"type":"LineString","coordinates":[[127.17443,37.53031],[127.17448,37.53026],[127.1749,37.53007],[127.17492,37.53004],[127.17492,37.53001],[127.17486,37.52993],[127.17482,37.52982],[127.17483,37.52976],[127.17488,37.52973],[127.17496,37.52971],[127.17517,37.52969],[127.17532,37.52967],[127.17547,37.52966],[127.17579,37.52954]]}},{"type":"Feature","properties":{"class":"major","highway":"secondary","sidewalk":"likely","lanes":0,"name":"감초로","oneway":false},"geometry":{"type":"LineString","coordinates":[[127.17109,37.53941],[127.17114,37.53953]]}},{"type":"Feature","properties":{"class":"major","highway":"tertiary_link","sidewalk":"likely","lanes":0,"name":"","oneway":true},"geometry":{"type":"LineString","coordinates":[[127.17129,37.5391],[127.17126,37.53938],[127.17114,37.53953]]}},{"type":"Feature","properties":{"class":"major","highway":"tertiary_link","sidewalk":"likely","lanes":0,"name":"","oneway":true},"geometry":{"type":"LineString","coordinates":[[127.17099,37.53912],[127.17109,37.53915],[127.17118,37.53915],[127.17123,37.53913],[127.17129,37.5391]]}},{"type":"Feature","properties":{"class":"major","highway":"secondary","sidewalk":"likely","lanes":0,"name":"감초로","oneway":false},"geometry":{"type":"LineString","coordinates":[[127.17099,37.53912],[127.17109,37.53941]]}},{"type":"Feature","properties":{"class":"minor","highway":"residential","sidewalk":"unknown","lanes":0,"name":"","oneway":false},"geometry":{"type":"LineString","coordinates":[[127.16742,37.53175],[127.16728,37.53188],[127.1672,37.53194],[127.16704,37.53201]]}},{"type":"Feature","properties":{"class":"minor","highway":"residential","sidewalk":"unknown","lanes":0,"name":"감초로216번길","oneway":false},"geometry":{"type":"LineString","coordinates":[[127.16742,37.53175],[127.16754,37.53183],[127.16755,37.53183],[127.16819,37.53215]]}},{"type":"Feature","properties":{"class":"minor","highway":"residential","sidewalk":"unknown","lanes":0,"name":"","oneway":false},"geometry":{"type":"LineString","coordinates":[[127.16596,37.52919],[127.16699,37.52916],[127.16721,37.52916],[127.16859,37.52911],[127.16869,37.52912],[127.16877,37.52913],[127.16889,37.52917]]}},{"type":"Feature","properties":{"class":"minor","highway":"unclassified","sidewalk":"unknown","lanes":0,"name":"","oneway":false},"geometry":{"type":"LineString","coordinates":[[127.17216,37.52706],[127.1722,37.52752],[127.17225,37.52778],[127.17224,37.52792],[127.17223,37.52805],[127.17216,37.52825],[127.17212,37.5284]]}},{"type":"Feature","properties":{"class":"minor","highway":"unclassified","sidewalk":"unknown","lanes":0,"name":"","oneway":false},"geometry":{"type":"LineString","coordinates":[[127.17283,37.52855],[127.1733,37.52867]]}},{"type":"Feature","properties":{"class":"minor","highway":"unclassified","sidewalk":"unknown","lanes":0,"name":"","oneway":false},"geometry":{"type":"LineString","coordinates":[[127.17212,37.5284],[127.17167,37.52956],[127.17076,37.52975]]}},{"type":"Feature","properties":{"class":"minor","highway":"unclassified","sidewalk":"unknown","lanes":0,"name":"","oneway":false},"geometry":{"type":"LineString","coordinates":[[127.17212,37.5284],[127.17253,37.52849]]}},{"type":"Feature","properties":{"class":"major","highway":"secondary","sidewalk":"likely","lanes":0,"name":"감초로","oneway":false},"geometry":{"type":"LineString","coordinates":[[127.17114,37.53953],[127.17115,37.53958],[127.17118,37.53968],[127.17151,37.54067],[127.17185,37.54166],[127.17192,37.54183],[127.17227,37.54283],[127.1728,37.54438],[127.17285,37.54452]]}},{"type":"Feature","properties":{"class":"minor","highway":"unclassified","sidewalk":"unknown","lanes":0,"name":"","oneway":false},"geometry":{"type":"LineString","coordinates":[[127.16889,37.52917],[127.16882,37.52889],[127.16879,37.52877],[127.16878,37.52837],[127.16873,37.52676],[127.16873,37.52668],[127.16847,37.52667],[127.16787,37.52684]]}},{"type":"Feature","properties":{"class":"major","highway":"secondary","sidewalk":"likely","lanes":0,"name":"감초로","oneway":false},"geometry":{"type":"LineString","coordinates":[[127.1652,37.5292],[127.16532,37.52938],[127.16616,37.53068],[127.16619,37.53073],[127.16652,37.53122],[127.1666,37.53134]]}},{"type":"Feature","properties":{"class":"minor","highway":"residential","sidewalk":"unknown","lanes":0,"name":"","oneway":false},"geometry":{"type":"LineString","coordinates":[[127.1666,37.53134],[127.16676,37.53127],[127.16683,37.53123],[127.16698,37.53142],[127.16711,37.53154],[127.16732,37.53169],[127.16742,37.53175]]}},{"type":"Feature","properties":{"class":"alley","highway":"service","sidewalk":"unknown","lanes":0,"name":"","oneway":false},"geometry":{"type":"LineString","coordinates":[[127.1705,37.53772],[127.17066,37.53771],[127.17122,37.53766],[127.17133,37.53765]]}},{"type":"Feature","properties":{"class":"major","highway":"secondary","sidewalk":"likely","lanes":0,"name":"감초로","oneway":false},"geometry":{"type":"LineString","coordinates":[[127.17027,37.53728],[127.17041,37.53753],[127.1705,37.53772]]}},{"type":"Feature","properties":{"class":"major","highway":"tertiary","sidewalk":"likely","lanes":0,"name":"초이로","oneway":false},"geometry":{"type":"LineString","coordinates":[[127.17129,37.5391],[127.17135,37.53878],[127.17135,37.53874],[127.17139,37.53843],[127.17139,37.53827],[127.17138,37.53806],[127.17137,37.53797],[127.17134,37.53774],[127.17133,37.53765]]}},{"type":"Feature","properties":{"class":"major","highway":"secondary","sidewalk":"likely","lanes":0,"name":"서하남로","oneway":true},"geometry":{"type":"LineString","coordinates":[[127.17785,37.5223],[127.17757,37.52217],[127.17711,37.52191],[127.17648,37.52154],[127.1761,37.52128]]}},{"type":"Feature","properties":{"class":"major","highway":"tertiary","sidewalk":"likely","lanes":0,"name":"서하남로","oneway":true},"geometry":{"type":"LineString","coordinates":[[127.17812,37.52239],[127.17808,37.52238],[127.17785,37.5223]]}},{"type":"Feature","properties":{"class":"minor","highway":"unclassified","sidewalk":"unknown","lanes":0,"name":"","oneway":false},"geometry":{"type":"LineString","coordinates":[[127.17253,37.52849],[127.17283,37.52855]]}},{"type":"Feature","properties":{"class":"minor","highway":"unclassified","sidewalk":"unknown","lanes":0,"name":"","oneway":false},"geometry":{"type":"LineString","coordinates":[[127.17292,37.52707],[127.1729,37.52687],[127.17288,37.52661],[127.1728,37.5253],[127.17277,37.52518],[127.17272,37.52507],[127.17257,37.52487]]}},{"type":"Feature","properties":{"class":"minor","highway":"unclassified","sidewalk":"unknown","lanes":0,"name":"","oneway":false},"geometry":{"type":"LineString","coordinates":[[127.17257,37.52487],[127.17229,37.525],[127.17203,37.52514],[127.17211,37.52632],[127.17212,37.52643]]}},{"type":"Feature","properties":{"class":"major","highway":"tertiary","sidewalk":"likely","lanes":0,"name":"초이로","oneway":false},"geometry":{"type":"LineString","coordinates":[[127.17121,37.53479],[127.171,37.53425],[127.17094,37.53406],[127.17086,37.53382],[127.17082,37.53369],[127.1708,37.53355],[127.17076,37.53335],[127.17074,37.53326],[127.17069,37.53318]]}},{"type":"Feature","properties":{"class":"major","highway":"tertiary","sidewalk":"likely","lanes":0,"name":"초이로","oneway":false},"geometry":{"type":"LineString","coordinates":[[127.17133,37.53765],[127.17131,37.53738],[127.17131,37.53735],[127.1713,37.53702],[127.17129,37.53693],[127.17129,37.53674],[127.17129,37.53642],[127.17128,37.53602],[127.17126,37.53507],[127.17124,37.53493],[127.17121,37.53479]]}},{"type":"Feature","properties":{"class":"minor","highway":"unclassified","sidewalk":"unknown","lanes":0,"name":"","oneway":false},"geometry":{"type":"LineString","coordinates":[[127.17257,37.52487],[127.17386,37.52426]]}},{"type":"Feature","properties":{"class":"minor","highway":"unclassified","sidewalk":"unknown","lanes":0,"name":"","oneway":false},"geometry":{"type":"LineString","coordinates":[[127.17214,37.52665],[127.17288,37.52661]]}},{"type":"Feature","properties":{"class":"minor","highway":"unclassified","sidewalk":"unknown","lanes":0,"name":"","oneway":false},"geometry":{"type":"LineString","coordinates":[[127.17129,37.52214],[127.17156,37.52215],[127.17174,37.52209],[127.17194,37.52224],[127.17216,37.5223],[127.17234,37.52232],[127.17256,37.52234],[127.17277,37.52234],[127.17292,37.52236],[127.17299,37.52241],[127.17307,37.52248],[127.1731,37.52257],[127.1731,37.52257],[127.1731,37.52274],[127.17311,37.52293],[127.1731,37.52311],[127.17309,37.52324],[127.17309,37.52331],[127.17314,37.52336],[127.17327,37.5234],[127.1735,37.52351],[127.17356,37.52358],[127.17363,37.52376],[127.17365,37.52385],[127.17372,37.52405],[127.17377,37.52413],[127.17386,37.52426],[127.17396,37.5244],[127.174,37.52447],[127.174,37.52454],[127.17399,37.52462],[127.17396,37.5247],[127.17394,37.52478],[127.17388,37.52487],[127.17385,37.52493],[127.17386,37.52498],[127.17386,37.52504],[127.17383,37.52526],[127.17378,37.52543],[127.17378,37.52556],[127.17377,37.52572],[127.17378,37.52592],[127.17382,37.52613],[127.17384,37.52627],[127.17386,37.52634],[127.17387,37.52636],[127.17391,37.52646],[127.17402,37.52656],[127.17417,37.52666],[127.17425,37.5267],[127.1744,37.52676]]}},{"type":"Feature","properties":{"class":"minor","highway":"unclassified","sidewalk":"unknown","lanes":0,"name":"","oneway":false},"geometry":{"type":"LineString","coordinates":[[127.17288,37.52661],[127.17312,37.52659],[127.17334,37.52657],[127.17352,37.52655],[127.17366,37.52652],[127.17375,37.52647],[127.17381,37.52642],[127.17387,37.52636]]}},{"type":"Feature","properties":{"class":"minor","highway":"unclassified","sidewalk":"unknown","lanes":0,"name":"","oneway":false},"geometry":{"type":"LineString","coordinates":[[127.17408,37.5276],[127.17414,37.52763],[127.17422,37.52766],[127.17429,37.52772],[127.17432,37.52778],[127.17431,37.52795],[127.17429,37.52807],[127.17427,37.5282],[127.17426,37.52828],[127.17423,37.52835],[127.17422,37.52836],[127.17409,37.52849],[127.17397,37.52862],[127.17388,37.52871],[127.17379,37.52875],[127.17372,37.52877],[127.1737,37.52876],[127.17361,37.52874]]}},{"type":"Feature","properties":{"class":"minor","highway":"unclassified","sidewalk":"unknown","lanes":0,"name":"","oneway":false},"geometry":{"type":"LineString","coordinates":[[127.17422,37.52836],[127.17444,37.52835],[127.17485,37.52835],[127.17533,37.52836],[127.17579,37.52836],[127.17606,37.52837],[127.17628,37.52836],[127.17672,37.52836],[127.17694,37.5284]]}},{"type":"Feature","properties":{"class":"minor","highway":"unclassified","sidewalk":"unknown","lanes":0,"name":"","oneway":false},"geometry":{"type":"LineString","coordinates":[[127.17558,37.52337],[127.17546,37.52332],[127.17548,37.52289],[127.17543,37.52228],[127.17513,37.52201],[127.17496,37.5219],[127.1748,37.52182],[127.17469,37.52166],[127.17469,37.52158]]}},{"type":"Feature","properties":{"class":"minor","highway":"unclassified","sidewalk":"unknown","lanes":0,"name":"","oneway":false},"geometry":{"type":"LineString","coordinates":[[127.1731,37.52257],[127.17323,37.52252],[127.17331,37.52247],[127.17343,37.52235],[127.17355,37.52223],[127.1736,37.52216],[127.17363,37.52209],[127.17365,37.52198],[127.17367,37.52188],[127.1737,37.52175],[127.17378,37.52167],[127.17388,37.52161],[127.17406,37.52159],[127.17439,37.52158],[127.17469,37.52158],[127.175,37.52155],[127.17509,37.52153],[127.17514,37.52148],[127.17516,37.52132],[127.17517,37.52123],[127.17523,37.52089],[127.17527,37.52073],[127.17527,37.52056],[127.17527,37.52021],[127.17528,37.52001],[127.17531,37.51988],[127.17535,37.51977],[127.17539,37.51969]]}},{"type":"Feature","properties":{"class":"alley","highway":"service","sidewalk":"unknown","lanes":0,"name":"","oneway":false},"geometry":{"type":"LineString","coordinates":[[127.1707,37.52059],[127.17261,37.52061]]}},{"type":"Feature","properties":{"class":"alley","highway":"service","sidewalk":"unknown","lanes":0,"name":"","oneway":false},"geometry":{"type":"LineString","coordinates":[[127.1707,37.52007],[127.17261,37.52008]]}},{"type":"Feature","properties":{"class":"alley","highway":"service","sidewalk":"unknown","lanes":0,"name":"","oneway":false},"geometry":{"type":"LineString","coordinates":[[127.1707,37.51819],[127.1707,37.51902],[127.1707,37.51955],[127.1707,37.52007],[127.1707,37.52059],[127.1707,37.52142]]}},{"type":"Feature","properties":{"class":"alley","highway":"service","sidewalk":"unknown","lanes":0,"name":"","oneway":false},"geometry":{"type":"LineString","coordinates":[[127.1707,37.52142],[127.17161,37.52144],[127.17254,37.52145],[127.17258,37.52143],[127.17261,37.52139],[127.17261,37.52061],[127.17261,37.52008],[127.17259,37.51818]]}},{"type":"Feature","properties":{"class":"alley","highway":"service","sidewalk":"unknown","lanes":0,"name":"","oneway":false},"geometry":{"type":"LineString","coordinates":[[127.1707,37.52142],[127.17062,37.52141],[127.17055,37.52137],[127.17048,37.52131],[127.1704,37.52122],[127.17034,37.5211],[127.17029,37.5209],[127.17025,37.52081],[127.17022,37.52071],[127.17021,37.52051],[127.17018,37.52018],[127.17018,37.51977],[127.17019,37.51935],[127.1702,37.51896],[127.17022,37.51855],[127.17023,37.5185],[127.17026,37.51844],[127.17037,37.51833],[127.17047,37.51824],[127.17057,37.5182],[127.1707,37.51819],[127.17244,37.51818],[127.17259,37.51818],[127.17331,37.51817],[127.17392,37.51815],[127.17401,37.51816],[127.17408,37.51819],[127.1741,37.51823],[127.17411,37.51877],[127.17413,37.51904],[127.17416,37.5191],[127.17424,37.51913],[127.17449,37.51912],[127.17477,37.51911],[127.17504,37.51907],[127.1751,37.51906],[127.17517,37.51906],[127.17528,37.51905]]}},{"type":"Feature","properties":{"class":"minor","highway":"unclassified","sidewalk":"unknown","lanes":0,"name":"","oneway":false},"geometry":{"type":"LineString","coordinates":[[127.17212,37.52643],[127.17214,37.52665],[127.17215,37.52682]]}},{"type":"Feature","properties":{"class":"minor","highway":"unclassified","sidewalk":"unknown","lanes":0,"name":"","oneway":false},"geometry":{"type":"LineString","coordinates":[[127.17215,37.52682],[127.17216,37.52706]]}},{"type":"Feature","properties":{"class":"minor","highway":"unclassified","sidewalk":"unknown","lanes":0,"name":"","oneway":false},"geometry":{"type":"LineString","coordinates":[[127.17283,37.52855],[127.17291,37.52834],[127.17296,37.52813],[127.17298,37.52788],[127.17293,37.52723]]}},{"type":"Feature","properties":{"class":"minor","highway":"unclassified","sidewalk":"unknown","lanes":0,"name":"","oneway":false},"geometry":{"type":"LineString","coordinates":[[127.17293,37.52723],[127.17292,37.52707]]}},{"type":"Feature","properties":{"class":"minor","highway":"unclassified","sidewalk":"unknown","lanes":0,"name":"","oneway":false},"geometry":{"type":"LineString","coordinates":[[127.17345,37.52871],[127.17361,37.52874]]}},{"type":"Feature","properties":{"class":"minor","highway":"unclassified","sidewalk":"unknown","lanes":0,"name":"","oneway":false},"geometry":{"type":"LineString","coordinates":[[127.1733,37.52867],[127.17345,37.52871]]}},{"type":"Feature","properties":{"class":"major","highway":"secondary","sidewalk":"likely","lanes":0,"name":"감초로","oneway":false},"geometry":{"type":"LineString","coordinates":[[127.1666,37.53134],[127.16673,37.53154],[127.16677,37.53161],[127.16704,37.53201]]}},{"type":"Feature","properties":{"class":"major","highway":"secondary","sidewalk":"likely","lanes":0,"name":"서하남로","oneway":true},"geometry":{"type":"LineString","coordinates":[[127.1761,37.52128],[127.17599,37.52117],[127.17587,37.52103]]}},{"type":"Feature","properties":{"class":"major","highway":"secondary","sidewalk":"likely","lanes":0,"name":"서하남로","oneway":true},"geometry":{"type":"LineString","coordinates":[[127.17587,37.52103],[127.17571,37.52081],[127.17563,37.52067],[127.17557,37.52053],[127.17552,37.52041]]}},{"type":"Feature","properties":{"class":"minor","highway":"residential","sidewalk":"unknown","lanes":0,"name":"","oneway":false},"geometry":{"type":"LineString","coordinates":[[127.16039,37.51572],[127.16019,37.51586],[127.15993,37.51601],[127.15981,37.5161],[127.15988,37.51623],[127.15998,37.51639],[127.16003,37.51655],[127.16008,37.5167],[127.16012,37.5169],[127.16016,37.51705],[127.16023,37.51729],[127.16032,37.51748],[127.16045,37.51763],[127.16059,37.51782],[127.1607,37.518],[127.16083,37.51814],[127.16096,37.51828],[127.16105,37.51841],[127.16111,37.51853],[127.16114,37.51867],[127.16115,37.51878],[127.16115,37.51885],[127.16119,37.51896],[127.16127,37.51908],[127.16139,37.5192],[127.16149,37.51929],[127.16155,37.51933],[127.16161,37.5194],[127.16165,37.51949],[127.16167,37.51958],[127.16169,37.51966],[127.16172,37.51975],[127.16175,37.51987],[127.16175,37.51997],[127.16175,37.52003],[127.16174,37.5201],[127.16173,37.52022],[127.16172,37.52027],[127.16167,37.52033]]}},{"type":"Feature","properties":{"class":"minor","highway":"residential","sidewalk":"unknown","lanes":0,"name":"","oneway":false},"geometry":{"type":"LineString","coordinates":[[127.15976,37.52028],[127.15995,37.52025],[127.15999,37.52024],[127.16011,37.52021],[127.16024,37.52016],[127.16044,37.52008],[127.16061,37.52002],[127.16072,37.51998],[127.16081,37.51997],[127.16092,37.52002],[127.16108,37.5201],[127.16124,37.52019],[127.16137,37.52024],[127.1615,37.52027],[127.16161,37.52029],[127.16167,37.52033]]}},{"type":"Feature","properties":{"class":"major","highway":"tertiary","sidewalk":"likely","lanes":0,"name":"초광로","oneway":false},"geometry":{"type":"LineString","coordinates":[[127.17272,37.53126],[127.17279,37.53108],[127.17289,37.53075],[127.17308,37.53023],[127.17339,37.52931],[127.17361,37.52874],[127.17407,37.52763],[127.17408,37.5276],[127.17419,37.52735],[127.17439,37.52678],[127.1744,37.52676],[127.17467,37.52605],[127.17512,37.52495],[127.17517,37.52482],[127.17542,37.52419],[127.17557,37.52373],[127.17567,37.52326],[127.17569,37.52271],[127.17565,37.52225],[127.17556,37.52156]]}},{"type":"Feature","properties":{"class":"major","highway":"tertiary","sidewalk":"likely","lanes":0,"name":"","oneway":true},"geometry":{"type":"LineString","coordinates":[[127.17258,37.5314],[127.17257,37.53137],[127.17256,37.53134],[127.17257,37.53131],[127.17259,37.53129],[127.17262,37.53127],[127.17265,37.53126],[127.17269,37.53125],[127.17272,37.53126]]}},{"type":"Feature","properties":{"class":"major","highway":"tertiary","sidewalk":"likely","lanes":0,"name":"","oneway":true},"geometry":{"type":"LineString","coordinates":[[127.17272,37.53126],[127.17276,37.53127],[127.17278,37.5313],[127.1728,37.53132],[127.1728,37.53135],[127.17279,37.53138],[127.17277,37.53141],[127.17275,37.53143]]}},{"type":"Feature","properties":{"class":"major","highway":"tertiary","sidewalk":"likely","lanes":0,"name":"","oneway":true},"geometry":{"type":"LineString","coordinates":[[127.17275,37.53143],[127.17271,37.53144],[127.17267,37.53144],[127.17264,37.53144],[127.17261,37.53142],[127.17258,37.5314]]}},{"type":"Feature","properties":{"class":"major","highway":"tertiary","sidewalk":"likely","lanes":0,"name":"초광로","oneway":false},"geometry":{"type":"LineString","coordinates":[[127.17395,37.5335],[127.17332,37.53265],[127.17316,37.53242],[127.17303,37.5322],[127.17289,37.53184],[127.17281,37.53159],[127.17275,37.53143]]}},{"type":"Feature","properties":{"class":"major","highway":"tertiary","sidewalk":"likely","lanes":0,"name":"초광로","oneway":false},"geometry":{"type":"LineString","coordinates":[[127.17556,37.52156],[127.17562,37.52131],[127.17568,37.52121],[127.17577,37.52111],[127.17587,37.52103],[127.17595,37.52099]]}},{"type":"Feature","properties":{"class":"major","highway":"secondary","sidewalk":"likely","lanes":0,"name":"서하남로","oneway":true},"geometry":{"type":"LineString","coordinates":[[127.17552,37.52041],[127.17548,37.52009],[127.17539,37.51969]]}},{"type":"Feature","properties":{"class":"minor","highway":"residential","sidewalk":"unknown","lanes":0,"name":"","oneway":false},"geometry":{"type":"LineString","coordinates":[[127.16531,37.52841],[127.16559,37.52831],[127.16577,37.52825],[127.16586,37.52822],[127.16589,37.5282],[127.1659,37.52816],[127.16588,37.52799],[127.16587,37.52788],[127.16586,37.52779],[127.16583,37.52771],[127.16582,37.5276],[127.16586,37.52741],[127.16591,37.52727],[127.16553,37.5271],[127.16543,37.52704],[127.16532,37.52693],[127.16526,37.5268],[127.16521,37.52661],[127.16519,37.52645],[127.1652,37.52628],[127.16516,37.52596],[127.16515,37.52578],[127.16515,37.52551],[127.16508,37.52528],[127.16502,37.52518],[127.16498,37.52506],[127.16496,37.52496],[127.16496,37.52487],[127.16511,37.52464],[127.16396,37.52422],[127.16386,37.52422],[127.16378,37.52425],[127.16351,37.52447],[127.16336,37.52483],[127.16328,37.52491],[127.16281,37.52516],[127.16264,37.52525]]}},{"type":"Feature","properties":{"class":"minor","highway":"residential","sidewalk":"unknown","lanes":0,"name":"","oneway":false},"geometry":{"type":"LineString","coordinates":[[127.1648,37.52861],[127.16504,37.52852],[127.16531,37.52841]]}},{"type":"Feature","properties":{"class":"minor","highway":"residential","sidewalk":"unknown","lanes":0,"name":"","oneway":false},"geometry":{"type":"LineString","coordinates":[[127.16531,37.52841],[127.1654,37.52859],[127.16549,37.52871],[127.16561,37.5288],[127.16574,37.52889],[127.16586,37.52896],[127.16592,37.52902],[127.16594,37.52908],[127.16596,37.52919]]}},{"type":"Feature","properties":{"class":"minor","highway":"residential","sidewalk":"unknown","lanes":0,"name":"","oneway":false},"geometry":{"type":"LineString","coordinates":[[127.1652,37.5292],[127.16543,37.5292],[127.16566,37.5292],[127.16574,37.5292],[127.16596,37.52919]]}},{"type":"Feature","properties":{"class":"minor","highway":"unclassified","sidewalk":"unknown","lanes":0,"name":"","oneway":false},"geometry":{"type":"LineString","coordinates":[[127.17711,37.54134],[127.17714,37.54128],[127.17827,37.53891],[127.17834,37.53881],[127.17885,37.53832]]}},{"type":"Feature","properties":{"class":"minor","highway":"residential","sidewalk":"unknown","lanes":2,"name":"초이로92번길","oneway":false},"geometry":{"type":"LineString","coordinates":[[127.17135,37.53874],[127.17153,37.5387],[127.17194,37.53843],[127.17216,37.53836],[127.17233,37.53833],[127.1733,37.53837],[127.17358,37.53838],[127.17407,37.53839],[127.17414,37.53774]]}},{"type":"Feature","properties":{"class":"alley","highway":"service","sidewalk":"unknown","lanes":0,"name":"","oneway":false},"geometry":{"type":"LineString","coordinates":[[127.17407,37.53839],[127.17459,37.5384],[127.17473,37.53839],[127.17486,37.53834],[127.17492,37.53824],[127.17498,37.53803],[127.17504,37.53801]]}},{"type":"Feature","properties":{"class":"major","highway":"tertiary","sidewalk":"likely","lanes":0,"name":"서하남로","oneway":true},"geometry":{"type":"LineString","coordinates":[[127.17888,37.52258],[127.1786,37.52252],[127.17831,37.52245]]}},{"type":"Feature","properties":{"class":"alley","highway":"service","sidewalk":"unknown","lanes":0,"name":"","oneway":false},"geometry":{"type":"LineString","coordinates":[[127.16433,37.53816],[127.1645,37.53822],[127.1646,37.53825],[127.1647,37.53831],[127.16488,37.53846],[127.165,37.53853],[127.16518,37.53864],[127.16543,37.53882],[127.16557,37.53891],[127.16565,37.53897],[127.16572,37.53902],[127.16578,37.53907],[127.16585,37.5391],[127.16595,37.53914],[127.16605,37.53917],[127.16613,37.53921],[127.1662,37.53928],[127.16632,37.5394],[127.16642,37.53948],[127.16648,37.53952],[127.16654,37.53957],[127.16659,37.53965],[127.16666,37.53978],[127.16677,37.53994],[127.16687,37.54009],[127.16699,37.54023],[127.1671,37.54035],[127.1672,37.54045],[127.1673,37.54052],[127.16743,37.54063],[127.16751,37.5407],[127.16759,37.54073],[127.16767,37.54074],[127.16777,37.54074],[127.16787,37.54072],[127.16797,37.54069],[127.16806,37.54065],[127.16814,37.54059],[127.16822,37.54054],[127.1683,37.54052],[127.16839,37.5405],[127.16851,37.5405],[127.16864,37.54052],[127.16871,37.5405],[127.16875,37.54049],[127.16884,37.54053],[127.16895,37.54058],[127.16906,37.54061],[127.16918,37.54062],[127.16931,37.54062],[127.16941,37.54062],[127.16952,37.54064]]}},{"type":"Feature","properties":{"class":"major","highway":"motorway","sidewalk":"likely","lanes":3,"name":"세종포천고속도로","oneway":true},"geometry":{"type":"LineString","coordinates":[[127.16111,37.5312],[127.16084,37.53173],[127.16025,37.53286],[127.15889,37.53511],[127.15778,37.5376],[127.15765,37.53811],[127.15706,37.54037],[127.15647,37.54345],[127.15635,37.54605]]}},{"type":"Feature","properties":{"class":"major","highway":"motorway","sidewalk":"likely","lanes":3,"name":"세종포천고속도로","oneway":true},"geometry":{"type":"LineString","coordinates":[[127.1562,37.54608],[127.15626,37.54331],[127.15681,37.54032],[127.15757,37.53752],[127.15864,37.535],[127.16088,37.5312]]}},{"type":"Feature","properties":{"class":"major","highway":"motorway","sidewalk":"likely","lanes":3,"name":"세종포천고속도로","oneway":true},"geometry":{"type":"LineString","coordinates":[[127.16311,37.52718],[127.16287,37.52765],[127.16163,37.53008],[127.16111,37.5312]]}},{"type":"Feature","properties":{"class":"major","highway":"motorway","sidewalk":"likely","lanes":3,"name":"세종포천고속도로","oneway":true},"geometry":{"type":"LineString","coordinates":[[127.16381,37.52589],[127.16335,37.52674],[127.16311,37.52718]]}},{"type":"Feature","properties":{"class":"major","highway":"motorway","sidewalk":"likely","lanes":3,"name":"세종포천고속도로","oneway":true},"geometry":{"type":"LineString","coordinates":[[127.16088,37.5312],[127.1611,37.53076],[127.16285,37.52737],[127.1631,37.52688]]}},{"type":"Feature","properties":{"class":"major","highway":"motorway","sidewalk":"likely","lanes":3,"name":"세종포천고속도로","oneway":true},"geometry":{"type":"LineString","coordinates":[[127.1631,37.52688],[127.16372,37.52571]]}},{"type":"Feature","properties":{"class":"major","highway":"motorway_link","sidewalk":"likely","lanes":0,"name":"","oneway":true},"geometry":{"type":"LineString","coordinates":[[127.16533,37.5219],[127.16611,37.52049],[127.1662,37.5203],[127.16644,37.51982],[127.16661,37.51947],[127.16671,37.51932]]}},{"type":"Feature","properties":{"class":"alley","highway":"service","sidewalk":"unknown","lanes":0,"name":"","oneway":false},"geometry":{"type":"LineString","coordinates":[[127.17538,37.53541],[127.17533,37.53549],[127.17531,37.53555],[127.175,37.53581],[127.17459,37.53619],[127.17443,37.53625],[127.17437,37.53631],[127.1743,37.53644],[127.17425,37.53659],[127.17417,37.53664],[127.17406,37.53665],[127.17257,37.53683],[127.17239,37.53682],[127.17177,37.53688],[127.17129,37.53693]]}},{"type":"Feature","properties":{"class":"alley","highway":"service","sidewalk":"unknown","lanes":0,"name":"","oneway":false},"geometry":{"type":"LineString","coordinates":[[127.175,37.53545],[127.17508,37.53554],[127.17517,37.53549],[127.17518,37.53549],[127.1752,37.53549],[127.17521,37.53548],[127.17523,37.53548]]}},{"type":"Feature","properties":{"class":"alley","highway":"service","sidewalk":"unknown","lanes":0,"name":"","oneway":false},"geometry":{"type":"LineString","coordinates":[[127.17523,37.53548],[127.17525,37.53548],[127.17529,37.53548],[127.17533,37.53549]]}},{"type":"Feature","properties":{"class":"alley","highway":"service","sidewalk":"unknown","lanes":0,"name":"","oneway":false},"geometry":{"type":"LineString","coordinates":[[127.17983,37.53737],[127.17945,37.53664],[127.17946,37.53655],[127.1795,37.53644],[127.17955,37.53639],[127.18041,37.53612]]}},{"type":"Feature","properties":{"class":"alley","highway":"service","sidewalk":"unknown","lanes":0,"name":"","oneway":false},"geometry":{"type":"LineString","coordinates":[[127.17918,37.53799],[127.17917,37.53794],[127.17916,37.53792],[127.17912,37.53789],[127.17908,37.53787],[127.17901,37.53786],[127.17895,37.53785],[127.1789,37.53783],[127.17887,37.53781],[127.17882,37.53776],[127.17877,37.53771]]}},{"type":"Feature","properties":{"class":"alley","highway":"service","sidewalk":"unknown","lanes":0,"name":"","oneway":false},"geometry":{"type":"LineString","coordinates":[[127.17834,37.53881],[127.17839,37.53863],[127.17836,37.53838],[127.17833,37.53816],[127.17828,37.53796],[127.17829,37.53784],[127.17838,37.53777],[127.17845,37.53766],[127.17845,37.53752],[127.1784,37.53744]]}},{"type":"Feature","properties":{"class":"alley","highway":"service","sidewalk":"unknown","lanes":0,"name":"","oneway":false},"geometry":{"type":"LineString","coordinates":[[127.17736,37.53802],[127.17738,37.53807],[127.17742,37.53813],[127.17747,37.53818],[127.17836,37.53838]]}},{"type":"Feature","properties":{"class":"alley","highway":"service","sidewalk":"unknown","lanes":0,"name":"","oneway":false},"geometry":{"type":"LineString","coordinates":[[127.16805,37.54212],[127.16817,37.542],[127.16832,37.54187],[127.16841,37.54179],[127.16847,37.54171],[127.1685,37.54163],[127.16853,37.54158],[127.16855,37.5415],[127.16857,37.54143],[127.16861,37.54138],[127.16867,37.54132],[127.16891,37.54114],[127.16902,37.54105],[127.16912,37.54101],[127.16922,37.54096],[127.16933,37.54086],[127.16941,37.54079],[127.16947,37.54072],[127.16952,37.54064],[127.16958,37.54058],[127.16971,37.54046],[127.16981,37.54038],[127.16991,37.54026],[127.17004,37.54014],[127.17012,37.54006],[127.17019,37.54001],[127.17028,37.53997],[127.17037,37.53991],[127.17044,37.53986],[127.1705,37.53981],[127.17057,37.53974],[127.17064,37.53967],[127.17071,37.5396],[127.17075,37.53957],[127.17082,37.53954]]}},{"type":"Feature","properties":{"class":"alley","highway":"pedestrian","sidewalk":"unknown","lanes":0,"name":"","oneway":false},"geometry":{"type":"LineString","coordinates":[[127.17275,37.52888],[127.17278,37.52881],[127.17283,37.52883],[127.17287,37.52869],[127.17295,37.52871],[127.17287,37.5289],[127.17275,37.52888]]}},{"type":"Feature","properties":{"class":"major","highway":"motorway","sidewalk":"likely","lanes":3,"name":"세종포천고속도로","oneway":true},"geometry":{"type":"LineString","coordinates":[[127.16628,37.52082],[127.16697,37.51955],[127.16739,37.51878],[127.16807,37.51749],[127.16846,37.51668]]}},{"type":"Feature","properties":{"class":"major","highway":"motorway","sidewalk":"likely","lanes":3,"name":"세종포천고속도로","oneway":true},"geometry":{"type":"LineString","coordinates":[[127.16863,37.51672],[127.16846,37.51707],[127.16795,37.51808],[127.16687,37.52016],[127.16648,37.52088]]}},{"type":"Feature","properties":{"class":"major","highway":"motorway_link","sidewalk":"likely","lanes":0,"name":"","oneway":true},"geometry":{"type":"LineString","coordinates":[[127.1677,37.51947],[127.16766,37.51972],[127.16762,37.51989],[127.16755,37.52012],[127.16745,37.52038],[127.16736,37.52059],[127.16726,37.52079],[127.16716,37.52098],[127.16709,37.52107],[127.16684,37.52146],[127.16661,37.52179]]}},{"type":"Feature","properties":{"class":"major","highway":"motorway","sidewalk":"likely","lanes":3,"name":"세종포천고속도로","oneway":true},"geometry":{"type":"LineString","coordinates":[[127.16484,37.52394],[127.16425,37.52507]]}},{"type":"Feature","properties":{"class":"major","highway":"motorway","sidewalk":"likely","lanes":3,"name":"세종포천고속도로","oneway":true},"geometry":{"type":"LineString","coordinates":[[127.16417,37.52487],[127.16449,37.52427],[127.16456,37.52412],[127.16468,37.5239]]}},{"type":"Feature","properties":{"class":"major","highway":"motorway","sidewalk":"likely","lanes":3,"name":"세종포천고속도로","oneway":true},"geometry":{"type":"LineString","coordinates":[[127.16372,37.52571],[127.16379,37.52558],[127.16401,37.52518],[127.16417,37.52487]]}},{"type":"Feature","properties":{"class":"major","highway":"motorway","sidewalk":"likely","lanes":3,"name":"세종포천고속도로","oneway":true},"geometry":{"type":"LineString","coordinates":[[127.16425,37.52507],[127.16381,37.52589]]}},{"type":"Feature","properties":{"class":"major","highway":"motorway_link","sidewalk":"likely","lanes":0,"name":"","oneway":true},"geometry":{"type":"LineString","coordinates":[[127.16589,37.52004],[127.16594,37.51974],[127.16604,37.51948],[127.16611,37.51934],[127.16617,37.51921],[127.16626,37.51909],[127.1664,37.51891],[127.16653,37.51879],[127.16682,37.51854],[127.16705,37.51839],[127.16722,37.51827],[127.16736,37.51815],[127.16747,37.51804],[127.16759,37.51789],[127.16774,37.51766],[127.16801,37.51704],[127.16814,37.51679],[127.16824,37.51658]]}},{"type":"Feature","properties":{"class":"major","highway":"motorway_link","sidewalk":"likely","lanes":0,"name":"","oneway":true},"geometry":{"type":"LineString","coordinates":[[127.16472,37.52261],[127.16513,37.52188],[127.16526,37.5216],[127.16534,37.52139],[127.16538,37.52114],[127.16544,37.52084],[127.16551,37.52058],[127.16559,37.52037],[127.16571,37.52013],[127.16581,37.51998]]}},{"type":"Feature","properties":{"class":"major","highway":"motorway_link","sidewalk":"likely","lanes":0,"name":"","oneway":true},"geometry":{"type":"LineString","coordinates":[[127.16439,37.52325],[127.16477,37.52263],[127.16517,37.52196],[127.1653,37.52174],[127.16551,37.52136]]}},{"type":"Feature","properties":{"class":"major","highway":"motorway_link","sidewalk":"likely","lanes":0,"name":"","oneway":true},"geometry":{"type":"LineString","coordinates":[[127.16551,37.52136],[127.16568,37.52094],[127.16575,37.52074],[127.1658,37.52056],[127.16589,37.52004]]}},{"type":"Feature","properties":{"class":"major","highway":"motorway_link","sidewalk":"likely","lanes":0,"name":"","oneway":true},"geometry":{"type":"LineString","coordinates":[[127.16407,37.52595],[127.16386,37.52627],[127.16372,37.52648],[127.16359,37.52668],[127.16332,37.52719]]}},{"type":"Feature","properties":{"class":"major","highway":"motorway_link","sidewalk":"likely","lanes":0,"name":"","oneway":true},"geometry":{"type":"LineString","coordinates":[[127.16243,37.52776],[127.16294,37.52678]]}},{"type":"Feature","properties":{"class":"major","highway":"motorway_link","sidewalk":"likely","lanes":0,"name":"","oneway":true},"geometry":{"type":"LineString","coordinates":[[127.1637,37.52474],[127.16401,37.524],[127.16419,37.52362]]}},{"type":"Feature","properties":{"class":"major","highway":"motorway_link","sidewalk":"likely","lanes":0,"name":"","oneway":true},"geometry":{"type":"LineString","coordinates":[[127.16528,37.52405],[127.16509,37.52437],[127.1649,37.52471],[127.16475,37.52497],[127.16458,37.52525]]}},{"type":"Feature","properties":{"class":"major","highway":"motorway_link","sidewalk":"likely","lanes":0,"name":"","oneway":true},"geometry":{"type":"LineString","coordinates":[[127.16624,37.5224],[127.166,37.52285],[127.1659,37.52303],[127.1658,37.52321],[127.1656,37.52356],[127.16537,37.5239],[127.16528,37.52405]]}},{"type":"Feature","properties":{"class":"major","highway":"motorway_link","sidewalk":"likely","lanes":0,"name":"","oneway":true},"geometry":{"type":"LineString","coordinates":[[127.16439,37.52325],[127.16472,37.52261]]}},{"type":"Feature","properties":{"class":"major","highway":"motorway_link","sidewalk":"likely","lanes":0,"name":"","oneway":true},"geometry":{"type":"LineString","coordinates":[[127.16417,37.53189],[127.16431,37.53217],[127.16442,37.53239],[127.16453,37.53259],[127.16463,37.53274],[127.16475,37.53287],[127.16487,37.53297],[127.165,37.53305],[127.16516,37.53312],[127.16532,37.53318],[127.16551,37.53322],[127.16567,37.53324],[127.16583,37.53325],[127.16597,37.53323],[127.16616,37.5332],[127.16626,37.53317],[127.16637,37.53314],[127.16658,37.53306],[127.167,37.53289],[127.16727,37.53279],[127.16733,37.53277],[127.16748,37.53273]]}},{"type":"Feature","properties":{"class":"major","highway":"motorway_link","sidewalk":"likely","lanes":0,"name":"","oneway":true},"geometry":{"type":"LineString","coordinates":[[127.16458,37.52525],[127.16437,37.52555],[127.16407,37.52595]]}},{"type":"Feature","properties":{"class":"major","highway":"motorway_link","sidewalk":"likely","lanes":0,"name":"","oneway":true},"geometry":{"type":"LineString","coordinates":[[127.1635,37.52549],[127.16356,37.5252],[127.16362,37.52499],[127.1637,37.52474]]}},{"type":"Feature","properties":{"class":"major","highway":"motorway_link","sidewalk":"likely","lanes":0,"name":"","oneway":true},"geometry":{"type":"LineString","coordinates":[[127.16294,37.52678],[127.16325,37.52616],[127.16337,37.5259],[127.16343,37.52571],[127.1635,37.52549]]}},{"type":"Feature","properties":{"class":"major","highway":"motorway_link","sidewalk":"likely","lanes":0,"name":"","oneway":true},"geometry":{"type":"LineString","coordinates":[[127.16748,37.53273],[127.16735,37.53281],[127.16732,37.53283],[127.16711,37.53291],[127.16704,37.53293],[127.16672,37.53306],[127.16643,37.53316],[127.16626,37.53322],[127.16611,37.53325],[127.16593,37.53328],[127.16575,37.53329],[127.16553,37.53328],[127.16527,37.53323],[127.16507,37.53316],[127.16489,37.53307],[127.1647,37.53294],[127.1647,37.53294],[127.16452,37.53276]]}},{"type":"Feature","properties":{"class":"major","highway":"motorway_link","sidewalk":"likely","lanes":0,"name":"","oneway":true},"geometry":{"type":"LineString","coordinates":[[127.16212,37.52992],[127.16201,37.52987],[127.1619,37.52982],[127.16179,37.52974],[127.16169,37.52968],[127.16161,37.5296],[127.16152,37.52952],[127.16145,37.52943]]}},{"type":"Feature","properties":{"class":"major","highway":"motorway_link","sidewalk":"likely","lanes":0,"name":"","oneway":true},"geometry":{"type":"LineString","coordinates":[[127.16145,37.52943],[127.16141,37.52934],[127.16139,37.52924],[127.16137,37.52913],[127.16137,37.52902],[127.1614,37.52889],[127.16145,37.52876],[127.16152,37.52866],[127.16161,37.52855],[127.16171,37.52846],[127.16185,37.52836],[127.16198,37.52827],[127.16211,37.52817],[127.16223,37.52806],[127.16233,37.52792],[127.16243,37.52776]]}},{"type":"Feature","properties":{"class":"major","highway":"motorway_link","sidewalk":"likely","lanes":1,"name":"","oneway":true},"geometry":{"type":"LineString","coordinates":[[127.16376,37.53091],[127.1638,37.531],[127.16408,37.53156],[127.16424,37.53188],[127.16435,37.53218],[127.16442,37.53239]]}},{"type":"Feature","properties":{"class":"major","highway":"motorway_link","sidewalk":"likely","lanes":1,"name":"","oneway":true},"geometry":{"type":"LineString","coordinates":[[127.1611,37.53076],[127.16111,37.53063],[127.16116,37.53047],[127.1612,37.53029],[127.16125,37.53006],[127.16127,37.52986],[127.16127,37.52972],[127.16125,37.52958],[127.16122,37.52938],[127.1612,37.52921],[127.16119,37.52905],[127.16119,37.5289],[127.16122,37.52879],[127.16125,37.5287],[127.16132,37.5286],[127.1614,37.52851],[127.16149,37.52842],[127.16158,37.52836],[127.16171,37.52828],[127.16178,37.52825]]}},{"type":"Feature","properties":{"class":"major","highway":"motorway_link","sidewalk":"likely","lanes":1,"name":"","oneway":true},"geometry":{"type":"LineString","coordinates":[[127.16178,37.52825],[127.16187,37.52822],[127.162,37.52819],[127.16218,37.52817],[127.16232,37.52816],[127.16247,37.52816],[127.16258,37.52818],[127.1627,37.52821],[127.16282,37.52825],[127.16291,37.52828],[127.16299,37.52832],[127.16309,37.52838],[127.16317,37.52844]]}},{"type":"Feature","properties":{"class":"alley","highway":"service","sidewalk":"unknown","lanes":0,"name":"","oneway":true},"geometry":{"type":"LineString","coordinates":[[127.16302,37.53023],[127.16292,37.53013],[127.16279,37.53006],[127.16265,37.52999],[127.16252,37.52992],[127.16242,37.52985],[127.16237,37.52979],[127.16233,37.52971],[127.16232,37.52965],[127.16233,37.52959],[127.16235,37.52954],[127.16239,37.52947],[127.16245,37.52941],[127.16252,37.52937],[127.1626,37.52936],[127.1627,37.52935],[127.1628,37.52936],[127.16288,37.52939],[127.16296,37.52944],[127.16302,37.5295],[127.16308,37.52959]]}},{"type":"Feature","properties":{"class":"major","highway":"motorway_link","sidewalk":"likely","lanes":0,"name":"","oneway":true},"geometry":{"type":"LineString","coordinates":[[127.1634,37.53066],[127.16332,37.53056],[127.16323,37.53049],[127.16313,37.53041],[127.16298,37.53032],[127.16282,37.53027],[127.16265,37.53024],[127.16249,37.53023],[127.16234,37.53024],[127.16218,37.53026],[127.16203,37.53031],[127.16188,37.53037],[127.16173,37.53046],[127.16163,37.53055],[127.16147,37.53071],[127.16136,37.53086],[127.16129,37.53096],[127.16111,37.5312]]}},{"type":"Feature","properties":{"class":"major","highway":"secondary","sidewalk":"likely","lanes":0,"name":"감초로","oneway":true},"geometry":{"type":"LineString","coordinates":[[127.16874,37.53457],[127.1693,37.53539]]}},{"type":"Feature","properties":{"class":"major","highway":"secondary","sidewalk":"likely","lanes":0,"name":"감초로","oneway":true},"geometry":{"type":"LineString","coordinates":[[127.16835,37.53399],[127.16874,37.53457]]}},{"type":"Feature","properties":{"class":"alley","highway":"service","sidewalk":"unknown","lanes":0,"name":"","oneway":false},"geometry":{"type":"LineString","coordinates":[[127.17279,37.53108],[127.17288,37.53112],[127.17307,37.53119],[127.17325,37.53126],[127.17342,37.53128],[127.17407,37.53134],[127.17418,37.53136],[127.17425,37.53141],[127.17474,37.53185],[127.17491,37.53197],[127.17498,37.53204],[127.175,37.53209],[127.17495,37.53225],[127.17497,37.53231],[127.17517,37.53243],[127.17548,37.53257],[127.17569,37.53262],[127.17593,37.53265],[127.1761,37.53269],[127.17626,37.53274],[127.17633,37.53278],[127.17635,37.53288],[127.17633,37.53299],[127.17632,37.53317],[127.17632,37.53344],[127.17634,37.53354],[127.17637,37.53359],[127.17656,37.53367]]}},{"type":"Feature","properties":{"class":"alley","highway":"service","sidewalk":"unknown","lanes":0,"name":"","oneway":false},"geometry":{"type":"LineString","coordinates":[[127.17663,37.52997],[127.1765,37.52994],[127.17631,37.52982],[127.17625,37.52973],[127.1761,37.52938],[127.17608,37.52921]]}},{"type":"Feature","properties":{"class":"minor","highway":"residential","sidewalk":"unknown","lanes":0,"name":"","oneway":false},"geometry":{"type":"LineString","coordinates":[[127.17492,37.53004],[127.1753,37.53019],[127.17562,37.53028],[127.17573,37.53019],[127.17594,37.53],[127.17631,37.52982]]}},{"type":"Feature","properties":{"class":"alley","highway":"service","sidewalk":"unknown","lanes":0,"name":"","oneway":false},"geometry":{"type":"LineString","coordinates":[[127.17835,37.52896],[127.17816,37.52909],[127.17779,37.52929],[127.17731,37.52951],[127.17713,37.52959],[127.17691,37.52966],[127.17657,37.52974],[127.17636,37.5298],[127.17631,37.52982]]}},{"type":"Feature","properties":{"class":"alley","highway":"service","sidewalk":"unknown","lanes":0,"name":"","oneway":false},"geometry":{"type":"LineString","coordinates":[[127.17516,37.52132],[127.1751,37.52132],[127.1749,37.52131]]}},{"type":"Feature","properties":{"class":"alley","highway":"service","sidewalk":"unknown","lanes":0,"name":"","oneway":false},"geometry":{"type":"LineString","coordinates":[[127.17491,37.52076],[127.1749,37.52131],[127.1749,37.5214]]}},{"type":"Feature","properties":{"class":"alley","highway":"service","sidewalk":"unknown","lanes":0,"name":"","oneway":false},"geometry":{"type":"LineString","coordinates":[[127.16356,37.53502],[127.16356,37.53495],[127.16354,37.53488],[127.16353,37.53479],[127.16348,37.5347],[127.16345,37.53461],[127.16345,37.53456],[127.16346,37.5345],[127.16351,37.53445],[127.16374,37.53431],[127.16392,37.5342],[127.16416,37.53405],[127.16438,37.53393],[127.16452,37.53386],[127.16483,37.53367],[127.16508,37.53356],[127.16535,37.53342],[127.16546,37.53341],[127.16557,37.53343],[127.16579,37.53343],[127.16597,37.53344],[127.16613,37.53341],[127.16634,37.53334],[127.16652,37.53328],[127.16676,37.53319],[127.16689,37.53313],[127.16698,37.53309],[127.16705,37.53309],[127.16713,37.53311],[127.1672,37.53314],[127.16724,37.53319],[127.16728,37.53326],[127.16733,37.5333],[127.16739,37.53333],[127.16745,37.53334],[127.16753,37.53333],[127.16762,37.53329],[127.16766,37.53328],[127.16776,37.53324]]}},{"type":"Feature","properties":{"class":"major","highway":"motorway_link","sidewalk":"likely","lanes":0,"name":"","oneway":true},"geometry":{"type":"LineString","coordinates":[[127.16441,37.52368],[127.16457,37.52324],[127.16485,37.52263],[127.16533,37.5219]]}},{"type":"Feature","properties":{"class":"major","highway":"motorway_link","sidewalk":"likely","lanes":0,"name":"","oneway":true},"geometry":{"type":"LineString","coordinates":[[127.16631,37.52183],[127.16615,37.52215],[127.16587,37.52262],[127.16566,37.52294],[127.16521,37.52349],[127.16484,37.52394]]}},{"type":"Feature","properties":{"class":"major","highway":"motorway_link","sidewalk":"likely","lanes":0,"name":"","oneway":true},"geometry":{"type":"LineString","coordinates":[[127.16745,37.51968],[127.16678,37.52095],[127.16667,37.52114],[127.16657,37.52133],[127.16631,37.52183]]}},{"type":"Feature","properties":{"class":"major","highway":"motorway_link","sidewalk":"likely","lanes":0,"name":"","oneway":true},"geometry":{"type":"LineString","coordinates":[[127.16661,37.52179],[127.16639,37.52214],[127.16624,37.5224]]}},{"type":"Feature","properties":{"class":"major","highway":"motorway_link","sidewalk":"likely","lanes":0,"name":"","oneway":true},"geometry":{"type":"LineString","coordinates":[[127.16332,37.52719],[127.16305,37.52771]]}},{"type":"Feature","properties":{"class":"major","highway":"motorway_link","sidewalk":"likely","lanes":0,"name":"","oneway":true},"geometry":{"type":"LineString","coordinates":[[127.16452,37.53276],[127.16446,37.53263],[127.16409,37.53187],[127.16366,37.53098],[127.16356,37.5308],[127.16348,37.53067],[127.1634,37.53055],[127.16329,37.53043],[127.1632,37.53035],[127.1631,37.53028],[127.16302,37.53023],[127.16286,37.53014],[127.16268,37.53008],[127.16248,37.53003],[127.16227,37.52997],[127.16212,37.52992]]}},{"type":"Feature","properties":{"class":"major","highway":"motorway_link","sidewalk":"likely","lanes":0,"name":"","oneway":true},"geometry":{"type":"LineString","coordinates":[[127.16408,37.53203],[127.16388,37.53165],[127.16363,37.5311],[127.16357,37.53097]]}},{"type":"Feature","properties":{"class":"major","highway":"motorway_link","sidewalk":"likely","lanes":0,"name":"","oneway":true},"geometry":{"type":"LineString","coordinates":[[127.16305,37.52771],[127.16298,37.52788],[127.16291,37.52806],[127.16287,37.5282],[127.16284,37.52829],[127.16283,37.5284],[127.16283,37.52849],[127.16284,37.52863],[127.16287,37.52881],[127.16292,37.52901],[127.16299,37.52924],[127.16305,37.52949],[127.16308,37.52959],[127.16313,37.52973],[127.1632,37.52991],[127.1633,37.53011],[127.1634,37.53031]]}},{"type":"Feature","properties":{"class":"major","highway":"motorway_link","sidewalk":"likely","lanes":0,"name":"","oneway":true},"geometry":{"type":"LineString","coordinates":[[127.1634,37.53031],[127.16353,37.53057],[127.16365,37.53083],[127.16379,37.5311],[127.1639,37.53132],[127.16401,37.53157],[127.16417,37.53189]]}},{"type":"Feature","properties":{"class":"minor","highway":"residential","sidewalk":"unknown","lanes":0,"name":"","oneway":false},"geometry":{"type":"LineString","coordinates":[[127.16907,37.52946],[127.16887,37.52952],[127.1688,37.52954],[127.16871,37.52956],[127.16716,37.52963],[127.16702,37.52963],[127.16699,37.52916]]}},{"type":"Feature","properties":{"class":"minor","highway":"residential","sidewalk":"unknown","lanes":0,"name":"","oneway":false},"geometry":{"type":"LineString","coordinates":[[127.16907,37.52946],[127.16932,37.52934],[127.16934,37.52932],[127.16936,37.52926],[127.16935,37.5292],[127.16925,37.52906],[127.16923,37.529],[127.1692,37.52892],[127.16917,37.52877],[127.16917,37.5286],[127.16917,37.52849],[127.16915,37.52845],[127.16912,37.52839],[127.16905,37.52837],[127.16894,37.52836],[127.16878,37.52837]]}},{"type":"Feature","properties":{"class":"minor","highway":"residential","sidewalk":"unknown","lanes":0,"name":"","oneway":false},"geometry":{"type":"LineString","coordinates":[[127.16859,37.52911],[127.1687,37.52905],[127.16877,37.52898],[127.16882,37.52889]]}},{"type":"Feature","properties":{"class":"minor","highway":"unclassified","sidewalk":"unknown","lanes":0,"name":"","oneway":false},"geometry":{"type":"LineString","coordinates":[[127.17065,37.52977],[127.16979,37.52994],[127.1697,37.52996],[127.16963,37.52995],[127.16955,37.52992],[127.1695,37.52989],[127.16907,37.52946],[127.16897,37.52929],[127.16889,37.52917]]}},{"type":"Feature","properties":{"class":"minor","highway":"unclassified","sidewalk":"unknown","lanes":0,"name":"","oneway":false},"geometry":{"type":"LineString","coordinates":[[127.17076,37.52975],[127.17065,37.52977]]}},{"type":"Feature","properties":{"class":"alley","highway":"living_street","sidewalk":"unknown","lanes":0,"name":"","oneway":false},"geometry":{"type":"LineString","coordinates":[[127.16683,37.53123],[127.1671,37.53106],[127.16715,37.53105],[127.16718,37.53107],[127.16731,37.53123],[127.16732,37.53126],[127.16731,37.53131],[127.1673,37.53133],[127.16732,37.53137],[127.16738,37.53137],[127.16748,37.53136],[127.16786,37.53121],[127.16794,37.53115],[127.16799,37.53109],[127.168,37.53098],[127.168,37.53084],[127.16802,37.53081],[127.16805,37.53078],[127.1681,37.53076],[127.16822,37.53077],[127.16869,37.53077]]}},{"type":"Feature","properties":{"class":"alley","highway":"living_street","sidewalk":"unknown","lanes":0,"name":"","oneway":false},"geometry":{"type":"LineString","coordinates":[[127.16822,37.53077],[127.16824,37.53005]]}},{"type":"Feature","properties":{"class":"alley","highway":"living_street","sidewalk":"unknown","lanes":0,"name":"","oneway":false},"geometry":{"type":"LineString","coordinates":[[127.16891,37.53245],[127.16891,37.53236],[127.16881,37.53187],[127.16885,37.53147],[127.16882,37.53111],[127.16884,37.53102],[127.1689,37.5308],[127.16894,37.53066],[127.16894,37.53049],[127.16894,37.53039],[127.16896,37.53033],[127.169,37.53022],[127.16903,37.53018],[127.16907,37.53015]]}},{"type":"Feature","properties":{"class":"minor","highway":"residential","sidewalk":"unknown","lanes":0,"name":"","oneway":false},"geometry":{"type":"LineString","coordinates":[[127.16619,37.53073],[127.16634,37.53062],[127.16643,37.53054],[127.16655,37.5304],[127.16675,37.53013],[127.16679,37.53008],[127.16686,37.53006],[127.16695,37.53004],[127.167,37.53],[127.16702,37.52995],[127.16703,37.52986],[127.16702,37.52963]]}},{"type":"Feature","properties":{"class":"minor","highway":"residential","sidewalk":"unknown","lanes":0,"name":"","oneway":false},"geometry":{"type":"LineString","coordinates":[[127.1652,37.5292],[127.16506,37.52928],[127.16493,37.52935],[127.16521,37.52963],[127.16548,37.53001],[127.16606,37.53092],[127.16629,37.5313],[127.16638,37.53127],[127.16652,37.53122]]}},{"type":"Feature","properties":{"class":"alley","highway":"living_street","sidewalk":"unknown","lanes":0,"name":"","oneway":false},"geometry":{"type":"LineString","coordinates":[[127.16629,37.5313],[127.16574,37.53155],[127.1654,37.5318],[127.16518,37.53201],[127.16514,37.53204],[127.16508,37.53206],[127.16502,37.53207],[127.16497,37.53207],[127.16494,37.53209],[127.16489,37.53221]]}},{"type":"Feature","properties":{"class":"alley","highway":"living_street","sidewalk":"unknown","lanes":0,"name":"","oneway":false},"geometry":{"type":"LineString","coordinates":[[127.16606,37.53092],[127.16584,37.5311],[127.16525,37.5314],[127.16477,37.53165],[127.16463,37.53169],[127.16443,37.53171],[127.16418,37.53175]]}},{"type":"Feature","properties":{"class":"alley","highway":"living_street","sidewalk":"unknown","lanes":0,"name":"","oneway":false},"geometry":{"type":"LineString","coordinates":[[127.16355,37.53195],[127.16343,37.5319],[127.16339,37.53186],[127.16337,37.53181],[127.16337,37.53177],[127.16338,37.53169]]}},{"type":"Feature","properties":{"class":"alley","highway":"service","sidewalk":"unknown","lanes":0,"name":"","oneway":false},"geometry":{"type":"LineString","coordinates":[[127.16548,37.53001],[127.1654,37.53006],[127.16537,37.53012],[127.1653,37.53024],[127.16495,37.53089],[127.1649,37.53095],[127.1649,37.531],[127.16525,37.5314]]}},{"type":"Feature","properties":{"class":"alley","highway":"service","sidewalk":"unknown","lanes":0,"name":"","oneway":false},"geometry":{"type":"LineString","coordinates":[[127.16493,37.52935],[127.16439,37.52882]]}},{"type":"Feature","properties":{"class":"alley","highway":"service","sidewalk":"unknown","lanes":0,"name":"","oneway":false},"geometry":{"type":"LineString","coordinates":[[127.16269,37.52534],[127.16259,37.52539],[127.16235,37.5255],[127.16198,37.5256],[127.16094,37.52599],[127.1608,37.52587],[127.16057,37.5257],[127.16043,37.52565],[127.15937,37.52559]]}},{"type":"Feature","properties":{"class":"alley","highway":"service","sidewalk":"unknown","lanes":0,"name":"","oneway":false},"geometry":{"type":"LineString","coordinates":[[127.16094,37.52599],[127.16105,37.52645],[127.16109,37.52653],[127.16113,37.52659],[127.16113,37.52664],[127.16112,37.52669],[127.1611,37.52674],[127.16103,37.52679],[127.16053,37.52702]]}},{"type":"Feature","properties":{"class":"minor","highway":"residential","sidewalk":"unknown","lanes":0,"name":"","oneway":false},"geometry":{"type":"LineString","coordinates":[[127.17216,37.53836],[127.17215,37.53809],[127.17215,37.53805],[127.17211,37.53803],[127.17202,37.538],[127.17175,37.53793],[127.17171,37.53791],[127.1717,37.53785],[127.1717,37.53779],[127.17165,37.53777],[127.1716,37.53774],[127.17151,37.53773],[127.17134,37.53774]]}},{"type":"Feature","properties":{"class":"minor","highway":"residential","sidewalk":"unknown","lanes":0,"name":"","oneway":false},"geometry":{"type":"LineString","coordinates":[[127.17165,37.53777],[127.1717,37.5377],[127.17165,37.53762],[127.17158,37.53748],[127.17157,37.53744]]}},{"type":"Feature","properties":{"class":"alley","highway":"service","sidewalk":"unknown","lanes":0,"name":"","oneway":false},"geometry":{"type":"LineString","coordinates":[[127.17131,37.53738],[127.17156,37.53736],[127.17194,37.53732]]}},{"type":"Feature","properties":{"class":"minor","highway":"residential","sidewalk":"unknown","lanes":0,"name":"","oneway":false},"geometry":{"type":"LineString","coordinates":[[127.1733,37.53837],[127.17326,37.53797],[127.17354,37.53789],[127.17362,37.53784],[127.17364,37.53779],[127.17349,37.53776],[127.17333,37.53773],[127.173,37.53769],[127.17279,37.53771],[127.17264,37.53775],[127.1725,37.53779],[127.17232,37.5378],[127.17218,37.5378],[127.17202,37.5378],[127.1717,37.53779]]}},{"type":"Feature","properties":{"class":"minor","highway":"residential","sidewalk":"unknown","lanes":0,"name":"","oneway":false},"geometry":{"type":"LineString","coordinates":[[127.17326,37.53797],[127.17295,37.53794],[127.17281,37.53793],[127.17257,37.53797],[127.17235,37.53799],[127.17215,37.53805]]}},{"type":"Feature","properties":{"class":"minor","highway":"residential","sidewalk":"unknown","lanes":0,"name":"","oneway":false},"geometry":{"type":"LineString","coordinates":[[127.16591,37.52727],[127.16641,37.52645],[127.16648,37.52636],[127.16645,37.5259],[127.16664,37.52566],[127.16664,37.52565],[127.16665,37.52565],[127.16666,37.52564],[127.16667,37.52564],[127.16669,37.52564],[127.1667,37.52564],[127.16672,37.52565],[127.16695,37.5258],[127.16696,37.5258],[127.16697,37.52581],[127.16698,37.5258],[127.16699,37.5258],[127.167,37.52579],[127.16725,37.52559],[127.16726,37.52558],[127.16728,37.52557],[127.16746,37.5255],[127.16746,37.5255],[127.16747,37.5255],[127.16748,37.5255],[127.16749,37.5255],[127.16791,37.52556],[127.16792,37.52556],[127.16793,37.52556],[127.16793,37.52556],[127.16794,37.52557],[127.16843,37.52582]]}},{"type":"Feature","properties":{"class":"minor","highway":"residential","sidewalk":"unknown","lanes":0,"name":"","oneway":false},"geometry":{"type":"LineString","coordinates":[[127.16645,37.5259],[127.16598,37.52563],[127.16589,37.52559],[127.16581,37.52557],[127.16571,37.52556],[127.16549,37.5256]]}},{"type":"Feature","properties":{"class":"minor","highway":"residential","sidewalk":"unknown","lanes":0,"name":"","oneway":false},"geometry":{"type":"LineString","coordinates":[[127.16645,37.5259],[127.16666,37.52597],[127.16716,37.52615],[127.1673,37.52621],[127.16742,37.52622],[127.16745,37.52613],[127.16749,37.52608],[127.16753,37.52603],[127.16775,37.52586],[127.16778,37.52573]]}},{"type":"Feature","properties":{"class":"minor","highway":"residential","sidewalk":"unknown","lanes":0,"name":"","oneway":false},"geometry":{"type":"LineString","coordinates":[[127.1673,37.52621],[127.16723,37.52634],[127.16723,37.52637],[127.16725,37.5264],[127.16728,37.52643],[127.16763,37.52666],[127.16787,37.52684],[127.16799,37.52693]]}},{"type":"Feature","properties":{"class":"minor","highway":"residential","sidewalk":"unknown","lanes":0,"name":"","oneway":false},"geometry":{"type":"LineString","coordinates":[[127.16511,37.52464],[127.16538,37.52461],[127.16649,37.52463],[127.16651,37.52462],[127.16655,37.52461],[127.16659,37.52459],[127.1668,37.52448],[127.16712,37.52503],[127.16715,37.52505],[127.16719,37.52506],[127.16728,37.52506],[127.16731,37.52508],[127.16732,37.5251],[127.16736,37.52531]]}},{"type":"Feature","properties":{"class":"minor","highway":"residential","sidewalk":"unknown","lanes":0,"name":"","oneway":false},"geometry":{"type":"LineString","coordinates":[[127.1668,37.52448],[127.16659,37.52421],[127.16646,37.52406]]}},{"type":"Feature","properties":{"class":"minor","highway":"residential","sidewalk":"unknown","lanes":0,"name":"","oneway":false},"geometry":{"type":"LineString","coordinates":[[127.16763,37.52666],[127.1677,37.52659],[127.16773,37.52656],[127.16775,37.52652],[127.16775,37.52648],[127.16774,37.52646],[127.16771,37.52642],[127.16776,37.52637],[127.16786,37.52628],[127.16792,37.52624],[127.16798,37.52621],[127.16808,37.52618],[127.16821,37.52618],[127.16839,37.52621]]}},{"type":"Feature","properties":{"class":"minor","highway":"residential","sidewalk":"unknown","lanes":0,"name":"","oneway":false},"geometry":{"type":"LineString","coordinates":[[127.16742,37.52622],[127.16771,37.52642]]}},{"type":"Feature","properties":{"class":"minor","highway":"residential","sidewalk":"unknown","lanes":0,"name":"","oneway":false},"geometry":{"type":"LineString","coordinates":[[127.16659,37.52421],[127.16691,37.524],[127.16697,37.52396],[127.16701,37.52393],[127.16705,37.52389],[127.1671,37.52383],[127.16713,37.52374],[127.16712,37.52368],[127.16711,37.5236],[127.16712,37.52354],[127.16714,37.52349],[127.16721,37.52344],[127.16727,37.52341],[127.16737,37.52336],[127.16751,37.52331],[127.16768,37.52322],[127.16789,37.5231]]}},{"type":"Feature","properties":{"class":"minor","highway":"residential","sidewalk":"unknown","lanes":0,"name":"","oneway":false},"geometry":{"type":"LineString","coordinates":[[127.17414,37.53774],[127.17415,37.53773],[127.17418,37.53772],[127.17421,37.53771],[127.17431,37.5377],[127.17439,37.53771],[127.17452,37.53772],[127.17457,37.53774],[127.17461,37.53775],[127.17465,37.53776],[127.17472,37.53778],[127.17481,37.53781],[127.17492,37.53784],[127.17505,37.53787],[127.1751,37.53788],[127.17512,37.53789],[127.17515,37.53789],[127.17519,37.53789],[127.17523,37.53788],[127.17527,37.53787],[127.17532,37.53786],[127.17537,37.53787],[127.17542,37.53787],[127.17546,37.53786],[127.17552,37.53781],[127.17557,37.53776],[127.17566,37.53766],[127.1758,37.53752],[127.17582,37.5375],[127.17584,37.53748],[127.17587,37.53747],[127.17591,37.53746],[127.17595,37.53744],[127.17598,37.53742],[127.17604,37.53736],[127.17615,37.53723],[127.17616,37.53721],[127.17619,37.53719],[127.17621,37.53717],[127.17624,37.53718],[127.17626,37.53718],[127.17629,37.5372],[127.17632,37.53724]]}},{"type":"Feature","properties":{"class":"minor","highway":"residential","sidewalk":"unknown","lanes":0,"name":"","oneway":false},"geometry":{"type":"LineString","coordinates":[[127.17364,37.53779],[127.17366,37.53777],[127.17368,37.53775],[127.17371,37.53774],[127.17376,37.53771],[127.17381,37.5377],[127.17384,37.53769],[127.17388,37.53768],[127.17394,37.53768],[127.17399,37.53768],[127.17403,37.53769],[127.17407,37.5377],[127.17411,37.53771],[127.17415,37.53773]]}},{"type":"Feature","properties":{"class":"minor","highway":"residential","sidewalk":"unknown","lanes":0,"name":"","oneway":false},"geometry":{"type":"LineString","coordinates":[[127.17157,37.53744],[127.17156,37.53736]]}},{"type":"Feature","properties":{"class":"alley","highway":"service","sidewalk":"unknown","lanes":0,"name":"","oneway":false},"geometry":{"type":"LineString","coordinates":[[127.17431,37.53398],[127.17425,37.53403],[127.17423,37.53405],[127.17422,37.53408],[127.17419,37.5341],[127.17417,37.53413],[127.17414,37.53415],[127.17409,37.53417],[127.17401,37.53419],[127.17389,37.5342],[127.17375,37.53421],[127.17362,37.53422],[127.1736,37.53423],[127.1736,37.53425],[127.1736,37.53427],[127.17362,37.53434],[127.17364,37.53441],[127.17365,37.53449],[127.17367,37.53457],[127.17365,37.53459],[127.17363,37.53459],[127.1736,37.5346],[127.1734,37.53461],[127.1733,37.53461],[127.17316,37.53462],[127.17287,37.53462],[127.1725,37.53462],[127.1722,37.53461],[127.17191,37.5346],[127.17163,37.5346],[127.17127,37.53459]]}},{"type":"Feature","properties":{"class":"alley","highway":"service","sidewalk":"unknown","lanes":0,"name":"","oneway":false},"geometry":{"type":"LineString","coordinates":[[127.17543,37.53502],[127.17544,37.53501],[127.17554,37.53491],[127.17575,37.5347],[127.17592,37.53454],[127.17606,37.53442],[127.17607,37.5344],[127.17606,37.53437],[127.17602,37.53429],[127.17597,37.53419],[127.17593,37.53409],[127.17589,37.53401],[127.17588,37.53397],[127.17587,37.53395],[127.17588,37.53393],[127.17592,37.53392],[127.17605,37.53391],[127.17611,37.5339],[127.17617,37.53392],[127.17623,37.53393],[127.17628,37.53395],[127.17639,37.53398],[127.17653,37.53404],[127.17658,37.53406],[127.17659,37.53407],[127.17661,37.53408]]}},{"type":"Feature","properties":{"class":"alley","highway":"service","sidewalk":"unknown","lanes":0,"name":"","oneway":false},"geometry":{"type":"LineString","coordinates":[[127.16873,37.52676],[127.16879,37.52672],[127.16885,37.52669],[127.1689,37.52666],[127.16896,37.52663],[127.16903,37.5266],[127.16908,37.52657],[127.16911,37.52652],[127.16912,37.52647],[127.16911,37.52641],[127.16908,37.52635],[127.16905,37.52631],[127.16902,37.52626],[127.16901,37.52624],[127.169,37.52621],[127.16901,37.52618],[127.16902,37.52613],[127.16904,37.52607],[127.16907,37.52602],[127.16909,37.52598],[127.16911,37.52591],[127.16911,37.52584],[127.16911,37.52576],[127.16912,37.52563],[127.16915,37.52546],[127.16916,37.52543],[127.1692,37.52538],[127.16923,37.52537]]}},{"type":"Feature","properties":{"class":"alley","highway":"service","sidewalk":"unknown","lanes":0,"name":"","oneway":false},"geometry":{"type":"LineString","coordinates":[[127.16167,37.52033],[127.16172,37.5204],[127.16174,37.52042],[127.16177,37.52047],[127.16181,37.52052],[127.16185,37.52055],[127.16188,37.52057],[127.16192,37.5206],[127.16197,37.52063],[127.16203,37.52066],[127.16212,37.52071],[127.16218,37.52073],[127.16224,37.52075],[127.16229,37.52078],[127.16232,37.5208],[127.16235,37.52083],[127.16237,37.52087],[127.16237,37.5209],[127.16239,37.52098],[127.1624,37.52102],[127.16239,37.52107],[127.16239,37.52111],[127.16237,37.52116],[127.16235,37.5212],[127.16232,37.52124],[127.16227,37.52131],[127.16221,37.52137],[127.16216,37.52142],[127.16214,37.52146],[127.16211,37.52151],[127.16205,37.52158],[127.16199,37.52165],[127.16193,37.52167],[127.16185,37.52169],[127.16173,37.52171],[127.16157,37.52173]]}},{"type":"Feature","properties":{"class":"alley","highway":"living_street","sidewalk":"unknown","lanes":0,"name":"","oneway":false},"geometry":{"type":"LineString","coordinates":[[127.1637,37.53186],[127.1636,37.53191],[127.16355,37.53195],[127.1635,37.53198],[127.16339,37.53207],[127.16327,37.53213],[127.16316,37.53216],[127.16308,37.53218],[127.16301,37.53218],[127.16287,37.53217],[127.16262,37.53214]]}},{"type":"Feature","properties":{"class":"alley","highway":"living_street","sidewalk":"unknown","lanes":0,"name":"","oneway":false},"geometry":{"type":"LineString","coordinates":[[127.16418,37.53175],[127.1637,37.53186]]}},{"type":"Feature","properties":{"class":"minor","highway":"residential","sidewalk":"unknown","lanes":0,"name":"","oneway":false},"geometry":{"type":"LineString","coordinates":[[127.16748,37.53273],[127.16763,37.53267],[127.16766,37.53266],[127.16776,37.53262],[127.16787,37.53257]]}},{"type":"Feature","properties":{"class":"major","highway":"motorway_link","sidewalk":"likely","lanes":0,"name":"","oneway":true},"geometry":{"type":"LineString","coordinates":[[127.16745,37.51968],[127.16734,37.52002],[127.16726,37.52029],[127.16714,37.52061],[127.16699,37.52093],[127.16679,37.5213],[127.16657,37.52163],[127.16647,37.52182],[127.16624,37.52225],[127.16585,37.52302],[127.16583,37.52307],[127.16528,37.52405]]}},{"type":"Feature","properties":{"class":"alley","highway":"service","sidewalk":"unknown","lanes":0,"name":"","oneway":false},"geometry":{"type":"LineString","coordinates":[[127.1634,37.53066],[127.16323,37.53071],[127.16308,37.53074],[127.16299,37.53073],[127.16295,37.53068],[127.16289,37.53059],[127.16278,37.53049],[127.16269,37.53042],[127.1626,37.5304],[127.16241,37.53038],[127.16227,37.53039],[127.16212,37.53042],[127.16201,37.53046],[127.16194,37.53052],[127.16186,37.53064],[127.16172,37.53091],[127.16159,37.53113],[127.16145,37.53133],[127.16137,37.5314],[127.16132,37.53143],[127.16122,37.53145],[127.16113,37.53145],[127.16104,37.53144],[127.16087,37.53139],[127.16068,37.53134],[127.16054,37.53129],[127.16049,37.53125],[127.16044,37.53119],[127.16041,37.53113],[127.1604,37.53104],[127.16041,37.53095],[127.16046,37.53081],[127.16061,37.53047],[127.16077,37.53015],[127.16078,37.53014],[127.16084,37.52995],[127.16088,37.52976],[127.16091,37.52962]]}},{"type":"Feature","properties":{"class":"alley","highway":"service","sidewalk":"unknown","lanes":0,"name":"","oneway":false},"geometry":{"type":"LineString","coordinates":[[127.16078,37.53014],[127.16087,37.53016],[127.16098,37.53018],[127.1612,37.53029]]}},{"type":"Feature","properties":{"class":"alley","highway":"service","sidewalk":"unknown","lanes":0,"name":"","oneway":false},"geometry":{"type":"LineString","coordinates":[[127.16025,37.52994],[127.16018,37.52996],[127.16007,37.52994],[127.1599,37.52988],[127.15974,37.52981],[127.15962,37.52978],[127.15951,37.52978],[127.15936,37.52985],[127.15912,37.53004],[127.15897,37.53019],[127.15884,37.53038],[127.15867,37.53054],[127.1585,37.53062],[127.15831,37.53072],[127.1581,37.53088],[127.15774,37.53118],[127.15757,37.53128],[127.15729,37.53126],[127.15644,37.53126]]}},{"type":"Feature","properties":{"class":"alley","highway":"service","sidewalk":"unknown","lanes":0,"name":"","oneway":false},"geometry":{"type":"LineString","coordinates":[[127.16091,37.52962],[127.16078,37.52974],[127.16063,37.52983],[127.1604,37.52992],[127.16025,37.52994]]}},{"type":"Feature","properties":{"class":"major","highway":"secondary","sidewalk":"likely","lanes":0,"name":"감초로","oneway":false},"geometry":{"type":"LineString","coordinates":[[127.16776,37.53312],[127.16778,37.53316]]}},{"type":"Feature","properties":{"class":"major","highway":"motorway_link","sidewalk":"likely","lanes":0,"name":"","oneway":true},"geometry":{"type":"LineString","coordinates":[[127.16773,37.53309],[127.16762,37.53302],[127.16751,37.53297],[127.16741,37.53293],[127.16737,37.53292],[127.1673,37.53291],[127.1672,37.53291],[127.16704,37.53293]]}},{"type":"Feature","properties":{"class":"major","highway":"motorway_link","sidewalk":"likely","lanes":0,"name":"","oneway":true},"geometry":{"type":"LineString","coordinates":[[127.167,37.53289],[127.16709,37.53284],[127.16715,37.53277],[127.16717,37.53274],[127.16719,37.53271],[127.1672,37.53269],[127.16721,37.53262],[127.16722,37.53251],[127.16717,37.53221]]}},{"type":"Feature","properties":{"class":"minor","highway":"residential","sidewalk":"unknown","lanes":0,"name":"","oneway":true},"geometry":{"type":"LineString","coordinates":[[127.16819,37.53215],[127.16829,37.53218],[127.16847,37.53225],[127.1687,37.53236],[127.16881,37.53241]]}},{"type":"Feature","properties":{"class":"minor","highway":"residential","sidewalk":"unknown","lanes":0,"name":"감초로216번길","oneway":false},"geometry":{"type":"LineString","coordinates":[[127.16819,37.53215],[127.16823,37.53218],[127.16827,37.53222],[127.16833,37.5323],[127.16836,37.53238]]}},{"type":"Feature","properties":{"class":"minor","highway":"residential","sidewalk":"unknown","lanes":0,"name":"감초로216번길","oneway":false},"geometry":{"type":"LineString","coordinates":[[127.16836,37.53238],[127.16843,37.53237],[127.16853,37.53236],[127.16864,37.53237],[127.16874,37.53239],[127.16876,37.5324],[127.16881,37.53241]]}},{"type":"Feature","properties":{"class":"minor","highway":"residential","sidewalk":"unknown","lanes":0,"name":"감초로216번길","oneway":false},"geometry":{"type":"LineString","coordinates":[[127.16881,37.53241],[127.16886,37.53243],[127.16891,37.53245]]}},{"type":"Feature","properties":{"class":"minor","highway":"residential","sidewalk":"unknown","lanes":0,"name":"감초로216번길","oneway":false},"geometry":{"type":"LineString","coordinates":[[127.16891,37.53245],[127.16958,37.53271],[127.17054,37.53305]]}},{"type":"Feature","properties":{"class":"minor","highway":"residential","sidewalk":"unknown","lanes":0,"name":"","oneway":true},"geometry":{"type":"LineString","coordinates":[[127.16787,37.53257],[127.16779,37.53265],[127.16775,37.53273],[127.16775,37.53274],[127.16774,37.53282],[127.16774,37.53293],[127.16773,37.53309]]}},{"type":"Feature","properties":{"class":"minor","highway":"residential","sidewalk":"unknown","lanes":0,"name":"","oneway":true},"geometry":{"type":"LineString","coordinates":[[127.16717,37.53221],[127.16728,37.53233],[127.16743,37.53244],[127.16755,37.5325],[127.16762,37.53253],[127.16767,37.53255],[127.16776,37.53256],[127.16787,37.53257]]}},{"type":"Feature","properties":{"class":"minor","highway":"residential","sidewalk":"unknown","lanes":0,"name":"","oneway":false},"geometry":{"type":"LineString","coordinates":[[127.16787,37.53257],[127.16812,37.53247],[127.16836,37.53238]]}},{"type":"Feature","properties":{"class":"major","highway":"secondary","sidewalk":"likely","lanes":0,"name":"감초로","oneway":false},"geometry":{"type":"LineString","coordinates":[[127.16748,37.53273],[127.16753,37.5328],[127.16773,37.53309]]}},{"type":"Feature","properties":{"class":"major","highway":"secondary","sidewalk":"likely","lanes":0,"name":"감초로","oneway":false},"geometry":{"type":"LineString","coordinates":[[127.16717,37.53221],[127.16743,37.53265],[127.16748,37.53273]]}},{"type":"Feature","properties":{"class":"major","highway":"secondary","sidewalk":"likely","lanes":0,"name":"감초로","oneway":false},"geometry":{"type":"LineString","coordinates":[[127.16773,37.53309],[127.16776,37.53312]]}},{"type":"Feature","properties":{"class":"major","highway":"motorway_link","sidewalk":"likely","lanes":1,"name":"","oneway":true},"geometry":{"type":"LineString","coordinates":[[127.16317,37.52844],[127.16326,37.52852],[127.16335,37.52864],[127.1634,37.52877],[127.16343,37.5289],[127.16344,37.52907],[127.16344,37.52926],[127.16342,37.52968],[127.16343,37.52992],[127.16346,37.53015]]}},{"type":"Feature","properties":{"class":"major","highway":"motorway","sidewalk":"likely","lanes":3,"name":"세종포천고속도로","oneway":true},"geometry":{"type":"LineString","coordinates":[[127.16473,37.52379],[127.16505,37.52318],[127.16524,37.52282],[127.16565,37.52201],[127.16591,37.52152],[127.16628,37.52082]]}},{"type":"Feature","properties":{"class":"major","highway":"motorway","sidewalk":"likely","lanes":3,"name":"세종포천고속도로","oneway":true},"geometry":{"type":"LineString","coordinates":[[127.16648,37.52088],[127.16541,37.52288],[127.1649,37.52382]]}},{"type":"Feature","properties":{"class":"major","highway":"motorway_link","sidewalk":"likely","lanes":0,"name":"","oneway":true},"geometry":{"type":"LineString","coordinates":[[127.16379,37.52558],[127.16401,37.52482]]}},{"type":"Feature","properties":{"class":"major","highway":"motorway_link","sidewalk":"likely","lanes":0,"name":"","oneway":true},"geometry":{"type":"LineString","coordinates":[[127.16401,37.52482],[127.16441,37.52368]]}},{"type":"Feature","properties":{"class":"major","highway":"motorway_link","sidewalk":"likely","lanes":0,"name":"","oneway":true},"geometry":{"type":"LineString","coordinates":[[127.16441,37.52368],[127.165,37.52269],[127.16538,37.52215],[127.16591,37.52152]]}},{"type":"Feature","properties":{"class":"major","highway":"motorway_link","sidewalk":"likely","lanes":0,"name":"","oneway":true},"geometry":{"type":"LineString","coordinates":[[127.16687,37.52016],[127.16648,37.52105],[127.16587,37.52233],[127.16521,37.52349]]}},{"type":"Feature","properties":{"class":"major","highway":"motorway","sidewalk":"likely","lanes":3,"name":"세종포천고속도로","oneway":true},"geometry":{"type":"LineString","coordinates":[[127.16468,37.5239],[127.16473,37.52379]]}},{"type":"Feature","properties":{"class":"major","highway":"motorway","sidewalk":"likely","lanes":3,"name":"세종포천고속도로","oneway":true},"geometry":{"type":"LineString","coordinates":[[127.1649,37.52382],[127.16484,37.52394]]}},{"type":"Feature","properties":{"class":"major","highway":"motorway_link","sidewalk":"likely","lanes":1,"name":"","oneway":true},"geometry":{"type":"LineString","coordinates":[[127.16346,37.53015],[127.16352,37.53037],[127.1636,37.53057],[127.16376,37.53091]]}},{"type":"Feature","properties":{"class":"major","highway":"motorway_link","sidewalk":"likely","lanes":0,"name":"","oneway":true},"geometry":{"type":"LineString","coordinates":[[127.16357,37.53097],[127.16351,37.53084],[127.16346,37.53075],[127.1634,37.53066]]}},{"type":"Feature","properties":{"class":"major","highway":"motorway_link","sidewalk":"likely","lanes":0,"name":"","oneway":true},"geometry":{"type":"LineString","coordinates":[[127.16452,37.53276],[127.16433,37.53251],[127.16421,37.5323],[127.16408,37.53203]]}},{"type":"Feature","properties":{"class":"minor","highway":"unclassified","sidewalk":"unknown","lanes":0,"name":"","oneway":false},"geometry":{"type":"LineString","coordinates":[[127.17481,37.51841],[127.17487,37.51838],[127.17499,37.51831],[127.17506,37.51829],[127.17515,37.5183],[127.17521,37.51834],[127.17558,37.51865],[127.17598,37.51888],[127.17606,37.51888],[127.17612,37.51887],[127.17617,37.51884],[127.17618,37.5188],[127.17617,37.51875],[127.17614,37.51869],[127.17617,37.51865],[127.17622,37.51863],[127.17629,37.51863],[127.17636,37.51866],[127.17654,37.51883],[127.17668,37.519],[127.17673,37.51912],[127.17671,37.51925],[127.17668,37.51938],[127.1767,37.51946],[127.17682,37.5195],[127.17703,37.51956],[127.17727,37.51959],[127.17748,37.51971],[127.1777,37.51973],[127.17786,37.51979],[127.17794,37.51989],[127.17803,37.52001],[127.17808,37.52013],[127.17822,37.52017],[127.17841,37.52017],[127.1785,37.52024],[127.17853,37.5204],[127.1785,37.5205],[127.17836,37.52062]]}},{"type":"Feature","properties":{"class":"major","highway":"motorway_link","sidewalk":"likely","lanes":0,"name":"","oneway":true},"geometry":{"type":"LineString","coordinates":[[127.16419,37.52362],[127.16439,37.52325]]}},{"type":"Feature","properties":{"class":"alley","highway":"service","sidewalk":"unknown","lanes":0,"name":"","oneway":false},"geometry":{"type":"LineString","coordinates":[[127.16511,37.52464],[127.16565,37.52384],[127.16577,37.52376],[127.16604,37.52371],[127.16611,37.52367],[127.1662,37.52354],[127.16622,37.52341],[127.16636,37.52316],[127.16636,37.52308],[127.16634,37.52301],[127.16628,37.52294],[127.16615,37.52287],[127.16606,37.52311]]}},{"type":"Feature","properties":{"class":"minor","highway":"unclassified","sidewalk":"unknown","lanes":0,"name":"","oneway":false},"geometry":{"type":"LineString","coordinates":[[127.1705,37.53772],[127.17034,37.53769],[127.17019,37.53769],[127.16999,37.53772],[127.16983,37.53767],[127.16949,37.53759],[127.16923,37.5375],[127.16912,37.53751],[127.16906,37.53752],[127.16876,37.53748],[127.16855,37.53742],[127.16836,37.5373],[127.16817,37.53727],[127.16787,37.53718],[127.16759,37.53705],[127.16747,37.53699],[127.16732,37.53699],[127.16711,37.53702],[127.16692,37.53701],[127.1667,37.53703],[127.16654,37.53702],[127.16637,37.53695],[127.16612,37.53689],[127.16603,37.53688],[127.16588,37.53687],[127.16572,37.53681],[127.16555,37.53676]]}},{"type":"Feature","properties":{"class":"minor","highway":"residential","sidewalk":"unknown","lanes":0,"name":"","oneway":false},"geometry":{"type":"LineString","coordinates":[[127.17387,37.54123],[127.17387,37.54108],[127.17387,37.54088],[127.17391,37.54063],[127.1739,37.54052],[127.17384,37.54038],[127.17378,37.54026],[127.17368,37.54024],[127.17354,37.5402],[127.17344,37.54011],[127.17336,37.54],[127.17327,37.5399],[127.17314,37.5398],[127.17301,37.53971],[127.17293,37.53963],[127.17288,37.53956],[127.17282,37.53952],[127.17263,37.53948],[127.17252,37.53943],[127.17246,37.53938],[127.17239,37.53925],[127.17229,37.53916],[127.17222,37.53912],[127.17219,37.53904],[127.1722,37.53891],[127.17215,37.5386],[127.17212,37.53846],[127.17216,37.53836]]}},{"type":"Feature","properties":{"class":"minor","highway":"unclassified","sidewalk":"unknown","lanes":0,"name":"","oneway":false},"geometry":{"type":"LineString","coordinates":[[127.17378,37.54026],[127.17386,37.54016],[127.1739,37.53993],[127.17394,37.53971],[127.174,37.53956],[127.17421,37.53939],[127.17437,37.5392],[127.17446,37.53905],[127.17467,37.53883]]}},{"type":"Feature","properties":{"class":"alley","highway":"service","sidewalk":"unknown","lanes":0,"name":"","oneway":false},"geometry":{"type":"LineString","coordinates":[[127.15874,37.54017],[127.15943,37.53975],[127.15958,37.53967],[127.15974,37.53958],[127.15998,37.53941],[127.16041,37.53912],[127.16067,37.53892]]}},{"type":"Feature","properties":{"class":"minor","highway":"unclassified","sidewalk":"unknown","lanes":0,"name":"","oneway":false},"geometry":{"type":"LineString","coordinates":[[127.17512,37.52495],[127.17522,37.52491],[127.17536,37.52485],[127.17553,37.52478],[127.17568,37.52474],[127.17578,37.52447],[127.17588,37.52421],[127.17588,37.52389],[127.17598,37.52357],[127.17581,37.52345],[127.17571,37.52341]]}},{"type":"Feature","properties":{"class":"minor","highway":"unclassified","sidewalk":"unknown","lanes":0,"name":"","oneway":false},"geometry":{"type":"LineString","coordinates":[[127.17571,37.52341],[127.17558,37.52337]]}},{"type":"Feature","properties":{"class":"major","highway":"tertiary","sidewalk":"likely","lanes":0,"name":"초광로","oneway":false},"geometry":{"type":"LineString","coordinates":[[127.17538,37.53541],[127.17525,37.53523],[127.17519,37.53515],[127.17431,37.53398],[127.17401,37.53358]]}},{"type":"Feature","properties":{"class":"major","highway":"tertiary","sidewalk":"likely","lanes":0,"name":"초광로","oneway":false},"geometry":{"type":"LineString","coordinates":[[127.17401,37.53358],[127.17395,37.5335]]}},{"type":"Feature","properties":{"class":"alley","highway":"service","sidewalk":"unknown","lanes":0,"name":"","oneway":false},"geometry":{"type":"LineString","coordinates":[[127.17525,37.53523],[127.17528,37.53519],[127.17536,37.5351]]}},{"type":"Feature","properties":{"class":"alley","highway":"service","sidewalk":"unknown","lanes":0,"name":"","oneway":false},"geometry":{"type":"LineString","coordinates":[[127.17536,37.5351],[127.17543,37.53502]]}},{"type":"Feature","properties":{"class":"major","highway":"secondary","sidewalk":"likely","lanes":0,"name":"감초로","oneway":true},"geometry":{"type":"LineString","coordinates":[[127.16825,37.53403],[127.16776,37.53324],[127.16774,37.53322],[127.16778,37.53316]]}},{"type":"Feature","properties":{"class":"major","highway":"secondary","sidewalk":"likely","lanes":0,"name":"감초로","oneway":true},"geometry":{"type":"LineString","coordinates":[[127.16867,37.53467],[127.16825,37.53403]]}},{"type":"Feature","properties":{"class":"major","highway":"secondary","sidewalk":"likely","lanes":0,"name":"감초로","oneway":true},"geometry":{"type":"LineString","coordinates":[[127.16915,37.53544],[127.16867,37.53467]]}},{"type":"Feature","properties":{"class":"major","highway":"secondary","sidewalk":"likely","lanes":0,"name":"초이터널","oneway":true},"geometry":{"type":"LineString","coordinates":[[127.16981,37.53656],[127.16915,37.53544]]}},{"type":"Feature","properties":{"class":"major","highway":"secondary","sidewalk":"likely","lanes":0,"name":"감초로","oneway":true},"geometry":{"type":"LineString","coordinates":[[127.17027,37.53728],[127.17014,37.53718],[127.16981,37.53656]]}},{"type":"Feature","properties":{"class":"major","highway":"secondary","sidewalk":"likely","lanes":0,"name":"감초로","oneway":true},"geometry":{"type":"LineString","coordinates":[[127.16996,37.53651],[127.17029,37.53713],[127.17027,37.53728]]}},{"type":"Feature","properties":{"class":"major","highway":"secondary","sidewalk":"likely","lanes":0,"name":"감초로","oneway":true},"geometry":{"type":"LineString","coordinates":[[127.16778,37.53316],[127.16786,37.53317],[127.16807,37.53354],[127.16835,37.53399]]}},{"type":"Feature","properties":{"class":"major","highway":"secondary","sidewalk":"likely","lanes":0,"name":"서하남로","oneway":true},"geometry":{"type":"LineString","coordinates":[[127.17549,37.5196],[127.17551,37.51969],[127.17556,37.51992],[127.17557,37.51998],[127.17562,37.52024],[127.17565,37.5204],[127.17568,37.52054],[127.17573,37.52066],[127.17579,37.52078],[127.17591,37.52094],[127.17595,37.52099],[127.17608,37.52114],[127.1762,37.52125],[127.17635,37.52135],[127.17759,37.52208],[127.17774,37.52215],[127.17789,37.52223]]}},{"type":"Feature","properties":{"class":"major","highway":"tertiary","sidewalk":"likely","lanes":0,"name":"서하남로","oneway":true},"geometry":{"type":"LineString","coordinates":[[127.17836,37.52237],[127.17862,37.52244],[127.17894,37.5225],[127.17913,37.52253],[127.17938,37.52255],[127.17963,37.52255],[127.17992,37.52252],[127.18018,37.52249],[127.18041,37.52244],[127.18068,37.52237],[127.18092,37.52229],[127.18122,37.52216],[127.18198,37.52182],[127.18221,37.52173],[127.18248,37.52164],[127.18273,37.52157],[127.18305,37.5215],[127.18334,37.52145],[127.18529,37.52117],[127.18556,37.52114],[127.18575,37.52113],[127.18592,37.52114],[127.18609,37.52116],[127.18626,37.52119],[127.1864,37.52122],[127.18658,37.52128],[127.18677,37.52134],[127.18696,37.52142],[127.18719,37.52154],[127.18817,37.52195],[127.1884,37.52206],[127.18861,37.52214],[127.18884,37.52222],[127.18927,37.52234],[127.18943,37.52237],[127.1896,37.5224],[127.18988,37.52243],[127.19013,37.52245],[127.19041,37.52246],[127.19111,37.52246],[127.19199,37.52246],[127.19391,37.52246],[127.19449,37.52247],[127.19634,37.52249],[127.19756,37.52252],[127.19778,37.52251]]}},{"type":"Feature","properties":{"class":"major","highway":"tertiary","sidewalk":"likely","lanes":0,"name":"서하남로","oneway":true},"geometry":{"type":"LineString","coordinates":[[127.17789,37.52223],[127.17811,37.5223],[127.17836,37.52237]]}},{"type":"Feature","properties":{"class":"major","highway":"tertiary","sidewalk":"likely","lanes":0,"name":"서하남로","oneway":true},"geometry":{"type":"LineString","coordinates":[[127.17831,37.52245],[127.17812,37.52239]]}},{"type":"Feature","properties":{"class":"alley","highway":"service","sidewalk":"unknown","lanes":0,"name":"","oneway":false},"geometry":{"type":"LineString","coordinates":[[127.17137,37.53797],[127.17089,37.53811],[127.17087,37.53812],[127.17086,37.53814],[127.17094,37.5383]]}}]}