{"type":"FeatureCollection","features":[{"type":"Feature","properties":{"class":"major","highway":"motorway","sidewalk":"likely","lanes":6,"name":"수도권제1순환고속도로","oneway":true},"geometry":{"type":"LineString","coordinates":[[127.18882,37.53444],[127.18807,37.53493],[127.18686,37.53583],[127.18616,37.53657],[127.18586,37.5369],[127.18534,37.53748]]}},{"type":"Feature","properties":{"class":"major","highway":"motorway","sidewalk":"likely","lanes":2,"name":"수도권제1순환고속도로","oneway":true},"geometry":{"type":"LineString","coordinates":[[127.19144,37.52232],[127.1909,37.52163],[127.19046,37.52122],[127.19013,37.52092],[127.1897,37.52058],[127.18905,37.52013],[127.18839,37.51972],[127.1876,37.51931],[127.18701,37.51905],[127.18637,37.51879],[127.18573,37.51856],[127.18484,37.51831],[127.18442,37.5182],[127.18309,37.51795]]}},{"type":"Feature","properties":{"class":"major","highway":"motorway","sidewalk":"likely","lanes":2,"name":"수도권제1순환고속도로","oneway":true},"geometry":{"type":"LineString","coordinates":[[127.19079,37.52166],[127.19044,37.52134],[127.19007,37.52102],[127.18946,37.52056],[127.18888,37.52019],[127.18816,37.51978],[127.18721,37.51933],[127.18634,37.519],[127.18562,37.51877],[127.1831,37.51825]]}},{"type":"Feature","properties":{"class":"major","highway":"motorway","sidewalk":"likely","lanes":4,"name":"수도권제1순환고속도로","oneway":true},"geometry":{"type":"LineString","coordinates":[[127.18309,37.5177],[127.18447,37.51806],[127.18567,37.51841],[127.18649,37.51869],[127.18728,37.519],[127.18797,37.51932],[127.18861,37.51965],[127.18933,37.5201],[127.19008,37.52065],[127.19054,37.52101],[127.19132,37.52176],[127.19181,37.52232]]}},{"type":"Feature","properties":{"class":"major","highway":"tertiary","sidewalk":"likely","lanes":0,"name":"서하남로","oneway":true},"geometry":{"type":"LineString","coordinates":[[127.18713,37.52161],[127.1867,37.52141],[127.18654,37.52135],[127.18636,37.5213],[127.18623,37.52127],[127.18607,37.52125],[127.18591,37.52123],[127.1857,37.52122],[127.18558,37.52124],[127.1836,37.5215],[127.18322,37.52156],[127.18296,37.52161],[127.18274,37.52167],[127.18256,37.52172],[127.18222,37.52184],[127.18197,37.52195],[127.18111,37.52232],[127.1808,37.52243],[127.18047,37.52253],[127.18017,37.52259],[127.17991,37.52262],[127.17961,37.52264],[127.1793,37.52263],[127.17903,37.52261],[127.17888,37.52258]]}},{"type":"Feature","properties":{"class":"major","highway":"motorway","sidewalk":"likely","lanes":5,"name":"수도권제1순환고속도로","oneway":true},"geometry":{"type":"LineString","coordinates":[[127.18534,37.53748],[127.18476,37.5383],[127.18436,37.53896],[127.18398,37.53964],[127.18176,37.54426]]}},{"type":"Feature","properties":{"class":"major","highway":"motorway","sidewalk":"likely","lanes":6,"name":"수도권제1순환고속도로","oneway":true},"geometry":{"type":"LineString","coordinates":[[127.18203,37.54321],[127.1832,37.54069],[127.18377,37.53954],[127.18413,37.53888],[127.18453,37.53822],[127.18516,37.53736],[127.18596,37.53645],[127.18671,37.53572],[127.18781,37.53485],[127.18791,37.53478],[127.18813,37.53463],[127.18874,37.53423],[127.18965,37.53373],[127.19071,37.53323],[127.1915,37.5329]]}},{"type":"Feature","properties":{"class":"minor","highway":"unclassified","sidewalk":"unknown","lanes":0,"name":"","oneway":false},"geometry":{"type":"LineString","coordinates":[[127.17595,37.54229],[127.17601,37.54222],[127.17609,37.54213],[127.17622,37.54198],[127.17642,37.54178],[127.17658,37.54165],[127.17677,37.54153],[127.17711,37.54134],[127.17733,37.54122],[127.17744,37.54116],[127.17774,37.54101],[127.17797,37.54088],[127.17816,37.54075],[127.17839,37.54061],[127.17862,37.54046],[127.17887,37.5403],[127.17898,37.54022],[127.1792,37.54007],[127.1795,37.53986],[127.17987,37.53964],[127.18027,37.5395],[127.18075,37.53942],[127.18099,37.5394],[127.18126,37.53939],[127.18143,37.53938],[127.18159,37.53933],[127.18191,37.5392],[127.18206,37.5391],[127.18211,37.53907],[127.18215,37.53903],[127.18221,37.53901],[127.18256,37.53883],[127.18271,37.53875]]}},{"type":"Feature","properties":{"class":"minor","highway":"unclassified","sidewalk":"unknown","lanes":0,"name":"","oneway":false},"geometry":{"type":"LineString","coordinates":[[127.18755,37.53474],[127.18736,37.53488],[127.18724,37.53497],[127.18708,37.5351],[127.1869,37.53526],[127.18657,37.53554],[127.18616,37.53591],[127.18582,37.53624],[127.18562,37.53644],[127.1854,37.53668],[127.18521,37.53689],[127.18507,37.53705],[127.18493,37.53721],[127.18473,37.53748],[127.1846,37.53766],[127.18443,37.53793],[127.18416,37.53835],[127.18406,37.53852],[127.18378,37.53898],[127.18368,37.53917],[127.18361,37.53928]]}},{"type":"Feature","properties":{"class":"minor","highway":"unclassified","sidewalk":"unknown","lanes":0,"name":"","oneway":false},"geometry":{"type":"LineString","coordinates":[[127.18271,37.53875],[127.18325,37.53907],[127.18329,37.5391],[127.18337,37.53915],[127.18352,37.53923]]}},{"type":"Feature","properties":{"class":"minor","highway":"unclassified","sidewalk":"unknown","lanes":0,"name":"","oneway":false},"geometry":{"type":"LineString","coordinates":[[127.18271,37.53875],[127.18275,37.53864],[127.18281,37.53848],[127.18285,37.53838],[127.18291,37.53831],[127.18312,37.53812],[127.1832,37.53805],[127.18329,37.53795],[127.18343,37.53769],[127.18354,37.53746],[127.18359,37.53733],[127.1836,37.53714],[127.18353,37.53697],[127.18349,37.53682],[127.18348,37.53671],[127.18347,37.53653],[127.18348,37.53639],[127.1835,37.53608],[127.18352,37.53593],[127.18357,37.53578],[127.18418,37.5356]]}},{"type":"Feature","properties":{"class":"minor","highway":"unclassified","sidewalk":"unknown","lanes":0,"name":"풍초로","oneway":false},"geometry":{"type":"LineString","coordinates":[[127.19228,37.54488],[127.19219,37.54488],[127.19213,37.54486],[127.19212,37.54486],[127.19208,37.54485],[127.19204,37.54483],[127.192,37.54481],[127.19197,37.54478],[127.19193,37.54475],[127.19191,37.54472],[127.19189,37.54469],[127.19189,37.54468],[127.19187,37.54465],[127.19186,37.54463],[127.19182,37.54451],[127.19176,37.54437],[127.19169,37.54423],[127.1916,37.54408],[127.19155,37.54399],[127.19143,37.54387],[127.19119,37.54368],[127.19104,37.54356],[127.19095,37.54349],[127.19082,37.54342],[127.19074,37.54335],[127.19064,37.54325],[127.19053,37.54321],[127.19029,37.54309],[127.19012,37.54302],[127.18999,37.54294],[127.1898,37.54279],[127.18965,37.54264],[127.18938,37.54243],[127.18913,37.54224],[127.18899,37.54215],[127.18891,37.54212],[127.18877,37.54211],[127.1886,37.54208],[127.18843,37.54204],[127.18828,37.54202],[127.18816,37.54202],[127.18807,37.54201],[127.18802,37.54197],[127.18798,37.54189],[127.18797,37.54183],[127.188,37.54177],[127.18807,37.54171],[127.18815,37.54166],[127.18821,37.5416],[127.18825,37.54153],[127.18826,37.54146],[127.18826,37.5414],[127.18821,37.54133],[127.18813,37.54124],[127.18806,37.5412],[127.18797,37.54117],[127.18781,37.54112],[127.18761,37.54106],[127.18748,37.54102],[127.18734,37.54099],[127.18723,37.54096],[127.18712,37.54101],[127.18702,37.54107],[127.18695,37.54105],[127.18687,37.541],[127.18679,37.54094],[127.1867,37.54091],[127.18662,37.54085],[127.18656,37.5408],[127.18646,37.5407],[127.18639,37.54061],[127.1863,37.54052],[127.18624,37.54047],[127.18615,37.5404],[127.18603,37.54031],[127.18595,37.54023],[127.18594,37.54014],[127.18586,37.54003],[127.18572,37.53993],[127.18559,37.53994],[127.18544,37.53997],[127.18536,37.53999],[127.18524,37.53997],[127.18509,37.53994],[127.185,37.53992],[127.18475,37.5399],[127.18455,37.53987],[127.18423,37.53986],[127.18418,37.53982],[127.18408,37.53973]]}},{"type":"Feature","properties":{"class":"minor","highway":"unclassified","sidewalk":"unknown","lanes":0,"name":"","oneway":false},"geometry":{"type":"LineString","coordinates":[[127.18408,37.53973],[127.18364,37.53949]]}},{"type":"Feature","properties":{"class":"minor","highway":"unclassified","sidewalk":"unknown","lanes":0,"name":"","oneway":false},"geometry":{"type":"LineString","coordinates":[[127.18418,37.5356],[127.18415,37.53549],[127.18383,37.53505]]}},{"type":"Feature","properties":{"class":"minor","highway":"unclassified","sidewalk":"unknown","lanes":1,"name":"","oneway":false},"geometry":{"type":"LineString","coordinates":[[127.18383,37.53505],[127.18392,37.53461],[127.18402,37.53404],[127.18402,37.53384],[127.18407,37.53333],[127.18408,37.53328],[127.18418,37.53326],[127.18425,37.53321],[127.18429,37.53311],[127.18431,37.53299]]}},{"type":"Feature","properties":{"class":"minor","highway":"unclassified","sidewalk":"unknown","lanes":0,"name":"","oneway":false},"geometry":{"type":"LineString","coordinates":[[127.18472,37.53544],[127.18509,37.53529],[127.18515,37.53515],[127.18537,37.53499],[127.18542,37.5348],[127.1854,37.53462],[127.18555,37.53444],[127.18576,37.53436],[127.18595,37.53426],[127.18629,37.53411],[127.18652,37.53402]]}},{"type":"Feature","properties":{"class":"minor","highway":"residential","sidewalk":"unknown","lanes":0,"name":"","oneway":false},"geometry":{"type":"LineString","coordinates":[[127.18469,37.53307],[127.18478,37.53303],[127.18483,37.53291],[127.18496,37.53284],[127.18506,37.53275],[127.18514,37.53268],[127.18515,37.53249],[127.18517,37.53239],[127.18527,37.53215],[127.18528,37.53206],[127.18511,37.53188]]}},{"type":"Feature","properties":{"class":"minor","highway":"residential","sidewalk":"unknown","lanes":0,"name":"","oneway":false},"geometry":{"type":"LineString","coordinates":[[127.18416,37.53261],[127.18416,37.53254],[127.18411,37.53242],[127.18415,37.53232],[127.18428,37.53223]]}},{"type":"Feature","properties":{"class":"minor","highway":"residential","sidewalk":"unknown","lanes":0,"name":"","oneway":false},"geometry":{"type":"LineString","coordinates":[[127.18428,37.53223],[127.18434,37.5321],[127.18433,37.53187],[127.18433,37.53178],[127.18433,37.53171],[127.18436,37.5316]]}},{"type":"Feature","properties":{"class":"minor","highway":"unclassified","sidewalk":"unknown","lanes":0,"name":"","oneway":false},"geometry":{"type":"LineString","coordinates":[[127.18417,37.53271],[127.18413,37.53271],[127.18399,37.53269],[127.18371,37.5327],[127.18359,37.53275],[127.18351,37.53277],[127.18343,37.53274],[127.18329,37.53279],[127.18322,37.53283],[127.183,37.53286],[127.18257,37.53303],[127.18209,37.53321],[127.18207,37.53336],[127.18183,37.53359],[127.18172,37.53384],[127.18186,37.53413],[127.18206,37.53468],[127.18209,37.53477],[127.18225,37.53505],[127.18311,37.53582],[127.18318,37.53597],[127.18333,37.53628],[127.18344,37.53635],[127.18348,37.53639]]}},{"type":"Feature","properties":{"class":"minor","highway":"unclassified","sidewalk":"unknown","lanes":0,"name":"","oneway":false},"geometry":{"type":"LineString","coordinates":[[127.18812,37.53509],[127.18715,37.53585],[127.18681,37.53614],[127.18628,37.53665],[127.18561,37.53749],[127.18537,37.53783],[127.18515,37.53814],[127.18483,37.5386],[127.18423,37.53971],[127.18418,37.53982]]}},{"type":"Feature","properties":{"class":"minor","highway":"unclassified","sidewalk":"unknown","lanes":0,"name":"","oneway":false},"geometry":{"type":"LineString","coordinates":[[127.18418,37.53982],[127.18414,37.53991],[127.18382,37.54045],[127.18346,37.5412]]}},{"type":"Feature","properties":{"class":"alley","highway":"service","sidewalk":"unknown","lanes":0,"name":"","oneway":false},"geometry":{"type":"LineString","coordinates":[[127.17885,37.53832],[127.17891,37.53825],[127.17904,37.53812],[127.17913,37.53804],[127.17918,37.53799],[127.17975,37.53744],[127.17983,37.53737],[127.17995,37.53732],[127.18109,37.53694],[127.18136,37.53685],[127.18148,37.53681],[127.18214,37.53662],[127.18223,37.53656],[127.18232,37.53644],[127.18236,37.53632],[127.18235,37.5362],[127.18231,37.53607],[127.18222,37.53595],[127.18206,37.5358],[127.18191,37.53571],[127.18176,37.53562],[127.18168,37.53555],[127.18162,37.53548],[127.1816,37.5354],[127.18159,37.53531],[127.18155,37.53522],[127.1815,37.53515],[127.18142,37.53506],[127.18126,37.53491],[127.18116,37.53479],[127.1811,37.5347],[127.18107,37.53463],[127.18105,37.53457],[127.18104,37.53451],[127.18105,37.53445],[127.18108,37.5344],[127.18111,37.53434],[127.18115,37.53428],[127.18118,37.53422],[127.18119,37.53417],[127.1812,37.53411],[127.18121,37.53404],[127.18121,37.53398],[127.18121,37.53391],[127.1812,37.53385],[127.18118,37.5338],[127.18117,37.53375],[127.18115,37.5337],[127.18111,37.53365],[127.18088,37.53344]]}},{"type":"Feature","properties":{"class":"minor","highway":"unclassified","sidewalk":"unknown","lanes":1,"name":"","oneway":false},"geometry":{"type":"LineString","coordinates":[[127.18431,37.53299],[127.18417,37.53271],[127.18416,37.53261]]}},{"type":"Feature","properties":{"class":"minor","highway":"unclassified","sidewalk":"unknown","lanes":0,"name":"","oneway":false},"geometry":{"type":"LineString","coordinates":[[127.18469,37.53307],[127.18478,37.53322],[127.18504,37.53347],[127.18508,37.53351],[127.18513,37.53352],[127.18518,37.53352],[127.18525,37.53352],[127.18531,37.53353],[127.18537,37.53355],[127.18541,37.53358],[127.18546,37.53363],[127.18552,37.53367],[127.18559,37.53369],[127.18567,37.53371],[127.18584,37.53375],[127.1861,37.53381],[127.1862,37.53384],[127.18633,37.53389],[127.18644,37.53394],[127.18652,37.53402]]}},{"type":"Feature","properties":{"class":"minor","highway":"unclassified","sidewalk":"unknown","lanes":0,"name":"","oneway":false},"geometry":{"type":"LineString","coordinates":[[127.18418,37.5356],[127.18444,37.53553],[127.18472,37.53544]]}},{"type":"Feature","properties":{"class":"minor","highway":"unclassified","sidewalk":"unknown","lanes":0,"name":"","oneway":false},"geometry":{"type":"LineString","coordinates":[[127.18431,37.53299],[127.18444,37.53302],[127.18447,37.53303],[127.18469,37.53307]]}},{"type":"Feature","properties":{"class":"alley","highway":"service","sidewalk":"unknown","lanes":0,"name":"","oneway":false},"geometry":{"type":"LineString","coordinates":[[127.18215,37.53903],[127.18211,37.53896],[127.18204,37.53884],[127.18202,37.5388],[127.18199,37.53877],[127.18191,37.53855],[127.18188,37.53849],[127.18187,37.53845],[127.1818,37.53826],[127.18194,37.53822],[127.18208,37.53816],[127.18223,37.53801],[127.18224,37.53801],[127.18232,37.53793],[127.18242,37.5378],[127.18246,37.53773],[127.18247,37.53771],[127.18252,37.53761],[127.18256,37.53745],[127.18256,37.53739],[127.18256,37.53736],[127.18255,37.53729],[127.18253,37.53712],[127.18249,37.537],[127.18247,37.53695],[127.18244,37.53686],[127.18245,37.53683],[127.18248,37.5368],[127.18307,37.53652],[127.1831,37.5365],[127.18311,37.53647],[127.18304,37.53606]]}},{"type":"Feature","properties":{"class":"alley","highway":"service","sidewalk":"unknown","lanes":0,"name":"","oneway":false},"geometry":{"type":"LineString","coordinates":[[127.18253,37.53712],[127.18259,37.53711],[127.1831,37.53689]]}},{"type":"Feature","properties":{"class":"alley","highway":"service","sidewalk":"unknown","lanes":0,"name":"","oneway":false},"geometry":{"type":"LineString","coordinates":[[127.18256,37.53745],[127.18264,37.53745],[127.1829,37.53746],[127.18301,37.5375],[127.18286,37.53771]]}},{"type":"Feature","properties":{"class":"alley","highway":"service","sidewalk":"unknown","lanes":0,"name":"","oneway":false},"geometry":{"type":"LineString","coordinates":[[127.18232,37.53793],[127.1824,37.53796],[127.18272,37.53811]]}},{"type":"Feature","properties":{"class":"alley","highway":"service","sidewalk":"unknown","lanes":0,"name":"","oneway":false},"geometry":{"type":"LineString","coordinates":[[127.18208,37.53816],[127.18218,37.53821],[127.1825,37.5384]]}},{"type":"Feature","properties":{"class":"alley","highway":"service","sidewalk":"unknown","lanes":0,"name":"","oneway":false},"geometry":{"type":"LineString","coordinates":[[127.18233,37.53879],[127.18203,37.53854],[127.18198,37.53854],[127.18191,37.53855]]}},{"type":"Feature","properties":{"class":"alley","highway":"service","sidewalk":"unknown","lanes":0,"name":"","oneway":false},"geometry":{"type":"LineString","coordinates":[[127.1818,37.53826],[127.18179,37.53824],[127.18168,37.53797],[127.18153,37.5376],[127.18151,37.53755],[127.18109,37.53694]]}},{"type":"Feature","properties":{"class":"alley","highway":"service","sidewalk":"unknown","lanes":0,"name":"","oneway":false},"geometry":{"type":"LineString","coordinates":[[127.18136,37.53685],[127.18096,37.53599],[127.18094,37.53593],[127.18093,37.53586],[127.18094,37.5358],[127.18098,37.53574],[127.18104,37.53569],[127.1811,37.53564],[127.18162,37.53548]]}},{"type":"Feature","properties":{"class":"minor","highway":"unclassified","sidewalk":"unknown","lanes":0,"name":"","oneway":false},"geometry":{"type":"LineString","coordinates":[[127.18357,37.53578],[127.18383,37.53505]]}},{"type":"Feature","properties":{"class":"minor","highway":"unclassified","sidewalk":"unknown","lanes":0,"name":"","oneway":false},"geometry":{"type":"LineString","coordinates":[[127.18417,37.53271],[127.18408,37.53286],[127.18404,37.53308],[127.18408,37.53328]]}},{"type":"Feature","properties":{"class":"alley","highway":"service","sidewalk":"unknown","lanes":0,"name":"","oneway":false},"geometry":{"type":"LineString","coordinates":[[127.18206,37.5391],[127.18213,37.53912],[127.18227,37.53909],[127.18265,37.53891],[127.1827,37.5389],[127.18278,37.53893],[127.18304,37.53907],[127.18321,37.53916]]}},{"type":"Feature","properties":{"class":"alley","highway":"service","sidewalk":"unknown","lanes":0,"name":"","oneway":false},"geometry":{"type":"LineString","coordinates":[[127.18278,37.53893],[127.18267,37.53926]]}},{"type":"Feature","properties":{"class":"alley","highway":"service","sidewalk":"unknown","lanes":0,"name":"","oneway":false},"geometry":{"type":"LineString","coordinates":[[127.18193,37.53887],[127.1818,37.53891]]}},{"type":"Feature","properties":{"class":"alley","highway":"service","sidewalk":"unknown","lanes":0,"name":"","oneway":false},"geometry":{"type":"LineString","coordinates":[[127.18184,37.53869],[127.18191,37.53884],[127.18193,37.53887]]}},{"type":"Feature","properties":{"class":"alley","highway":"service","sidewalk":"unknown","lanes":0,"name":"","oneway":false},"geometry":{"type":"LineString","coordinates":[[127.18136,37.53883],[127.18138,37.53878],[127.18141,37.53873],[127.18146,37.53868],[127.18153,37.53862],[127.1816,37.53859],[127.18167,37.53856],[127.18179,37.53852],[127.18188,37.53849]]}},{"type":"Feature","properties":{"class":"alley","highway":"service","sidewalk":"unknown","lanes":0,"name":"","oneway":false},"geometry":{"type":"LineString","coordinates":[[127.1815,37.53856],[127.18168,37.5385],[127.18158,37.5383],[127.18179,37.53824]]}},{"type":"Feature","properties":{"class":"alley","highway":"service","sidewalk":"unknown","lanes":0,"name":"","oneway":false},"geometry":{"type":"LineString","coordinates":[[127.18106,37.53819],[127.18096,37.53779],[127.18153,37.5376]]}},{"type":"Feature","properties":{"class":"alley","highway":"service","sidewalk":"unknown","lanes":0,"name":"","oneway":false},"geometry":{"type":"LineString","coordinates":[[127.17983,37.53737],[127.17945,37.53664],[127.17946,37.53655],[127.1795,37.53644],[127.17955,37.53639],[127.18041,37.53612]]}},{"type":"Feature","properties":{"class":"alley","highway":"service","sidewalk":"unknown","lanes":0,"name":"","oneway":false},"geometry":{"type":"LineString","coordinates":[[127.18168,37.53797],[127.18171,37.53795],[127.1819,37.53783]]}},{"type":"Feature","properties":{"class":"alley","highway":"service","sidewalk":"unknown","lanes":0,"name":"","oneway":false},"geometry":{"type":"LineString","coordinates":[[127.18045,37.5343],[127.18061,37.53461],[127.18062,37.5347],[127.18061,37.53481],[127.18064,37.53497],[127.18062,37.53506],[127.18089,37.53562],[127.18092,37.5357],[127.18094,37.5358]]}},{"type":"Feature","properties":{"class":"alley","highway":"service","sidewalk":"unknown","lanes":0,"name":"","oneway":false},"geometry":{"type":"LineString","coordinates":[[127.18245,37.52018],[127.18316,37.52037],[127.18348,37.52043],[127.18373,37.5205],[127.18405,37.52057],[127.18422,37.5206],[127.18455,37.52072],[127.18499,37.52084],[127.18531,37.52089],[127.18552,37.52096],[127.1858,37.52106]]}},{"type":"Feature","properties":{"class":"alley","highway":"service","sidewalk":"unknown","lanes":0,"name":"","oneway":false},"geometry":{"type":"LineString","coordinates":[[127.1857,37.52122],[127.18575,37.52113],[127.1858,37.52106],[127.18592,37.52095],[127.18601,37.52092],[127.18606,37.52093],[127.1862,37.52097],[127.18656,37.52109],[127.18708,37.52133]]}},{"type":"Feature","properties":{"class":"alley","highway":"service","sidewalk":"unknown","lanes":0,"name":"","oneway":false},"geometry":{"type":"LineString","coordinates":[[127.18587,37.519],[127.18583,37.51907],[127.18568,37.51919],[127.18558,37.51927],[127.18547,37.51942],[127.18547,37.51948],[127.18558,37.5196],[127.18564,37.51975],[127.18565,37.51984],[127.18553,37.51995],[127.18545,37.52002],[127.18539,37.52012],[127.18536,37.52023],[127.18536,37.5203],[127.1854,37.52038],[127.1855,37.52046],[127.18563,37.52055],[127.18576,37.52062],[127.18586,37.5207],[127.18595,37.52082],[127.18598,37.5209],[127.18601,37.52092],[127.18607,37.52099],[127.18622,37.52112],[127.18626,37.52119],[127.18623,37.52127]]}},{"type":"Feature","properties":{"class":"minor","highway":"residential","sidewalk":"unknown","lanes":0,"name":"","oneway":false},"geometry":{"type":"LineString","coordinates":[[127.185,37.53992],[127.18505,37.53979],[127.18513,37.53966],[127.1852,37.53961],[127.18527,37.53959],[127.18537,37.53959]]}},{"type":"Feature","properties":{"class":"minor","highway":"residential","sidewalk":"unknown","lanes":0,"name":"","oneway":false},"geometry":{"type":"LineString","coordinates":[[127.18389,37.53126],[127.18389,37.53128],[127.1839,37.53129],[127.1839,37.53133],[127.18382,37.53158],[127.1838,37.53164],[127.18375,37.53175],[127.18381,37.53178],[127.18395,37.5318],[127.18406,37.53182],[127.18419,37.53184],[127.18433,37.53187]]}},{"type":"Feature","properties":{"class":"minor","highway":"unclassified","sidewalk":"unknown","lanes":0,"name":"","oneway":false},"geometry":{"type":"LineString","coordinates":[[127.18572,37.53993],[127.18605,37.53967]]}},{"type":"Feature","properties":{"class":"alley","highway":"service","sidewalk":"unknown","lanes":0,"name":"","oneway":false},"geometry":{"type":"LineString","coordinates":[[127.18329,37.5391],[127.18324,37.53913]]}},{"type":"Feature","properties":{"class":"alley","highway":"service","sidewalk":"unknown","lanes":0,"name":"","oneway":false},"geometry":{"type":"LineString","coordinates":[[127.18324,37.53913],[127.18321,37.53916],[127.18312,37.53938]]}},{"type":"Feature","properties":{"class":"minor","highway":"unclassified","sidewalk":"unknown","lanes":0,"name":"","oneway":false},"geometry":{"type":"LineString","coordinates":[[127.18352,37.53923],[127.18361,37.53928]]}},{"type":"Feature","properties":{"class":"minor","highway":"unclassified","sidewalk":"unknown","lanes":0,"name":"","oneway":false},"geometry":{"type":"LineString","coordinates":[[127.18361,37.53928],[127.18352,37.53943],[127.18331,37.53976],[127.18322,37.5399],[127.18313,37.54007],[127.18301,37.54033],[127.1829,37.54056],[127.18283,37.54079],[127.18279,37.54094],[127.18279,37.54098],[127.18283,37.54101],[127.1829,37.54103]]}},{"type":"Feature","properties":{"class":"minor","highway":"unclassified","sidewalk":"unknown","lanes":0,"name":"","oneway":false},"geometry":{"type":"LineString","coordinates":[[127.18364,37.53949],[127.18352,37.53943]]}},{"type":"Feature","properties":{"class":"alley","highway":"service","sidewalk":"unknown","lanes":0,"name":"","oneway":false},"geometry":{"type":"LineString","coordinates":[[127.18389,37.53126],[127.18389,37.53123],[127.18388,37.53119],[127.18386,37.53115],[127.18379,37.53109],[127.18369,37.53103],[127.18362,37.53102],[127.18344,37.53102]]}},{"type":"Feature","properties":{"class":"alley","highway":"service","sidewalk":"unknown","lanes":0,"name":"","oneway":false},"geometry":{"type":"LineString","coordinates":[[127.18344,37.5313],[127.1838,37.53131],[127.1839,37.53133]]}},{"type":"Feature","properties":{"class":"alley","highway":"service","sidewalk":"unknown","lanes":0,"name":"","oneway":false},"geometry":{"type":"LineString","coordinates":[[127.18436,37.5316],[127.18437,37.53155],[127.18441,37.53152],[127.18448,37.53151],[127.18469,37.53151]]}},{"type":"Feature","properties":{"class":"alley","highway":"service","sidewalk":"unknown","lanes":0,"name":"","oneway":false},"geometry":{"type":"LineString","coordinates":[[127.18206,37.53468],[127.18296,37.53406]]}},{"type":"Feature","properties":{"class":"minor","highway":"residential","sidewalk":"unknown","lanes":0,"name":"","oneway":false},"geometry":{"type":"LineString","coordinates":[[127.18399,37.53269],[127.18393,37.53263],[127.18379,37.53257],[127.18362,37.53252],[127.18344,37.5325],[127.18335,37.53249],[127.18326,37.53254],[127.18315,37.53257],[127.18303,37.53257],[127.18293,37.53251],[127.18286,37.53244],[127.18285,37.53235],[127.18284,37.53228],[127.18285,37.53221],[127.18286,37.53215],[127.18281,37.53209],[127.18268,37.532],[127.18258,37.53193],[127.18247,37.53188],[127.18244,37.53179],[127.1824,37.53166],[127.18238,37.53163],[127.1824,37.53154],[127.18239,37.53145],[127.18236,37.5314],[127.18232,37.53136],[127.18229,37.53132],[127.18226,37.53131],[127.18222,37.53131]]}},{"type":"Feature","properties":{"class":"alley","highway":"service","sidewalk":"unknown","lanes":0,"name":"","oneway":false},"geometry":{"type":"LineString","coordinates":[[127.18428,37.53223],[127.18434,37.53233],[127.18439,37.53249]]}},{"type":"Feature","properties":{"class":"alley","highway":"service","sidewalk":"unknown","lanes":0,"name":"","oneway":false},"geometry":{"type":"LineString","coordinates":[[127.18222,37.53131],[127.18201,37.53129],[127.18193,37.53129],[127.18186,37.53128],[127.18182,37.53124],[127.1818,37.5312],[127.18178,37.53111]]}},{"type":"Feature","properties":{"class":"alley","highway":"service","sidewalk":"unknown","lanes":0,"name":"","oneway":false},"geometry":{"type":"LineString","coordinates":[[127.1839,37.53133],[127.18396,37.53133],[127.18402,37.53134]]}},{"type":"Feature","properties":{"class":"alley","highway":"service","sidewalk":"unknown","lanes":0,"name":"","oneway":false},"geometry":{"type":"LineString","coordinates":[[127.18202,37.5388],[127.18191,37.53884]]}},{"type":"Feature","properties":{"class":"major","highway":"tertiary","sidewalk":"likely","lanes":0,"name":"서하남로","oneway":true},"geometry":{"type":"LineString","coordinates":[[127.17836,37.52237],[127.17862,37.52244],[127.17894,37.5225],[127.17913,37.52253],[127.17938,37.52255],[127.17963,37.52255],[127.17992,37.52252],[127.18018,37.52249],[127.18041,37.52244],[127.18068,37.52237],[127.18092,37.52229],[127.18122,37.52216],[127.18198,37.52182],[127.18221,37.52173],[127.18248,37.52164],[127.18273,37.52157],[127.18305,37.5215],[127.18334,37.52145],[127.18529,37.52117],[127.18556,37.52114],[127.18575,37.52113],[127.18592,37.52114],[127.18609,37.52116],[127.18626,37.52119],[127.1864,37.52122],[127.18658,37.52128],[127.18677,37.52134],[127.18696,37.52142],[127.18719,37.52154],[127.18817,37.52195],[127.1884,37.52206],[127.18861,37.52214],[127.18884,37.52222],[127.18927,37.52234],[127.18943,37.52237],[127.1896,37.5224],[127.18988,37.52243],[127.19013,37.52245],[127.19041,37.52246],[127.19111,37.52246],[127.19199,37.52246],[127.19391,37.52246],[127.19449,37.52247],[127.19634,37.52249],[127.19756,37.52252],[127.19778,37.52251]]}}]}