{"type":"FeatureCollection","features":[{"type":"Feature","properties":{"class":"major","highway":"motorway_link","sidewalk":"likely","lanes":0,"name":"","oneway":true},"geometry":{"type":"LineString","coordinates":[[126.78252,37.52389],[126.7811,37.52412],[126.7803,37.52423],[126.77975,37.5243],[126.77927,37.52435],[126.77804,37.52453]]}},{"type":"Feature","properties":{"class":"major","highway":"tertiary_link","sidewalk":"likely","lanes":0,"name":"","oneway":true},"geometry":{"type":"LineString","coordinates":[[126.78048,37.53206],[126.77885,37.53211]]}},{"type":"Feature","properties":{"class":"major","highway":"tertiary","sidewalk":"likely","lanes":0,"name":"봉오대로","oneway":true},"geometry":{"type":"LineString","coordinates":[[126.77876,37.53185],[126.78049,37.53186]]}},{"type":"Feature","properties":{"class":"major","highway":"tertiary_link","sidewalk":"likely","lanes":0,"name":"봉오대로","oneway":true},"geometry":{"type":"LineString","coordinates":[[126.77798,37.53105],[126.77805,37.53139],[126.77812,37.53151],[126.77822,37.53162],[126.77835,37.53169],[126.7785,37.53173],[126.77865,37.53174],[126.78048,37.53176]]}},{"type":"Feature","properties":{"class":"major","highway":"tertiary","sidewalk":"likely","lanes":0,"name":"봉오대로","oneway":true},"geometry":{"type":"LineString","coordinates":[[126.78446,37.53206],[126.78094,37.53207]]}},{"type":"Feature","properties":{"class":"major","highway":"tertiary","sidewalk":"likely","lanes":0,"name":"봉오대로","oneway":true},"geometry":{"type":"LineString","coordinates":[[126.78049,37.53186],[126.78093,37.53187]]}},{"type":"Feature","properties":{"class":"major","highway":"tertiary_link","sidewalk":"likely","lanes":0,"name":"봉오대로","oneway":true},"geometry":{"type":"LineString","coordinates":[[126.78048,37.53176],[126.78094,37.53177]]}},{"type":"Feature","properties":{"class":"major","highway":"tertiary","sidewalk":"likely","lanes":0,"name":"봉오대로","oneway":true},"geometry":{"type":"LineString","coordinates":[[126.78048,37.53206],[126.77885,37.53205]]}},{"type":"Feature","properties":{"class":"major","highway":"tertiary","sidewalk":"likely","lanes":0,"name":"봉오대로","oneway":true},"geometry":{"type":"LineString","coordinates":[[126.78094,37.53207],[126.78048,37.53206]]}},{"type":"Feature","properties":{"class":"major","highway":"tertiary","sidewalk":"likely","lanes":0,"name":"봉오대로","oneway":true},"geometry":{"type":"LineString","coordinates":[[126.78448,37.53185],[126.78471,37.53185]]}},{"type":"Feature","properties":{"class":"major","highway":"tertiary","sidewalk":"likely","lanes":0,"name":"봉오대로","oneway":true},"geometry":{"type":"LineString","coordinates":[[126.79606,37.53217],[126.79584,37.53217]]}},{"type":"Feature","properties":{"class":"major","highway":"tertiary","sidewalk":"likely","lanes":0,"name":"봉오대로","oneway":true},"geometry":{"type":"LineString","coordinates":[[126.78472,37.53207],[126.78446,37.53206]]}},{"type":"Feature","properties":{"class":"major","highway":"tertiary","sidewalk":"likely","lanes":0,"name":"봉오대로","oneway":true},"geometry":{"type":"LineString","coordinates":[[126.7959,37.532],[126.79613,37.53201]]}},{"type":"Feature","properties":{"class":"major","highway":"tertiary","sidewalk":"likely","lanes":0,"name":"봉오대로","oneway":true},"geometry":{"type":"LineString","coordinates":[[126.78191,37.53185],[126.78321,37.53186],[126.78448,37.53185]]}},{"type":"Feature","properties":{"class":"major","highway":"tertiary_link","sidewalk":"likely","lanes":0,"name":"봉오대로","oneway":true},"geometry":{"type":"LineString","coordinates":[[126.78094,37.53177],[126.78109,37.53178],[126.78138,37.5318],[126.78159,37.53182],[126.78191,37.53185]]}},{"type":"Feature","properties":{"class":"major","highway":"tertiary","sidewalk":"likely","lanes":0,"name":"봉오대로","oneway":true},"geometry":{"type":"LineString","coordinates":[[126.78471,37.53185],[126.7853,37.53186],[126.78563,37.53186],[126.78588,37.53188],[126.78845,37.53194],[126.78897,37.53194],[126.78944,37.53202],[126.78989,37.53195]]}},{"type":"Feature","properties":{"class":"major","highway":"tertiary","sidewalk":"likely","lanes":0,"name":"봉오대로","oneway":true},"geometry":{"type":"LineString","coordinates":[[126.79584,37.53217],[126.79531,37.53216],[126.79041,37.53212],[126.78989,37.53211],[126.78944,37.53202]]}},{"type":"Feature","properties":{"class":"major","highway":"tertiary","sidewalk":"likely","lanes":0,"name":"봉오대로","oneway":true},"geometry":{"type":"LineString","coordinates":[[126.79613,37.53201],[126.79912,37.53202],[126.80012,37.53204],[126.80059,37.53205],[126.80101,37.53208],[126.80144,37.53213],[126.80187,37.53219],[126.80242,37.53232],[126.80272,37.5324],[126.80325,37.53258],[126.80332,37.53261],[126.80373,37.53278]]}},{"type":"Feature","properties":{"class":"major","highway":"tertiary","sidewalk":"likely","lanes":0,"name":"봉오대로","oneway":true},"geometry":{"type":"LineString","coordinates":[[126.80289,37.53268],[126.80264,37.53261],[126.80218,37.53248],[126.80201,37.53244],[126.80135,37.53231],[126.80072,37.53225],[126.8002,37.53222],[126.79965,37.5322],[126.79695,37.53218],[126.79606,37.53217]]}},{"type":"Feature","properties":{"class":"minor","highway":"residential","sidewalk":"unknown","lanes":0,"name":"성오로128번길","oneway":false},"geometry":{"type":"LineString","coordinates":[[126.79951,37.52503],[126.80102,37.52556],[126.80177,37.52583],[126.8018,37.52584],[126.80261,37.52613],[126.80326,37.52636]]}},{"type":"Feature","properties":{"class":"major","highway":"tertiary","sidewalk":"likely","lanes":0,"name":"성오로160번길","oneway":false},"geometry":{"type":"LineString","coordinates":[[126.79718,37.52696],[126.79825,37.52712],[126.79869,37.52718],[126.79972,37.52733]]}},{"type":"Feature","properties":{"class":"alley","highway":"service","sidewalk":"unknown","lanes":0,"name":"성오로124번길","oneway":false},"geometry":{"type":"LineString","coordinates":[[126.79968,37.52467],[126.79987,37.52469],[126.801,37.52469],[126.80204,37.5247],[126.80261,37.52471],[126.80326,37.52472]]}},{"type":"Feature","properties":{"class":"minor","highway":"residential","sidewalk":"unknown","lanes":0,"name":"상오정로182번길","oneway":false},"geometry":{"type":"LineString","coordinates":[[126.79972,37.52733],[126.79954,37.52781],[126.79936,37.52807],[126.7992,37.52817],[126.79897,37.5283],[126.79844,37.52848],[126.79808,37.52879],[126.7971,37.52963],[126.79706,37.52967]]}},{"type":"Feature","properties":{"class":"alley","highway":"service","sidewalk":"unknown","lanes":0,"name":"부천로464번길","oneway":false},"geometry":{"type":"LineString","coordinates":[[126.7835,37.52519],[126.78355,37.52519],[126.78465,37.52536],[126.78593,37.52555],[126.7873,37.52576],[126.78756,37.5258]]}},{"type":"Feature","properties":{"class":"alley","highway":"service","sidewalk":"unknown","lanes":0,"name":"부천로460번길","oneway":false},"geometry":{"type":"LineString","coordinates":[[126.78369,37.52495],[126.78472,37.5251],[126.78599,37.52528],[126.78727,37.52547]]}},{"type":"Feature","properties":{"class":"alley","highway":"service","sidewalk":"unknown","lanes":0,"name":"오정로212번길","oneway":false},"geometry":{"type":"LineString","coordinates":[[126.78329,37.52737],[126.78357,37.52713],[126.78399,37.52678],[126.78433,37.52649],[126.78438,37.52641]]}},{"type":"Feature","properties":{"class":"alley","highway":"service","sidewalk":"unknown","lanes":0,"name":"부천로456번길","oneway":false},"geometry":{"type":"LineString","coordinates":[[126.78388,37.5247],[126.78391,37.52469],[126.78479,37.52482],[126.78605,37.525],[126.78702,37.52515]]}},{"type":"Feature","properties":{"class":"alley","highway":"service","sidewalk":"unknown","lanes":0,"name":"오정로220번길","oneway":false},"geometry":{"type":"LineString","coordinates":[[126.78406,37.52795],[126.78434,37.52771],[126.78475,37.52737],[126.78517,37.52702],[126.78557,37.52668],[126.78561,37.52665]]}},{"type":"Feature","properties":{"class":"alley","highway":"service","sidewalk":"unknown","lanes":0,"name":"부천로476번길","oneway":false},"geometry":{"type":"LineString","coordinates":[[126.78562,37.5266],[126.78561,37.52665],[126.78566,37.5267],[126.78643,37.52729]]}},{"type":"Feature","properties":{"class":"alley","highway":"service","sidewalk":"unknown","lanes":0,"name":"오정로232번길","oneway":false},"geometry":{"type":"LineString","coordinates":[[126.78688,37.52693],[126.78694,37.52699],[126.78784,37.52768]]}},{"type":"Feature","properties":{"class":"alley","highway":"service","sidewalk":"unknown","lanes":0,"name":"오정로232번길","oneway":false},"geometry":{"type":"LineString","coordinates":[[126.78488,37.52857],[126.78516,37.52834],[126.78558,37.528],[126.78598,37.52767],[126.78643,37.52729],[126.78688,37.52693],[126.78691,37.52689],[126.78705,37.52682]]}},{"type":"Feature","properties":{"class":"alley","highway":"service","sidewalk":"unknown","lanes":0,"name":"부천로476번길","oneway":false},"geometry":{"type":"LineString","coordinates":[[126.78263,37.52614],[126.7828,37.52618],[126.78334,37.52626],[126.78438,37.52641],[126.78445,37.52642],[126.78562,37.5266],[126.78569,37.52661],[126.78705,37.52682]]}},{"type":"Feature","properties":{"class":"alley","highway":"service","sidewalk":"unknown","lanes":0,"name":"오정로190번길","oneway":false},"geometry":{"type":"LineString","coordinates":[[126.78157,37.52595],[126.78179,37.52575],[126.78204,37.52553],[126.78211,37.52541],[126.7822,37.52499],[126.78226,37.52471],[126.78232,37.52444],[126.78235,37.52404]]}},{"type":"Feature","properties":{"class":"alley","highway":"service","sidewalk":"unknown","lanes":0,"name":"부천로470번길","oneway":false},"geometry":{"type":"LineString","coordinates":[[126.78312,37.52569],[126.78452,37.52589],[126.78581,37.52608],[126.78718,37.52628],[126.78806,37.52641]]}},{"type":"Feature","properties":{"class":"alley","highway":"service","sidewalk":"unknown","lanes":0,"name":"부천로","oneway":false},"geometry":{"type":"LineString","coordinates":[[126.78204,37.52553],[126.78289,37.52565]]}},{"type":"Feature","properties":{"class":"major","highway":"tertiary","sidewalk":"likely","lanes":0,"name":"부천로","oneway":false},"geometry":{"type":"LineString","coordinates":[[126.78353,37.52498],[126.783,37.52567],[126.78271,37.52604]]}},{"type":"Feature","properties":{"class":"major","highway":"tertiary_link","sidewalk":"likely","lanes":0,"name":"","oneway":true},"geometry":{"type":"LineString","coordinates":[[126.78271,37.52604],[126.78278,37.52586],[126.78289,37.52565],[126.78325,37.52516],[126.78344,37.52491],[126.78364,37.52465],[126.78387,37.52434],[126.78395,37.52426]]}},{"type":"Feature","properties":{"class":"major","highway":"tertiary_link","sidewalk":"likely","lanes":0,"name":"","oneway":true},"geometry":{"type":"LineString","coordinates":[[126.78417,37.52436],[126.78406,37.52444],[126.78388,37.5247],[126.78369,37.52495],[126.7835,37.52519],[126.78312,37.52569],[126.78294,37.52589],[126.78271,37.52604]]}},{"type":"Feature","properties":{"class":"major","highway":"tertiary","sidewalk":"likely","lanes":0,"name":"상오정로","oneway":false},"geometry":{"type":"LineString","coordinates":[[126.79687,37.52415],[126.79705,37.52435],[126.79715,37.5245],[126.79719,37.52465],[126.79722,37.52481],[126.7972,37.52497],[126.79716,37.52515],[126.79705,37.52539],[126.79676,37.52636],[126.79672,37.52658],[126.79672,37.52687]]}},{"type":"Feature","properties":{"class":"alley","highway":"service","sidewalk":"unknown","lanes":0,"name":"상오정로19번길","oneway":false},"geometry":{"type":"LineString","coordinates":[[126.78607,37.52462],[126.78742,37.52459]]}},{"type":"Feature","properties":{"class":"alley","highway":"service","sidewalk":"unknown","lanes":0,"name":"상오정로","oneway":false},"geometry":{"type":"LineString","coordinates":[[126.78742,37.52474],[126.78742,37.52459],[126.78742,37.52395]]}},{"type":"Feature","properties":{"class":"alley","highway":"service","sidewalk":"unknown","lanes":0,"name":"부천로476번나길","oneway":false},"geometry":{"type":"LineString","coordinates":[[126.78445,37.52642],[126.78447,37.52649],[126.78517,37.52702]]}},{"type":"Feature","properties":{"class":"alley","highway":"service","sidewalk":"unknown","lanes":0,"name":"부천로476번나길","oneway":false},"geometry":{"type":"LineString","coordinates":[[126.78598,37.52767],[126.78696,37.52842],[126.78787,37.52909]]}},{"type":"Feature","properties":{"class":"alley","highway":"service","sidewalk":"unknown","lanes":0,"name":"부천로476번나길","oneway":false},"geometry":{"type":"LineString","coordinates":[[126.78517,37.52702],[126.78598,37.52767]]}},{"type":"Feature","properties":{"class":"alley","highway":"service","sidewalk":"unknown","lanes":0,"name":"오정로244번길","oneway":false},"geometry":{"type":"LineString","coordinates":[[126.78587,37.52933],[126.78595,37.52926],[126.78615,37.52909],[126.78657,37.52874],[126.78696,37.52842],[126.78741,37.52804]]}},{"type":"Feature","properties":{"class":"minor","highway":"residential","sidewalk":"unknown","lanes":0,"name":"산업로104번길","oneway":false},"geometry":{"type":"LineString","coordinates":[[126.78458,37.5338],[126.78458,37.53328],[126.78458,37.53219],[126.78458,37.53198]]}},{"type":"Feature","properties":{"class":"alley","highway":"service","sidewalk":"unknown","lanes":0,"name":"부천로476번길","oneway":false},"geometry":{"type":"LineString","coordinates":[[126.78787,37.52695],[126.78792,37.52705],[126.78828,37.52732]]}},{"type":"Feature","properties":{"class":"alley","highway":"service","sidewalk":"unknown","lanes":0,"name":"부천로476번가길","oneway":false},"geometry":{"type":"LineString","coordinates":[[126.78745,37.52943],[126.78787,37.52909]]}},{"type":"Feature","properties":{"class":"minor","highway":"residential","sidewalk":"unknown","lanes":0,"name":"오정로252번길","oneway":false},"geometry":{"type":"LineString","coordinates":[[126.78664,37.52991],[126.78681,37.52987],[126.78709,37.5298],[126.78757,37.52967],[126.78771,37.52963],[126.78773,37.52962],[126.78776,37.52961],[126.78778,37.52961],[126.78785,37.52958],[126.78796,37.52954],[126.7883,37.5294],[126.78865,37.52924],[126.78878,37.52918],[126.78885,37.52915],[126.78924,37.52895],[126.78938,37.52887],[126.78968,37.52869]]}},{"type":"Feature","properties":{"class":"alley","highway":"service","sidewalk":"unknown","lanes":0,"name":"성오로141번길","oneway":false},"geometry":{"type":"LineString","coordinates":[[126.79885,37.52608],[126.79883,37.52602],[126.7984,37.52554],[126.79859,37.52478],[126.79859,37.52472],[126.79872,37.52417],[126.79872,37.52406],[126.79853,37.5231]]}},{"type":"Feature","properties":{"class":"alley","highway":"service","sidewalk":"unknown","lanes":0,"name":"성오로149번길","oneway":false},"geometry":{"type":"LineString","coordinates":[[126.79813,37.52654],[126.79794,37.5256],[126.79769,37.52438],[126.79753,37.52364],[126.79745,37.52324],[126.79734,37.52272],[126.79723,37.52217]]}},{"type":"Feature","properties":{"class":"alley","highway":"service","sidewalk":"unknown","lanes":0,"name":"성오로127번길","oneway":false},"geometry":{"type":"LineString","coordinates":[[126.79687,37.52415],[126.79695,37.52413],[126.79703,37.52414],[126.79769,37.52438],[126.7984,37.52463],[126.79859,37.52472],[126.79951,37.52503]]}},{"type":"Feature","properties":{"class":"alley","highway":"service","sidewalk":"unknown","lanes":0,"name":"소사로799번길","oneway":false},"geometry":{"type":"LineString","coordinates":[[126.79942,37.52672],[126.80101,37.52695],[126.8018,37.52706],[126.80258,37.52718],[126.80397,37.5274]]}},{"type":"Feature","properties":{"class":"alley","highway":"service","sidewalk":"unknown","lanes":0,"name":"","oneway":false},"geometry":{"type":"LineString","coordinates":[[126.79825,37.52712],[126.79815,37.52665]]}},{"type":"Feature","properties":{"class":"alley","highway":"service","sidewalk":"unknown","lanes":0,"name":"성오로140번길","oneway":false},"geometry":{"type":"LineString","coordinates":[[126.79891,37.52615],[126.79903,37.52616],[126.80086,37.52642],[126.80101,37.52642]]}},{"type":"Feature","properties":{"class":"alley","highway":"service","sidewalk":"unknown","lanes":0,"name":"성오로136번길","oneway":false},"geometry":{"type":"LineString","coordinates":[[126.79924,37.52564],[126.79931,37.52567],[126.80101,37.52592]]}},{"type":"Feature","properties":{"class":"alley","highway":"service","sidewalk":"unknown","lanes":0,"name":"오정로252번길","oneway":false},"geometry":{"type":"LineString","coordinates":[[126.78826,37.53014],[126.78871,37.52996]]}},{"type":"Feature","properties":{"class":"alley","highway":"service","sidewalk":"unknown","lanes":0,"name":"오정로266번길","oneway":true},"geometry":{"type":"LineString","coordinates":[[126.78786,37.53055],[126.78785,37.53061],[126.78785,37.53067],[126.78785,37.53069],[126.78788,37.53078],[126.78793,37.53089]]}},{"type":"Feature","properties":{"class":"minor","highway":"residential","sidewalk":"unknown","lanes":0,"name":"성오로","oneway":false},"geometry":{"type":"LineString","coordinates":[[126.79199,37.52967],[126.79187,37.52969],[126.79179,37.52972],[126.79102,37.53045],[126.79079,37.53067],[126.79077,37.53068],[126.7906,37.5307]]}},{"type":"Feature","properties":{"class":"alley","highway":"service","sidewalk":"unknown","lanes":0,"name":"오정로252번길","oneway":false},"geometry":{"type":"LineString","coordinates":[[126.78803,37.53051],[126.78826,37.53014],[126.788,37.52978],[126.78785,37.52958]]}},{"type":"Feature","properties":{"class":"minor","highway":"residential","sidewalk":"unknown","lanes":0,"name":"오정로252번길","oneway":false},"geometry":{"type":"LineString","coordinates":[[126.79001,37.52841],[126.79022,37.5287],[126.7904,37.5289],[126.79054,37.52904],[126.79063,37.52911],[126.7907,37.52913],[126.79083,37.52912],[126.79092,37.52907],[126.79107,37.52901],[126.79212,37.52883],[126.79218,37.52882],[126.79222,37.52881],[126.7925,37.52948]]}},{"type":"Feature","properties":{"class":"alley","highway":"service","sidewalk":"unknown","lanes":0,"name":"","oneway":false},"geometry":{"type":"LineString","coordinates":[[126.78171,37.53079],[126.78197,37.53055],[126.7821,37.53052],[126.78224,37.53053],[126.78238,37.53057],[126.78272,37.5307],[126.7829,37.53077],[126.78301,37.53078],[126.78349,37.53078],[126.78369,37.53078],[126.78463,37.53079]]}},{"type":"Feature","properties":{"class":"minor","highway":"residential","sidewalk":"unknown","lanes":0,"name":"산업로","oneway":false},"geometry":{"type":"LineString","coordinates":[[126.78011,37.52879],[126.78135,37.52879]]}},{"type":"Feature","properties":{"class":"minor","highway":"residential","sidewalk":"unknown","lanes":0,"name":"오정로211번길","oneway":false},"geometry":{"type":"LineString","coordinates":[[126.78343,37.52747],[126.78326,37.52773],[126.78303,37.52804],[126.78272,37.52828],[126.78253,37.52842],[126.78235,37.52855],[126.78226,37.52863],[126.78201,37.52883],[126.78201,37.52892],[126.78177,37.52921],[126.78165,37.52934],[126.78163,37.52938],[126.78122,37.52994],[126.78105,37.5301],[126.78091,37.53023],[126.78089,37.53025],[126.78171,37.53079],[126.78231,37.53118],[126.7831,37.53171]]}},{"type":"Feature","properties":{"class":"minor","highway":"residential","sidewalk":"unknown","lanes":0,"name":"","oneway":false},"geometry":{"type":"LineString","coordinates":[[126.78011,37.52879],[126.78012,37.52813],[126.78012,37.52784]]}},{"type":"Feature","properties":{"class":"alley","highway":"service","sidewalk":"unknown","lanes":0,"name":"","oneway":false},"geometry":{"type":"LineString","coordinates":[[126.78568,37.53023],[126.78577,37.53043],[126.78579,37.53051],[126.78621,37.53051],[126.78628,37.53051],[126.78714,37.53052],[126.7873,37.53064],[126.7876,37.53087],[126.78771,37.53095],[126.78786,37.53106],[126.78786,37.53113],[126.78786,37.53133],[126.78786,37.53148],[126.78742,37.53147],[126.78739,37.53147],[126.78732,37.53148],[126.78726,37.53149],[126.78721,37.53152],[126.7872,37.53154],[126.78719,37.53156],[126.78716,37.5316],[126.78711,37.53163],[126.78705,37.53164],[126.78652,37.53164],[126.78648,37.53163],[126.78645,37.53162],[126.78642,37.5316],[126.78639,37.53156],[126.7863,37.53147],[126.786,37.53147],[126.786,37.53133],[126.78597,37.53133],[126.78593,37.53132],[126.78585,37.53125],[126.78581,37.53123],[126.78579,37.53121],[126.78579,37.53118],[126.78579,37.53105],[126.78579,37.53096],[126.78579,37.53077],[126.78579,37.53051]]}},{"type":"Feature","properties":{"class":"minor","highway":"residential","sidewalk":"unknown","lanes":0,"name":"산업로7번길","oneway":false},"geometry":{"type":"LineString","coordinates":[[126.7807,37.53115],[126.78034,37.53114],[126.77944,37.53113],[126.77885,37.53113],[126.77879,37.53107],[126.7788,37.5301],[126.7788,37.52985],[126.7788,37.52964],[126.7788,37.52948],[126.7788,37.52928],[126.7788,37.52921],[126.7788,37.52898],[126.7788,37.52879]]}},{"type":"Feature","properties":{"class":"minor","highway":"residential","sidewalk":"unknown","lanes":0,"name":"산업로","oneway":false},"geometry":{"type":"LineString","coordinates":[[126.7807,37.53194],[126.7807,37.53213],[126.7807,37.53237],[126.78069,37.53269],[126.78069,37.53304],[126.7811,37.53321],[126.78187,37.53351],[126.78213,37.53362],[126.78226,37.53367],[126.78267,37.53383],[126.7827,37.53384],[126.78284,37.5339],[126.78313,37.53388],[126.78367,37.53385],[126.78458,37.5338],[126.78485,37.53379],[126.78529,37.53376],[126.78569,37.53374],[126.78622,37.53371],[126.78701,37.53367]]}},{"type":"Feature","properties":{"class":"minor","highway":"residential","sidewalk":"unknown","lanes":0,"name":"산업로","oneway":false},"geometry":{"type":"LineString","coordinates":[[126.78013,37.5301],[126.7788,37.5301]]}},{"type":"Feature","properties":{"class":"minor","highway":"unclassified","sidewalk":"unknown","lanes":0,"name":"오정로188번길","oneway":false},"geometry":{"type":"LineString","coordinates":[[126.77999,37.52439],[126.78003,37.52442],[126.78084,37.52522],[126.78157,37.52595],[126.78157,37.52597],[126.78153,37.52606]]}},{"type":"Feature","properties":{"class":"minor","highway":"residential","sidewalk":"unknown","lanes":0,"name":"","oneway":false},"geometry":{"type":"LineString","coordinates":[[126.78563,37.5296],[126.78612,37.52951]]}},{"type":"Feature","properties":{"class":"alley","highway":"service","sidewalk":"unknown","lanes":0,"name":"부천로478번길","oneway":false},"geometry":{"type":"LineString","coordinates":[[126.78252,37.5263],[126.78357,37.52713],[126.78434,37.52771],[126.78516,37.52834],[126.78615,37.52909],[126.78706,37.52978],[126.78709,37.5298]]}},{"type":"Feature","properties":{"class":"alley","highway":"service","sidewalk":"unknown","lanes":0,"name":"신흥로470번길","oneway":false},"geometry":{"type":"LineString","coordinates":[[126.77764,37.52501],[126.7777,37.52494],[126.77781,37.52484],[126.7781,37.52465],[126.77829,37.52458],[126.77865,37.52452],[126.77981,37.52439],[126.77989,37.52439],[126.78003,37.52442]]}},{"type":"Feature","properties":{"class":"alley","highway":"service","sidewalk":"unknown","lanes":0,"name":"오정로","oneway":false},"geometry":{"type":"LineString","coordinates":[[126.78176,37.52714],[126.78186,37.52664],[126.78191,37.52655],[126.78205,37.52644]]}},{"type":"Feature","properties":{"class":"alley","highway":"service","sidewalk":"unknown","lanes":0,"name":"","oneway":false},"geometry":{"type":"LineString","coordinates":[[126.78588,37.53017],[126.78563,37.5296]]}},{"type":"Feature","properties":{"class":"alley","highway":"service","sidewalk":"unknown","lanes":0,"name":"오정로199번길","oneway":false},"geometry":{"type":"LineString","coordinates":[[126.78239,37.5272],[126.78237,37.52786],[126.78266,37.52821],[126.78272,37.52828]]}},{"type":"Feature","properties":{"class":"alley","highway":"service","sidewalk":"unknown","lanes":0,"name":"오정로","oneway":false},"geometry":{"type":"LineString","coordinates":[[126.78318,37.52728],[126.78309,37.52733],[126.78302,37.52733],[126.7826,37.52723],[126.78239,37.5272]]}},{"type":"Feature","properties":{"class":"alley","highway":"service","sidewalk":"unknown","lanes":0,"name":"부천로477번길","oneway":false},"geometry":{"type":"LineString","coordinates":[[126.78054,37.52448],[126.78111,37.52506],[126.78179,37.52575],[126.78252,37.5263]]}},{"type":"Feature","properties":{"class":"alley","highway":"service","sidewalk":"unknown","lanes":0,"name":"오정로211번길","oneway":false},"geometry":{"type":"LineString","coordinates":[[126.78123,37.52809],[126.78117,37.52834],[126.78144,37.5284],[126.78185,37.52839],[126.78193,37.5284],[126.78206,37.52846],[126.78226,37.52863]]}},{"type":"Feature","properties":{"class":"alley","highway":"service","sidewalk":"unknown","lanes":0,"name":"부천로459번길","oneway":false},"geometry":{"type":"LineString","coordinates":[[126.78003,37.52442],[126.78017,37.52442],[126.78054,37.52448],[126.78146,37.52461],[126.78226,37.52471],[126.78344,37.52491]]}},{"type":"Feature","properties":{"class":"alley","highway":"service","sidewalk":"unknown","lanes":0,"name":"부천로463번길","oneway":false},"geometry":{"type":"LineString","coordinates":[[126.78084,37.52522],[126.78111,37.52506],[126.78141,37.52487],[126.7822,37.52499],[126.78325,37.52516]]}},{"type":"Feature","properties":{"class":"alley","highway":"service","sidewalk":"unknown","lanes":0,"name":"부천로455번길","oneway":false},"geometry":{"type":"LineString","coordinates":[[126.78232,37.52444],[126.78364,37.52465]]}},{"type":"Feature","properties":{"class":"alley","highway":"service","sidewalk":"unknown","lanes":0,"name":"부천로476번가길","oneway":false},"geometry":{"type":"LineString","coordinates":[[126.78334,37.52626],[126.78338,37.52631],[126.78399,37.52678],[126.78475,37.52737],[126.78558,37.528],[126.78657,37.52874],[126.78745,37.52943],[126.78766,37.52959],[126.78771,37.52963]]}},{"type":"Feature","properties":{"class":"alley","highway":"service","sidewalk":"unknown","lanes":0,"name":"","oneway":false},"geometry":{"type":"LineString","coordinates":[[126.79034,37.52812],[126.79042,37.52802],[126.79051,37.52793],[126.79085,37.52742],[126.7911,37.52704],[126.79127,37.52678],[126.79145,37.52651],[126.79179,37.52599],[126.79198,37.52571],[126.79271,37.52461],[126.79284,37.52448],[126.79297,37.52436],[126.79307,37.52428],[126.7932,37.52418],[126.79345,37.52404],[126.79368,37.52394],[126.79388,37.52385],[126.79411,37.52374],[126.79423,37.52368],[126.79453,37.5235],[126.79462,37.52344],[126.79484,37.52327]]}},{"type":"Feature","properties":{"class":"major","highway":"tertiary_link","sidewalk":"likely","lanes":0,"name":"상오정로","oneway":true},"geometry":{"type":"LineString","coordinates":[[126.79705,37.5301],[126.79711,37.53038],[126.79712,37.53055],[126.79713,37.53064],[126.79715,37.53077],[126.7973,37.53117],[126.79744,37.53137],[126.79763,37.53154],[126.79785,37.5317],[126.79812,37.53182],[126.7984,37.53191],[126.79912,37.53202]]}},{"type":"Feature","properties":{"class":"major","highway":"tertiary_link","sidewalk":"likely","lanes":0,"name":"상오정로","oneway":true},"geometry":{"type":"LineString","coordinates":[[126.79601,37.53169],[126.79615,37.53162],[126.79631,37.53153],[126.79652,37.53137]]}},{"type":"Feature","properties":{"class":"major","highway":"tertiary_link","sidewalk":"likely","lanes":0,"name":"상오정로","oneway":true},"geometry":{"type":"LineString","coordinates":[[126.7943,37.53199],[126.79484,37.53188],[126.79518,37.53185],[126.79531,37.53184],[126.79542,37.53183],[126.79561,37.5318],[126.7958,37.53176],[126.79601,37.53169]]}},{"type":"Feature","properties":{"class":"alley","highway":"service","sidewalk":"unknown","lanes":0,"name":"","oneway":false},"geometry":{"type":"LineString","coordinates":[[126.78913,37.53229],[126.78917,37.53257],[126.7889,37.53328],[126.78885,37.53339],[126.78863,37.53362]]}},{"type":"Feature","properties":{"class":"minor","highway":"residential","sidewalk":"unknown","lanes":0,"name":"","oneway":false},"geometry":{"type":"LineString","coordinates":[[126.78701,37.53367],[126.78764,37.53377]]}},{"type":"Feature","properties":{"class":"minor","highway":"residential","sidewalk":"unknown","lanes":0,"name":"산업로","oneway":false},"geometry":{"type":"LineString","coordinates":[[126.78764,37.53377],[126.78801,37.53371],[126.78863,37.53362],[126.78869,37.53361],[126.78878,37.53359],[126.78885,37.53358],[126.78896,37.53357],[126.78904,37.53356],[126.78956,37.53345],[126.78984,37.53338],[126.79007,37.5333],[126.79026,37.53321],[126.79047,37.5331],[126.79067,37.53294]]}},{"type":"Feature","properties":{"class":"major","highway":"primary","sidewalk":"likely","lanes":0,"name":"오정로","oneway":false},"geometry":{"type":"LineString","coordinates":[[126.79444,37.53579],[126.79455,37.53587]]}},{"type":"Feature","properties":{"class":"major","highway":"primary","sidewalk":"likely","lanes":0,"name":"오정로","oneway":false},"geometry":{"type":"LineString","coordinates":[[126.79455,37.53587],[126.79496,37.53619],[126.79724,37.53791],[126.79729,37.53794]]}},{"type":"Feature","properties":{"class":"alley","highway":"service","sidewalk":"unknown","lanes":0,"name":"","oneway":false},"geometry":{"type":"LineString","coordinates":[[126.78801,37.53371],[126.78792,37.53328]]}},{"type":"Feature","properties":{"class":"alley","highway":"service","sidewalk":"unknown","lanes":0,"name":"","oneway":false},"geometry":{"type":"LineString","coordinates":[[126.78792,37.53328],[126.78763,37.53328],[126.78747,37.53328],[126.78716,37.53328],[126.78711,37.53328],[126.78706,37.53327],[126.78701,37.53325],[126.78697,37.53322],[126.78688,37.5331],[126.78686,37.53308],[126.78684,37.53305],[126.78683,37.53302],[126.78683,37.5328],[126.78683,37.53266],[126.78682,37.53263]]}},{"type":"Feature","properties":{"class":"alley","highway":"service","sidewalk":"unknown","lanes":0,"name":"","oneway":false},"geometry":{"type":"LineString","coordinates":[[126.78792,37.53328],[126.78799,37.53324],[126.78806,37.53319],[126.78809,37.53317],[126.78813,37.53316],[126.78852,37.53316],[126.78855,37.53316],[126.78858,37.53315],[126.7886,37.53313],[126.78864,37.53302],[126.78869,37.53287],[126.7887,37.53284],[126.78871,37.53281],[126.7887,37.53279],[126.78869,37.53276],[126.78866,37.53274],[126.78863,37.53272],[126.78859,37.5327],[126.78854,37.53269],[126.78826,37.53269],[126.78826,37.53255],[126.78854,37.53255],[126.78863,37.53255]]}},{"type":"Feature","properties":{"class":"alley","highway":"service","sidewalk":"unknown","lanes":0,"name":"","oneway":false},"geometry":{"type":"LineString","coordinates":[[126.78683,37.5328],[126.7874,37.5328],[126.7874,37.53266],[126.78683,37.53266]]}},{"type":"Feature","properties":{"class":"alley","highway":"service","sidewalk":"unknown","lanes":0,"name":"","oneway":false},"geometry":{"type":"LineString","coordinates":[[126.78854,37.53269],[126.78854,37.53255]]}},{"type":"Feature","properties":{"class":"alley","highway":"service","sidewalk":"unknown","lanes":0,"name":"","oneway":false},"geometry":{"type":"LineString","coordinates":[[126.78716,37.53328],[126.78716,37.53314],[126.78747,37.53314],[126.78747,37.53328]]}},{"type":"Feature","properties":{"class":"alley","highway":"service","sidewalk":"unknown","lanes":0,"name":"","oneway":false},"geometry":{"type":"LineString","coordinates":[[126.78813,37.53316],[126.78813,37.53302],[126.78864,37.53302]]}},{"type":"Feature","properties":{"class":"alley","highway":"service","sidewalk":"unknown","lanes":0,"name":"","oneway":false},"geometry":{"type":"LineString","coordinates":[[126.78763,37.53328],[126.78763,37.53313],[126.78764,37.5331],[126.78765,37.53306],[126.78766,37.53304],[126.78768,37.53302],[126.78771,37.533],[126.78775,37.53299],[126.78778,37.53299]]}},{"type":"Feature","properties":{"class":"alley","highway":"service","sidewalk":"unknown","lanes":0,"name":"","oneway":false},"geometry":{"type":"LineString","coordinates":[[126.78682,37.53263],[126.78671,37.53263],[126.78668,37.53264],[126.78665,37.53265],[126.78664,37.53268],[126.78663,37.53271],[126.78664,37.53274],[126.78665,37.53276],[126.78668,37.53278]]}},{"type":"Feature","properties":{"class":"alley","highway":"service","sidewalk":"unknown","lanes":0,"name":"","oneway":false},"geometry":{"type":"LineString","coordinates":[[126.78863,37.53255],[126.78867,37.53255],[126.7887,37.53256],[126.78873,37.53258],[126.78874,37.53261],[126.78874,37.53264],[126.78873,37.53267],[126.78872,37.53269],[126.7887,37.5327]]}},{"type":"Feature","properties":{"class":"minor","highway":"residential","sidewalk":"unknown","lanes":0,"name":"산업로114번길","oneway":false},"geometry":{"type":"LineString","coordinates":[[126.78569,37.53374],[126.78569,37.53341],[126.78569,37.53256]]}},{"type":"Feature","properties":{"class":"minor","highway":"residential","sidewalk":"unknown","lanes":0,"name":"산업로120번길","oneway":false},"geometry":{"type":"LineString","coordinates":[[126.78622,37.53371],[126.78622,37.53341],[126.78622,37.53321],[126.78623,37.53256]]}},{"type":"Feature","properties":{"class":"minor","highway":"residential","sidewalk":"unknown","lanes":0,"name":"","oneway":false},"geometry":{"type":"LineString","coordinates":[[126.78622,37.53341],[126.78569,37.53341]]}},{"type":"Feature","properties":{"class":"minor","highway":"residential","sidewalk":"unknown","lanes":0,"name":"산업로114번길","oneway":false},"geometry":{"type":"LineString","coordinates":[[126.78569,37.53341],[126.78517,37.5334],[126.78517,37.5334],[126.78517,37.53255]]}},{"type":"Feature","properties":{"class":"minor","highway":"residential","sidewalk":"unknown","lanes":0,"name":"산업로120번길","oneway":false},"geometry":{"type":"LineString","coordinates":[[126.78623,37.53256],[126.786,37.53256]]}},{"type":"Feature","properties":{"class":"alley","highway":"service","sidewalk":"unknown","lanes":0,"name":"","oneway":false},"geometry":{"type":"LineString","coordinates":[[126.78517,37.5334],[126.78511,37.53343],[126.78494,37.53343]]}},{"type":"Feature","properties":{"class":"alley","highway":"service","sidewalk":"unknown","lanes":0,"name":"","oneway":false},"geometry":{"type":"LineString","coordinates":[[126.78517,37.53255],[126.7851,37.53251],[126.78494,37.53251]]}},{"type":"Feature","properties":{"class":"alley","highway":"service","sidewalk":"unknown","lanes":0,"name":"","oneway":false},"geometry":{"type":"LineString","coordinates":[[126.78623,37.53256],[126.78628,37.53254],[126.78641,37.53254]]}},{"type":"Feature","properties":{"class":"minor","highway":"residential","sidewalk":"unknown","lanes":0,"name":"오정로251번길","oneway":false},"geometry":{"type":"LineString","coordinates":[[126.78664,37.52991],[126.78643,37.52998],[126.786,37.53013],[126.78588,37.53017],[126.78568,37.53023],[126.78515,37.53041],[126.7851,37.53043],[126.78507,37.53044],[126.78483,37.53054],[126.78473,37.53062],[126.78466,37.53071],[126.78463,37.53079],[126.7846,37.53086],[126.78459,37.53096],[126.78458,37.53173],[126.78458,37.53198]]}},{"type":"Feature","properties":{"class":"minor","highway":"residential","sidewalk":"unknown","lanes":0,"name":"산업로114번길","oneway":false},"geometry":{"type":"LineString","coordinates":[[126.78569,37.53256],[126.7858,37.53256],[126.786,37.53256]]}},{"type":"Feature","properties":{"class":"minor","highway":"residential","sidewalk":"unknown","lanes":0,"name":"산업로114번길","oneway":false},"geometry":{"type":"LineString","coordinates":[[126.78569,37.53256],[126.78517,37.53255]]}},{"type":"Feature","properties":{"class":"alley","highway":"pedestrian","sidewalk":"unknown","lanes":0,"name":"","oneway":false},"geometry":{"type":"LineString","coordinates":[[126.7858,37.53256],[126.78581,37.53208]]}},{"type":"Feature","properties":{"class":"major","highway":"primary_link","sidewalk":"likely","lanes":0,"name":"","oneway":true},"geometry":{"type":"LineString","coordinates":[[126.78845,37.53194],[126.78861,37.5319],[126.78871,37.53186],[126.78878,37.53181],[126.7888,37.53176],[126.78881,37.53175],[126.78879,37.53168],[126.78876,37.53159],[126.78873,37.53154],[126.78867,37.53145]]}},{"type":"Feature","properties":{"class":"major","highway":"primary_link","sidewalk":"likely","lanes":0,"name":"","oneway":true},"geometry":{"type":"LineString","coordinates":[[126.78891,37.53164],[126.78912,37.53172],[126.78914,37.53173],[126.78931,37.53179],[126.78955,37.53186],[126.78989,37.53195]]}},{"type":"Feature","properties":{"class":"major","highway":"primary_link","sidewalk":"likely","lanes":0,"name":"","oneway":true},"geometry":{"type":"LineString","coordinates":[[126.79041,37.53212],[126.7902,37.53214],[126.79009,37.53217],[126.79002,37.53219],[126.78996,37.53222],[126.78992,37.53227],[126.78991,37.5323],[126.78993,37.53234],[126.78998,37.53242]]}},{"type":"Feature","properties":{"class":"alley","highway":"service","sidewalk":"unknown","lanes":0,"name":"오정로211번길","oneway":false},"geometry":{"type":"LineString","coordinates":[[126.78201,37.52883],[126.78135,37.52879]]}},{"type":"Feature","properties":{"class":"minor","highway":"residential","sidewalk":"unknown","lanes":0,"name":"산업로8번길","oneway":false},"geometry":{"type":"LineString","coordinates":[[126.7788,37.52879],[126.77881,37.52784],[126.78002,37.52784],[126.78012,37.52784],[126.78036,37.52785],[126.7812,37.52785],[126.78161,37.52785]]}},{"type":"Feature","properties":{"class":"minor","highway":"residential","sidewalk":"unknown","lanes":0,"name":"산업로","oneway":false},"geometry":{"type":"LineString","coordinates":[[126.77803,37.52879],[126.7788,37.52879],[126.77925,37.52879],[126.77946,37.52879],[126.78011,37.52879]]}},{"type":"Feature","properties":{"class":"alley","highway":"service","sidewalk":"unknown","lanes":0,"name":"오정로199번길","oneway":false},"geometry":{"type":"LineString","coordinates":[[126.78232,37.52663],[126.78231,37.5267],[126.78229,37.5268],[126.78228,37.5272],[126.78239,37.5272]]}},{"type":"Feature","properties":{"class":"alley","highway":"service","sidewalk":"unknown","lanes":0,"name":"오정로","oneway":false},"geometry":{"type":"LineString","coordinates":[[126.78091,37.52583],[126.77992,37.52681],[126.77951,37.52655]]}},{"type":"Feature","properties":{"class":"alley","highway":"service","sidewalk":"unknown","lanes":0,"name":"오정로","oneway":false},"geometry":{"type":"LineString","coordinates":[[126.7803,37.52582],[126.77951,37.52655]]}},{"type":"Feature","properties":{"class":"alley","highway":"pedestrian","sidewalk":"unknown","lanes":0,"name":"","oneway":false},"geometry":{"type":"LineString","coordinates":[[126.78136,37.53077],[126.78135,37.53079],[126.78134,37.53081],[126.78131,37.53083],[126.78128,37.53084],[126.78125,37.53084],[126.78122,37.53083],[126.7812,37.53081],[126.78118,37.53079],[126.78117,37.53077],[126.78117,37.53075],[126.78118,37.53073],[126.7812,37.53071],[126.78123,37.5307],[126.78126,37.53069],[126.78129,37.53069],[126.78132,37.5307],[126.78134,37.53072],[126.78135,37.53074],[126.78136,37.53077]]}},{"type":"Feature","properties":{"class":"alley","highway":"pedestrian","sidewalk":"unknown","lanes":0,"name":"","oneway":false},"geometry":{"type":"LineString","coordinates":[[126.7812,37.53081],[126.78108,37.53081],[126.78099,37.53081],[126.78091,37.53081],[126.78081,37.53081],[126.78067,37.53081]]}},{"type":"Feature","properties":{"class":"alley","highway":"pedestrian","sidewalk":"unknown","lanes":0,"name":"","oneway":false},"geometry":{"type":"LineString","coordinates":[[126.78126,37.53069],[126.78124,37.53065],[126.78122,37.53061],[126.7812,37.53059],[126.78116,37.53057],[126.7811,37.53056],[126.78102,37.53055],[126.78097,37.53053],[126.78096,37.53052],[126.78093,37.5305],[126.78089,37.53046],[126.78087,37.53041],[126.78082,37.53038],[126.78077,37.53034],[126.7807,37.53032],[126.78062,37.53031],[126.78053,37.5303],[126.78043,37.5303],[126.78034,37.53033]]}},{"type":"Feature","properties":{"class":"alley","highway":"pedestrian","sidewalk":"unknown","lanes":0,"name":"","oneway":false},"geometry":{"type":"LineString","coordinates":[[126.78228,37.53141],[126.78229,37.53139],[126.7823,37.53136],[126.78229,37.53134],[126.78228,37.53132],[126.78226,37.5313],[126.78223,37.53129],[126.7822,37.53129],[126.78217,37.53129],[126.78215,37.53131]]}},{"type":"Feature","properties":{"class":"alley","highway":"pedestrian","sidewalk":"unknown","lanes":0,"name":"","oneway":false},"geometry":{"type":"LineString","coordinates":[[126.78217,37.53143],[126.7822,37.53143],[126.78223,37.53143],[126.78226,37.53142],[126.78228,37.53141]]}},{"type":"Feature","properties":{"class":"alley","highway":"pedestrian","sidewalk":"unknown","lanes":0,"name":"","oneway":false},"geometry":{"type":"LineString","coordinates":[[126.78215,37.53131],[126.78169,37.53101],[126.78157,37.53093],[126.7815,37.53089],[126.78145,37.53086],[126.7814,37.53083],[126.78134,37.53081]]}},{"type":"Feature","properties":{"class":"alley","highway":"pedestrian","sidewalk":"unknown","lanes":0,"name":"","oneway":false},"geometry":{"type":"LineString","coordinates":[[126.78169,37.53101],[126.78152,37.53118],[126.78151,37.53121],[126.78151,37.53123],[126.78152,37.53126],[126.78154,37.53128]]}},{"type":"Feature","properties":{"class":"alley","highway":"pedestrian","sidewalk":"unknown","lanes":0,"name":"","oneway":false},"geometry":{"type":"LineString","coordinates":[[126.78154,37.53128],[126.78196,37.53155],[126.78199,37.53155],[126.78202,37.53155],[126.78205,37.53154],[126.78217,37.53143]]}},{"type":"Feature","properties":{"class":"alley","highway":"pedestrian","sidewalk":"unknown","lanes":0,"name":"","oneway":false},"geometry":{"type":"LineString","coordinates":[[126.78171,37.53079],[126.78157,37.53093]]}},{"type":"Feature","properties":{"class":"alley","highway":"pedestrian","sidewalk":"unknown","lanes":0,"name":"","oneway":false},"geometry":{"type":"LineString","coordinates":[[126.7822,37.53129],[126.78231,37.53118]]}},{"type":"Feature","properties":{"class":"alley","highway":"service","sidewalk":"unknown","lanes":0,"name":"","oneway":false},"geometry":{"type":"LineString","coordinates":[[126.78349,37.53078],[126.78349,37.53043]]}},{"type":"Feature","properties":{"class":"alley","highway":"service","sidewalk":"unknown","lanes":0,"name":"","oneway":false},"geometry":{"type":"LineString","coordinates":[[126.78272,37.5307],[126.78267,37.53076],[126.78267,37.53091],[126.78267,37.53095],[126.78267,37.53104],[126.78294,37.53104],[126.78294,37.531],[126.78294,37.53091],[126.78267,37.53091]]}},{"type":"Feature","properties":{"class":"alley","highway":"service","sidewalk":"unknown","lanes":0,"name":"","oneway":false},"geometry":{"type":"LineString","coordinates":[[126.78197,37.53055],[126.78182,37.53045],[126.78148,37.53023],[126.78138,37.53033],[126.78171,37.53055],[126.78182,37.53045]]}},{"type":"Feature","properties":{"class":"alley","highway":"service","sidewalk":"unknown","lanes":0,"name":"","oneway":false},"geometry":{"type":"LineString","coordinates":[[126.78369,37.53078],[126.78369,37.531],[126.78369,37.53129],[126.78369,37.53143]]}},{"type":"Feature","properties":{"class":"alley","highway":"service","sidewalk":"unknown","lanes":0,"name":"","oneway":false},"geometry":{"type":"LineString","coordinates":[[126.78344,37.53143],[126.78369,37.53143],[126.7842,37.53143],[126.7842,37.53129],[126.78369,37.53129]]}},{"type":"Feature","properties":{"class":"alley","highway":"service","sidewalk":"unknown","lanes":0,"name":"","oneway":false},"geometry":{"type":"LineString","coordinates":[[126.7842,37.53129],[126.78429,37.53129],[126.78433,37.5313],[126.78437,37.53132],[126.7844,37.53135],[126.7844,37.53138],[126.78438,37.53141],[126.78434,37.53143],[126.7843,37.53143]]}},{"type":"Feature","properties":{"class":"alley","highway":"service","sidewalk":"unknown","lanes":0,"name":"","oneway":false},"geometry":{"type":"LineString","coordinates":[[126.78369,37.531],[126.78417,37.531],[126.78417,37.53096],[126.78416,37.53093],[126.78413,37.5309],[126.78409,37.53089],[126.78379,37.53089]]}},{"type":"Feature","properties":{"class":"alley","highway":"service","sidewalk":"unknown","lanes":0,"name":"","oneway":false},"geometry":{"type":"LineString","coordinates":[[126.78267,37.53095],[126.78229,37.53094],[126.78229,37.53102],[126.7823,37.53105],[126.78232,37.53108],[126.78235,37.5311],[126.7824,37.5311],[126.78243,37.5311],[126.78247,37.53108],[126.78249,37.53106],[126.78249,37.53104],[126.78249,37.53102]]}},{"type":"Feature","properties":{"class":"alley","highway":"service","sidewalk":"unknown","lanes":0,"name":"","oneway":false},"geometry":{"type":"LineString","coordinates":[[126.78171,37.53055],[126.78168,37.53057],[126.78165,37.53059],[126.78161,37.5306],[126.78157,37.5306],[126.78154,37.53059],[126.78133,37.53045]]}},{"type":"Feature","properties":{"class":"alley","highway":"service","sidewalk":"unknown","lanes":0,"name":"","oneway":false},"geometry":{"type":"LineString","coordinates":[[126.786,37.53133],[126.7863,37.53134],[126.7863,37.53147]]}},{"type":"Feature","properties":{"class":"alley","highway":"service","sidewalk":"unknown","lanes":0,"name":"","oneway":false},"geometry":{"type":"LineString","coordinates":[[126.78742,37.53147],[126.78742,37.53132],[126.78786,37.53133]]}},{"type":"Feature","properties":{"class":"alley","highway":"service","sidewalk":"unknown","lanes":0,"name":"","oneway":false},"geometry":{"type":"LineString","coordinates":[[126.7876,37.53087],[126.78751,37.53095],[126.78749,37.53096],[126.78747,37.53097],[126.78744,37.53097],[126.7872,37.53097],[126.78704,37.53097]]}},{"type":"Feature","properties":{"class":"alley","highway":"service","sidewalk":"unknown","lanes":0,"name":"","oneway":false},"geometry":{"type":"LineString","coordinates":[[126.78579,37.53096],[126.78596,37.53096],[126.78622,37.53096],[126.78623,37.53086],[126.78596,37.53086],[126.78596,37.53096]]}},{"type":"Feature","properties":{"class":"alley","highway":"service","sidewalk":"unknown","lanes":0,"name":"","oneway":false},"geometry":{"type":"LineString","coordinates":[[126.78628,37.53051],[126.78628,37.53045],[126.78676,37.53045],[126.78681,37.53045],[126.78684,37.53043],[126.78687,37.5304],[126.78687,37.53037],[126.78687,37.53035],[126.78686,37.53033],[126.78684,37.5303],[126.7868,37.53029]]}},{"type":"Feature","properties":{"class":"alley","highway":"service","sidewalk":"unknown","lanes":0,"name":"","oneway":false},"geometry":{"type":"LineString","coordinates":[[126.7872,37.53097],[126.7872,37.53091],[126.7872,37.53088],[126.78722,37.53086],[126.78725,37.53084],[126.78728,37.53083],[126.78732,37.53083],[126.78735,37.53084],[126.78738,37.53086],[126.7874,37.53089]]}},{"type":"Feature","properties":{"class":"alley","highway":"service","sidewalk":"unknown","lanes":0,"name":"","oneway":false},"geometry":{"type":"LineString","coordinates":[[126.78786,37.53148],[126.78803,37.53148],[126.78807,37.53147],[126.7881,37.53146],[126.78811,37.53144],[126.78813,37.53142],[126.78813,37.53139],[126.78812,37.53136],[126.78811,37.53134],[126.78809,37.53133],[126.78806,37.53132]]}},{"type":"Feature","properties":{"class":"alley","highway":"service","sidewalk":"unknown","lanes":0,"name":"","oneway":false},"geometry":{"type":"LineString","coordinates":[[126.786,37.53147],[126.7859,37.53147],[126.78587,37.53147],[126.78584,37.53145],[126.78581,37.53143],[126.7858,37.53141],[126.78581,37.53139],[126.78582,37.53137],[126.78584,37.53135],[126.78586,37.53133]]}},{"type":"Feature","properties":{"class":"alley","highway":"service","sidewalk":"unknown","lanes":0,"name":"","oneway":false},"geometry":{"type":"LineString","coordinates":[[126.7851,37.53043],[126.7851,37.53054],[126.7851,37.53059],[126.78503,37.53063],[126.78503,37.53094]]}},{"type":"Feature","properties":{"class":"alley","highway":"service","sidewalk":"unknown","lanes":0,"name":"","oneway":false},"geometry":{"type":"LineString","coordinates":[[126.78503,37.53063],[126.78498,37.53065],[126.78493,37.53068],[126.78488,37.53072],[126.78484,37.53078],[126.7848,37.53086],[126.78476,37.53096],[126.78476,37.53133]]}},{"type":"Feature","properties":{"class":"alley","highway":"service","sidewalk":"unknown","lanes":0,"name":"","oneway":false},"geometry":{"type":"LineString","coordinates":[[126.78563,37.5296],[126.78509,37.5297],[126.78468,37.52977],[126.78442,37.5297],[126.78433,37.52991],[126.78424,37.53015],[126.78413,37.53042]]}},{"type":"Feature","properties":{"class":"alley","highway":"service","sidewalk":"unknown","lanes":0,"name":"","oneway":false},"geometry":{"type":"LineString","coordinates":[[126.78442,37.5297],[126.78431,37.52965],[126.78428,37.52962],[126.78424,37.52961],[126.78394,37.52954]]}},{"type":"Feature","properties":{"class":"alley","highway":"service","sidewalk":"unknown","lanes":0,"name":"","oneway":false},"geometry":{"type":"LineString","coordinates":[[126.78369,37.52975],[126.78433,37.52991],[126.78469,37.53],[126.78514,37.52991]]}},{"type":"Feature","properties":{"class":"alley","highway":"service","sidewalk":"unknown","lanes":0,"name":"","oneway":false},"geometry":{"type":"LineString","coordinates":[[126.78509,37.5297],[126.78514,37.52991],[126.78521,37.53014],[126.78495,37.53023],[126.7847,37.53026],[126.78424,37.53015],[126.78371,37.53003]]}},{"type":"Feature","properties":{"class":"alley","highway":"service","sidewalk":"unknown","lanes":0,"name":"상오정로19번길","oneway":false},"geometry":{"type":"LineString","coordinates":[[126.78606,37.52412],[126.78607,37.52462],[126.78607,37.52469],[126.78605,37.525],[126.78599,37.52528],[126.78593,37.52555],[126.78581,37.52608],[126.78569,37.52661]]}},{"type":"Feature","properties":{"class":"alley","highway":"service","sidewalk":"unknown","lanes":0,"name":"상오정로7번길","oneway":false},"geometry":{"type":"LineString","coordinates":[[126.78476,37.52428],[126.78479,37.52482],[126.78472,37.5251],[126.78465,37.52536],[126.78452,37.52589],[126.78438,37.52641]]}},{"type":"Feature","properties":{"class":"alley","highway":"service","sidewalk":"unknown","lanes":0,"name":"오정로244번길","oneway":false},"geometry":{"type":"LineString","coordinates":[[126.78828,37.52732],[126.78919,37.52801]]}},{"type":"Feature","properties":{"class":"alley","highway":"service","sidewalk":"unknown","lanes":0,"name":"오정로244번길","oneway":false},"geometry":{"type":"LineString","coordinates":[[126.78828,37.52732],[126.78855,37.52708]]}},{"type":"Feature","properties":{"class":"alley","highway":"service","sidewalk":"unknown","lanes":0,"name":"오정로232번길","oneway":false},"geometry":{"type":"LineString","coordinates":[[126.78643,37.52729],[126.78741,37.52804]]}},{"type":"Feature","properties":{"class":"alley","highway":"service","sidewalk":"unknown","lanes":0,"name":"부천로476번길","oneway":false},"geometry":{"type":"LineString","coordinates":[[126.78705,37.52682],[126.78787,37.52695],[126.78847,37.52703]]}},{"type":"Feature","properties":{"class":"alley","highway":"service","sidewalk":"unknown","lanes":0,"name":"오정로232번길","oneway":false},"geometry":{"type":"LineString","coordinates":[[126.7873,37.52555],[126.78732,37.52563],[126.7873,37.52576],[126.78718,37.52628],[126.78705,37.52682]]}},{"type":"Feature","properties":{"class":"alley","highway":"service","sidewalk":"unknown","lanes":0,"name":"부천로476번나길","oneway":false},"geometry":{"type":"LineString","coordinates":[[126.78787,37.52909],[126.7883,37.52874]]}},{"type":"Feature","properties":{"class":"alley","highway":"service","sidewalk":"unknown","lanes":0,"name":"부천로476번나길","oneway":false},"geometry":{"type":"LineString","coordinates":[[126.78787,37.52909],[126.7883,37.5294]]}},{"type":"Feature","properties":{"class":"alley","highway":"service","sidewalk":"unknown","lanes":0,"name":"오정로252번길","oneway":false},"geometry":{"type":"LineString","coordinates":[[126.78885,37.52915],[126.7883,37.52874]]}},{"type":"Feature","properties":{"class":"alley","highway":"service","sidewalk":"unknown","lanes":0,"name":"부천로476번나길","oneway":false},"geometry":{"type":"LineString","coordinates":[[126.7883,37.52874],[126.78874,37.52838]]}},{"type":"Feature","properties":{"class":"alley","highway":"service","sidewalk":"unknown","lanes":0,"name":"오정로252번길","oneway":false},"geometry":{"type":"LineString","coordinates":[[126.78938,37.52887],[126.78874,37.52838]]}},{"type":"Feature","properties":{"class":"alley","highway":"service","sidewalk":"unknown","lanes":0,"name":"부천로476번나길","oneway":false},"geometry":{"type":"LineString","coordinates":[[126.78874,37.52838],[126.78919,37.52801]]}},{"type":"Feature","properties":{"class":"alley","highway":"service","sidewalk":"unknown","lanes":0,"name":"오정로252번길","oneway":false},"geometry":{"type":"LineString","coordinates":[[126.78988,37.52852],[126.78919,37.52801]]}},{"type":"Feature","properties":{"class":"alley","highway":"service","sidewalk":"unknown","lanes":0,"name":"부천로476번나길","oneway":false},"geometry":{"type":"LineString","coordinates":[[126.78919,37.52801],[126.78944,37.5278]]}},{"type":"Feature","properties":{"class":"alley","highway":"service","sidewalk":"unknown","lanes":0,"name":"오정로244번길","oneway":false},"geometry":{"type":"LineString","coordinates":[[126.78741,37.52804],[126.78784,37.52768]]}},{"type":"Feature","properties":{"class":"alley","highway":"service","sidewalk":"unknown","lanes":0,"name":"오정로244번길","oneway":false},"geometry":{"type":"LineString","coordinates":[[126.78741,37.52804],[126.7883,37.52874]]}},{"type":"Feature","properties":{"class":"alley","highway":"service","sidewalk":"unknown","lanes":0,"name":"오정로244번길","oneway":false},"geometry":{"type":"LineString","coordinates":[[126.78784,37.52768],[126.78874,37.52838]]}},{"type":"Feature","properties":{"class":"alley","highway":"service","sidewalk":"unknown","lanes":0,"name":"오정로244번길","oneway":false},"geometry":{"type":"LineString","coordinates":[[126.78784,37.52768],[126.78828,37.52732]]}},{"type":"Feature","properties":{"class":"alley","highway":"service","sidewalk":"unknown","lanes":0,"name":"오정로266번길","oneway":false},"geometry":{"type":"LineString","coordinates":[[126.78786,37.53055],[126.78803,37.53051],[126.78821,37.53056],[126.78832,37.53058],[126.78855,37.53055],[126.78897,37.5304],[126.78904,37.53031],[126.78917,37.53024],[126.78983,37.52999],[126.79011,37.52995],[126.79029,37.52995],[126.79034,37.52997],[126.79102,37.53045]]}},{"type":"Feature","properties":{"class":"alley","highway":"service","sidewalk":"unknown","lanes":0,"name":"오정로266번길","oneway":true},"geometry":{"type":"LineString","coordinates":[[126.78739,37.53048],[126.78766,37.53053],[126.78777,37.53054],[126.78786,37.53055]]}},{"type":"Feature","properties":{"class":"alley","highway":"service","sidewalk":"unknown","lanes":0,"name":"","oneway":false},"geometry":{"type":"LineString","coordinates":[[126.78512,37.52876],[126.78496,37.5289],[126.78484,37.529],[126.78472,37.5291],[126.78461,37.5292],[126.78455,37.52924],[126.78451,37.52928]]}},{"type":"Feature","properties":{"class":"alley","highway":"service","sidewalk":"unknown","lanes":0,"name":"","oneway":false},"geometry":{"type":"LineString","coordinates":[[126.78496,37.5289],[126.78564,37.52943],[126.78591,37.52936]]}},{"type":"Feature","properties":{"class":"alley","highway":"service","sidewalk":"unknown","lanes":0,"name":"","oneway":false},"geometry":{"type":"LineString","coordinates":[[126.78496,37.5289],[126.78446,37.52854],[126.78441,37.5285]]}},{"type":"Feature","properties":{"class":"alley","highway":"service","sidewalk":"unknown","lanes":0,"name":"","oneway":false},"geometry":{"type":"LineString","coordinates":[[126.78446,37.52854],[126.78435,37.52864],[126.78423,37.52874],[126.78411,37.52884],[126.784,37.52894],[126.78424,37.52911],[126.78455,37.52924]]}},{"type":"Feature","properties":{"class":"alley","highway":"service","sidewalk":"unknown","lanes":0,"name":"","oneway":false},"geometry":{"type":"LineString","coordinates":[[126.78411,37.52884],[126.78461,37.5292]]}},{"type":"Feature","properties":{"class":"alley","highway":"service","sidewalk":"unknown","lanes":0,"name":"","oneway":false},"geometry":{"type":"LineString","coordinates":[[126.78423,37.52874],[126.78472,37.5291]]}},{"type":"Feature","properties":{"class":"alley","highway":"service","sidewalk":"unknown","lanes":0,"name":"","oneway":false},"geometry":{"type":"LineString","coordinates":[[126.78435,37.52864],[126.78484,37.529]]}},{"type":"Feature","properties":{"class":"alley","highway":"service","sidewalk":"unknown","lanes":0,"name":"","oneway":false},"geometry":{"type":"LineString","coordinates":[[126.7837,37.52768],[126.78352,37.52783],[126.78352,37.52793],[126.78351,37.52808],[126.78351,37.52814],[126.78293,37.52861],[126.78294,37.52868],[126.78343,37.52903]]}},{"type":"Feature","properties":{"class":"alley","highway":"service","sidewalk":"unknown","lanes":0,"name":"","oneway":false},"geometry":{"type":"LineString","coordinates":[[126.78352,37.52793],[126.78402,37.5283],[126.78392,37.52838],[126.78351,37.52808]]}},{"type":"Feature","properties":{"class":"alley","highway":"service","sidewalk":"unknown","lanes":0,"name":"","oneway":false},"geometry":{"type":"LineString","coordinates":[[126.78392,37.52838],[126.78396,37.52847],[126.78403,37.52852],[126.78343,37.52903]]}},{"type":"Feature","properties":{"class":"alley","highway":"service","sidewalk":"unknown","lanes":0,"name":"","oneway":false},"geometry":{"type":"LineString","coordinates":[[126.78235,37.52855],[126.78244,37.52866]]}},{"type":"Feature","properties":{"class":"alley","highway":"service","sidewalk":"unknown","lanes":0,"name":"","oneway":true},"geometry":{"type":"LineString","coordinates":[[126.78244,37.52866],[126.78336,37.52927],[126.78338,37.5293],[126.78339,37.52932],[126.78339,37.52936],[126.78337,37.52939],[126.78334,37.52945]]}},{"type":"Feature","properties":{"class":"alley","highway":"service","sidewalk":"unknown","lanes":0,"name":"","oneway":true},"geometry":{"type":"LineString","coordinates":[[126.78334,37.52945],[126.78263,37.53011],[126.78232,37.53006],[126.78187,37.52976],[126.78179,37.52959],[126.78237,37.52904],[126.78238,37.52901],[126.78239,37.52897],[126.78239,37.52893],[126.7824,37.5289],[126.78241,37.52886],[126.78244,37.52878],[126.78244,37.52866]]}},{"type":"Feature","properties":{"class":"alley","highway":"service","sidewalk":"unknown","lanes":0,"name":"","oneway":true},"geometry":{"type":"LineString","coordinates":[[126.78207,37.5291],[126.78209,37.52906],[126.78212,37.52902],[126.78216,37.52899],[126.7822,37.52896],[126.78226,37.52894],[126.78231,37.52892],[126.78236,37.52889],[126.78241,37.52886]]}},{"type":"Feature","properties":{"class":"alley","highway":"service","sidewalk":"unknown","lanes":0,"name":"","oneway":false},"geometry":{"type":"LineString","coordinates":[[126.78263,37.53011],[126.78267,37.53016],[126.78263,37.53035]]}},{"type":"Feature","properties":{"class":"alley","highway":"service","sidewalk":"unknown","lanes":0,"name":"","oneway":false},"geometry":{"type":"LineString","coordinates":[[126.78245,37.53033],[126.78263,37.53035],[126.78285,37.53038],[126.7833,37.53045],[126.78327,37.53058],[126.78282,37.53052],[126.78285,37.53038]]}},{"type":"Feature","properties":{"class":"alley","highway":"service","sidewalk":"unknown","lanes":0,"name":"","oneway":false},"geometry":{"type":"LineString","coordinates":[[126.78069,37.53269],[126.78021,37.53269]]}},{"type":"Feature","properties":{"class":"alley","highway":"service","sidewalk":"unknown","lanes":0,"name":"","oneway":false},"geometry":{"type":"LineString","coordinates":[[126.78458,37.53328],[126.78438,37.53328],[126.78433,37.53328],[126.78433,37.53271],[126.78429,37.53265],[126.78429,37.53237]]}},{"type":"Feature","properties":{"class":"alley","highway":"service","sidewalk":"unknown","lanes":0,"name":"","oneway":false},"geometry":{"type":"LineString","coordinates":[[126.78433,37.53328],[126.78428,37.53333],[126.78421,37.53333],[126.78421,37.53365],[126.78381,37.53365]]}},{"type":"Feature","properties":{"class":"alley","highway":"service","sidewalk":"unknown","lanes":0,"name":"","oneway":false},"geometry":{"type":"LineString","coordinates":[[126.78438,37.53328],[126.78439,37.53344],[126.78438,37.53348],[126.78436,37.5335],[126.78434,37.53352],[126.78431,37.53353],[126.78427,37.53354],[126.78423,37.53354]]}},{"type":"Feature","properties":{"class":"alley","highway":"service","sidewalk":"unknown","lanes":0,"name":"","oneway":false},"geometry":{"type":"LineString","coordinates":[[126.78226,37.53367],[126.78226,37.53349],[126.78226,37.53326],[126.78226,37.53311]]}},{"type":"Feature","properties":{"class":"alley","highway":"service","sidewalk":"unknown","lanes":0,"name":"","oneway":false},"geometry":{"type":"LineString","coordinates":[[126.78226,37.53349],[126.78215,37.53347],[126.78215,37.53325],[126.78226,37.53326]]}},{"type":"Feature","properties":{"class":"alley","highway":"service","sidewalk":"unknown","lanes":0,"name":"","oneway":false},"geometry":{"type":"LineString","coordinates":[[126.7811,37.53321],[126.78117,37.5331],[126.78117,37.53301],[126.78092,37.53301]]}},{"type":"Feature","properties":{"class":"alley","highway":"service","sidewalk":"unknown","lanes":0,"name":"","oneway":false},"geometry":{"type":"LineString","coordinates":[[126.78187,37.53351],[126.78191,37.53345]]}},{"type":"Feature","properties":{"class":"alley","highway":"service","sidewalk":"unknown","lanes":0,"name":"","oneway":false},"geometry":{"type":"LineString","coordinates":[[126.78191,37.53345],[126.78193,37.53342],[126.78194,37.5334],[126.78194,37.53339],[126.78195,37.53332]]}},{"type":"Feature","properties":{"class":"alley","highway":"service","sidewalk":"unknown","lanes":0,"name":"","oneway":false},"geometry":{"type":"LineString","coordinates":[[126.78191,37.53345],[126.78189,37.53341],[126.78187,37.53338],[126.78157,37.53326]]}},{"type":"Feature","properties":{"class":"alley","highway":"service","sidewalk":"unknown","lanes":0,"name":"","oneway":false},"geometry":{"type":"LineString","coordinates":[[126.78267,37.53383],[126.78267,37.5337],[126.78267,37.53355],[126.78267,37.53341]]}},{"type":"Feature","properties":{"class":"alley","highway":"service","sidewalk":"unknown","lanes":0,"name":"","oneway":false},"geometry":{"type":"LineString","coordinates":[[126.78267,37.53355],[126.78301,37.53356],[126.78301,37.53371],[126.78267,37.5337]]}},{"type":"Feature","properties":{"class":"alley","highway":"service","sidewalk":"unknown","lanes":0,"name":"","oneway":false},"geometry":{"type":"LineString","coordinates":[[126.78313,37.53388],[126.78313,37.53373],[126.78314,37.53234]]}},{"type":"Feature","properties":{"class":"alley","highway":"service","sidewalk":"unknown","lanes":0,"name":"","oneway":false},"geometry":{"type":"LineString","coordinates":[[126.78313,37.53373],[126.78367,37.53372]]}},{"type":"Feature","properties":{"class":"alley","highway":"service","sidewalk":"unknown","lanes":0,"name":"","oneway":false},"geometry":{"type":"LineString","coordinates":[[126.78367,37.53372],[126.78367,37.53349]]}},{"type":"Feature","properties":{"class":"alley","highway":"service","sidewalk":"unknown","lanes":0,"name":"","oneway":false},"geometry":{"type":"LineString","coordinates":[[126.78367,37.53349],[126.78361,37.53346],[126.78361,37.53334],[126.78334,37.53334],[126.78334,37.53346],[126.78361,37.53346]]}},{"type":"Feature","properties":{"class":"alley","highway":"service","sidewalk":"unknown","lanes":0,"name":"","oneway":false},"geometry":{"type":"LineString","coordinates":[[126.78367,37.53372],[126.78367,37.53376],[126.78367,37.53385]]}},{"type":"Feature","properties":{"class":"alley","highway":"service","sidewalk":"unknown","lanes":0,"name":"","oneway":false},"geometry":{"type":"LineString","coordinates":[[126.7807,37.53237],[126.78132,37.53237]]}},{"type":"Feature","properties":{"class":"alley","highway":"service","sidewalk":"unknown","lanes":0,"name":"","oneway":true},"geometry":{"type":"LineString","coordinates":[[126.78132,37.53237],[126.78205,37.53237],[126.78205,37.53251],[126.78132,37.53251],[126.78132,37.53237]]}},{"type":"Feature","properties":{"class":"alley","highway":"service","sidewalk":"unknown","lanes":0,"name":"","oneway":false},"geometry":{"type":"LineString","coordinates":[[126.78091,37.53023],[126.78081,37.53017]]}},{"type":"Feature","properties":{"class":"alley","highway":"service","sidewalk":"unknown","lanes":0,"name":"","oneway":false},"geometry":{"type":"LineString","coordinates":[[126.78055,37.53],[126.78051,37.52998],[126.78045,37.53003]]}},{"type":"Feature","properties":{"class":"alley","highway":"service","sidewalk":"unknown","lanes":0,"name":"","oneway":false},"geometry":{"type":"LineString","coordinates":[[126.78081,37.53017],[126.78055,37.53]]}},{"type":"Feature","properties":{"class":"alley","highway":"service","sidewalk":"unknown","lanes":0,"name":"","oneway":false},"geometry":{"type":"LineString","coordinates":[[126.78105,37.5301],[126.78088,37.52999],[126.78085,37.52998]]}},{"type":"Feature","properties":{"class":"alley","highway":"service","sidewalk":"unknown","lanes":0,"name":"","oneway":false},"geometry":{"type":"LineString","coordinates":[[126.78085,37.52998],[126.78099,37.52983],[126.78094,37.5298]]}},{"type":"Feature","properties":{"class":"alley","highway":"service","sidewalk":"unknown","lanes":0,"name":"","oneway":false},"geometry":{"type":"LineString","coordinates":[[126.78088,37.52999],[126.78081,37.53007],[126.78051,37.52989]]}},{"type":"Feature","properties":{"class":"alley","highway":"service","sidewalk":"unknown","lanes":0,"name":"","oneway":false},"geometry":{"type":"LineString","coordinates":[[126.78012,37.52945],[126.78023,37.52945]]}},{"type":"Feature","properties":{"class":"alley","highway":"service","sidewalk":"unknown","lanes":0,"name":"","oneway":false},"geometry":{"type":"LineString","coordinates":[[126.78023,37.52945],[126.78049,37.52945]]}},{"type":"Feature","properties":{"class":"alley","highway":"service","sidewalk":"unknown","lanes":0,"name":"","oneway":false},"geometry":{"type":"LineString","coordinates":[[126.78049,37.52945],[126.78069,37.52924]]}},{"type":"Feature","properties":{"class":"alley","highway":"service","sidewalk":"unknown","lanes":0,"name":"","oneway":false},"geometry":{"type":"LineString","coordinates":[[126.78036,37.52785],[126.78036,37.52813],[126.78012,37.52813]]}},{"type":"Feature","properties":{"class":"alley","highway":"service","sidewalk":"unknown","lanes":0,"name":"오정로211번길","oneway":false},"geometry":{"type":"LineString","coordinates":[[126.78177,37.52921],[126.78139,37.52907]]}},{"type":"Feature","properties":{"class":"alley","highway":"service","sidewalk":"unknown","lanes":0,"name":"오정로211번길","oneway":false},"geometry":{"type":"LineString","coordinates":[[126.78163,37.52938],[126.78146,37.52932],[126.7813,37.52935],[126.78123,37.52933]]}},{"type":"Feature","properties":{"class":"alley","highway":"service","sidewalk":"unknown","lanes":0,"name":"","oneway":false},"geometry":{"type":"LineString","coordinates":[[126.78012,37.52925],[126.77934,37.52925]]}},{"type":"Feature","properties":{"class":"alley","highway":"service","sidewalk":"unknown","lanes":0,"name":"","oneway":false},"geometry":{"type":"LineString","coordinates":[[126.78069,37.5309],[126.78057,37.5309]]}},{"type":"Feature","properties":{"class":"alley","highway":"service","sidewalk":"unknown","lanes":0,"name":"","oneway":true},"geometry":{"type":"LineString","coordinates":[[126.78057,37.5309],[126.78049,37.53101],[126.77995,37.53101],[126.77995,37.5309],[126.78057,37.5309]]}},{"type":"Feature","properties":{"class":"alley","highway":"service","sidewalk":"unknown","lanes":0,"name":"산업로8번길","oneway":false},"geometry":{"type":"LineString","coordinates":[[126.78002,37.52784],[126.78002,37.52713]]}},{"type":"Feature","properties":{"class":"alley","highway":"service","sidewalk":"unknown","lanes":0,"name":"","oneway":false},"geometry":{"type":"LineString","coordinates":[[126.78034,37.53114],[126.78034,37.53124],[126.78047,37.53124]]}},{"type":"Feature","properties":{"class":"major","highway":"primary","sidewalk":"likely","lanes":0,"name":"오정로","oneway":false},"geometry":{"type":"LineString","coordinates":[[126.7784,37.52584],[126.77866,37.52584],[126.7803,37.52582],[126.7808,37.52582],[126.78091,37.52583],[126.78103,37.52584],[126.78125,37.5259],[126.78148,37.52603],[126.78153,37.52606],[126.78205,37.52644],[126.78228,37.52661]]}},{"type":"Feature","properties":{"class":"major","highway":"primary","sidewalk":"likely","lanes":0,"name":"오정로","oneway":false},"geometry":{"type":"LineString","coordinates":[[126.78488,37.52857],[126.78512,37.52876],[126.78587,37.52933],[126.78591,37.52936],[126.78612,37.52951],[126.78623,37.5296],[126.78664,37.52991]]}},{"type":"Feature","properties":{"class":"major","highway":"primary","sidewalk":"likely","lanes":0,"name":"오정로","oneway":false},"geometry":{"type":"LineString","coordinates":[[126.78891,37.53164],[126.78907,37.53176],[126.78944,37.53202]]}},{"type":"Feature","properties":{"class":"major","highway":"tertiary","sidewalk":"likely","lanes":0,"name":"봉오대로","oneway":true},"geometry":{"type":"LineString","coordinates":[[126.78989,37.53195],[126.79015,37.53195],[126.7943,37.53199]]}},{"type":"Feature","properties":{"class":"major","highway":"tertiary","sidewalk":"likely","lanes":0,"name":"봉오대로","oneway":true},"geometry":{"type":"LineString","coordinates":[[126.78944,37.53202],[126.78897,37.5321],[126.78769,37.53209],[126.78676,37.53208],[126.78581,37.53208],[126.78511,37.5321],[126.7848,37.53207],[126.78472,37.53207]]}},{"type":"Feature","properties":{"class":"major","highway":"primary","sidewalk":"likely","lanes":0,"name":"오정로","oneway":false},"geometry":{"type":"LineString","coordinates":[[126.79067,37.53294],[126.79089,37.53311],[126.79107,37.53325],[126.79258,37.53439],[126.79414,37.53557],[126.79434,37.53572]]}},{"type":"Feature","properties":{"class":"minor","highway":"residential","sidewalk":"unknown","lanes":1,"name":"","oneway":false},"geometry":{"type":"LineString","coordinates":[[126.78749,37.53],[126.788,37.52978]]}},{"type":"Feature","properties":{"class":"minor","highway":"residential","sidewalk":"unknown","lanes":0,"name":"","oneway":false},"geometry":{"type":"LineString","coordinates":[[126.78878,37.52918],[126.78895,37.52941],[126.78913,37.52968],[126.78889,37.52979]]}},{"type":"Feature","properties":{"class":"minor","highway":"residential","sidewalk":"unknown","lanes":0,"name":"","oneway":false},"geometry":{"type":"LineString","coordinates":[[126.78895,37.52941],[126.78819,37.52977]]}},{"type":"Feature","properties":{"class":"minor","highway":"residential","sidewalk":"unknown","lanes":0,"name":"","oneway":false},"geometry":{"type":"LineString","coordinates":[[126.78819,37.52977],[126.78813,37.5298],[126.78813,37.52985]]}},{"type":"Feature","properties":{"class":"minor","highway":"residential","sidewalk":"unknown","lanes":0,"name":"","oneway":false},"geometry":{"type":"LineString","coordinates":[[126.78895,37.52941],[126.79001,37.52894]]}},{"type":"Feature","properties":{"class":"minor","highway":"residential","sidewalk":"unknown","lanes":0,"name":"","oneway":false},"geometry":{"type":"LineString","coordinates":[[126.79001,37.52894],[126.7901,37.52891],[126.79016,37.52895],[126.7903,37.52914],[126.78992,37.52932],[126.78986,37.52938],[126.78913,37.52968]]}},{"type":"Feature","properties":{"class":"minor","highway":"residential","sidewalk":"unknown","lanes":0,"name":"","oneway":false},"geometry":{"type":"LineString","coordinates":[[126.78986,37.52938],[126.79,37.52956],[126.79,37.52963],[126.78993,37.5297],[126.78901,37.53009]]}},{"type":"Feature","properties":{"class":"major","highway":"primary","sidewalk":"likely","lanes":0,"name":"오정로","oneway":false},"geometry":{"type":"LineString","coordinates":[[126.79729,37.53794],[126.79736,37.538]]}},{"type":"Feature","properties":{"class":"major","highway":"tertiary","sidewalk":"likely","lanes":0,"name":"상오정로184번길","oneway":false},"geometry":{"type":"LineString","coordinates":[[126.79707,37.52984],[126.79766,37.52997],[126.79798,37.53002],[126.79813,37.53003],[126.7984,37.53004],[126.79886,37.53004],[126.79939,37.53002],[126.80013,37.52996],[126.80094,37.52989]]}},{"type":"Feature","properties":{"class":"alley","highway":"service","sidewalk":"unknown","lanes":0,"name":"","oneway":false},"geometry":{"type":"LineString","coordinates":[[126.79794,37.5256],[126.7984,37.52554]]}},{"type":"Feature","properties":{"class":"minor","highway":"residential","sidewalk":"unknown","lanes":0,"name":"성오로142번길","oneway":true},"geometry":{"type":"LineString","coordinates":[[126.79885,37.52608],[126.79891,37.52615],[126.79942,37.52672],[126.79973,37.52707],[126.79972,37.52719],[126.79972,37.52733]]}},{"type":"Feature","properties":{"class":"alley","highway":"service","sidewalk":"unknown","lanes":0,"name":"","oneway":false},"geometry":{"type":"LineString","coordinates":[[126.78141,37.52487],[126.78146,37.52461],[126.78146,37.52415]]}},{"type":"Feature","properties":{"class":"alley","highway":"service","sidewalk":"unknown","lanes":0,"name":"","oneway":false},"geometry":{"type":"LineString","coordinates":[[126.79307,37.52428],[126.79364,37.52458],[126.79387,37.52471],[126.7939,37.52473],[126.79432,37.52487],[126.79493,37.52501],[126.79593,37.52525],[126.79608,37.52527],[126.79619,37.52531],[126.79622,37.5254],[126.79621,37.5255],[126.79616,37.52561],[126.79605,37.5257],[126.79595,37.52574],[126.7957,37.5258],[126.79473,37.52555]]}},{"type":"Feature","properties":{"class":"alley","highway":"service","sidewalk":"unknown","lanes":0,"name":"","oneway":false},"geometry":{"type":"LineString","coordinates":[[126.79387,37.52471],[126.79494,37.52401],[126.79507,37.52414],[126.79558,37.52476]]}},{"type":"Feature","properties":{"class":"alley","highway":"service","sidewalk":"unknown","lanes":0,"name":"","oneway":false},"geometry":{"type":"LineString","coordinates":[[126.79499,37.52673],[126.7946,37.52597],[126.79473,37.52555],[126.79493,37.52501],[126.79526,37.52491],[126.79558,37.52476],[126.79587,37.52457],[126.79608,37.52438],[126.79612,37.52427],[126.79613,37.52415],[126.79604,37.524],[126.79562,37.52379],[126.79507,37.52414]]}},{"type":"Feature","properties":{"class":"alley","highway":"service","sidewalk":"unknown","lanes":0,"name":"","oneway":false},"geometry":{"type":"LineString","coordinates":[[126.79612,37.52427],[126.79619,37.52432],[126.79622,37.52441],[126.79593,37.52525]]}},{"type":"Feature","properties":{"class":"alley","highway":"service","sidewalk":"unknown","lanes":0,"name":"","oneway":false},"geometry":{"type":"LineString","coordinates":[[126.79271,37.52461],[126.79319,37.52488]]}},{"type":"Feature","properties":{"class":"alley","highway":"service","sidewalk":"unknown","lanes":0,"name":"","oneway":false},"geometry":{"type":"LineString","coordinates":[[126.79387,37.52471],[126.79353,37.52507],[126.79339,37.52525],[126.79325,37.52551]]}},{"type":"Feature","properties":{"class":"alley","highway":"service","sidewalk":"unknown","lanes":0,"name":"","oneway":false},"geometry":{"type":"LineString","coordinates":[[126.79179,37.52599],[126.79072,37.52558],[126.78943,37.52508],[126.78829,37.52463],[126.78813,37.52454],[126.78808,37.5245]]}},{"type":"Feature","properties":{"class":"alley","highway":"service","sidewalk":"unknown","lanes":0,"name":"","oneway":false},"geometry":{"type":"LineString","coordinates":[[126.79017,37.52387],[126.78943,37.52508],[126.78905,37.52567],[126.78842,37.52664]]}},{"type":"Feature","properties":{"class":"alley","highway":"service","sidewalk":"unknown","lanes":0,"name":"","oneway":false},"geometry":{"type":"LineString","coordinates":[[126.79411,37.52374],[126.79378,37.52369],[126.79215,37.52376],[126.79074,37.52383],[126.79017,37.52387],[126.78975,37.52386],[126.78951,37.52387],[126.78932,37.52389],[126.78914,37.52395],[126.78876,37.52411],[126.78808,37.5245],[126.78757,37.52486],[126.78746,37.525],[126.7874,37.52516],[126.78742,37.52537],[126.78748,37.52549],[126.78842,37.52664],[126.78913,37.52754],[126.79032,37.52798],[126.79042,37.52802],[126.79069,37.5282],[126.79088,37.52829],[126.79108,37.52833],[126.79123,37.52832],[126.79132,37.5283],[126.79259,37.52776],[126.79454,37.52694],[126.79499,37.52673],[126.79522,37.52655],[126.79542,37.52632],[126.79566,37.5259],[126.7957,37.5258]]}},{"type":"Feature","properties":{"class":"alley","highway":"service","sidewalk":"unknown","lanes":0,"name":"","oneway":false},"geometry":{"type":"LineString","coordinates":[[126.79072,37.52558],[126.79089,37.5253],[126.79198,37.52571]]}},{"type":"Feature","properties":{"class":"alley","highway":"service","sidewalk":"unknown","lanes":0,"name":"","oneway":false},"geometry":{"type":"LineString","coordinates":[[126.7911,37.52704],[126.79148,37.52719],[126.79161,37.52696],[126.79233,37.52726],[126.79259,37.52776]]}},{"type":"Feature","properties":{"class":"alley","highway":"service","sidewalk":"unknown","lanes":0,"name":"","oneway":false},"geometry":{"type":"LineString","coordinates":[[126.79148,37.52719],[126.79171,37.52728],[126.79151,37.52759]]}},{"type":"Feature","properties":{"class":"alley","highway":"service","sidewalk":"unknown","lanes":0,"name":"","oneway":false},"geometry":{"type":"LineString","coordinates":[[126.79085,37.52742],[126.7907,37.52736],[126.79043,37.52724],[126.78925,37.52674],[126.78944,37.52642]]}},{"type":"Feature","properties":{"class":"alley","highway":"service","sidewalk":"unknown","lanes":0,"name":"","oneway":false},"geometry":{"type":"LineString","coordinates":[[126.79043,37.52724],[126.79068,37.52682],[126.79098,37.52694]]}},{"type":"Feature","properties":{"class":"alley","highway":"service","sidewalk":"unknown","lanes":0,"name":"","oneway":false},"geometry":{"type":"LineString","coordinates":[[126.7907,37.52736],[126.79098,37.52694],[126.79105,37.52684],[126.79127,37.52678]]}},{"type":"Feature","properties":{"class":"alley","highway":"service","sidewalk":"unknown","lanes":0,"name":"","oneway":false},"geometry":{"type":"LineString","coordinates":[[126.78905,37.52567],[126.78972,37.52597],[126.79065,37.52623],[126.79145,37.52651]]}},{"type":"Feature","properties":{"class":"alley","highway":"service","sidewalk":"unknown","lanes":0,"name":"","oneway":false},"geometry":{"type":"LineString","coordinates":[[126.79604,37.524],[126.79634,37.52407],[126.79655,37.52414],[126.7966,37.52419],[126.79684,37.5245],[126.79705,37.52484],[126.79707,37.52495],[126.79705,37.52505],[126.797,37.52521],[126.79692,37.52529],[126.79667,37.52545],[126.79653,37.5255],[126.79634,37.52551],[126.79621,37.5255]]}},{"type":"Feature","properties":{"class":"alley","highway":"service","sidewalk":"unknown","lanes":0,"name":"","oneway":false},"geometry":{"type":"LineString","coordinates":[[126.79612,37.52427],[126.79613,37.52441],[126.79593,37.52474]]}},{"type":"Feature","properties":{"class":"alley","highway":"service","sidewalk":"unknown","lanes":0,"name":"","oneway":false},"geometry":{"type":"LineString","coordinates":[[126.79712,37.52843],[126.79681,37.52849],[126.7952,37.52883]]}},{"type":"Feature","properties":{"class":"alley","highway":"service","sidewalk":"unknown","lanes":0,"name":"","oneway":true},"geometry":{"type":"LineString","coordinates":[[126.7952,37.52883],[126.79497,37.52888],[126.79454,37.52868],[126.79462,37.52855],[126.7952,37.52883]]}},{"type":"Feature","properties":{"class":"alley","highway":"service","sidewalk":"unknown","lanes":0,"name":"","oneway":false},"geometry":{"type":"LineString","coordinates":[[126.79497,37.52888],[126.79468,37.52892]]}},{"type":"Feature","properties":{"class":"alley","highway":"service","sidewalk":"unknown","lanes":0,"name":"","oneway":false},"geometry":{"type":"LineString","coordinates":[[126.79698,37.52793],[126.79668,37.52799],[126.79633,37.52807],[126.79594,37.52815],[126.79542,37.52825],[126.79533,37.52827],[126.79526,37.52828],[126.79518,37.5283]]}},{"type":"Feature","properties":{"class":"alley","highway":"service","sidewalk":"unknown","lanes":0,"name":"","oneway":false},"geometry":{"type":"LineString","coordinates":[[126.79518,37.5283],[126.79508,37.52803]]}},{"type":"Feature","properties":{"class":"alley","highway":"service","sidewalk":"unknown","lanes":0,"name":"","oneway":false},"geometry":{"type":"LineString","coordinates":[[126.79518,37.5283],[126.79525,37.52854],[126.7954,37.52851],[126.79533,37.52827],[126.79528,37.52812],[126.79582,37.52799]]}},{"type":"Feature","properties":{"class":"alley","highway":"service","sidewalk":"unknown","lanes":0,"name":"","oneway":false},"geometry":{"type":"LineString","coordinates":[[126.79668,37.52799],[126.7967,37.52807],[126.79675,37.52826]]}},{"type":"Feature","properties":{"class":"major","highway":"primary","sidewalk":"likely","lanes":0,"name":"오정로","oneway":false},"geometry":{"type":"LineString","coordinates":[[126.79736,37.538],[126.79751,37.53811],[126.79762,37.5382],[126.80033,37.54024]]}},{"type":"Feature","properties":{"class":"minor","highway":"residential","sidewalk":"unknown","lanes":0,"name":"","oneway":false},"geometry":{"type":"LineString","coordinates":[[126.79869,37.52718],[126.79859,37.52751],[126.79874,37.52764],[126.79896,37.52784]]}},{"type":"Feature","properties":{"class":"minor","highway":"residential","sidewalk":"unknown","lanes":0,"name":"","oneway":false},"geometry":{"type":"LineString","coordinates":[[126.79859,37.52751],[126.79829,37.52738]]}},{"type":"Feature","properties":{"class":"minor","highway":"residential","sidewalk":"unknown","lanes":0,"name":"","oneway":false},"geometry":{"type":"LineString","coordinates":[[126.79874,37.52764],[126.79853,37.52786],[126.79822,37.52768]]}},{"type":"Feature","properties":{"class":"minor","highway":"residential","sidewalk":"unknown","lanes":0,"name":"","oneway":false},"geometry":{"type":"LineString","coordinates":[[126.7992,37.52817],[126.79972,37.52877],[126.79983,37.52872]]}},{"type":"Feature","properties":{"class":"minor","highway":"residential","sidewalk":"unknown","lanes":0,"name":"성오로","oneway":false},"geometry":{"type":"LineString","coordinates":[[126.79464,37.52834],[126.79449,37.52855],[126.79428,37.52882],[126.79417,37.52895],[126.79405,37.52905],[126.79381,37.52912],[126.79347,37.52921],[126.79318,37.52929],[126.7925,37.52948]]}},{"type":"Feature","properties":{"class":"minor","highway":"residential","sidewalk":"unknown","lanes":0,"name":"성오로","oneway":false},"geometry":{"type":"LineString","coordinates":[[126.79674,37.5271],[126.79626,37.52727],[126.79602,37.52736],[126.79526,37.52791],[126.79524,37.52792],[126.79508,37.52803],[126.79464,37.52834]]}},{"type":"Feature","properties":{"class":"alley","highway":"service","sidewalk":"unknown","lanes":0,"name":"","oneway":false},"geometry":{"type":"LineString","coordinates":[[126.78931,37.53179],[126.78937,37.53173],[126.78946,37.53168]]}},{"type":"Feature","properties":{"class":"major","highway":"primary","sidewalk":"likely","lanes":0,"name":"오정로","oneway":false},"geometry":{"type":"LineString","coordinates":[[126.79434,37.53572],[126.79444,37.53579]]}},{"type":"Feature","properties":{"class":"major","highway":"primary","sidewalk":"likely","lanes":0,"name":"오정로","oneway":false},"geometry":{"type":"LineString","coordinates":[[126.78664,37.52991],[126.78678,37.53002],[126.78718,37.53032],[126.78739,37.53048],[126.78793,37.53089],[126.7886,37.5314],[126.78867,37.53145],[126.78891,37.53164]]}},{"type":"Feature","properties":{"class":"major","highway":"tertiary","sidewalk":"likely","lanes":0,"name":"상오정로","oneway":false},"geometry":{"type":"LineString","coordinates":[[126.79707,37.52984],[126.79707,37.52998],[126.79705,37.5301]]}},{"type":"Feature","properties":{"class":"major","highway":"tertiary","sidewalk":"likely","lanes":0,"name":"상오정로","oneway":false},"geometry":{"type":"LineString","coordinates":[[126.79706,37.52955],[126.79706,37.52967],[126.79707,37.52984]]}},{"type":"Feature","properties":{"class":"major","highway":"tertiary","sidewalk":"likely","lanes":0,"name":"상오정로","oneway":false},"geometry":{"type":"LineString","coordinates":[[126.79674,37.5271],[126.79679,37.52727],[126.79698,37.52793],[126.79703,37.52809],[126.79712,37.52843],[126.79716,37.52859],[126.79717,37.52878],[126.79706,37.52955]]}},{"type":"Feature","properties":{"class":"major","highway":"primary","sidewalk":"likely","lanes":0,"name":"오정로","oneway":false},"geometry":{"type":"LineString","coordinates":[[126.78228,37.52661],[126.78232,37.52663],[126.78295,37.52712],[126.78307,37.5272],[126.78318,37.52728],[126.78329,37.52737],[126.78343,37.52747]]}},{"type":"Feature","properties":{"class":"major","highway":"primary","sidewalk":"likely","lanes":0,"name":"오정로","oneway":false},"geometry":{"type":"LineString","coordinates":[[126.78343,37.52747],[126.7837,37.52768],[126.78406,37.52795],[126.78488,37.52857]]}},{"type":"Feature","properties":{"class":"alley","highway":"service","sidewalk":"unknown","lanes":0,"name":"부천로476번길","oneway":false},"geometry":{"type":"LineString","coordinates":[[126.78847,37.52703],[126.78855,37.52708]]}},{"type":"Feature","properties":{"class":"major","highway":"tertiary","sidewalk":"likely","lanes":0,"name":"부천로","oneway":false},"geometry":{"type":"LineString","coordinates":[[126.78263,37.52614],[126.78252,37.5263],[126.78244,37.5264],[126.78228,37.52661]]}},{"type":"Feature","properties":{"class":"minor","highway":"residential","sidewalk":"unknown","lanes":0,"name":"산업로","oneway":false},"geometry":{"type":"LineString","coordinates":[[126.78011,37.52879],[126.78012,37.52925],[126.78012,37.52941],[126.78012,37.52945],[126.78013,37.52979],[126.78013,37.5301],[126.78034,37.53033],[126.78048,37.53048],[126.78058,37.53063]]}},{"type":"Feature","properties":{"class":"major","highway":"primary","sidewalk":"likely","lanes":0,"name":"오정로","oneway":false},"geometry":{"type":"LineString","coordinates":[[126.78944,37.53202],[126.78979,37.53227],[126.78998,37.53242],[126.79067,37.53294]]}},{"type":"Feature","properties":{"class":"major","highway":"tertiary","sidewalk":"likely","lanes":2,"name":"","oneway":false},"geometry":{"type":"LineString","coordinates":[[126.78357,37.52493],[126.78353,37.52498]]}},{"type":"Feature","properties":{"class":"alley","highway":"service","sidewalk":"unknown","lanes":0,"name":"부천로460번길","oneway":false},"geometry":{"type":"LineString","coordinates":[[126.78727,37.52547],[126.7873,37.52555]]}},{"type":"Feature","properties":{"class":"major","highway":"tertiary","sidewalk":"likely","lanes":2,"name":"","oneway":false},"geometry":{"type":"LineString","coordinates":[[126.78397,37.52441],[126.78357,37.52493]]}},{"type":"Feature","properties":{"class":"minor","highway":"residential","sidewalk":"unknown","lanes":0,"name":"성오로","oneway":false},"geometry":{"type":"LineString","coordinates":[[126.79718,37.52696],[126.79708,37.52699],[126.79674,37.5271]]}},{"type":"Feature","properties":{"class":"major","highway":"tertiary","sidewalk":"likely","lanes":0,"name":"상오정로","oneway":false},"geometry":{"type":"LineString","coordinates":[[126.79672,37.52687],[126.79674,37.5271]]}},{"type":"Feature","properties":{"class":"minor","highway":"residential","sidewalk":"unknown","lanes":0,"name":"오정로252번길","oneway":false},"geometry":{"type":"LineString","coordinates":[[126.79001,37.52841],[126.79023,37.52823],[126.79034,37.52812]]}},{"type":"Feature","properties":{"class":"minor","highway":"residential","sidewalk":"unknown","lanes":0,"name":"성오로","oneway":false},"geometry":{"type":"LineString","coordinates":[[126.7925,37.52948],[126.79211,37.5296],[126.79199,37.52967]]}},{"type":"Feature","properties":{"class":"major","highway":"tertiary","sidewalk":"likely","lanes":0,"name":"성오로","oneway":false},"geometry":{"type":"LineString","coordinates":[[126.79885,37.52608],[126.7985,37.52648],[126.79825,37.52661],[126.79815,37.52665],[126.79781,37.52676],[126.79718,37.52696]]}},{"type":"Feature","properties":{"class":"major","highway":"tertiary","sidewalk":"likely","lanes":0,"name":"성오로","oneway":false},"geometry":{"type":"LineString","coordinates":[[126.79995,37.52407],[126.79968,37.52467],[126.79951,37.52503]]}},{"type":"Feature","properties":{"class":"minor","highway":"residential","sidewalk":"unknown","lanes":0,"name":"오정로252번길","oneway":false},"geometry":{"type":"LineString","coordinates":[[126.78981,37.52858],[126.78988,37.52852],[126.79001,37.52841]]}},{"type":"Feature","properties":{"class":"minor","highway":"residential","sidewalk":"unknown","lanes":0,"name":"오정로252번길","oneway":false},"geometry":{"type":"LineString","coordinates":[[126.78968,37.52869],[126.78981,37.52858]]}},{"type":"Feature","properties":{"class":"major","highway":"tertiary","sidewalk":"likely","lanes":0,"name":"부천로","oneway":false},"geometry":{"type":"LineString","coordinates":[[126.78271,37.52604],[126.78263,37.52614]]}},{"type":"Feature","properties":{"class":"major","highway":"tertiary","sidewalk":"likely","lanes":0,"name":"성오로","oneway":false},"geometry":{"type":"LineString","coordinates":[[126.79951,37.52503],[126.79936,37.52535],[126.79929,37.52552],[126.79924,37.52564],[126.79885,37.52608]]}},{"type":"Feature","properties":{"class":"major","highway":"tertiary","sidewalk":"likely","lanes":0,"name":"성오로160번길","oneway":false},"geometry":{"type":"LineString","coordinates":[[126.79972,37.52733],[126.79989,37.52736],[126.80101,37.52753]]}},{"type":"Feature","properties":{"class":"minor","highway":"residential","sidewalk":"unknown","lanes":0,"name":"산업로","oneway":false},"geometry":{"type":"LineString","coordinates":[[126.78065,37.53077],[126.78067,37.53081],[126.78069,37.5309],[126.7807,37.53094],[126.7807,37.53115],[126.7807,37.53171],[126.7807,37.53194]]}},{"type":"Feature","properties":{"class":"minor","highway":"residential","sidewalk":"unknown","lanes":0,"name":"산업로","oneway":false},"geometry":{"type":"LineString","coordinates":[[126.78058,37.53063],[126.78065,37.53077]]}},{"type":"Feature","properties":{"class":"major","highway":"tertiary","sidewalk":"likely","lanes":0,"name":"봉오대로","oneway":true},"geometry":{"type":"LineString","coordinates":[[126.78093,37.53187],[126.78191,37.53185]]}},{"type":"Feature","properties":{"class":"major","highway":"tertiary","sidewalk":"likely","lanes":0,"name":"봉오대로","oneway":true},"geometry":{"type":"LineString","coordinates":[[126.7943,37.53199],[126.7959,37.532]]}},{"type":"Feature","properties":{"class":"major","highway":"tertiary_link","sidewalk":"likely","lanes":0,"name":"상오정로","oneway":true},"geometry":{"type":"LineString","coordinates":[[126.79652,37.53137],[126.79661,37.53127],[126.79673,37.53111],[126.79683,37.53092],[126.7969,37.53072],[126.79692,37.53064],[126.79697,37.53027],[126.79705,37.5301]]}},{"type":"Feature","properties":{"class":"alley","highway":"service","sidewalk":"unknown","lanes":0,"name":"","oneway":false},"geometry":{"type":"LineString","coordinates":[[126.79218,37.52882],[126.79228,37.52862],[126.7925,37.52855],[126.7924,37.52835]]}}]}