{"type":"FeatureCollection","features":[{"type":"Feature","properties":{"class":"major","highway":"tertiary","sidewalk":"likely","lanes":0,"name":"경명대로","oneway":false},"geometry":{"type":"LineString","coordinates":[[126.76248,37.54],[126.76322,37.5398]]}},{"type":"Feature","properties":{"class":"major","highway":"motorway_link","sidewalk":"no","lanes":0,"name":"","oneway":true},"geometry":{"type":"LineString","coordinates":[[126.777,37.52427],[126.77694,37.52445],[126.7769,37.52453],[126.77683,37.52461],[126.77674,37.52468],[126.77664,37.52474],[126.77652,37.52477],[126.77633,37.52479],[126.77614,37.52477]]}},{"type":"Feature","properties":{"class":"major","highway":"motorway_link","sidewalk":"likely","lanes":0,"name":"","oneway":true},"geometry":{"type":"LineString","coordinates":[[126.77756,37.52504],[126.7774,37.52501],[126.7772,37.52498],[126.777,37.52495],[126.77677,37.52494],[126.77659,37.52492],[126.7764,37.52488],[126.77614,37.52477],[126.7758,37.52461],[126.77554,37.52451],[126.77528,37.52445],[126.77501,37.52441],[126.77473,37.52437],[126.77406,37.52432]]}},{"type":"Feature","properties":{"class":"major","highway":"motorway_link","sidewalk":"likely","lanes":0,"name":"","oneway":true},"geometry":{"type":"LineString","coordinates":[[126.78252,37.52389],[126.7811,37.52412],[126.7803,37.52423],[126.77975,37.5243],[126.77927,37.52435],[126.77804,37.52453]]}},{"type":"Feature","properties":{"class":"major","highway":"tertiary_link","sidewalk":"likely","lanes":0,"name":"","oneway":true},"geometry":{"type":"LineString","coordinates":[[126.78048,37.53206],[126.77885,37.53211]]}},{"type":"Feature","properties":{"class":"major","highway":"tertiary","sidewalk":"likely","lanes":0,"name":"봉오대로","oneway":true},"geometry":{"type":"LineString","coordinates":[[126.77876,37.53185],[126.78049,37.53186]]}},{"type":"Feature","properties":{"class":"major","highway":"tertiary_link","sidewalk":"likely","lanes":0,"name":"","oneway":true},"geometry":{"type":"LineString","coordinates":[[126.77885,37.53211],[126.7777,37.53211]]}},{"type":"Feature","properties":{"class":"major","highway":"tertiary","sidewalk":"likely","lanes":0,"name":"봉오대로","oneway":true},"geometry":{"type":"LineString","coordinates":[[126.77885,37.53205],[126.77772,37.53203]]}},{"type":"Feature","properties":{"class":"major","highway":"tertiary","sidewalk":"likely","lanes":0,"name":"봉오대로","oneway":true},"geometry":{"type":"LineString","coordinates":[[126.77772,37.53203],[126.77322,37.53197],[126.77117,37.53197],[126.76849,37.53197]]}},{"type":"Feature","properties":{"class":"major","highway":"tertiary","sidewalk":"likely","lanes":0,"name":"봉오대로","oneway":true},"geometry":{"type":"LineString","coordinates":[[126.77761,37.53184],[126.77876,37.53185]]}},{"type":"Feature","properties":{"class":"major","highway":"tertiary_link","sidewalk":"likely","lanes":0,"name":"","oneway":true},"geometry":{"type":"LineString","coordinates":[[126.76439,37.53169],[126.76474,37.5317]]}},{"type":"Feature","properties":{"class":"major","highway":"tertiary_link","sidewalk":"likely","lanes":0,"name":"","oneway":true},"geometry":{"type":"LineString","coordinates":[[126.76473,37.53197],[126.76439,37.53196]]}},{"type":"Feature","properties":{"class":"major","highway":"tertiary","sidewalk":"likely","lanes":0,"name":"봉오대로","oneway":true},"geometry":{"type":"LineString","coordinates":[[126.76439,37.53196],[126.76295,37.53198],[126.76138,37.53197],[126.76122,37.53195],[126.76105,37.53195],[126.7609,37.53195]]}},{"type":"Feature","properties":{"class":"major","highway":"tertiary_link","sidewalk":"likely","lanes":0,"name":"봉오대로","oneway":true},"geometry":{"type":"LineString","coordinates":[[126.76474,37.5317],[126.76502,37.53175]]}},{"type":"Feature","properties":{"class":"major","highway":"motorway_link","sidewalk":"likely","lanes":0,"name":"","oneway":true},"geometry":{"type":"LineString","coordinates":[[126.77804,37.52453],[126.77773,37.52457],[126.77759,37.52456],[126.77744,37.52455],[126.77733,37.52453],[126.77715,37.52448]]}},{"type":"Feature","properties":{"class":"major","highway":"primary","sidewalk":"likely","lanes":4,"name":"벌말로","oneway":false},"geometry":{"type":"LineString","coordinates":[[126.76322,37.5398],[126.76339,37.54026],[126.76357,37.54077],[126.76399,37.54195],[126.76477,37.54411],[126.76717,37.55093],[126.7676,37.5523],[126.76769,37.55258]]}},{"type":"Feature","properties":{"class":"major","highway":"primary_link","sidewalk":"likely","lanes":0,"name":"","oneway":true},"geometry":{"type":"LineString","coordinates":[[126.76339,37.54026],[126.76323,37.54016],[126.7632,37.5401],[126.76311,37.54001],[126.76301,37.53997],[126.76297,37.53997],[126.76289,37.53996],[126.76248,37.54]]}},{"type":"Feature","properties":{"class":"major","highway":"primary_link","sidewalk":"likely","lanes":0,"name":"","oneway":true},"geometry":{"type":"LineString","coordinates":[[126.76248,37.54],[126.76289,37.53981],[126.76296,37.53975],[126.76301,37.53967],[126.76302,37.53957],[126.76302,37.53927]]}},{"type":"Feature","properties":{"class":"major","highway":"tertiary_link","sidewalk":"likely","lanes":0,"name":"","oneway":true},"geometry":{"type":"LineString","coordinates":[[126.7772,37.53302],[126.77702,37.53297],[126.77692,37.53291],[126.77644,37.53247],[126.77632,37.53237],[126.7762,37.5323],[126.77601,37.53221],[126.77571,37.53212],[126.77532,37.53204],[126.77402,37.53204],[126.77322,37.53197]]}},{"type":"Feature","properties":{"class":"major","highway":"tertiary_link","sidewalk":"likely","lanes":0,"name":"","oneway":true},"geometry":{"type":"LineString","coordinates":[[126.7777,37.53211],[126.77732,37.53214],[126.77716,37.53217],[126.77702,37.53223],[126.77691,37.53233],[126.77684,37.53242],[126.77681,37.53253],[126.77683,37.53265],[126.77688,37.53276],[126.77697,37.53286],[126.77709,37.53295],[126.7772,37.53302]]}},{"type":"Feature","properties":{"class":"major","highway":"tertiary","sidewalk":"likely","lanes":3,"name":"봉오대로","oneway":true},"geometry":{"type":"LineString","coordinates":[[126.76473,37.53178],[126.76502,37.53175]]}},{"type":"Feature","properties":{"class":"major","highway":"tertiary_link","sidewalk":"likely","lanes":0,"name":"봉오대로","oneway":true},"geometry":{"type":"LineString","coordinates":[[126.77798,37.53105],[126.77805,37.53139],[126.77812,37.53151],[126.77822,37.53162],[126.77835,37.53169],[126.7785,37.53173],[126.77865,37.53174],[126.78048,37.53176]]}},{"type":"Feature","properties":{"class":"major","highway":"tertiary_link","sidewalk":"likely","lanes":0,"name":"봉오대로","oneway":true},"geometry":{"type":"LineString","coordinates":[[126.77402,37.53181],[126.77613,37.53171],[126.77734,37.53172],[126.7775,37.5317],[126.77764,37.53165],[126.77774,37.53157],[126.77781,37.53147],[126.77787,37.53132],[126.77798,37.53105]]}},{"type":"Feature","properties":{"class":"major","highway":"primary","sidewalk":"likely","lanes":0,"name":"오정로","oneway":false},"geometry":{"type":"LineString","coordinates":[[126.76149,37.52572],[126.76194,37.52573],[126.76231,37.52573],[126.76245,37.52573],[126.76434,37.52574],[126.7646,37.52574],[126.76468,37.52574],[126.76495,37.52574],[126.76526,37.52574],[126.7656,37.52574],[126.76831,37.52576],[126.76942,37.52576],[126.76981,37.52576],[126.77045,37.52577]]}},{"type":"Feature","properties":{"class":"major","highway":"tertiary","sidewalk":"likely","lanes":0,"name":"봉오대로","oneway":true},"geometry":{"type":"LineString","coordinates":[[126.78048,37.53206],[126.77885,37.53205]]}},{"type":"Feature","properties":{"class":"minor","highway":"residential","sidewalk":"unknown","lanes":0,"name":"","oneway":false},"geometry":{"type":"LineString","coordinates":[[126.77803,37.52879],[126.77729,37.52879],[126.77483,37.5288],[126.77466,37.5288],[126.77434,37.52881],[126.77411,37.52889],[126.77312,37.52947],[126.77119,37.5306],[126.77076,37.53069],[126.76903,37.53071],[126.7688,37.53071],[126.76814,37.53071]]}},{"type":"Feature","properties":{"class":"minor","highway":"residential","sidewalk":"unknown","lanes":0,"name":"산업로7번길","oneway":false},"geometry":{"type":"LineString","coordinates":[[126.7807,37.53115],[126.78034,37.53114],[126.77944,37.53113],[126.77885,37.53113],[126.77879,37.53107],[126.7788,37.5301],[126.7788,37.52985],[126.7788,37.52964],[126.7788,37.52948],[126.7788,37.52928],[126.7788,37.52921],[126.7788,37.52898],[126.7788,37.52879]]}},{"type":"Feature","properties":{"class":"minor","highway":"residential","sidewalk":"unknown","lanes":0,"name":"산업로","oneway":false},"geometry":{"type":"LineString","coordinates":[[126.78013,37.5301],[126.7788,37.5301]]}},{"type":"Feature","properties":{"class":"minor","highway":"unclassified","sidewalk":"unknown","lanes":0,"name":"오정로188번길","oneway":false},"geometry":{"type":"LineString","coordinates":[[126.77999,37.52439],[126.78003,37.52442],[126.78084,37.52522],[126.78157,37.52595],[126.78157,37.52597],[126.78153,37.52606]]}},{"type":"Feature","properties":{"class":"alley","highway":"service","sidewalk":"unknown","lanes":0,"name":"신흥로470번길","oneway":false},"geometry":{"type":"LineString","coordinates":[[126.77764,37.52501],[126.7777,37.52494],[126.77781,37.52484],[126.7781,37.52465],[126.77829,37.52458],[126.77865,37.52452],[126.77981,37.52439],[126.77989,37.52439],[126.78003,37.52442]]}},{"type":"Feature","properties":{"class":"alley","highway":"service","sidewalk":"unknown","lanes":0,"name":"","oneway":false},"geometry":{"type":"LineString","coordinates":[[126.77105,37.52487],[126.77147,37.5249],[126.77153,37.52493],[126.77153,37.52502]]}},{"type":"Feature","properties":{"class":"alley","highway":"service","sidewalk":"unknown","lanes":0,"name":"신흥로469번길","oneway":false},"geometry":{"type":"LineString","coordinates":[[126.7776,37.5251],[126.77737,37.5251],[126.77729,37.5251],[126.77703,37.5251],[126.77693,37.52509],[126.77669,37.52508],[126.77647,37.52504],[126.77637,37.525],[126.77619,37.5249],[126.77528,37.52457],[126.77511,37.52449],[126.77494,37.52446],[126.77468,37.52444],[126.77407,37.52444],[126.7739,37.52443]]}},{"type":"Feature","properties":{"class":"alley","highway":"service","sidewalk":"unknown","lanes":0,"name":"","oneway":false},"geometry":{"type":"LineString","coordinates":[[126.77482,37.52597],[126.77487,37.52593],[126.775,37.52582]]}},{"type":"Feature","properties":{"class":"alley","highway":"service","sidewalk":"unknown","lanes":0,"name":"오정로133번길","oneway":false},"geometry":{"type":"LineString","coordinates":[[126.77525,37.52655],[126.77527,37.52607],[126.77528,37.52588],[126.77524,37.52582]]}},{"type":"Feature","properties":{"class":"alley","highway":"service","sidewalk":"unknown","lanes":0,"name":"오정로96번길","oneway":false},"geometry":{"type":"LineString","coordinates":[[126.7708,37.52552],[126.77093,37.5254],[126.771,37.52529],[126.77103,37.52519],[126.77105,37.52487],[126.77107,37.52441]]}},{"type":"Feature","properties":{"class":"alley","highway":"service","sidewalk":"unknown","lanes":0,"name":"","oneway":false},"geometry":{"type":"LineString","coordinates":[[126.77058,37.52524],[126.77061,37.5252],[126.77069,37.52488],[126.77073,37.52476]]}},{"type":"Feature","properties":{"class":"alley","highway":"service","sidewalk":"unknown","lanes":0,"name":"","oneway":false},"geometry":{"type":"LineString","coordinates":[[126.77407,37.52444],[126.77399,37.52455],[126.77383,37.52502]]}},{"type":"Feature","properties":{"class":"alley","highway":"service","sidewalk":"unknown","lanes":0,"name":"","oneway":false},"geometry":{"type":"LineString","coordinates":[[126.76957,37.52451],[126.76976,37.52476],[126.77012,37.52529],[126.77017,37.52528],[126.77027,37.52525],[126.77045,37.52508]]}},{"type":"Feature","properties":{"class":"alley","highway":"service","sidewalk":"unknown","lanes":0,"name":"","oneway":false},"geometry":{"type":"LineString","coordinates":[[126.7735,37.52598],[126.77357,37.52592],[126.7736,37.52587],[126.77361,37.5258]]}},{"type":"Feature","properties":{"class":"alley","highway":"service","sidewalk":"unknown","lanes":0,"name":"석천로442번길","oneway":false},"geometry":{"type":"LineString","coordinates":[[126.77045,37.52577],[126.77047,37.52586],[126.77052,37.52593],[126.77178,37.52707],[126.77148,37.5273]]}},{"type":"Feature","properties":{"class":"alley","highway":"service","sidewalk":"unknown","lanes":0,"name":"석천로468번길","oneway":false},"geometry":{"type":"LineString","coordinates":[[126.77078,37.52882],[126.77115,37.5286],[126.77226,37.52861]]}},{"type":"Feature","properties":{"class":"alley","highway":"service","sidewalk":"unknown","lanes":0,"name":"석천로442번길","oneway":false},"geometry":{"type":"LineString","coordinates":[[126.77148,37.5273],[126.77149,37.52736],[126.77302,37.5286],[126.77321,37.52877]]}},{"type":"Feature","properties":{"class":"alley","highway":"service","sidewalk":"unknown","lanes":0,"name":"석천로468번길","oneway":false},"geometry":{"type":"LineString","coordinates":[[126.77184,37.52962],[126.77114,37.52908],[126.77078,37.52882],[126.76973,37.52805],[126.76959,37.52797],[126.76953,37.52795]]}},{"type":"Feature","properties":{"class":"alley","highway":"service","sidewalk":"unknown","lanes":0,"name":"","oneway":false},"geometry":{"type":"LineString","coordinates":[[126.77226,37.52861],[126.77302,37.5286],[126.77342,37.5286],[126.77346,37.52861],[126.77348,37.52863]]}},{"type":"Feature","properties":{"class":"minor","highway":"unclassified","sidewalk":"unknown","lanes":0,"name":"","oneway":false},"geometry":{"type":"LineString","coordinates":[[126.77114,37.52908],[126.77115,37.5286],[126.77118,37.52754],[126.77118,37.52737],[126.7712,37.52734],[126.77123,37.52732],[126.77129,37.5273],[126.77148,37.5273],[126.77214,37.5273],[126.77219,37.52728],[126.77244,37.52708]]}},{"type":"Feature","properties":{"class":"alley","highway":"service","sidewalk":"unknown","lanes":0,"name":"석천로494번길","oneway":false},"geometry":{"type":"LineString","coordinates":[[126.77361,37.52856],[126.77348,37.52863],[126.77327,37.52877],[126.77321,37.52877],[126.77184,37.52962],[126.77095,37.53016],[126.77085,37.53021],[126.77076,37.53022],[126.77068,37.53022],[126.77059,37.53021],[126.77037,37.53014],[126.76985,37.52997],[126.76975,37.52995],[126.76968,37.52993],[126.76956,37.52991],[126.76942,37.52991],[126.7693,37.52993],[126.76925,37.52993],[126.76894,37.53001],[126.7688,37.53004],[126.76873,37.53005],[126.76852,37.53005]]}},{"type":"Feature","properties":{"class":"alley","highway":"service","sidewalk":"unknown","lanes":0,"name":"오정로39번길","oneway":false},"geometry":{"type":"LineString","coordinates":[[126.76453,37.52959],[126.76455,37.5287],[126.76458,37.52775],[126.7646,37.52681],[126.7646,37.52574]]}},{"type":"Feature","properties":{"class":"alley","highway":"service","sidewalk":"unknown","lanes":0,"name":"석천로453번길","oneway":false},"geometry":{"type":"LineString","coordinates":[[126.76497,37.5287],[126.76498,37.52775]]}},{"type":"Feature","properties":{"class":"minor","highway":"residential","sidewalk":"unknown","lanes":0,"name":"","oneway":false},"geometry":{"type":"LineString","coordinates":[[126.76275,37.52871],[126.76449,37.52873],[126.76455,37.5287]]}},{"type":"Feature","properties":{"class":"minor","highway":"residential","sidewalk":"unknown","lanes":0,"name":"송내대로518번길","oneway":false},"geometry":{"type":"LineString","coordinates":[[126.76092,37.52956],[126.76105,37.52957],[126.76273,37.52958],[126.76453,37.52959],[126.76665,37.52961],[126.76872,37.52963]]}},{"type":"Feature","properties":{"class":"alley","highway":"service","sidewalk":"unknown","lanes":0,"name":"송내대로518번길","oneway":false},"geometry":{"type":"LineString","coordinates":[[126.76273,37.52958],[126.76275,37.52871]]}},{"type":"Feature","properties":{"class":"alley","highway":"service","sidewalk":"unknown","lanes":0,"name":"오정로39번길","oneway":false},"geometry":{"type":"LineString","coordinates":[[126.7646,37.52681],[126.76637,37.52683]]}},{"type":"Feature","properties":{"class":"alley","highway":"service","sidewalk":"unknown","lanes":0,"name":"오정로71번길","oneway":false},"geometry":{"type":"LineString","coordinates":[[126.76831,37.52576],[126.76827,37.52686],[126.76826,37.52732]]}},{"type":"Feature","properties":{"class":"alley","highway":"service","sidewalk":"unknown","lanes":0,"name":"석천로453번길","oneway":false},"geometry":{"type":"LineString","coordinates":[[126.76458,37.52775],[126.76498,37.52775],[126.76663,37.52776],[126.76826,37.52732],[126.76998,37.52685]]}},{"type":"Feature","properties":{"class":"alley","highway":"service","sidewalk":"unknown","lanes":0,"name":"송내대로518번길","oneway":false},"geometry":{"type":"LineString","coordinates":[[126.76665,37.52961],[126.76665,37.52927]]}},{"type":"Feature","properties":{"class":"alley","highway":"service","sidewalk":"unknown","lanes":0,"name":"","oneway":false},"geometry":{"type":"LineString","coordinates":[[126.76468,37.52574],[126.76469,37.52442],[126.76458,37.52442],[126.76437,37.52441],[126.76432,37.52444],[126.76421,37.5245]]}},{"type":"Feature","properties":{"class":"alley","highway":"service","sidewalk":"unknown","lanes":0,"name":"","oneway":false},"geometry":{"type":"LineString","coordinates":[[126.76432,37.52444],[126.76434,37.52574]]}},{"type":"Feature","properties":{"class":"alley","highway":"service","sidewalk":"unknown","lanes":0,"name":"","oneway":false},"geometry":{"type":"LineString","coordinates":[[126.76942,37.52576],[126.76942,37.52558]]}},{"type":"Feature","properties":{"class":"major","highway":"primary","sidewalk":"likely","lanes":0,"name":"석천로","oneway":false},"geometry":{"type":"LineString","coordinates":[[126.767,37.53184],[126.76675,37.53208]]}},{"type":"Feature","properties":{"class":"major","highway":"primary","sidewalk":"likely","lanes":0,"name":"석천로","oneway":false},"geometry":{"type":"LineString","coordinates":[[126.76592,37.53289],[126.76554,37.53325],[126.76537,37.53341],[126.76509,37.53369],[126.76474,37.53399],[126.76433,37.53427],[126.76376,37.53459],[126.76243,37.53538],[126.76225,37.5355],[126.76212,37.53562],[126.76185,37.53593]]}},{"type":"Feature","properties":{"class":"major","highway":"primary","sidewalk":"likely","lanes":0,"name":"석천로","oneway":false},"geometry":{"type":"LineString","coordinates":[[126.76814,37.53071],[126.76809,37.5308],[126.76722,37.53163]]}},{"type":"Feature","properties":{"class":"alley","highway":"service","sidewalk":"unknown","lanes":0,"name":"신흥로489번길","oneway":false},"geometry":{"type":"LineString","coordinates":[[126.77805,37.5269],[126.77786,37.52689],[126.77696,37.52694],[126.77673,37.52697],[126.77651,37.52702],[126.77633,37.52709],[126.77613,37.52719],[126.77579,37.52739]]}},{"type":"Feature","properties":{"class":"major","highway":"primary","sidewalk":"likely","lanes":0,"name":"석천로","oneway":false},"geometry":{"type":"LineString","coordinates":[[126.77045,37.52577],[126.77032,37.52592],[126.77023,37.52607],[126.76998,37.52685],[126.76981,37.52736],[126.76953,37.52795],[126.76872,37.52963],[126.76852,37.53005]]}},{"type":"Feature","properties":{"class":"major","highway":"primary","sidewalk":"likely","lanes":0,"name":"석천로","oneway":false},"geometry":{"type":"LineString","coordinates":[[126.76852,37.53005],[126.76836,37.53037]]}},{"type":"Feature","properties":{"class":"minor","highway":"residential","sidewalk":"unknown","lanes":0,"name":"산업로8번길","oneway":false},"geometry":{"type":"LineString","coordinates":[[126.7788,37.52879],[126.77881,37.52784],[126.78002,37.52784],[126.78012,37.52784],[126.78036,37.52785],[126.7812,37.52785],[126.78161,37.52785]]}},{"type":"Feature","properties":{"class":"minor","highway":"residential","sidewalk":"unknown","lanes":0,"name":"산업로","oneway":false},"geometry":{"type":"LineString","coordinates":[[126.77803,37.52879],[126.7788,37.52879],[126.77925,37.52879],[126.77946,37.52879],[126.78011,37.52879]]}},{"type":"Feature","properties":{"class":"alley","highway":"service","sidewalk":"unknown","lanes":0,"name":"오정로","oneway":false},"geometry":{"type":"LineString","coordinates":[[126.78091,37.52583],[126.77992,37.52681],[126.77951,37.52655]]}},{"type":"Feature","properties":{"class":"alley","highway":"service","sidewalk":"unknown","lanes":0,"name":"오정로","oneway":false},"geometry":{"type":"LineString","coordinates":[[126.7803,37.52582],[126.77951,37.52655]]}},{"type":"Feature","properties":{"class":"alley","highway":"service","sidewalk":"unknown","lanes":0,"name":"오정로","oneway":false},"geometry":{"type":"LineString","coordinates":[[126.77866,37.52584],[126.7792,37.52633],[126.77951,37.52655]]}},{"type":"Feature","properties":{"class":"alley","highway":"service","sidewalk":"unknown","lanes":0,"name":"","oneway":false},"geometry":{"type":"LineString","coordinates":[[126.78012,37.52925],[126.77934,37.52925]]}},{"type":"Feature","properties":{"class":"alley","highway":"service","sidewalk":"unknown","lanes":0,"name":"","oneway":false},"geometry":{"type":"LineString","coordinates":[[126.7788,37.52928],[126.77896,37.52928],[126.77896,37.52912]]}},{"type":"Feature","properties":{"class":"alley","highway":"service","sidewalk":"unknown","lanes":0,"name":"","oneway":true},"geometry":{"type":"LineString","coordinates":[[126.78057,37.5309],[126.78049,37.53101],[126.77995,37.53101],[126.77995,37.5309],[126.78057,37.5309]]}},{"type":"Feature","properties":{"class":"alley","highway":"service","sidewalk":"unknown","lanes":0,"name":"","oneway":false},"geometry":{"type":"LineString","coordinates":[[126.77944,37.53113],[126.77944,37.531]]}},{"type":"Feature","properties":{"class":"alley","highway":"service","sidewalk":"unknown","lanes":0,"name":"","oneway":false},"geometry":{"type":"LineString","coordinates":[[126.77944,37.531],[126.77944,37.53071],[126.77944,37.5306]]}},{"type":"Feature","properties":{"class":"alley","highway":"service","sidewalk":"unknown","lanes":0,"name":"","oneway":false},"geometry":{"type":"LineString","coordinates":[[126.77944,37.53071],[126.77967,37.53071],[126.77996,37.53071]]}},{"type":"Feature","properties":{"class":"alley","highway":"service","sidewalk":"unknown","lanes":0,"name":"","oneway":false},"geometry":{"type":"LineString","coordinates":[[126.77967,37.531],[126.77967,37.53071],[126.77967,37.5306]]}},{"type":"Feature","properties":{"class":"alley","highway":"service","sidewalk":"unknown","lanes":0,"name":"산업로8번길","oneway":false},"geometry":{"type":"LineString","coordinates":[[126.77881,37.52784],[126.77883,37.52689]]}},{"type":"Feature","properties":{"class":"alley","highway":"pedestrian","sidewalk":"unknown","lanes":0,"name":"","oneway":false},"geometry":{"type":"LineString","coordinates":[[126.7788,37.5301],[126.778,37.5301]]}},{"type":"Feature","properties":{"class":"alley","highway":"service","sidewalk":"unknown","lanes":0,"name":"","oneway":false},"geometry":{"type":"LineString","coordinates":[[126.7788,37.52898],[126.77862,37.52898],[126.77862,37.52893]]}},{"type":"Feature","properties":{"class":"alley","highway":"service","sidewalk":"unknown","lanes":0,"name":"","oneway":false},"geometry":{"type":"LineString","coordinates":[[126.7788,37.52921],[126.77866,37.52921]]}},{"type":"Feature","properties":{"class":"alley","highway":"service","sidewalk":"unknown","lanes":0,"name":"","oneway":false},"geometry":{"type":"LineString","coordinates":[[126.77885,37.53113],[126.77885,37.53117],[126.77885,37.53124],[126.77912,37.53124]]}},{"type":"Feature","properties":{"class":"alley","highway":"service","sidewalk":"unknown","lanes":0,"name":"","oneway":false},"geometry":{"type":"LineString","coordinates":[[126.77885,37.53117],[126.77867,37.53117]]}},{"type":"Feature","properties":{"class":"alley","highway":"service","sidewalk":"unknown","lanes":0,"name":"","oneway":false},"geometry":{"type":"LineString","coordinates":[[126.7788,37.52985],[126.77843,37.52985]]}},{"type":"Feature","properties":{"class":"alley","highway":"service","sidewalk":"unknown","lanes":0,"name":"","oneway":false},"geometry":{"type":"LineString","coordinates":[[126.7788,37.52964],[126.77865,37.52964]]}},{"type":"Feature","properties":{"class":"alley","highway":"service","sidewalk":"unknown","lanes":0,"name":"","oneway":false},"geometry":{"type":"LineString","coordinates":[[126.7788,37.52948],[126.77866,37.52948]]}},{"type":"Feature","properties":{"class":"major","highway":"primary","sidewalk":"likely","lanes":0,"name":"오정로","oneway":false},"geometry":{"type":"LineString","coordinates":[[126.7784,37.52584],[126.77866,37.52584],[126.7803,37.52582],[126.7808,37.52582],[126.78091,37.52583],[126.78103,37.52584],[126.78125,37.5259],[126.78148,37.52603],[126.78153,37.52606],[126.78205,37.52644],[126.78228,37.52661]]}},{"type":"Feature","properties":{"class":"major","highway":"tertiary","sidewalk":"likely","lanes":0,"name":"신흥로","oneway":false},"geometry":{"type":"LineString","coordinates":[[126.77807,37.52585],[126.77805,37.52678],[126.77805,37.5269],[126.77803,37.52879]]}},{"type":"Feature","properties":{"class":"major","highway":"primary","sidewalk":"likely","lanes":0,"name":"오정로","oneway":false},"geometry":{"type":"LineString","coordinates":[[126.77045,37.52577],[126.771,37.52577],[126.77132,37.52578],[126.77361,37.5258],[126.775,37.52582],[126.77524,37.52582],[126.77692,37.52584],[126.77717,37.52584],[126.77807,37.52585]]}},{"type":"Feature","properties":{"class":"major","highway":"tertiary","sidewalk":"likely","lanes":3,"name":"봉오대로","oneway":true},"geometry":{"type":"LineString","coordinates":[[126.76502,37.53193],[126.76474,37.53189]]}},{"type":"Feature","properties":{"class":"major","highway":"tertiary_link","sidewalk":"likely","lanes":2,"name":"봉오대로","oneway":true},"geometry":{"type":"LineString","coordinates":[[126.76166,37.53166],[126.76439,37.53169]]}},{"type":"Feature","properties":{"class":"major","highway":"tertiary","sidewalk":"likely","lanes":5,"name":"봉오대로","oneway":true},"geometry":{"type":"LineString","coordinates":[[126.76502,37.53175],[126.76693,37.53176]]}},{"type":"Feature","properties":{"class":"major","highway":"tertiary_link","sidewalk":"likely","lanes":0,"name":"봉오대로","oneway":true},"geometry":{"type":"LineString","coordinates":[[126.76502,37.53193],[126.76473,37.53197]]}},{"type":"Feature","properties":{"class":"major","highway":"tertiary","sidewalk":"likely","lanes":5,"name":"봉오대로","oneway":true},"geometry":{"type":"LineString","coordinates":[[126.76849,37.53197],[126.76502,37.53193]]}},{"type":"Feature","properties":{"class":"major","highway":"tertiary","sidewalk":"likely","lanes":0,"name":"봉오대로","oneway":true},"geometry":{"type":"LineString","coordinates":[[126.76693,37.53176],[126.76901,37.53177],[126.76973,37.5318],[126.77402,37.53181],[126.77761,37.53184]]}},{"type":"Feature","properties":{"class":"minor","highway":"residential","sidewalk":"unknown","lanes":0,"name":"신흥로511번길","oneway":false},"geometry":{"type":"LineString","coordinates":[[126.77729,37.52879],[126.77729,37.52829],[126.7752,37.52823],[126.77502,37.52807]]}},{"type":"Feature","properties":{"class":"major","highway":"tertiary","sidewalk":"likely","lanes":0,"name":"","oneway":false},"geometry":{"type":"LineString","coordinates":[[126.76376,37.53459],[126.76354,37.53438]]}},{"type":"Feature","properties":{"class":"major","highway":"tertiary","sidewalk":"likely","lanes":0,"name":"석천로531번길","oneway":false},"geometry":{"type":"LineString","coordinates":[[126.76321,37.53354],[126.76318,37.53335],[126.76319,37.53264],[126.76334,37.53255],[126.76391,37.53255]]}},{"type":"Feature","properties":{"class":"major","highway":"tertiary","sidewalk":"likely","lanes":0,"name":"","oneway":false},"geometry":{"type":"LineString","coordinates":[[126.76354,37.53438],[126.76349,37.53431]]}},{"type":"Feature","properties":{"class":"major","highway":"tertiary","sidewalk":"likely","lanes":0,"name":"석천로531번길","oneway":false},"geometry":{"type":"LineString","coordinates":[[126.76518,37.53255],[126.76541,37.5326],[126.76592,37.53289]]}},{"type":"Feature","properties":{"class":"major","highway":"tertiary","sidewalk":"likely","lanes":0,"name":"석천로531번길","oneway":false},"geometry":{"type":"LineString","coordinates":[[126.76442,37.53255],[126.76477,37.53255]]}},{"type":"Feature","properties":{"class":"alley","highway":"service","sidewalk":"unknown","lanes":0,"name":"","oneway":false},"geometry":{"type":"LineString","coordinates":[[126.77148,37.5273],[126.77118,37.52754]]}},{"type":"Feature","properties":{"class":"minor","highway":"residential","sidewalk":"unknown","lanes":0,"name":"","oneway":false},"geometry":{"type":"LineString","coordinates":[[126.77502,37.52807],[126.7744,37.52846],[126.77433,37.52869],[126.77434,37.52881]]}},{"type":"Feature","properties":{"class":"alley","highway":"service","sidewalk":"unknown","lanes":0,"name":"","oneway":false},"geometry":{"type":"LineString","coordinates":[[126.77374,37.52771],[126.77525,37.52655]]}},{"type":"Feature","properties":{"class":"alley","highway":"service","sidewalk":"unknown","lanes":0,"name":"오정로134번길","oneway":false},"geometry":{"type":"LineString","coordinates":[[126.77524,37.52582],[126.77528,37.52457]]}},{"type":"Feature","properties":{"class":"alley","highway":"service","sidewalk":"unknown","lanes":0,"name":"오정로96번길","oneway":false},"geometry":{"type":"LineString","coordinates":[[126.7739,37.52443],[126.77107,37.52441],[126.77012,37.52442],[126.77009,37.52445],[126.77008,37.52449],[126.77008,37.52453],[126.77045,37.52508],[126.77058,37.52524],[126.7708,37.52552],[126.771,37.52577]]}},{"type":"Feature","properties":{"class":"alley","highway":"service","sidewalk":"unknown","lanes":0,"name":"오정로95번길","oneway":false},"geometry":{"type":"LineString","coordinates":[[126.771,37.52577],[126.77116,37.52592],[126.77195,37.52668],[126.77244,37.52708],[126.77393,37.52828]]}},{"type":"Feature","properties":{"class":"alley","highway":"service","sidewalk":"unknown","lanes":0,"name":"","oneway":false},"geometry":{"type":"LineString","coordinates":[[126.77361,37.52856],[126.77364,37.5285],[126.77393,37.52828]]}},{"type":"Feature","properties":{"class":"minor","highway":"residential","sidewalk":"unknown","lanes":0,"name":"오정로39번길","oneway":false},"geometry":{"type":"LineString","coordinates":[[126.76455,37.5287],[126.76497,37.5287],[126.76553,37.52871]]}},{"type":"Feature","properties":{"class":"alley","highway":"service","sidewalk":"unknown","lanes":0,"name":"송내대로518번길","oneway":false},"geometry":{"type":"LineString","coordinates":[[126.76153,37.5287],[126.76275,37.52871]]}},{"type":"Feature","properties":{"class":"alley","highway":"service","sidewalk":"unknown","lanes":0,"name":"오정로71번길","oneway":false},"geometry":{"type":"LineString","coordinates":[[126.76637,37.52683],[126.76827,37.52686]]}},{"type":"Feature","properties":{"class":"alley","highway":"service","sidewalk":"unknown","lanes":0,"name":"","oneway":false},"geometry":{"type":"LineString","coordinates":[[126.76998,37.52685],[126.77015,37.52685],[126.7704,37.52727]]}},{"type":"Feature","properties":{"class":"alley","highway":"service","sidewalk":"unknown","lanes":0,"name":"석천로453번길","oneway":false},"geometry":{"type":"LineString","coordinates":[[126.76665,37.52927],[126.76663,37.52776]]}},{"type":"Feature","properties":{"class":"major","highway":"tertiary_link","sidewalk":"likely","lanes":0,"name":"","oneway":false},"geometry":{"type":"LineString","coordinates":[[126.77796,37.53192],[126.77795,37.53246],[126.7779,37.53269],[126.77781,37.53285],[126.77768,37.53296],[126.77751,37.53301],[126.77733,37.53303],[126.7772,37.53302]]}},{"type":"Feature","properties":{"class":"major","highway":"tertiary","sidewalk":"likely","lanes":3,"name":"봉오대로","oneway":true},"geometry":{"type":"LineString","coordinates":[[126.76474,37.53189],[126.76146,37.53188],[126.76056,37.53184],[126.76031,37.53182]]}},{"type":"Feature","properties":{"class":"major","highway":"tertiary","sidewalk":"likely","lanes":3,"name":"봉오대로","oneway":true},"geometry":{"type":"LineString","coordinates":[[126.76032,37.53173],[126.76056,37.53174],[126.76146,37.53178],[126.76473,37.53178]]}},{"type":"Feature","properties":{"class":"alley","highway":"service","sidewalk":"unknown","lanes":0,"name":"","oneway":false},"geometry":{"type":"LineString","coordinates":[[126.76563,37.52451],[126.7656,37.52574]]}},{"type":"Feature","properties":{"class":"major","highway":"primary","sidewalk":"likely","lanes":4,"name":"벌말로","oneway":false},"geometry":{"type":"LineString","coordinates":[[126.76185,37.53593],[126.7621,37.53665],[126.76256,37.53795],[126.76266,37.53823],[126.76302,37.53927]]}},{"type":"Feature","properties":{"class":"major","highway":"primary","sidewalk":"likely","lanes":4,"name":"벌말로","oneway":false},"geometry":{"type":"LineString","coordinates":[[126.76302,37.53927],[126.76322,37.5398]]}},{"type":"Feature","properties":{"class":"major","highway":"tertiary_link","sidewalk":"likely","lanes":0,"name":"","oneway":false},"geometry":{"type":"LineString","coordinates":[[126.77798,37.53105],[126.77796,37.53192]]}},{"type":"Feature","properties":{"class":"major","highway":"primary","sidewalk":"likely","lanes":0,"name":"신흥로","oneway":false},"geometry":{"type":"LineString","coordinates":[[126.77697,37.52422],[126.777,37.52427],[126.77715,37.52448],[126.77756,37.52504],[126.7776,37.5251]]}},{"type":"Feature","properties":{"class":"major","highway":"primary","sidewalk":"likely","lanes":0,"name":"석천로","oneway":false},"geometry":{"type":"LineString","coordinates":[[126.76722,37.53163],[126.767,37.53184]]}},{"type":"Feature","properties":{"class":"major","highway":"tertiary","sidewalk":"likely","lanes":0,"name":"석천로","oneway":false},"geometry":{"type":"LineString","coordinates":[[126.77045,37.52577],[126.77027,37.52525],[126.77016,37.52505],[126.76995,37.52468],[126.76963,37.5242]]}},{"type":"Feature","properties":{"class":"major","highway":"primary_link","sidewalk":"likely","lanes":0,"name":"","oneway":true},"geometry":{"type":"LineString","coordinates":[[126.77779,37.52536],[126.7779,37.52539],[126.77795,37.52542],[126.77798,37.52545],[126.77804,37.52551],[126.77813,37.5256],[126.77821,37.52567],[126.77831,37.52577],[126.7784,37.52584]]}},{"type":"Feature","properties":{"class":"major","highway":"primary","sidewalk":"likely","lanes":0,"name":"석천로","oneway":false},"geometry":{"type":"LineString","coordinates":[[126.76836,37.53037],[126.76814,37.53071]]}},{"type":"Feature","properties":{"class":"major","highway":"primary","sidewalk":"likely","lanes":0,"name":"신흥로","oneway":false},"geometry":{"type":"LineString","coordinates":[[126.77779,37.52536],[126.77783,37.52543],[126.77799,37.52567],[126.77807,37.52585]]}},{"type":"Feature","properties":{"class":"major","highway":"primary","sidewalk":"likely","lanes":0,"name":"오정로","oneway":false},"geometry":{"type":"LineString","coordinates":[[126.77807,37.52585],[126.7784,37.52584]]}},{"type":"Feature","properties":{"class":"major","highway":"tertiary","sidewalk":"likely","lanes":0,"name":"석천로531번길","oneway":false},"geometry":{"type":"LineString","coordinates":[[126.76477,37.53255],[126.76518,37.53255]]}},{"type":"Feature","properties":{"class":"major","highway":"tertiary","sidewalk":"likely","lanes":0,"name":"석천로531번길","oneway":false},"geometry":{"type":"LineString","coordinates":[[126.76349,37.53431],[126.76329,37.53398],[126.76321,37.53354]]}},{"type":"Feature","properties":{"class":"major","highway":"tertiary","sidewalk":"likely","lanes":0,"name":"석천로531번길","oneway":false},"geometry":{"type":"LineString","coordinates":[[126.76391,37.53255],[126.76442,37.53255]]}},{"type":"Feature","properties":{"class":"major","highway":"primary","sidewalk":"likely","lanes":0,"name":"석천로","oneway":false},"geometry":{"type":"LineString","coordinates":[[126.76675,37.53208],[126.76592,37.53289]]}},{"type":"Feature","properties":{"class":"major","highway":"tertiary","sidewalk":"likely","lanes":0,"name":"신흥로","oneway":false},"geometry":{"type":"LineString","coordinates":[[126.77803,37.52879],[126.77801,37.52958],[126.778,37.5301],[126.77798,37.53105]]}},{"type":"Feature","properties":{"class":"major","highway":"primary","sidewalk":"likely","lanes":0,"name":"신흥로","oneway":false},"geometry":{"type":"LineString","coordinates":[[126.7776,37.5251],[126.77771,37.52524],[126.77779,37.52536]]}},{"type":"Feature","properties":{"class":"alley","highway":"service","sidewalk":"unknown","lanes":0,"name":"","oneway":false},"geometry":{"type":"LineString","coordinates":[[126.77527,37.52607],[126.77508,37.52619],[126.77441,37.52673],[126.77415,37.52693],[126.77387,37.52713]]}},{"type":"Feature","properties":{"class":"major","highway":"motorway_link","sidewalk":"likely","lanes":0,"name":"","oneway":true},"geometry":{"type":"LineString","coordinates":[[126.77804,37.52453],[126.77788,37.5246],[126.7778,37.52465],[126.77773,37.52471],[126.77769,37.52478],[126.77765,37.52485],[126.77764,37.52493],[126.77764,37.52501],[126.77771,37.52524]]}}]}