{"type":"FeatureCollection","features":[{"type":"Feature","properties":{"class":"major","highway":"primary","sidewalk":"likely","lanes":0,"name":"천호대로","oneway":true},"geometry":{"type":"LineString","coordinates":[[127.10696,37.54432],[127.10829,37.54395],[127.10867,37.54383],[127.11287,37.54266],[127.11612,37.54173]]}},{"type":"Feature","properties":{"class":"major","highway":"trunk","sidewalk":"likely","lanes":4,"name":"올림픽대로","oneway":true},"geometry":{"type":"LineString","coordinates":[[127.11651,37.53941],[127.1178,37.54052],[127.11831,37.54096],[127.11874,37.54139],[127.11918,37.54191],[127.11968,37.54257],[127.12006,37.54316],[127.12067,37.54438],[127.12095,37.54499]]}},{"type":"Feature","properties":{"class":"major","highway":"primary","sidewalk":"likely","lanes":0,"name":"천호대로","oneway":true},"geometry":{"type":"LineString","coordinates":[[127.12294,37.53888],[127.12242,37.53905],[127.12223,37.53913],[127.1219,37.53929],[127.12164,37.53945],[127.12128,37.53968],[127.12093,37.53992],[127.12038,37.54027],[127.11987,37.54059],[127.11974,37.54066],[127.11969,37.54068],[127.11937,37.54083],[127.11924,37.54088]]}},{"type":"Feature","properties":{"class":"major","highway":"primary","sidewalk":"likely","lanes":0,"name":"천호대로","oneway":true},"geometry":{"type":"LineString","coordinates":[[127.11918,37.54081],[127.1194,37.54071],[127.1198,37.54051],[127.1203,37.54022],[127.12081,37.53987],[127.12103,37.53965],[127.12116,37.53954],[127.12161,37.53925],[127.12235,37.53889],[127.12293,37.5387],[127.12325,37.53861],[127.12336,37.53858],[127.12347,37.53854]]}},{"type":"Feature","properties":{"class":"major","highway":"trunk_link","sidewalk":"likely","lanes":1,"name":"","oneway":true},"geometry":{"type":"LineString","coordinates":[[127.11873,37.54226],[127.11811,37.54177],[127.11778,37.54167],[127.11757,37.54163],[127.11734,37.54166],[127.11674,37.54176],[127.11619,37.54181]]}},{"type":"Feature","properties":{"class":"major","highway":"trunk_link","sidewalk":"likely","lanes":0,"name":"","oneway":true},"geometry":{"type":"LineString","coordinates":[[127.11903,37.54247],[127.11891,37.5423],[127.11871,37.54208],[127.11827,37.54166],[127.11769,37.54113],[127.11745,37.54095],[127.1166,37.54023],[127.11612,37.53988]]}},{"type":"Feature","properties":{"class":"minor","highway":"unclassified","sidewalk":"unknown","lanes":0,"name":"","oneway":true},"geometry":{"type":"LineString","coordinates":[[127.11668,37.54091],[127.11571,37.53951]]}},{"type":"Feature","properties":{"class":"major","highway":"trunk_link","sidewalk":"likely","lanes":0,"name":"","oneway":true},"geometry":{"type":"LineString","coordinates":[[127.11612,37.54173],[127.1166,37.54147],[127.11675,37.54138],[127.1169,37.5412],[127.11695,37.54107],[127.11695,37.54093],[127.11692,37.5408]]}},{"type":"Feature","properties":{"class":"major","highway":"trunk_link","sidewalk":"likely","lanes":0,"name":"","oneway":true},"geometry":{"type":"LineString","coordinates":[[127.11861,37.54089],[127.11872,37.54103],[127.11897,37.54133],[127.1191,37.54155],[127.11987,37.54255],[127.12007,37.54278],[127.12035,37.54314],[127.12115,37.5447],[127.1215,37.54553],[127.12164,37.54607],[127.12163,37.54639]]}},{"type":"Feature","properties":{"class":"major","highway":"trunk_link","sidewalk":"likely","lanes":0,"name":"","oneway":true},"geometry":{"type":"LineString","coordinates":[[127.11615,37.53881],[127.11732,37.5398],[127.11765,37.54012],[127.11809,37.54048],[127.11861,37.54089]]}},{"type":"Feature","properties":{"class":"major","highway":"trunk_link","sidewalk":"likely","lanes":0,"name":"","oneway":true},"geometry":{"type":"LineString","coordinates":[[127.11974,37.54066],[127.11927,37.54098]]}},{"type":"Feature","properties":{"class":"minor","highway":"residential","sidewalk":"unknown","lanes":0,"name":"선사로","oneway":true},"geometry":{"type":"LineString","coordinates":[[127.12128,37.53968],[127.12119,37.53986],[127.12088,37.54009],[127.11961,37.54081],[127.11929,37.54105],[127.11919,37.54117],[127.11912,37.54127]]}},{"type":"Feature","properties":{"class":"major","highway":"trunk_link","sidewalk":"likely","lanes":0,"name":"","oneway":true},"geometry":{"type":"LineString","coordinates":[[127.10577,37.54284],[127.10398,37.54133],[127.10381,37.54117],[127.10381,37.54111],[127.10416,37.54086],[127.10424,37.54087],[127.1047,37.54123]]}},{"type":"Feature","properties":{"class":"minor","highway":"residential","sidewalk":"unknown","lanes":1,"name":"선사로","oneway":true},"geometry":{"type":"LineString","coordinates":[[127.11912,37.54127],[127.12018,37.5426],[127.12031,37.5428],[127.12064,37.54333],[127.12081,37.54362],[127.12103,37.54411],[127.1216,37.54533]]}},{"type":"Feature","properties":{"class":"major","highway":"trunk_link","sidewalk":"likely","lanes":0,"name":"","oneway":true},"geometry":{"type":"LineString","coordinates":[[127.10446,37.54127],[127.10526,37.54172],[127.1067,37.54294]]}},{"type":"Feature","properties":{"class":"alley","highway":"service","sidewalk":"unknown","lanes":0,"name":"","oneway":true},"geometry":{"type":"LineString","coordinates":[[127.11961,37.54348],[127.11938,37.54327],[127.11917,37.54293],[127.11889,37.54278],[127.11861,37.54263],[127.11848,37.54255],[127.11839,37.54248],[127.11829,37.54239],[127.11801,37.5421],[127.11762,37.54179],[127.11759,37.54177],[127.11698,37.54119],[127.11668,37.54091]]}},{"type":"Feature","properties":{"class":"major","highway":"trunk_link","sidewalk":"likely","lanes":0,"name":"","oneway":true},"geometry":{"type":"LineString","coordinates":[[127.09595,37.53422],[127.0966,37.53469],[127.0971,37.53509],[127.09732,37.53528],[127.09758,37.5355],[127.09785,37.53574],[127.09848,37.53627],[127.0995,37.537],[127.10015,37.53754],[127.10108,37.53836],[127.10164,37.53886],[127.10214,37.5394],[127.1024,37.53961],[127.10314,37.54018]]}},{"type":"Feature","properties":{"class":"major","highway":"trunk","sidewalk":"likely","lanes":5,"name":"강변북로","oneway":true},"geometry":{"type":"LineString","coordinates":[[127.10372,37.54088],[127.10338,37.54058],[127.10299,37.5403],[127.1025,37.54],[127.10165,37.53948],[127.10124,37.53916]]}},{"type":"Feature","properties":{"class":"major","highway":"trunk_link","sidewalk":"likely","lanes":0,"name":"","oneway":true},"geometry":{"type":"LineString","coordinates":[[127.1183,37.54053],[127.11846,37.54051]]}},{"type":"Feature","properties":{"class":"minor","highway":"residential","sidewalk":"unknown","lanes":2,"name":"아차산로70길","oneway":false},"geometry":{"type":"LineString","coordinates":[[127.10228,37.54015],[127.10317,37.54091],[127.10319,37.54092],[127.10244,37.54155],[127.10233,37.54164],[127.10218,37.54177],[127.10174,37.54214]]}},{"type":"Feature","properties":{"class":"major","highway":"primary","sidewalk":"likely","lanes":0,"name":"천호대로","oneway":true},"geometry":{"type":"LineString","coordinates":[[127.11619,37.54181],[127.10805,37.54411]]}},{"type":"Feature","properties":{"class":"minor","highway":"residential","sidewalk":"unknown","lanes":0,"name":"아차산로66길","oneway":true},"geometry":{"type":"LineString","coordinates":[[127.0965,37.54134],[127.09656,37.54128],[127.09659,37.54125],[127.09693,37.54119],[127.09818,37.54129],[127.0987,37.5413],[127.0991,37.54144],[127.0995,37.54152],[127.10059,37.54195],[127.10164,37.5423]]}},{"type":"Feature","properties":{"class":"minor","highway":"residential","sidewalk":"unknown","lanes":0,"name":"선사로6길","oneway":false},"geometry":{"type":"LineString","coordinates":[[127.12046,37.54253],[127.12043,37.54246],[127.12043,37.54245],[127.12042,37.54243],[127.12017,37.54216],[127.11944,37.54138]]}},{"type":"Feature","properties":{"class":"major","highway":"trunk_link","sidewalk":"likely","lanes":0,"name":"","oneway":true},"geometry":{"type":"LineString","coordinates":[[127.1047,37.54123],[127.10531,37.54186]]}},{"type":"Feature","properties":{"class":"major","highway":"trunk_link","sidewalk":"likely","lanes":0,"name":"","oneway":true},"geometry":{"type":"LineString","coordinates":[[127.10531,37.54186],[127.10669,37.54304],[127.10694,37.54335]]}},{"type":"Feature","properties":{"class":"minor","highway":"residential","sidewalk":"unknown","lanes":0,"name":"한가람로20길","oneway":false},"geometry":{"type":"LineString","coordinates":[[127.11846,37.54051],[127.11859,37.54044],[127.11879,37.54035],[127.11924,37.54003],[127.11942,37.5399],[127.11964,37.53971],[127.11992,37.5395],[127.12003,37.53943],[127.12006,37.5394],[127.12018,37.53932],[127.1204,37.53916],[127.12051,37.53908],[127.12073,37.53892],[127.12091,37.53878],[127.12098,37.53872],[127.12105,37.53861],[127.12106,37.53845],[127.121,37.53817],[127.12099,37.53815],[127.12091,37.5379],[127.12081,37.53772],[127.12062,37.53749],[127.12049,37.53733]]}},{"type":"Feature","properties":{"class":"minor","highway":"residential","sidewalk":"unknown","lanes":0,"name":"구천면로14길","oneway":false},"geometry":{"type":"LineString","coordinates":[[127.11944,37.54138],[127.11992,37.54126],[127.12014,37.54116],[127.12039,37.54098],[127.12058,37.54083],[127.12095,37.54068],[127.12114,37.54068]]}},{"type":"Feature","properties":{"class":"minor","highway":"residential","sidewalk":"unknown","lanes":0,"name":"올림픽로71길","oneway":false},"geometry":{"type":"LineString","coordinates":[[127.12039,37.54196],[127.12004,37.54147],[127.11997,37.5414]]}},{"type":"Feature","properties":{"class":"major","highway":"tertiary","sidewalk":"likely","lanes":2,"name":"한가람로","oneway":false},"geometry":{"type":"LineString","coordinates":[[127.1107,37.53167],[127.11072,37.53184],[127.11079,37.53246],[127.11091,37.53317],[127.11098,37.53338],[127.11103,37.53347],[127.1113,37.53406],[127.11158,37.53451],[127.11193,37.53494],[127.11214,37.53512],[127.11224,37.5352],[127.11263,37.53555],[127.11268,37.53559],[127.11288,37.53577],[127.11289,37.53578],[127.11387,37.53661],[127.11391,37.53663],[127.11398,37.53669],[127.1142,37.53689],[127.11471,37.53733],[127.11475,37.53736],[127.11592,37.53835],[127.11597,37.53839],[127.11599,37.53841],[127.11688,37.53916],[127.11718,37.53941],[127.11722,37.53945],[127.11725,37.53947],[127.11752,37.5397],[127.11846,37.54051]]}},{"type":"Feature","properties":{"class":"major","highway":"trunk_link","sidewalk":"likely","lanes":0,"name":"선사로","oneway":true},"geometry":{"type":"LineString","coordinates":[[127.11912,37.54127],[127.1191,37.54141],[127.1191,37.54155]]}},{"type":"Feature","properties":{"class":"major","highway":"trunk_link","sidewalk":"likely","lanes":0,"name":"","oneway":true},"geometry":{"type":"LineString","coordinates":[[127.11927,37.54098],[127.11913,37.54108],[127.11907,37.54117],[127.11903,37.54126],[127.11903,37.54136],[127.11909,37.54146],[127.11913,37.54151]]}},{"type":"Feature","properties":{"class":"major","highway":"trunk_link","sidewalk":"likely","lanes":0,"name":"","oneway":true},"geometry":{"type":"LineString","coordinates":[[127.11913,37.54151],[127.11995,37.54255],[127.12007,37.54278]]}},{"type":"Feature","properties":{"class":"minor","highway":"residential","sidewalk":"unknown","lanes":0,"name":"선사로6길","oneway":false},"geometry":{"type":"LineString","coordinates":[[127.11944,37.54138],[127.11921,37.54119],[127.11919,37.54117]]}},{"type":"Feature","properties":{"class":"major","highway":"primary_link","sidewalk":"likely","lanes":0,"name":"천호대로","oneway":true},"geometry":{"type":"LineString","coordinates":[[127.11892,37.54077],[127.11907,37.54072],[127.11932,37.54058],[127.11988,37.54029],[127.12051,37.53987],[127.12076,37.53972],[127.12116,37.53954]]}},{"type":"Feature","properties":{"class":"major","highway":"trunk_link","sidewalk":"likely","lanes":0,"name":"","oneway":true},"geometry":{"type":"LineString","coordinates":[[127.11809,37.54048],[127.1183,37.54053],[127.11845,37.54061],[127.11858,37.54077],[127.11871,37.5408],[127.11881,37.5408],[127.11892,37.54077]]}},{"type":"Feature","properties":{"class":"major","highway":"trunk_link","sidewalk":"likely","lanes":0,"name":"","oneway":true},"geometry":{"type":"LineString","coordinates":[[127.11846,37.54051],[127.11845,37.54061]]}},{"type":"Feature","properties":{"class":"minor","highway":"residential","sidewalk":"unknown","lanes":0,"name":"","oneway":false},"geometry":{"type":"LineString","coordinates":[[127.11919,37.54117],[127.11892,37.54077]]}},{"type":"Feature","properties":{"class":"major","highway":"secondary","sidewalk":"likely","lanes":0,"name":"아차산로","oneway":false},"geometry":{"type":"LineString","coordinates":[[127.09738,37.54165],[127.09788,37.54181],[127.09837,37.54197],[127.09846,37.542],[127.0993,37.54228],[127.10092,37.54283],[127.10113,37.5429],[127.10129,37.54296]]}},{"type":"Feature","properties":{"class":"minor","highway":"residential","sidewalk":"unknown","lanes":0,"name":"아차산로70길","oneway":false},"geometry":{"type":"LineString","coordinates":[[127.09847,37.53937],[127.09854,37.53943],[127.0994,37.54017],[127.10049,37.54107],[127.10103,37.54154],[127.10174,37.54214],[127.10171,37.54218],[127.10164,37.5423],[127.10159,37.54239],[127.10152,37.54254],[127.10139,37.54279],[127.10131,37.54294],[127.10129,37.54296]]}},{"type":"Feature","properties":{"class":"minor","highway":"unclassified","sidewalk":"unknown","lanes":0,"name":"","oneway":false},"geometry":{"type":"LineString","coordinates":[[127.1158,37.54132],[127.11415,37.53925],[127.11409,37.53915],[127.11405,37.53904]]}},{"type":"Feature","properties":{"class":"minor","highway":"unclassified","sidewalk":"unknown","lanes":1,"name":"","oneway":false},"geometry":{"type":"LineString","coordinates":[[127.1158,37.54132],[127.11605,37.54153],[127.11609,37.54155],[127.11614,37.54156],[127.11622,37.54152],[127.11637,37.54146],[127.11652,37.54139],[127.1167,37.54132],[127.11698,37.54119]]}},{"type":"Feature","properties":{"class":"major","highway":"trunk","sidewalk":"likely","lanes":4,"name":"올림픽대로","oneway":true},"geometry":{"type":"LineString","coordinates":[[127.12015,37.54403],[127.11982,37.54327],[127.11943,37.54261],[127.11907,37.54216],[127.11826,37.5413],[127.11705,37.54033],[127.11606,37.53947],[127.11552,37.53902]]}},{"type":"Feature","properties":{"class":"major","highway":"trunk","sidewalk":"likely","lanes":4,"name":"강변북로","oneway":true},"geometry":{"type":"LineString","coordinates":[[127.10446,37.54127],[127.1053,37.54202],[127.10609,37.54266]]}},{"type":"Feature","properties":{"class":"major","highway":"trunk","sidewalk":"likely","lanes":4,"name":"강변북로","oneway":true},"geometry":{"type":"LineString","coordinates":[[127.09522,37.53354],[127.09595,37.53422],[127.09618,37.53445],[127.09745,37.53561],[127.09945,37.53735],[127.10138,37.53903],[127.10168,37.53927],[127.10199,37.53949],[127.10314,37.54018]]}},{"type":"Feature","properties":{"class":"major","highway":"primary","sidewalk":"likely","lanes":0,"name":"천호대로","oneway":true},"geometry":{"type":"LineString","coordinates":[[127.11612,37.54173],[127.11883,37.54092],[127.11918,37.54081]]}},{"type":"Feature","properties":{"class":"major","highway":"primary","sidewalk":"likely","lanes":0,"name":"천호대로","oneway":true},"geometry":{"type":"LineString","coordinates":[[127.11924,37.54088],[127.11887,37.54102],[127.11765,37.54138],[127.11753,37.54142],[127.11673,37.54165],[127.11619,37.54181]]}},{"type":"Feature","properties":{"class":"alley","highway":"service","sidewalk":"unknown","lanes":0,"name":"","oneway":false},"geometry":{"type":"LineString","coordinates":[[127.10244,37.54155],[127.10241,37.54152],[127.10233,37.54147],[127.10227,37.54148],[127.10198,37.54171]]}},{"type":"Feature","properties":{"class":"alley","highway":"service","sidewalk":"unknown","lanes":0,"name":"","oneway":false},"geometry":{"type":"LineString","coordinates":[[127.11812,37.53921],[127.11834,37.53941],[127.11893,37.53993],[127.11898,37.53998],[127.11864,37.54021],[127.11777,37.53947],[127.11791,37.53937],[127.11812,37.53921],[127.11817,37.53917],[127.11797,37.53899],[127.11789,37.53904]]}},{"type":"Feature","properties":{"class":"alley","highway":"service","sidewalk":"unknown","lanes":0,"name":"","oneway":false},"geometry":{"type":"LineString","coordinates":[[127.11879,37.54035],[127.11864,37.54021]]}},{"type":"Feature","properties":{"class":"major","highway":"trunk_link","sidewalk":"likely","lanes":0,"name":"","oneway":true},"geometry":{"type":"LineString","coordinates":[[127.11692,37.5408],[127.11612,37.53988]]}},{"type":"Feature","properties":{"class":"alley","highway":"living_street","sidewalk":"unknown","lanes":0,"name":"","oneway":false},"geometry":{"type":"LineString","coordinates":[[127.10218,37.54177],[127.10223,37.5418],[127.1023,37.54186],[127.10256,37.54195],[127.10234,37.54235],[127.10224,37.54253],[127.10207,37.54248]]}},{"type":"Feature","properties":{"class":"alley","highway":"service","sidewalk":"unknown","lanes":0,"name":"","oneway":false},"geometry":{"type":"LineString","coordinates":[[127.10192,37.54164],[127.10185,37.54168]]}},{"type":"Feature","properties":{"class":"alley","highway":"service","sidewalk":"unknown","lanes":0,"name":"","oneway":false},"geometry":{"type":"LineString","coordinates":[[127.10198,37.54171],[127.10192,37.54164]]}},{"type":"Feature","properties":{"class":"major","highway":"trunk_link","sidewalk":"likely","lanes":1,"name":"","oneway":true},"geometry":{"type":"LineString","coordinates":[[127.11651,37.53941],[127.11714,37.53976],[127.11742,37.53997],[127.11765,37.54012]]}},{"type":"Feature","properties":{"class":"major","highway":"trunk","sidewalk":"likely","lanes":5,"name":"강변북로","oneway":true},"geometry":{"type":"LineString","coordinates":[[127.10388,37.54076],[127.10415,37.541]]}},{"type":"Feature","properties":{"class":"major","highway":"trunk_link","sidewalk":"likely","lanes":0,"name":"","oneway":true},"geometry":{"type":"LineString","coordinates":[[127.11769,37.54113],[127.11751,37.54088],[127.11721,37.54056],[127.11705,37.54033]]}},{"type":"Feature","properties":{"class":"major","highway":"trunk_link","sidewalk":"likely","lanes":0,"name":"","oneway":true},"geometry":{"type":"LineString","coordinates":[[127.11858,37.54077],[127.11861,37.54089]]}},{"type":"Feature","properties":{"class":"major","highway":"trunk","sidewalk":"likely","lanes":5,"name":"강변북로","oneway":true},"geometry":{"type":"LineString","coordinates":[[127.10314,37.54018],[127.10348,37.54043],[127.10388,37.54076]]}},{"type":"Feature","properties":{"class":"major","highway":"trunk","sidewalk":"likely","lanes":5,"name":"강변북로","oneway":true},"geometry":{"type":"LineString","coordinates":[[127.10415,37.541],[127.10446,37.54127]]}},{"type":"Feature","properties":{"class":"major","highway":"trunk","sidewalk":"likely","lanes":5,"name":"강변북로","oneway":true},"geometry":{"type":"LineString","coordinates":[[127.10532,37.54227],[127.10399,37.54112]]}},{"type":"Feature","properties":{"class":"major","highway":"trunk","sidewalk":"likely","lanes":5,"name":"강변북로","oneway":true},"geometry":{"type":"LineString","coordinates":[[127.10399,37.54112],[127.10372,37.54088]]}},{"type":"Feature","properties":{"class":"alley","highway":"service","sidewalk":"unknown","lanes":0,"name":"","oneway":false},"geometry":{"type":"LineString","coordinates":[[127.11637,37.54146],[127.11619,37.5412]]}},{"type":"Feature","properties":{"class":"alley","highway":"service","sidewalk":"unknown","lanes":0,"name":"","oneway":false},"geometry":{"type":"LineString","coordinates":[[127.11635,37.54112],[127.11619,37.5412],[127.11604,37.54127]]}},{"type":"Feature","properties":{"class":"alley","highway":"service","sidewalk":"unknown","lanes":0,"name":"","oneway":false},"geometry":{"type":"LineString","coordinates":[[127.11652,37.54139],[127.11635,37.54112],[127.1165,37.54107],[127.11654,37.54107],[127.11656,37.54108],[127.1167,37.54132]]}},{"type":"Feature","properties":{"class":"alley","highway":"service","sidewalk":"unknown","lanes":0,"name":"","oneway":false},"geometry":{"type":"LineString","coordinates":[[127.11622,37.54152],[127.11604,37.5413],[127.11604,37.54128],[127.11604,37.54127]]}},{"type":"Feature","properties":{"class":"major","highway":"primary","sidewalk":"likely","lanes":0,"name":"아차산로","oneway":true},"geometry":{"type":"LineString","coordinates":[[127.11397,37.55894],[127.11363,37.55833],[127.11329,37.55778],[127.11312,37.55758],[127.11273,37.55729],[127.11207,37.55677],[127.11193,37.55663],[127.11185,37.55645],[127.11182,37.55623],[127.11183,37.55614],[127.11185,37.55599],[127.11196,37.55578],[127.11207,37.55567],[127.11218,37.55557],[127.11226,37.55545],[127.11231,37.55526],[127.1123,37.55506],[127.11223,37.55488],[127.11214,37.5547],[127.1118,37.55414],[127.11178,37.55412],[127.11169,37.55388],[127.11164,37.55364],[127.11163,37.55361],[127.11158,37.5532],[127.11154,37.55298],[127.11138,37.55263],[127.11123,37.55239],[127.11103,37.55222]]}},{"type":"Feature","properties":{"class":"major","highway":"secondary","sidewalk":"likely","lanes":0,"name":"구천면로","oneway":false},"geometry":{"type":"LineString","coordinates":[[127.1088,37.54615],[127.1091,37.54607],[127.11043,37.54567],[127.11092,37.54551],[127.11241,37.54504],[127.11252,37.545],[127.11278,37.5449],[127.11307,37.5448],[127.11374,37.54459],[127.11441,37.54439],[127.11501,37.54423],[127.11531,37.54417],[127.11639,37.54384],[127.11751,37.54348],[127.11806,37.54331]]}},{"type":"Feature","properties":{"class":"major","highway":"trunk_link","sidewalk":"likely","lanes":0,"name":"","oneway":true},"geometry":{"type":"LineString","coordinates":[[127.12015,37.54403],[127.11967,37.54331],[127.11921,37.54266],[127.11908,37.54254]]}},{"type":"Feature","properties":{"class":"major","highway":"trunk_link","sidewalk":"likely","lanes":0,"name":"","oneway":true},"geometry":{"type":"LineString","coordinates":[[127.11026,37.54631],[127.11062,37.54738],[127.11064,37.54806]]}},{"type":"Feature","properties":{"class":"major","highway":"secondary","sidewalk":"likely","lanes":0,"name":"구천면로","oneway":false},"geometry":{"type":"LineString","coordinates":[[127.1088,37.54615],[127.10849,37.54623],[127.10764,37.5465]]}},{"type":"Feature","properties":{"class":"major","highway":"trunk_link","sidewalk":"likely","lanes":0,"name":"","oneway":true},"geometry":{"type":"LineString","coordinates":[[127.10725,37.54337],[127.1075,37.54357],[127.10774,37.54372],[127.10808,37.54383],[127.1084,37.54385],[127.10867,37.54383]]}},{"type":"Feature","properties":{"class":"major","highway":"trunk_link","sidewalk":"likely","lanes":0,"name":"","oneway":true},"geometry":{"type":"LineString","coordinates":[[127.1067,37.54294],[127.10736,37.54355],[127.10809,37.54432]]}},{"type":"Feature","properties":{"class":"major","highway":"trunk_link","sidewalk":"likely","lanes":0,"name":"","oneway":true},"geometry":{"type":"LineString","coordinates":[[127.11041,37.54791],[127.11018,37.54742],[127.11011,37.54725],[127.10991,37.54684],[127.10966,37.54645],[127.10962,37.54639],[127.10956,37.54634],[127.10949,37.54628],[127.10942,37.54624],[127.10931,37.5462],[127.10922,37.54618],[127.10912,37.54617],[127.10907,37.54617]]}},{"type":"Feature","properties":{"class":"major","highway":"trunk_link","sidewalk":"likely","lanes":0,"name":"","oneway":true},"geometry":{"type":"LineString","coordinates":[[127.10764,37.5465],[127.10806,37.54623],[127.10848,37.54608],[127.10859,37.546],[127.10866,37.54588],[127.10868,37.54576],[127.10866,37.54565]]}},{"type":"Feature","properties":{"class":"major","highway":"trunk","sidewalk":"likely","lanes":3,"name":"강변북로","oneway":true},"geometry":{"type":"LineString","coordinates":[[127.11075,37.54895],[127.11083,37.54938],[127.11094,37.54977],[127.11113,37.55027],[127.11135,37.55076],[127.11325,37.55443],[127.11345,37.55496],[127.11356,37.55535],[127.11378,37.55651],[127.11387,37.55688],[127.11403,37.55735],[127.11423,37.55775]]}},{"type":"Feature","properties":{"class":"alley","highway":"service","sidewalk":"unknown","lanes":0,"name":"","oneway":false},"geometry":{"type":"LineString","coordinates":[[127.11083,37.55414],[127.11086,37.55401],[127.11096,37.55388],[127.111,37.55367],[127.11098,37.55344],[127.11107,37.55325],[127.11126,37.55305],[127.11124,37.55284],[127.11106,37.55255],[127.11083,37.55236],[127.11056,37.55229],[127.11012,37.55223],[127.10984,37.55214],[127.10953,37.55191],[127.10927,37.55168],[127.10923,37.55157],[127.10915,37.5514]]}},{"type":"Feature","properties":{"class":"alley","highway":"service","sidewalk":"unknown","lanes":0,"name":"","oneway":true},"geometry":{"type":"LineString","coordinates":[[127.1103,37.5546],[127.11029,37.55455],[127.11031,37.55442],[127.11036,37.55429],[127.11043,37.55415],[127.11049,37.55409],[127.11057,37.55401],[127.11066,37.55395],[127.11074,37.55401],[127.11083,37.55414]]}},{"type":"Feature","properties":{"class":"alley","highway":"service","sidewalk":"unknown","lanes":0,"name":"","oneway":false},"geometry":{"type":"LineString","coordinates":[[127.10996,37.5582],[127.10925,37.55767]]}},{"type":"Feature","properties":{"class":"alley","highway":"service","sidewalk":"unknown","lanes":0,"name":"","oneway":false},"geometry":{"type":"LineString","coordinates":[[127.11079,37.5584],[127.11086,37.55858],[127.11101,37.55866],[127.1112,37.55889],[127.11122,37.55908],[127.11115,37.55919]]}},{"type":"Feature","properties":{"class":"alley","highway":"service","sidewalk":"unknown","lanes":0,"name":"","oneway":false},"geometry":{"type":"LineString","coordinates":[[127.11311,37.56043],[127.11265,37.56032],[127.11254,37.56026],[127.11253,37.56014],[127.11207,37.56002],[127.11196,37.5599],[127.11169,37.55973],[127.11135,37.55929],[127.11115,37.55919],[127.11029,37.55878]]}},{"type":"Feature","properties":{"class":"minor","highway":"unclassified","sidewalk":"unknown","lanes":0,"name":"","oneway":false},"geometry":{"type":"LineString","coordinates":[[127.11065,37.55832],[127.11052,37.55835],[127.10993,37.55836],[127.10935,37.55839],[127.10922,37.55836],[127.10888,37.55817],[127.1086,37.55786],[127.1084,37.55777]]}},{"type":"Feature","properties":{"class":"alley","highway":"service","sidewalk":"unknown","lanes":0,"name":"","oneway":false},"geometry":{"type":"LineString","coordinates":[[127.10785,37.55336],[127.1079,37.55356],[127.10799,37.55366],[127.10855,37.55401],[127.10857,37.55402],[127.1089,37.55438],[127.10886,37.55469],[127.10874,37.55485],[127.10872,37.55487],[127.1082,37.55492],[127.10804,37.55505],[127.10801,37.55525],[127.10847,37.55596],[127.10876,37.55606],[127.10918,37.55617],[127.10934,37.55633],[127.1097,37.55713],[127.10983,37.55739]]}},{"type":"Feature","properties":{"class":"alley","highway":"service","sidewalk":"unknown","lanes":0,"name":"","oneway":false},"geometry":{"type":"LineString","coordinates":[[127.10993,37.55836],[127.10996,37.5582],[127.11018,37.55815],[127.11032,37.55823]]}},{"type":"Feature","properties":{"class":"alley","highway":"service","sidewalk":"unknown","lanes":0,"name":"","oneway":false},"geometry":{"type":"LineString","coordinates":[[127.11089,37.55824],[127.11105,37.55821],[127.11144,37.55821],[127.11164,37.55828],[127.11253,37.55882],[127.11279,37.55918],[127.11306,37.55934],[127.11314,37.55946],[127.11312,37.55968],[127.1129,37.55974],[127.1127,37.55971],[127.11247,37.55945],[127.11224,37.55926],[127.1119,37.5592],[127.11176,37.55912],[127.11168,37.55885],[127.11158,37.55871],[127.11146,37.55861],[127.11107,37.5585],[127.11087,37.55837]]}},{"type":"Feature","properties":{"class":"minor","highway":"unclassified","sidewalk":"unknown","lanes":0,"name":"","oneway":true},"geometry":{"type":"LineString","coordinates":[[127.11083,37.55839],[127.11079,37.5584],[127.11074,37.55839],[127.1107,37.55838],[127.11067,37.55835],[127.11065,37.55832],[127.11065,37.55828],[127.11066,37.55825],[127.11069,37.55822],[127.11072,37.5582],[127.11077,37.55819],[127.11082,37.55819],[127.11086,37.55821],[127.11089,37.55824],[127.11091,37.55827],[127.11091,37.5583],[127.1109,37.55834],[127.11087,37.55837],[127.11083,37.55839]]}},{"type":"Feature","properties":{"class":"alley","highway":"service","sidewalk":"unknown","lanes":0,"name":"","oneway":false},"geometry":{"type":"LineString","coordinates":[[127.1129,37.55974],[127.11292,37.55989],[127.11308,37.5601],[127.11329,37.56019],[127.11341,37.56019]]}},{"type":"Feature","properties":{"class":"alley","highway":"service","sidewalk":"unknown","lanes":0,"name":"","oneway":false},"geometry":{"type":"LineString","coordinates":[[127.10468,37.55183],[127.10516,37.55162],[127.10557,37.55132],[127.10582,37.5512],[127.10598,37.55091],[127.10656,37.54981],[127.10674,37.54973],[127.10775,37.55005]]}},{"type":"Feature","properties":{"class":"alley","highway":"service","sidewalk":"unknown","lanes":0,"name":"","oneway":false},"geometry":{"type":"LineString","coordinates":[[127.10799,37.55366],[127.10857,37.55357]]}},{"type":"Feature","properties":{"class":"alley","highway":"service","sidewalk":"unknown","lanes":0,"name":"","oneway":false},"geometry":{"type":"LineString","coordinates":[[127.10857,37.55402],[127.10857,37.55357],[127.10868,37.55339],[127.10869,37.55318]]}},{"type":"Feature","properties":{"class":"minor","highway":"residential","sidewalk":"unknown","lanes":0,"name":"","oneway":false},"geometry":{"type":"LineString","coordinates":[[127.10946,37.5537],[127.10969,37.55369],[127.10968,37.55387],[127.10963,37.55426],[127.1096,37.55432],[127.10958,37.55438],[127.10949,37.55441],[127.10922,37.5544],[127.1089,37.55438]]}},{"type":"Feature","properties":{"class":"alley","highway":"service","sidewalk":"unknown","lanes":0,"name":"","oneway":false},"geometry":{"type":"LineString","coordinates":[[127.11066,37.55395],[127.11068,37.55377],[127.11069,37.55361],[127.11061,37.55347],[127.11044,37.55334],[127.10996,37.55314],[127.1092,37.55292],[127.1089,37.55292],[127.10871,37.55303],[127.10869,37.55318],[127.10853,37.55328],[127.10785,37.55336]]}},{"type":"Feature","properties":{"class":"alley","highway":"service","sidewalk":"unknown","lanes":0,"name":"","oneway":false},"geometry":{"type":"LineString","coordinates":[[127.10967,37.55183],[127.10957,37.55189],[127.10953,37.55191]]}},{"type":"Feature","properties":{"class":"alley","highway":"service","sidewalk":"unknown","lanes":0,"name":"","oneway":false},"geometry":{"type":"LineString","coordinates":[[127.11126,37.55305],[127.11126,37.55329],[127.11122,37.55365],[127.11122,37.55375]]}},{"type":"Feature","properties":{"class":"alley","highway":"service","sidewalk":"unknown","lanes":0,"name":"","oneway":false},"geometry":{"type":"LineString","coordinates":[[127.10871,37.55303],[127.10819,37.55296],[127.10783,37.55287],[127.10754,37.55262],[127.10742,37.5524],[127.10746,37.55225],[127.10784,37.55184],[127.1082,37.55146],[127.10856,37.55101],[127.10848,37.55056],[127.10838,37.55035],[127.10821,37.55019],[127.10775,37.55005]]}},{"type":"Feature","properties":{"class":"alley","highway":"service","sidewalk":"unknown","lanes":0,"name":"","oneway":false},"geometry":{"type":"LineString","coordinates":[[127.10598,37.55091],[127.10706,37.55125],[127.10734,37.55132],[127.10784,37.55184],[127.10787,37.55199],[127.1078,37.55211],[127.1076,37.55227],[127.10758,37.55235],[127.1081,37.55276],[127.10813,37.55279]]}},{"type":"Feature","properties":{"class":"alley","highway":"service","sidewalk":"unknown","lanes":0,"name":"","oneway":false},"geometry":{"type":"LineString","coordinates":[[127.10996,37.55314],[127.11012,37.5529],[127.11013,37.55282],[127.11009,37.5528],[127.11001,37.55281],[127.10986,37.55286],[127.10977,37.55285],[127.10925,37.55255],[127.10876,37.55251],[127.10811,37.55208],[127.10812,37.55194],[127.10844,37.55172],[127.10856,37.55101]]}},{"type":"Feature","properties":{"class":"minor","highway":"residential","sidewalk":"unknown","lanes":0,"name":"","oneway":false},"geometry":{"type":"LineString","coordinates":[[127.11027,37.55109],[127.11034,37.5511],[127.11072,37.55115]]}},{"type":"Feature","properties":{"class":"minor","highway":"residential","sidewalk":"unknown","lanes":0,"name":"아차산로76길","oneway":false},"geometry":{"type":"LineString","coordinates":[[127.10721,37.54821],[127.10731,37.54808],[127.10776,37.54752],[127.10779,37.54736]]}},{"type":"Feature","properties":{"class":"minor","highway":"residential","sidewalk":"unknown","lanes":0,"name":"","oneway":false},"geometry":{"type":"LineString","coordinates":[[127.11068,37.55061],[127.11046,37.55089],[127.11027,37.55109],[127.1098,37.55141]]}},{"type":"Feature","properties":{"class":"minor","highway":"residential","sidewalk":"unknown","lanes":0,"name":"아차산로76가길","oneway":false},"geometry":{"type":"LineString","coordinates":[[127.10638,37.5468],[127.10643,37.54682],[127.10719,37.54712],[127.10779,37.54736]]}},{"type":"Feature","properties":{"class":"minor","highway":"residential","sidewalk":"unknown","lanes":0,"name":"","oneway":false},"geometry":{"type":"LineString","coordinates":[[127.10849,37.54623],[127.10882,37.54632],[127.10908,37.54678],[127.10924,37.54712],[127.10924,37.54723],[127.10927,37.54768],[127.10945,37.54816],[127.10931,37.54836]]}},{"type":"Feature","properties":{"class":"minor","highway":"residential","sidewalk":"unknown","lanes":0,"name":"아차산로78길","oneway":false},"geometry":{"type":"LineString","coordinates":[[127.10954,37.55],[127.10887,37.55032],[127.10878,37.55037]]}},{"type":"Feature","properties":{"class":"minor","highway":"residential","sidewalk":"unknown","lanes":0,"name":"아차산로78길","oneway":false},"geometry":{"type":"LineString","coordinates":[[127.1098,37.55141],[127.10939,37.55063],[127.10942,37.55056],[127.10976,37.55034]]}},{"type":"Feature","properties":{"class":"major","highway":"trunk_link","sidewalk":"likely","lanes":0,"name":"","oneway":true},"geometry":{"type":"LineString","coordinates":[[127.10809,37.54432],[127.10847,37.54472],[127.10861,37.5448],[127.10865,37.54483],[127.10889,37.54488],[127.10914,37.54486],[127.10932,37.54477],[127.10945,37.54465],[127.10951,37.54449],[127.10949,37.54433],[127.10937,37.54418],[127.10921,37.54408],[127.10901,37.54405],[127.1087,37.54406],[127.10805,37.54411]]}},{"type":"Feature","properties":{"class":"alley","highway":"service","sidewalk":"unknown","lanes":0,"name":"","oneway":false},"geometry":{"type":"LineString","coordinates":[[127.10924,37.54723],[127.1094,37.54725],[127.1096,37.54733],[127.10969,37.54743],[127.10974,37.54767],[127.10977,37.54789],[127.10958,37.54789],[127.10955,37.54769],[127.10974,37.54767]]}},{"type":"Feature","properties":{"class":"alley","highway":"pedestrian","sidewalk":"unknown","lanes":0,"name":"","oneway":false},"geometry":{"type":"LineString","coordinates":[[127.10878,37.54609],[127.10904,37.54602],[127.10907,37.54601],[127.10966,37.54582],[127.11028,37.54566],[127.11052,37.54559]]}},{"type":"Feature","properties":{"class":"alley","highway":"pedestrian","sidewalk":"unknown","lanes":0,"name":"","oneway":false},"geometry":{"type":"LineString","coordinates":[[127.11863,37.54572],[127.11887,37.54567],[127.11905,37.5457],[127.11908,37.5457],[127.11911,37.54571],[127.11918,37.54572],[127.11929,37.54572],[127.11941,37.5457],[127.1195,37.54566],[127.11959,37.54559],[127.11965,37.54553],[127.11974,37.54542],[127.11976,37.54539]]}},{"type":"Feature","properties":{"class":"alley","highway":"service","sidewalk":"unknown","lanes":1,"name":"","oneway":false},"geometry":{"type":"LineString","coordinates":[[127.1186,37.5467],[127.11851,37.54661],[127.11839,37.5462],[127.11837,37.54612],[127.11837,37.54593],[127.11839,37.54588],[127.11833,37.54573],[127.11828,37.54563],[127.11825,37.54559]]}},{"type":"Feature","properties":{"class":"alley","highway":"pedestrian","sidewalk":"unknown","lanes":0,"name":"","oneway":false},"geometry":{"type":"LineString","coordinates":[[127.1186,37.5467],[127.11998,37.54636],[127.12009,37.54633],[127.12013,37.54632]]}},{"type":"Feature","properties":{"class":"major","highway":"trunk_link","sidewalk":"likely","lanes":1,"name":"","oneway":true},"geometry":{"type":"LineString","coordinates":[[127.11982,37.54424],[127.11973,37.54409],[127.11959,37.54393],[127.11948,37.54383],[127.11888,37.54344],[127.11873,37.54337],[127.11864,37.54332],[127.11855,37.5433],[127.11841,37.54329],[127.11806,37.54331]]}},{"type":"Feature","properties":{"class":"alley","highway":"service","sidewalk":"unknown","lanes":0,"name":"","oneway":true},"geometry":{"type":"LineString","coordinates":[[127.11008,37.55475],[127.1103,37.5546]]}},{"type":"Feature","properties":{"class":"minor","highway":"residential","sidewalk":"unknown","lanes":0,"name":"아차산로78길","oneway":false},"geometry":{"type":"LineString","coordinates":[[127.10779,37.54736],[127.10863,37.5479],[127.10914,37.5483],[127.10931,37.54836]]}},{"type":"Feature","properties":{"class":"alley","highway":"service","sidewalk":"unknown","lanes":0,"name":"","oneway":true},"geometry":{"type":"LineString","coordinates":[[127.11083,37.55414],[127.11084,37.55424],[127.11083,37.55441],[127.11078,37.55457],[127.11073,37.55461],[127.11067,37.55469]]}},{"type":"Feature","properties":{"class":"alley","highway":"service","sidewalk":"unknown","lanes":0,"name":"","oneway":true},"geometry":{"type":"LineString","coordinates":[[127.11067,37.55469],[127.11064,37.55473],[127.11056,37.55477],[127.11047,37.55476],[127.11042,37.55473],[127.11038,37.55471],[127.1103,37.5546]]}},{"type":"Feature","properties":{"class":"minor","highway":"residential","sidewalk":"unknown","lanes":0,"name":"아차산로78길","oneway":false},"geometry":{"type":"LineString","coordinates":[[127.11059,37.55033],[127.11068,37.55061],[127.11092,37.55107],[127.11094,37.55112],[127.11099,37.5512],[127.1112,37.5516]]}},{"type":"Feature","properties":{"class":"minor","highway":"residential","sidewalk":"unknown","lanes":0,"name":"아차산로76길","oneway":false},"geometry":{"type":"LineString","coordinates":[[127.10779,37.54736],[127.10781,37.54724],[127.10764,37.54671],[127.10761,37.54664],[127.10764,37.5465]]}},{"type":"Feature","properties":{"class":"minor","highway":"residential","sidewalk":"unknown","lanes":0,"name":"아차산로76길","oneway":false},"geometry":{"type":"LineString","coordinates":[[127.10764,37.5465],[127.10761,37.54634]]}},{"type":"Feature","properties":{"class":"major","highway":"primary","sidewalk":"likely","lanes":0,"name":"아차산로","oneway":false},"geometry":{"type":"LineString","coordinates":[[127.10799,37.5493],[127.10728,37.54828],[127.10721,37.54821],[127.10708,37.54807]]}},{"type":"Feature","properties":{"class":"alley","highway":"service","sidewalk":"unknown","lanes":0,"name":"","oneway":false},"geometry":{"type":"LineString","coordinates":[[127.10775,37.55005],[127.10767,37.54991],[127.10766,37.54974],[127.10769,37.54957],[127.10776,37.54945],[127.10788,37.54938],[127.10799,37.5493]]}},{"type":"Feature","properties":{"class":"minor","highway":"residential","sidewalk":"unknown","lanes":0,"name":"아차산로78길","oneway":false},"geometry":{"type":"LineString","coordinates":[[127.10931,37.54836],[127.10955,37.54839],[127.10967,37.54844],[127.10977,37.54856],[127.11059,37.55033]]}},{"type":"Feature","properties":{"class":"minor","highway":"residential","sidewalk":"unknown","lanes":0,"name":"아차산로78가길","oneway":false},"geometry":{"type":"LineString","coordinates":[[127.10931,37.54836],[127.10906,37.54875],[127.10905,37.54887],[127.10918,37.54923],[127.10934,37.54952],[127.10954,37.55]]}},{"type":"Feature","properties":{"class":"minor","highway":"residential","sidewalk":"unknown","lanes":0,"name":"아차산로78길","oneway":false},"geometry":{"type":"LineString","coordinates":[[127.10954,37.55],[127.10976,37.55034]]}},{"type":"Feature","properties":{"class":"major","highway":"trunk_link","sidewalk":"likely","lanes":0,"name":"","oneway":true},"geometry":{"type":"LineString","coordinates":[[127.10866,37.54565],[127.10855,37.54546],[127.10833,37.54522],[127.10787,37.54465]]}},{"type":"Feature","properties":{"class":"alley","highway":"service","sidewalk":"unknown","lanes":0,"name":"워커힐로","oneway":false},"geometry":{"type":"LineString","coordinates":[[127.10087,37.5508],[127.10094,37.55086],[127.10098,37.55089],[127.10109,37.55097],[127.1017,37.5513],[127.10243,37.55152],[127.10332,37.55169],[127.10418,37.55179],[127.10468,37.55183],[127.10506,37.55182],[127.10545,37.55167],[127.10554,37.55164],[127.10585,37.55152],[127.10601,37.55152],[127.10656,37.55164],[127.10688,37.55177],[127.10707,37.55202],[127.10718,37.55231],[127.10725,37.55266],[127.10755,37.55291],[127.10776,37.55317],[127.10785,37.55336]]}},{"type":"Feature","properties":{"class":"major","highway":"trunk","sidewalk":"likely","lanes":3,"name":"강변북로","oneway":true},"geometry":{"type":"LineString","coordinates":[[127.10821,37.54492],[127.10807,37.54481],[127.10787,37.54465]]}},{"type":"Feature","properties":{"class":"major","highway":"trunk","sidewalk":"likely","lanes":3,"name":"강변북로","oneway":true},"geometry":{"type":"LineString","coordinates":[[127.11407,37.55777],[127.11386,37.55732],[127.11371,37.55691],[127.11362,37.55652],[127.1134,37.55541],[127.11329,37.55496],[127.11312,37.5545],[127.11293,37.55412],[127.11118,37.5508],[127.11097,37.5503],[127.11078,37.54979],[127.11063,37.54917],[127.11055,37.54871]]}},{"type":"Feature","properties":{"class":"major","highway":"secondary","sidewalk":"likely","lanes":0,"name":"구천면로","oneway":false},"geometry":{"type":"LineString","coordinates":[[127.11806,37.54331],[127.11847,37.54318],[127.11916,37.54296],[127.12022,37.5426],[127.12035,37.54256]]}},{"type":"Feature","properties":{"class":"alley","highway":"pedestrian","sidewalk":"unknown","lanes":0,"name":"","oneway":false},"geometry":{"type":"LineString","coordinates":[[127.11244,37.54509],[127.1133,37.5448],[127.11416,37.54453],[127.11429,37.54449],[127.11446,37.54443],[127.11503,37.54427]]}},{"type":"Feature","properties":{"class":"alley","highway":"pedestrian","sidewalk":"unknown","lanes":0,"name":"","oneway":false},"geometry":{"type":"LineString","coordinates":[[127.11499,37.54418],[127.11519,37.5441],[127.11534,37.54409],[127.11555,37.54401],[127.11593,37.54389],[127.11616,37.54385],[127.1164,37.54377],[127.11651,37.54369],[127.11676,37.54361],[127.11708,37.54353],[127.11712,37.54354],[127.11717,37.54353],[127.11731,37.54348],[127.11756,37.54336],[127.11801,37.54327],[127.11835,37.54311],[127.11856,37.54304],[127.11877,37.54302],[127.1192,37.54287]]}},{"type":"Feature","properties":{"class":"alley","highway":"service","sidewalk":"unknown","lanes":0,"name":"아차산로76길","oneway":false},"geometry":{"type":"LineString","coordinates":[[127.10761,37.54634],[127.10751,37.54613],[127.1073,37.54573],[127.10723,37.54565],[127.10711,37.54564],[127.10657,37.54575]]}},{"type":"Feature","properties":{"class":"alley","highway":"pedestrian","sidewalk":"unknown","lanes":0,"name":"","oneway":false},"geometry":{"type":"LineString","coordinates":[[127.11052,37.54559],[127.11086,37.54545],[127.11158,37.54523],[127.1124,37.545]]}},{"type":"Feature","properties":{"class":"minor","highway":"residential","sidewalk":"unknown","lanes":0,"name":"","oneway":false},"geometry":{"type":"LineString","coordinates":[[127.10976,37.55034],[127.11,37.55031],[127.11012,37.55034],[127.11019,37.5504],[127.11032,37.55041],[127.11059,37.55033]]}},{"type":"Feature","properties":{"class":"major","highway":"primary","sidewalk":"likely","lanes":6,"name":"천호대로","oneway":true},"geometry":{"type":"LineString","coordinates":[[127.10805,37.54411],[127.10702,37.54442]]}},{"type":"Feature","properties":{"class":"alley","highway":"service","sidewalk":"unknown","lanes":0,"name":"","oneway":true},"geometry":{"type":"LineString","coordinates":[[127.10911,37.55088],[127.10914,37.55114],[127.10915,37.55129],[127.10915,37.5514]]}},{"type":"Feature","properties":{"class":"alley","highway":"service","sidewalk":"unknown","lanes":0,"name":"","oneway":true},"geometry":{"type":"LineString","coordinates":[[127.10915,37.5514],[127.10902,37.55113],[127.10896,37.55086]]}},{"type":"Feature","properties":{"class":"alley","highway":"service","sidewalk":"unknown","lanes":0,"name":"","oneway":false},"geometry":{"type":"LineString","coordinates":[[127.11122,37.55375],[127.11111,37.55386],[127.11096,37.55395]]}},{"type":"Feature","properties":{"class":"alley","highway":"service","sidewalk":"unknown","lanes":0,"name":"","oneway":false},"geometry":{"type":"LineString","coordinates":[[127.11122,37.55375],[127.11146,37.55396],[127.11158,37.55431],[127.11163,37.55445],[127.11163,37.55446],[127.1117,37.55471],[127.11172,37.55483],[127.11169,37.55495],[127.11169,37.55512],[127.11165,37.55518],[127.1116,37.55526],[127.11154,37.55532],[127.11146,37.55538],[127.11103,37.55591],[127.11104,37.55597],[127.11103,37.55602],[127.11097,37.55609],[127.11096,37.55613],[127.11096,37.55619],[127.11114,37.55661],[127.11128,37.55694],[127.11132,37.55719]]}},{"type":"Feature","properties":{"class":"alley","highway":"service","sidewalk":"unknown","lanes":0,"name":"","oneway":false},"geometry":{"type":"LineString","coordinates":[[127.10967,37.55568],[127.10987,37.55569],[127.11008,37.55587],[127.11037,37.55627],[127.11093,37.55695],[127.11132,37.55719],[127.1128,37.55807]]}},{"type":"Feature","properties":{"class":"alley","highway":"service","sidewalk":"unknown","lanes":0,"name":"","oneway":false},"geometry":{"type":"LineString","coordinates":[[127.11008,37.55475],[127.10985,37.55486],[127.10971,37.55493],[127.10963,37.55503],[127.10955,37.55514],[127.10952,37.55527],[127.10953,37.55544],[127.10959,37.55555],[127.10967,37.55568],[127.10974,37.5558],[127.10994,37.55623],[127.10996,37.55631],[127.10993,37.55639],[127.10986,37.5565],[127.10986,37.55656],[127.1099,37.55664],[127.11027,37.5571],[127.11032,37.55719]]}},{"type":"Feature","properties":{"class":"alley","highway":"service","sidewalk":"unknown","lanes":0,"name":"","oneway":true},"geometry":{"type":"LineString","coordinates":[[127.11078,37.55457],[127.11075,37.55469],[127.1107,37.55479]]}},{"type":"Feature","properties":{"class":"alley","highway":"service","sidewalk":"unknown","lanes":0,"name":"","oneway":true},"geometry":{"type":"LineString","coordinates":[[127.1107,37.55479],[127.11067,37.55483],[127.11062,37.55486],[127.11056,37.55488],[127.1105,37.55488],[127.11045,37.55487]]}},{"type":"Feature","properties":{"class":"alley","highway":"service","sidewalk":"unknown","lanes":0,"name":"","oneway":true},"geometry":{"type":"LineString","coordinates":[[127.11045,37.55487],[127.11037,37.55485],[127.11021,37.5548],[127.11008,37.55475]]}},{"type":"Feature","properties":{"class":"alley","highway":"service","sidewalk":"unknown","lanes":0,"name":"","oneway":true},"geometry":{"type":"LineString","coordinates":[[127.11045,37.55487],[127.11035,37.55477],[127.11033,37.55471],[127.1103,37.5546]]}},{"type":"Feature","properties":{"class":"alley","highway":"service","sidewalk":"unknown","lanes":0,"name":"","oneway":false},"geometry":{"type":"LineString","coordinates":[[127.10751,37.54613],[127.10839,37.54587],[127.10841,37.54586],[127.10843,37.54583],[127.10843,37.54581],[127.10827,37.54545]]}},{"type":"Feature","properties":{"class":"major","highway":"secondary","sidewalk":"likely","lanes":0,"name":"구천면로","oneway":false},"geometry":{"type":"LineString","coordinates":[[127.10764,37.5465],[127.10746,37.54653],[127.10701,37.54661],[127.10675,37.54663]]}},{"type":"Feature","properties":{"class":"major","highway":"trunk_link","sidewalk":"likely","lanes":1,"name":"","oneway":true},"geometry":{"type":"LineString","coordinates":[[127.12005,37.54451],[127.11982,37.54424]]}},{"type":"Feature","properties":{"class":"major","highway":"trunk_link","sidewalk":"likely","lanes":1,"name":"","oneway":true},"geometry":{"type":"LineString","coordinates":[[127.11908,37.54254],[127.11903,37.54247],[127.11873,37.54226]]}},{"type":"Feature","properties":{"class":"major","highway":"trunk_link","sidewalk":"likely","lanes":0,"name":"","oneway":true},"geometry":{"type":"LineString","coordinates":[[127.10907,37.54617],[127.10891,37.54618],[127.10849,37.54623]]}},{"type":"Feature","properties":{"class":"major","highway":"trunk_link","sidewalk":"likely","lanes":0,"name":"","oneway":true},"geometry":{"type":"LineString","coordinates":[[127.11092,37.54551],[127.1105,37.54575],[127.11038,37.54587],[127.11029,37.54598],[127.11025,37.54606],[127.11025,37.54618],[127.11026,37.54631]]}},{"type":"Feature","properties":{"class":"minor","highway":"residential","sidewalk":"unknown","lanes":0,"name":"아차산로78길","oneway":false},"geometry":{"type":"LineString","coordinates":[[127.11092,37.55107],[127.11081,37.55118],[127.11072,37.55115]]}},{"type":"Feature","properties":{"class":"minor","highway":"residential","sidewalk":"unknown","lanes":0,"name":"아차산로78길","oneway":false},"geometry":{"type":"LineString","coordinates":[[127.11072,37.55115],[127.11065,37.55131],[127.11057,37.55152],[127.11048,37.55159],[127.10997,37.55153],[127.1098,37.55141]]}},{"type":"Feature","properties":{"class":"alley","highway":"pedestrian","sidewalk":"unknown","lanes":0,"name":"","oneway":false},"geometry":{"type":"LineString","coordinates":[[127.11845,37.54391],[127.1184,37.5438],[127.11846,37.54377],[127.1186,37.54373],[127.11863,37.54372],[127.11865,37.54369],[127.11866,37.54367],[127.11865,37.54363],[127.11859,37.54351],[127.11862,37.5435],[127.1186,37.54346],[127.11862,37.54346],[127.11863,37.54349],[127.1187,37.54347],[127.11875,37.54355],[127.11875,37.54369],[127.11867,37.54381],[127.11858,37.54387],[127.11849,37.5439],[127.11845,37.54391]]}},{"type":"Feature","properties":{"class":"major","highway":"trunk","sidewalk":"likely","lanes":3,"name":"강변북로","oneway":true},"geometry":{"type":"LineString","coordinates":[[127.11423,37.55775],[127.11487,37.55905],[127.11603,37.5614],[127.11655,37.56227],[127.11693,37.56283],[127.11736,37.56338],[127.11773,37.56382],[127.11853,37.56475],[127.11935,37.56568]]}},{"type":"Feature","properties":{"class":"major","highway":"trunk","sidewalk":"likely","lanes":3,"name":"강변북로","oneway":true},"geometry":{"type":"LineString","coordinates":[[127.11919,37.56571],[127.11822,37.56464],[127.11743,37.56371],[127.1164,37.56232],[127.11591,37.56149],[127.11475,37.55912],[127.11407,37.55777]]}},{"type":"Feature","properties":{"class":"major","highway":"primary","sidewalk":"likely","lanes":0,"name":"아차산로","oneway":true},"geometry":{"type":"LineString","coordinates":[[127.11754,37.56776],[127.11728,37.56747],[127.11696,37.56708],[127.11673,37.56678],[127.11597,37.56565],[127.11595,37.56562],[127.11552,37.56494],[127.11542,37.56476],[127.11529,37.56451],[127.11521,37.56432],[127.11516,37.56417],[127.11513,37.56406],[127.11506,37.5637],[127.11503,37.56342],[127.11503,37.56334],[127.11492,37.56282],[127.11486,37.56227],[127.11468,37.56125],[127.11459,37.56073],[127.11452,37.56021],[127.11436,37.55974],[127.11416,37.5593],[127.11397,37.55894]]}},{"type":"Feature","properties":{"class":"major","highway":"primary","sidewalk":"likely","lanes":0,"name":"아차산로","oneway":true},"geometry":{"type":"LineString","coordinates":[[127.10914,37.55092],[127.10936,37.55135],[127.10949,37.55155],[127.10967,37.55171],[127.10979,37.55178],[127.11007,37.55188],[127.11058,37.55196],[127.11085,37.55202],[127.11113,37.55217],[127.11132,37.55235],[127.11145,37.55255],[127.11164,37.55293],[127.11171,37.55323],[127.11174,37.55357],[127.11177,37.55377],[127.11184,37.55398],[127.11198,37.55424],[127.11229,37.55478],[127.1124,37.55501],[127.11243,37.55517],[127.11242,37.55532],[127.11233,37.55553],[127.1122,37.55572],[127.11206,37.55587],[127.11196,37.55605],[127.11192,37.55618],[127.11193,37.55631],[127.11196,37.55649],[127.11206,37.55663],[127.11216,37.55674],[127.11231,37.55687],[127.11318,37.55752],[127.11329,37.55765],[127.11351,37.55796],[127.11379,37.55842],[127.11422,37.5592]]}},{"type":"Feature","properties":{"class":"major","highway":"trunk","sidewalk":"likely","lanes":4,"name":"강변북로","oneway":true},"geometry":{"type":"LineString","coordinates":[[127.10787,37.54465],[127.10687,37.54365],[127.10532,37.54227]]}},{"type":"Feature","properties":{"class":"alley","highway":"service","sidewalk":"unknown","lanes":0,"name":"","oneway":false},"geometry":{"type":"LineString","coordinates":[[127.12041,37.54706],[127.12037,37.54707],[127.12027,37.54709],[127.12013,37.54715],[127.11916,37.54739]]}},{"type":"Feature","properties":{"class":"alley","highway":"pedestrian","sidewalk":"unknown","lanes":0,"name":"","oneway":false},"geometry":{"type":"LineString","coordinates":[[127.1192,37.54287],[127.12026,37.54251],[127.12031,37.54249]]}},{"type":"Feature","properties":{"class":"alley","highway":"pedestrian","sidewalk":"unknown","lanes":0,"name":"","oneway":false},"geometry":{"type":"LineString","coordinates":[[127.1081,37.54628],[127.108,37.54633]]}},{"type":"Feature","properties":{"class":"alley","highway":"pedestrian","sidewalk":"unknown","lanes":0,"name":"","oneway":false},"geometry":{"type":"LineString","coordinates":[[127.10878,37.54609],[127.1081,37.54628]]}},{"type":"Feature","properties":{"class":"major","highway":"trunk_link","sidewalk":"likely","lanes":1,"name":"","oneway":true},"geometry":{"type":"LineString","coordinates":[[127.12005,37.54451],[127.11984,37.54409],[127.11961,37.54348]]}},{"type":"Feature","properties":{"class":"major","highway":"trunk_link","sidewalk":"likely","lanes":0,"name":"","oneway":true},"geometry":{"type":"LineString","coordinates":[[127.11961,37.54348],[127.11942,37.54309],[127.11908,37.54254]]}},{"type":"Feature","properties":{"class":"major","highway":"primary","sidewalk":"likely","lanes":0,"name":"아차산로","oneway":true},"geometry":{"type":"LineString","coordinates":[[127.10799,37.5493],[127.10813,37.54936],[127.10878,37.55037],[127.1089,37.55056],[127.10911,37.55088],[127.10914,37.55092]]}},{"type":"Feature","properties":{"class":"major","highway":"primary","sidewalk":"likely","lanes":0,"name":"아차산로","oneway":true},"geometry":{"type":"LineString","coordinates":[[127.1099,37.55192],[127.10967,37.55183],[127.10956,37.55174],[127.10937,37.55154],[127.1092,37.55122],[127.10914,37.55114],[127.10896,37.55086],[127.10886,37.55069],[127.10866,37.55038],[127.10804,37.54946],[127.10799,37.5493]]}},{"type":"Feature","properties":{"class":"major","highway":"primary","sidewalk":"likely","lanes":0,"name":"아차산로","oneway":true},"geometry":{"type":"LineString","coordinates":[[127.11103,37.55222],[127.11085,37.55211],[127.11064,37.55207],[127.11035,37.55203],[127.1099,37.55192]]}},{"type":"Feature","properties":{"class":"major","highway":"primary","sidewalk":"likely","lanes":0,"name":"아차산로","oneway":true},"geometry":{"type":"LineString","coordinates":[[127.11422,37.5592],[127.11433,37.55945],[127.11448,37.5598],[127.11457,37.56008],[127.11461,37.56025],[127.11469,37.56073],[127.11474,37.561]]}},{"type":"Feature","properties":{"class":"major","highway":"trunk","sidewalk":"likely","lanes":0,"name":"강변북로","oneway":true},"geometry":{"type":"LineString","coordinates":[[127.11041,37.54791],[127.11033,37.54754],[127.11021,37.5472],[127.11007,37.54689],[127.10987,37.54656],[127.10959,37.54621],[127.10925,37.54586],[127.10821,37.54492]]}},{"type":"Feature","properties":{"class":"major","highway":"trunk","sidewalk":"likely","lanes":4,"name":"강변북로","oneway":true},"geometry":{"type":"LineString","coordinates":[[127.11055,37.54871],[127.11041,37.54791]]}},{"type":"Feature","properties":{"class":"major","highway":"trunk","sidewalk":"likely","lanes":3,"name":"강변북로","oneway":true},"geometry":{"type":"LineString","coordinates":[[127.10839,37.54479],[127.10905,37.54544],[127.10953,37.5459],[127.1099,37.54633],[127.11016,37.54674],[127.11031,37.54702],[127.11041,37.54728],[127.11052,37.54756],[127.11064,37.54806]]}},{"type":"Feature","properties":{"class":"major","highway":"trunk","sidewalk":"likely","lanes":4,"name":"강변북로","oneway":true},"geometry":{"type":"LineString","coordinates":[[127.11064,37.54806],[127.11075,37.54895]]}},{"type":"Feature","properties":{"class":"major","highway":"trunk","sidewalk":"likely","lanes":3,"name":"강변북로","oneway":true},"geometry":{"type":"LineString","coordinates":[[127.10764,37.54403],[127.10828,37.54468],[127.10839,37.54479]]}},{"type":"Feature","properties":{"class":"major","highway":"trunk","sidewalk":"likely","lanes":4,"name":"강변북로","oneway":true},"geometry":{"type":"LineString","coordinates":[[127.10694,37.54335],[127.10764,37.54403]]}},{"type":"Feature","properties":{"class":"alley","highway":"service","sidewalk":"unknown","lanes":0,"name":"","oneway":true},"geometry":{"type":"LineString","coordinates":[[127.11027,37.55756],[127.11033,37.55766],[127.11044,37.55779],[127.11046,37.55784]]}},{"type":"Feature","properties":{"class":"alley","highway":"service","sidewalk":"unknown","lanes":0,"name":"","oneway":false},"geometry":{"type":"LineString","coordinates":[[127.11046,37.55784],[127.11066,37.55804],[127.11072,37.5582]]}},{"type":"Feature","properties":{"class":"alley","highway":"service","sidewalk":"unknown","lanes":0,"name":"","oneway":true},"geometry":{"type":"LineString","coordinates":[[127.10983,37.55739],[127.10991,37.55741],[127.11001,37.55745],[127.1101,37.55749]]}},{"type":"Feature","properties":{"class":"alley","highway":"service","sidewalk":"unknown","lanes":0,"name":"","oneway":true},"geometry":{"type":"LineString","coordinates":[[127.11007,37.55756],[127.10999,37.55753],[127.10983,37.55739]]}},{"type":"Feature","properties":{"class":"alley","highway":"service","sidewalk":"unknown","lanes":0,"name":"","oneway":true},"geometry":{"type":"LineString","coordinates":[[127.11017,37.55747],[127.11025,37.55738],[127.11029,37.5573],[127.11032,37.55719]]}},{"type":"Feature","properties":{"class":"alley","highway":"service","sidewalk":"unknown","lanes":0,"name":"","oneway":true},"geometry":{"type":"LineString","coordinates":[[127.11032,37.55719],[127.11034,37.5573],[127.1103,37.55745],[127.11027,37.55753]]}},{"type":"Feature","properties":{"class":"alley","highway":"service","sidewalk":"unknown","lanes":0,"name":"","oneway":true},"geometry":{"type":"LineString","coordinates":[[127.11023,37.55748],[127.11026,37.55751],[127.11027,37.55753],[127.11027,37.55756],[127.11026,37.55758],[127.11024,37.55761],[127.11021,37.55762],[127.11017,37.55763],[127.11014,37.55762],[127.11011,37.55761],[127.11009,37.55759],[127.11007,37.55756],[127.11007,37.55754],[127.11008,37.55751],[127.1101,37.55749],[127.11013,37.55747],[127.11017,37.55747],[127.1102,37.55747],[127.11023,37.55748]]}},{"type":"Feature","properties":{"class":"alley","highway":"service","sidewalk":"unknown","lanes":0,"name":"","oneway":true},"geometry":{"type":"LineString","coordinates":[[127.11046,37.55784],[127.11039,37.55782],[127.11021,37.55769],[127.11014,37.55762]]}},{"type":"Feature","properties":{"class":"major","highway":"primary_link","sidewalk":"likely","lanes":0,"name":"","oneway":true},"geometry":{"type":"LineString","coordinates":[[127.10533,37.54615],[127.10583,37.54649],[127.10603,37.54665],[127.10613,37.54666],[127.10625,37.54666],[127.10643,37.54665],[127.10675,37.54663]]}},{"type":"Feature","properties":{"class":"major","highway":"primary_link","sidewalk":"likely","lanes":0,"name":"","oneway":true},"geometry":{"type":"LineString","coordinates":[[127.10675,37.54663],[127.10638,37.5468],[127.10629,37.54691],[127.10626,37.54699],[127.10639,37.54736]]}},{"type":"Feature","properties":{"class":"major","highway":"trunk_link","sidewalk":"likely","lanes":0,"name":"","oneway":true},"geometry":{"type":"LineString","coordinates":[[127.10627,37.54448],[127.10654,37.5443],[127.10655,37.54429],[127.10672,37.54416],[127.10682,37.54395],[127.10675,37.54373],[127.10577,37.54284],[127.10532,37.54227]]}},{"type":"Feature","properties":{"class":"major","highway":"primary_link","sidewalk":"likely","lanes":0,"name":"","oneway":true},"geometry":{"type":"LineString","coordinates":[[127.10514,37.54494],[127.10502,37.54505],[127.10486,37.54517],[127.10484,37.54522],[127.10484,37.54535],[127.10499,37.54574]]}},{"type":"Feature","properties":{"class":"major","highway":"primary","sidewalk":"likely","lanes":0,"name":"천호대로","oneway":true},"geometry":{"type":"LineString","coordinates":[[127.10426,37.54499],[127.10463,37.54489],[127.10513,37.54474],[127.10627,37.54448]]}},{"type":"Feature","properties":{"class":"minor","highway":"residential","sidewalk":"unknown","lanes":0,"name":"아차산로","oneway":false},"geometry":{"type":"LineString","coordinates":[[127.10092,37.54283],[127.10085,37.54296],[127.10075,37.54312],[127.10052,37.54349],[127.10047,37.54357],[127.10012,37.54416],[127.10009,37.5442]]}},{"type":"Feature","properties":{"class":"major","highway":"tertiary","sidewalk":"likely","lanes":0,"name":"광장앞지하차도","oneway":false},"geometry":{"type":"LineString","coordinates":[[127.1006,37.54602],[127.10112,37.54626],[127.10135,37.54637]]}},{"type":"Feature","properties":{"class":"minor","highway":"residential","sidewalk":"unknown","lanes":0,"name":"천호대로140길","oneway":false},"geometry":{"type":"LineString","coordinates":[[127.09859,37.54385],[127.09878,37.54385],[127.0991,37.5439],[127.09965,37.54405],[127.10009,37.5442],[127.10115,37.54492],[127.10139,37.54516],[127.10191,37.5457],[127.10196,37.54575]]}},{"type":"Feature","properties":{"class":"major","highway":"tertiary","sidewalk":"likely","lanes":0,"name":"광장로","oneway":false},"geometry":{"type":"LineString","coordinates":[[127.10135,37.54637],[127.10203,37.54675],[127.1021,37.54678],[127.10217,37.54682],[127.10223,37.54686],[127.1023,37.54687],[127.10234,37.54688],[127.1025,37.54693],[127.1032,37.54709],[127.10368,37.54724],[127.10393,37.54731],[127.10408,37.54732],[127.10422,37.54735],[127.10525,37.54764],[127.1058,37.54776],[127.10612,37.54784],[127.1066,37.54797],[127.10679,37.54801],[127.10708,37.54807]]}},{"type":"Feature","properties":{"class":"major","highway":"tertiary","sidewalk":"likely","lanes":0,"name":"광장로","oneway":false},"geometry":{"type":"LineString","coordinates":[[127.09777,37.54551],[127.09832,37.54525],[127.0989,37.54523],[127.1006,37.54602]]}},{"type":"Feature","properties":{"class":"minor","highway":"residential","sidewalk":"unknown","lanes":0,"name":"영화사로","oneway":false},"geometry":{"type":"LineString","coordinates":[[127.10087,37.5508],[127.10049,37.55123],[127.10043,37.55133],[127.10014,37.55167],[127.1,37.5518],[127.09979,37.55201],[127.09975,37.55211],[127.09973,37.55222],[127.0997,37.5524],[127.09963,37.55257],[127.09956,37.55264],[127.09951,37.5527],[127.09939,37.55275],[127.09899,37.5529],[127.0981,37.55326],[127.09767,37.55336],[127.09734,37.55347]]}},{"type":"Feature","properties":{"class":"minor","highway":"residential","sidewalk":"unknown","lanes":0,"name":"","oneway":false},"geometry":{"type":"LineString","coordinates":[[127.10332,37.55169],[127.10341,37.55091],[127.10401,37.55016],[127.10407,37.55]]}},{"type":"Feature","properties":{"class":"minor","highway":"residential","sidewalk":"unknown","lanes":0,"name":"천호대로141길","oneway":false},"geometry":{"type":"LineString","coordinates":[[127.10203,37.54675],[127.10207,37.54668]]}},{"type":"Feature","properties":{"class":"minor","highway":"residential","sidewalk":"unknown","lanes":0,"name":"아차산로75길","oneway":false},"geometry":{"type":"LineString","coordinates":[[127.10507,37.54621],[127.10465,37.54621],[127.10454,37.54621],[127.1043,37.54623],[127.10381,37.54641],[127.10351,37.54661]]}},{"type":"Feature","properties":{"class":"minor","highway":"residential","sidewalk":"unknown","lanes":1,"name":"광장로1길","oneway":true},"geometry":{"type":"LineString","coordinates":[[127.10223,37.54686],[127.10222,37.5469],[127.10212,37.54723],[127.10226,37.54742],[127.10204,37.54765],[127.10204,37.54771],[127.10215,37.54799],[127.10228,37.54809]]}},{"type":"Feature","properties":{"class":"minor","highway":"residential","sidewalk":"unknown","lanes":0,"name":"광장로1가길","oneway":false},"geometry":{"type":"LineString","coordinates":[[127.10128,37.54722],[127.10121,37.54754],[127.10201,37.54764],[127.10204,37.54765]]}},{"type":"Feature","properties":{"class":"minor","highway":"residential","sidewalk":"unknown","lanes":0,"name":"광장로1길","oneway":false},"geometry":{"type":"LineString","coordinates":[[127.10228,37.54809],[127.10299,37.54844],[127.10327,37.54854],[127.10349,37.5486]]}},{"type":"Feature","properties":{"class":"minor","highway":"residential","sidewalk":"unknown","lanes":0,"name":"광장로1다길","oneway":false},"geometry":{"type":"LineString","coordinates":[[127.10299,37.54844],[127.10287,37.54879],[127.10274,37.54906],[127.10265,37.5493],[127.10254,37.54962],[127.10246,37.54982],[127.10231,37.55009],[127.10197,37.5505],[127.10184,37.55063],[127.10134,37.55076]]}},{"type":"Feature","properties":{"class":"minor","highway":"residential","sidewalk":"unknown","lanes":0,"name":"광장로3길","oneway":true},"geometry":{"type":"LineString","coordinates":[[127.10228,37.54809],[127.1024,37.5481],[127.10256,37.54801],[127.10268,37.54784],[127.1028,37.5477],[127.10303,37.54754],[127.10305,37.54747],[127.10319,37.54712],[127.1032,37.54709]]}},{"type":"Feature","properties":{"class":"minor","highway":"residential","sidewalk":"unknown","lanes":0,"name":"광장로1길","oneway":false},"geometry":{"type":"LineString","coordinates":[[127.10212,37.54723],[127.10305,37.54747]]}},{"type":"Feature","properties":{"class":"minor","highway":"residential","sidewalk":"unknown","lanes":0,"name":"광장로1가길","oneway":false},"geometry":{"type":"LineString","coordinates":[[127.10121,37.54754],[127.10116,37.54778],[127.10063,37.54822],[127.10043,37.54836],[127.10022,37.54841],[127.09969,37.54852],[127.09965,37.54859]]}},{"type":"Feature","properties":{"class":"alley","highway":"service","sidewalk":"unknown","lanes":0,"name":"","oneway":false},"geometry":{"type":"LineString","coordinates":[[127.10422,37.54735],[127.10414,37.5476],[127.10409,37.54778],[127.10404,37.54798],[127.10401,37.54809],[127.10399,37.54816],[127.10395,37.54832],[127.10394,37.54836],[127.10389,37.54852],[127.10389,37.54855]]}},{"type":"Feature","properties":{"class":"minor","highway":"residential","sidewalk":"unknown","lanes":0,"name":"광장로5길","oneway":false},"geometry":{"type":"LineString","coordinates":[[127.10525,37.54764],[127.10522,37.54771],[127.10518,37.54782],[127.10517,37.54787],[127.10517,37.54791],[127.10515,37.54794],[127.10507,37.54811],[127.10504,37.54817],[127.10499,37.54829],[127.10497,37.54839],[127.10494,37.54846],[127.10494,37.54851],[127.10494,37.54857],[127.10494,37.54863],[127.10495,37.54871],[127.10491,37.54924]]}},{"type":"Feature","properties":{"class":"minor","highway":"residential","sidewalk":"unknown","lanes":0,"name":"아차산로","oneway":false},"geometry":{"type":"LineString","coordinates":[[127.1058,37.54776],[127.10587,37.54746],[127.10579,37.54699]]}},{"type":"Feature","properties":{"class":"minor","highway":"residential","sidewalk":"unknown","lanes":0,"name":"천호대로143길","oneway":false},"geometry":{"type":"LineString","coordinates":[[127.10368,37.54724],[127.10381,37.54693],[127.10351,37.54661],[127.10348,37.54658],[127.10327,37.54635],[127.10323,37.5463],[127.10301,37.54606],[127.10278,37.54579],[127.10271,37.54566]]}},{"type":"Feature","properties":{"class":"minor","highway":"residential","sidewalk":"unknown","lanes":0,"name":"아차산로75길","oneway":false},"geometry":{"type":"LineString","coordinates":[[127.1025,37.54693],[127.10255,37.54691],[127.10348,37.54658]]}},{"type":"Feature","properties":{"class":"minor","highway":"residential","sidewalk":"unknown","lanes":0,"name":"아차산로73길","oneway":false},"geometry":{"type":"LineString","coordinates":[[127.10217,37.54682],[127.10219,37.54676],[127.10219,37.54676],[127.10227,37.54671],[127.10327,37.54635],[127.10384,37.54614],[127.10441,37.54593],[127.10475,37.5458]]}},{"type":"Feature","properties":{"class":"minor","highway":"residential","sidewalk":"unknown","lanes":0,"name":"천호대로141길","oneway":false},"geometry":{"type":"LineString","coordinates":[[127.10231,37.54628],[127.10301,37.54606]]}},{"type":"Feature","properties":{"class":"minor","highway":"residential","sidewalk":"unknown","lanes":0,"name":"아차산로73길","oneway":false},"geometry":{"type":"LineString","coordinates":[[127.10441,37.54593],[127.10465,37.54621]]}},{"type":"Feature","properties":{"class":"minor","highway":"residential","sidewalk":"unknown","lanes":0,"name":"천호대로145길","oneway":false},"geometry":{"type":"LineString","coordinates":[[127.10384,37.54614],[127.10359,37.54585],[127.10337,37.5456]]}},{"type":"Feature","properties":{"class":"alley","highway":"service","sidewalk":"unknown","lanes":0,"name":"","oneway":false},"geometry":{"type":"LineString","coordinates":[[127.10325,37.54389],[127.10336,37.54381],[127.10365,37.5436],[127.10384,37.54343],[127.10392,37.54336],[127.10407,37.54324],[127.10415,37.54318],[127.10426,37.5431],[127.10444,37.54295],[127.10481,37.54264],[127.10497,37.54277],[127.10514,37.54291],[127.10531,37.54305],[127.10558,37.54327],[127.10563,37.54331],[127.10555,37.54336],[127.10537,37.54349],[127.10527,37.54356],[127.10505,37.54372],[127.10501,37.54375],[127.10484,37.54387],[127.10476,37.54393],[127.1046,37.54405],[127.10436,37.54422],[127.10409,37.54441],[127.10452,37.54471]]}},{"type":"Feature","properties":{"class":"alley","highway":"service","sidewalk":"unknown","lanes":0,"name":"","oneway":false},"geometry":{"type":"LineString","coordinates":[[127.10384,37.54343],[127.10433,37.54383],[127.1046,37.54405]]}},{"type":"Feature","properties":{"class":"alley","highway":"service","sidewalk":"unknown","lanes":0,"name":"","oneway":false},"geometry":{"type":"LineString","coordinates":[[127.10426,37.5431],[127.10476,37.54349],[127.10499,37.54368],[127.10505,37.54372]]}},{"type":"Feature","properties":{"class":"alley","highway":"service","sidewalk":"unknown","lanes":0,"name":"","oneway":false},"geometry":{"type":"LineString","coordinates":[[127.10407,37.54324],[127.10455,37.54364],[127.10476,37.54349]]}},{"type":"Feature","properties":{"class":"alley","highway":"service","sidewalk":"unknown","lanes":0,"name":"","oneway":false},"geometry":{"type":"LineString","coordinates":[[127.10555,37.54336],[127.10592,37.54368],[127.10574,37.54381],[127.10537,37.54349]]}},{"type":"Feature","properties":{"class":"alley","highway":"service","sidewalk":"unknown","lanes":0,"name":"","oneway":false},"geometry":{"type":"LineString","coordinates":[[127.10501,37.54375],[127.10534,37.54405],[127.10518,37.54418],[127.10484,37.54387]]}},{"type":"Feature","properties":{"class":"minor","highway":"residential","sidewalk":"unknown","lanes":0,"name":"","oneway":false},"geometry":{"type":"LineString","coordinates":[[127.10436,37.54422],[127.10457,37.54438],[127.10469,37.54447],[127.10487,37.54436]]}},{"type":"Feature","properties":{"class":"minor","highway":"residential","sidewalk":"unknown","lanes":0,"name":"","oneway":false},"geometry":{"type":"LineString","coordinates":[[127.10457,37.54438],[127.10472,37.54427]]}},{"type":"Feature","properties":{"class":"alley","highway":"service","sidewalk":"unknown","lanes":0,"name":"","oneway":false},"geometry":{"type":"LineString","coordinates":[[127.10365,37.5436],[127.1041,37.54397],[127.10433,37.54383]]}},{"type":"Feature","properties":{"class":"alley","highway":"service","sidewalk":"unknown","lanes":0,"name":"","oneway":false},"geometry":{"type":"LineString","coordinates":[[127.10514,37.54291],[127.10481,37.54315],[127.10498,37.54328],[127.10531,37.54305]]}},{"type":"Feature","properties":{"class":"alley","highway":"service","sidewalk":"unknown","lanes":0,"name":"","oneway":false},"geometry":{"type":"LineString","coordinates":[[127.10481,37.54315],[127.10465,37.54299],[127.10497,37.54277]]}},{"type":"Feature","properties":{"class":"alley","highway":"service","sidewalk":"unknown","lanes":0,"name":"","oneway":false},"geometry":{"type":"LineString","coordinates":[[127.10392,37.54336],[127.10358,37.54309],[127.10317,37.54273],[127.103,37.54272],[127.10278,37.54291],[127.10247,37.54323],[127.10238,37.54334]]}},{"type":"Feature","properties":{"class":"alley","highway":"service","sidewalk":"unknown","lanes":0,"name":"","oneway":false},"geometry":{"type":"LineString","coordinates":[[127.10278,37.54291],[127.1033,37.54327],[127.10358,37.54309]]}},{"type":"Feature","properties":{"class":"alley","highway":"service","sidewalk":"unknown","lanes":0,"name":"","oneway":false},"geometry":{"type":"LineString","coordinates":[[127.10278,37.54291],[127.10269,37.54282],[127.10245,37.54263],[127.10226,37.54285]]}},{"type":"Feature","properties":{"class":"alley","highway":"service","sidewalk":"unknown","lanes":0,"name":"","oneway":false},"geometry":{"type":"LineString","coordinates":[[127.10269,37.54282],[127.10295,37.5426],[127.10326,37.54259],[127.10343,37.54263],[127.10415,37.54318]]}},{"type":"Feature","properties":{"class":"alley","highway":"service","sidewalk":"unknown","lanes":0,"name":"","oneway":false},"geometry":{"type":"LineString","coordinates":[[127.10376,37.54241],[127.104,37.54222],[127.10439,37.54249],[127.10444,37.54295]]}},{"type":"Feature","properties":{"class":"major","highway":"primary","sidewalk":"likely","lanes":0,"name":"아차산로","oneway":false},"geometry":{"type":"LineString","coordinates":[[127.10583,37.54674],[127.10533,37.54615]]}},{"type":"Feature","properties":{"class":"major","highway":"secondary","sidewalk":"likely","lanes":0,"name":"아차산로","oneway":false},"geometry":{"type":"LineString","coordinates":[[127.10129,37.54296],[127.1022,37.54327],[127.10238,37.54334],[127.10268,37.54348],[127.10296,37.54365],[127.10312,37.54377],[127.10325,37.54389],[127.1041,37.54483],[127.10426,37.54499]]}},{"type":"Feature","properties":{"class":"major","highway":"primary","sidewalk":"likely","lanes":0,"name":"아차산로","oneway":false},"geometry":{"type":"LineString","coordinates":[[127.10708,37.54807],[127.10639,37.54736],[127.10595,37.54688],[127.10583,37.54674]]}},{"type":"Feature","properties":{"class":"major","highway":"primary","sidewalk":"likely","lanes":0,"name":"아차산로","oneway":false},"geometry":{"type":"LineString","coordinates":[[127.10499,37.54574],[127.10453,37.54528],[127.10438,37.54514]]}},{"type":"Feature","properties":{"class":"major","highway":"primary","sidewalk":"likely","lanes":4,"name":"천호대로","oneway":true},"geometry":{"type":"LineString","coordinates":[[127.0984,37.54698],[127.10094,37.54611],[127.10196,37.54575],[127.10242,37.54559],[127.10283,37.54546],[127.10399,37.54507],[127.10426,37.54499]]}},{"type":"Feature","properties":{"class":"major","highway":"primary_link","sidewalk":"likely","lanes":0,"name":"","oneway":true},"geometry":{"type":"LineString","coordinates":[[127.10099,37.54625],[127.1006,37.54651],[127.09839,37.5473],[127.09822,37.54732],[127.09812,37.54733]]}},{"type":"Feature","properties":{"class":"major","highway":"primary_link","sidewalk":"likely","lanes":0,"name":"","oneway":true},"geometry":{"type":"LineString","coordinates":[[127.09807,37.54707],[127.09812,37.54701],[127.09826,37.54691],[127.10041,37.54619],[127.10094,37.54611]]}},{"type":"Feature","properties":{"class":"major","highway":"primary","sidewalk":"likely","lanes":4,"name":"천호대로","oneway":true},"geometry":{"type":"LineString","coordinates":[[127.10438,37.54514],[127.10411,37.54521],[127.10396,37.54525],[127.10369,37.54534],[127.10331,37.54547],[127.10271,37.54566],[127.1025,37.54573],[127.10235,37.54579],[127.1012,37.54618],[127.10113,37.5462],[127.10099,37.54625],[127.09849,37.54713]]}},{"type":"Feature","properties":{"class":"minor","highway":"residential","sidewalk":"unknown","lanes":0,"name":"워커힐로","oneway":false},"geometry":{"type":"LineString","coordinates":[[127.10087,37.5508],[127.10077,37.55058],[127.10075,37.54999],[127.10063,37.54973],[127.10047,37.54961],[127.10014,37.54955],[127.09956,37.54949],[127.09916,37.54942],[127.09899,37.54933],[127.09883,37.5492],[127.09876,37.54915],[127.0987,37.54906],[127.09853,37.54856],[127.09834,37.54776],[127.0983,37.54764]]}},{"type":"Feature","properties":{"class":"minor","highway":"residential","sidewalk":"unknown","lanes":0,"name":"아차산로73길","oneway":false},"geometry":{"type":"LineString","coordinates":[[127.10413,37.54566],[127.10441,37.54593]]}},{"type":"Feature","properties":{"class":"minor","highway":"residential","sidewalk":"unknown","lanes":0,"name":"천호대로145길","oneway":false},"geometry":{"type":"LineString","coordinates":[[127.10359,37.54585],[127.10413,37.54566]]}},{"type":"Feature","properties":{"class":"minor","highway":"residential","sidewalk":"unknown","lanes":0,"name":"천호대로143길","oneway":false},"geometry":{"type":"LineString","coordinates":[[127.10301,37.54606],[127.10359,37.54585]]}},{"type":"Feature","properties":{"class":"major","highway":"primary","sidewalk":"likely","lanes":0,"name":"천호대로","oneway":true},"geometry":{"type":"LineString","coordinates":[[127.10514,37.54494],[127.10471,37.54505],[127.10438,37.54514]]}},{"type":"Feature","properties":{"class":"minor","highway":"residential","sidewalk":"unknown","lanes":0,"name":"","oneway":false},"geometry":{"type":"LineString","coordinates":[[127.10139,37.54516],[127.10142,37.54513],[127.10159,37.54497],[127.10119,37.54472],[127.10068,37.54443],[127.10032,37.54421],[127.10028,37.54415],[127.10064,37.54352],[127.10078,37.54348],[127.10098,37.54355],[127.10104,37.54358],[127.101,37.54364]]}},{"type":"Feature","properties":{"class":"minor","highway":"residential","sidewalk":"unknown","lanes":0,"name":"","oneway":false},"geometry":{"type":"LineString","coordinates":[[127.10119,37.54472],[127.10127,37.5446]]}},{"type":"Feature","properties":{"class":"minor","highway":"residential","sidewalk":"unknown","lanes":0,"name":"","oneway":false},"geometry":{"type":"LineString","coordinates":[[127.10159,37.54497],[127.1017,37.54495],[127.10186,37.54496],[127.10219,37.54488],[127.10245,37.54475],[127.10255,37.54457],[127.10257,37.54447],[127.10247,37.54398],[127.10241,37.54388]]}},{"type":"Feature","properties":{"class":"minor","highway":"residential","sidewalk":"unknown","lanes":0,"name":"","oneway":false},"geometry":{"type":"LineString","coordinates":[[127.10255,37.54457],[127.10243,37.54452]]}},{"type":"Feature","properties":{"class":"minor","highway":"residential","sidewalk":"unknown","lanes":0,"name":"","oneway":false},"geometry":{"type":"LineString","coordinates":[[127.10078,37.54348],[127.10093,37.54322]]}},{"type":"Feature","properties":{"class":"minor","highway":"residential","sidewalk":"unknown","lanes":0,"name":"","oneway":false},"geometry":{"type":"LineString","coordinates":[[127.10098,37.54355],[127.10115,37.54327],[127.10194,37.54356],[127.10178,37.54383]]}},{"type":"Feature","properties":{"class":"minor","highway":"residential","sidewalk":"unknown","lanes":0,"name":"","oneway":false},"geometry":{"type":"LineString","coordinates":[[127.10052,37.54349],[127.10046,37.54347],[127.09965,37.54322],[127.09893,37.543]]}},{"type":"Feature","properties":{"class":"minor","highway":"unclassified","sidewalk":"unknown","lanes":0,"name":"","oneway":false},"geometry":{"type":"LineString","coordinates":[[127.10228,37.54809],[127.102,37.54812],[127.10181,37.5484],[127.10164,37.54854]]}},{"type":"Feature","properties":{"class":"minor","highway":"unclassified","sidewalk":"unknown","lanes":0,"name":"","oneway":false},"geometry":{"type":"LineString","coordinates":[[127.102,37.54812],[127.10201,37.54803],[127.10184,37.54802],[127.1018,37.54827]]}},{"type":"Feature","properties":{"class":"major","highway":"primary","sidewalk":"likely","lanes":0,"name":"아차산로","oneway":false},"geometry":{"type":"LineString","coordinates":[[127.10533,37.54615],[127.10499,37.54574]]}},{"type":"Feature","properties":{"class":"major","highway":"secondary","sidewalk":"likely","lanes":0,"name":"구천면로","oneway":false},"geometry":{"type":"LineString","coordinates":[[127.10675,37.54663],[127.10615,37.54672],[127.10583,37.54674]]}},{"type":"Feature","properties":{"class":"alley","highway":"service","sidewalk":"unknown","lanes":0,"name":"","oneway":false},"geometry":{"type":"LineString","coordinates":[[127.10159,37.54239],[127.10081,37.54212]]}},{"type":"Feature","properties":{"class":"major","highway":"trunk_link","sidewalk":"likely","lanes":0,"name":"","oneway":true},"geometry":{"type":"LineString","coordinates":[[127.1067,37.54294],[127.10725,37.54337]]}},{"type":"Feature","properties":{"class":"alley","highway":"pedestrian","sidewalk":"unknown","lanes":0,"name":"","oneway":false},"geometry":{"type":"LineString","coordinates":[[127.10142,37.55495],[127.10132,37.55454],[127.10128,37.5544]]}},{"type":"Feature","properties":{"class":"alley","highway":"pedestrian","sidewalk":"unknown","lanes":0,"name":"","oneway":false},"geometry":{"type":"LineString","coordinates":[[127.10128,37.5544],[127.10119,37.55458],[127.10115,37.55477],[127.1012,37.55495],[127.10125,37.55505],[127.1013,37.55512],[127.10149,37.55532],[127.10159,37.5554],[127.10166,37.55544],[127.10174,37.55548],[127.10189,37.5555],[127.10223,37.55567],[127.10243,37.5558],[127.10271,37.55596]]}},{"type":"Feature","properties":{"class":"alley","highway":"living_street","sidewalk":"unknown","lanes":0,"name":"","oneway":false},"geometry":{"type":"LineString","coordinates":[[127.10234,37.54235],[127.10216,37.5423]]}},{"type":"Feature","properties":{"class":"major","highway":"primary","sidewalk":"likely","lanes":0,"name":"아차산로","oneway":false},"geometry":{"type":"LineString","coordinates":[[127.10438,37.54514],[127.10426,37.54499]]}},{"type":"Feature","properties":{"class":"alley","highway":"service","sidewalk":"unknown","lanes":0,"name":"","oneway":true},"geometry":{"type":"LineString","coordinates":[[127.10283,37.54546],[127.10341,37.54535],[127.10405,37.54514],[127.10426,37.54499]]}},{"type":"Feature","properties":{"class":"alley","highway":"service","sidewalk":"unknown","lanes":0,"name":"","oneway":true},"geometry":{"type":"LineString","coordinates":[[127.10369,37.54534],[127.10308,37.54547],[127.10214,37.54579],[127.10145,37.54606],[127.1012,37.54618]]}},{"type":"Feature","properties":{"class":"major","highway":"primary","sidewalk":"likely","lanes":2,"name":"천호대로","oneway":true},"geometry":{"type":"LineString","coordinates":[[127.10627,37.54448],[127.10696,37.54432]]}},{"type":"Feature","properties":{"class":"minor","highway":"residential","sidewalk":"unknown","lanes":0,"name":"천호대로141길","oneway":false},"geometry":{"type":"LineString","coordinates":[[127.10207,37.54668],[127.10231,37.54628],[127.10244,37.54595],[127.10241,37.5459]]}},{"type":"Feature","properties":{"class":"minor","highway":"residential","sidewalk":"unknown","lanes":0,"name":"천호대로141길","oneway":false},"geometry":{"type":"LineString","coordinates":[[127.10241,37.5459],[127.10235,37.54579]]}},{"type":"Feature","properties":{"class":"alley","highway":"pedestrian","sidewalk":"unknown","lanes":0,"name":"","oneway":false},"geometry":{"type":"LineString","coordinates":[[127.10012,37.5518],[127.09999,37.55193],[127.09994,37.552],[127.09987,37.55211],[127.09986,37.55224],[127.09987,37.55238],[127.09987,37.55245],[127.09984,37.55251],[127.09983,37.55254],[127.09971,37.55267],[127.09969,37.5527],[127.09968,37.55272]]}},{"type":"Feature","properties":{"class":"alley","highway":"pedestrian","sidewalk":"unknown","lanes":0,"name":"","oneway":false},"geometry":{"type":"LineString","coordinates":[[127.09968,37.55272],[127.09967,37.55279],[127.0997,37.55292],[127.09974,37.55302],[127.0998,37.5531],[127.09988,37.55313],[127.10006,37.5532],[127.1003,37.5533],[127.10046,37.5534],[127.10053,37.55345],[127.10083,37.55363],[127.10085,37.55365],[127.1009,37.55371],[127.10092,37.55378],[127.10105,37.55394],[127.10112,37.55404],[127.10115,37.55407],[127.10118,37.55414],[127.1012,37.55424],[127.10122,37.55427],[127.10128,37.5544]]}},{"type":"Feature","properties":{"class":"alley","highway":"service","sidewalk":"unknown","lanes":0,"name":"생태공원가늘길","oneway":false},"geometry":{"type":"LineString","coordinates":[[127.10185,37.5487],[127.10187,37.54865],[127.10197,37.54839],[127.10201,37.54826],[127.10222,37.54816],[127.10228,37.54809]]}},{"type":"Feature","properties":{"class":"minor","highway":"residential","sidewalk":"unknown","lanes":0,"name":"천호대로145길","oneway":false},"geometry":{"type":"LineString","coordinates":[[127.10337,37.5456],[127.10331,37.54547]]}},{"type":"Feature","properties":{"class":"alley","highway":"service","sidewalk":"unknown","lanes":0,"name":"","oneway":false},"geometry":{"type":"LineString","coordinates":[[127.10389,37.54855],[127.10432,37.54863]]}},{"type":"Feature","properties":{"class":"alley","highway":"service","sidewalk":"unknown","lanes":0,"name":"","oneway":false},"geometry":{"type":"LineString","coordinates":[[127.10356,37.54847],[127.10389,37.54852]]}},{"type":"Feature","properties":{"class":"alley","highway":"service","sidewalk":"unknown","lanes":0,"name":"","oneway":false},"geometry":{"type":"LineString","coordinates":[[127.10394,37.54836],[127.10449,37.54845]]}},{"type":"Feature","properties":{"class":"alley","highway":"service","sidewalk":"unknown","lanes":0,"name":"","oneway":false},"geometry":{"type":"LineString","coordinates":[[127.10378,37.54828],[127.10395,37.54832]]}},{"type":"Feature","properties":{"class":"alley","highway":"service","sidewalk":"unknown","lanes":0,"name":"","oneway":false},"geometry":{"type":"LineString","coordinates":[[127.10399,37.54816],[127.10446,37.54824]]}},{"type":"Feature","properties":{"class":"alley","highway":"service","sidewalk":"unknown","lanes":0,"name":"","oneway":false},"geometry":{"type":"LineString","coordinates":[[127.10369,37.54803],[127.10401,37.54809]]}},{"type":"Feature","properties":{"class":"alley","highway":"service","sidewalk":"unknown","lanes":0,"name":"","oneway":false},"geometry":{"type":"LineString","coordinates":[[127.10404,37.54798],[127.10448,37.54805]]}},{"type":"Feature","properties":{"class":"alley","highway":"service","sidewalk":"unknown","lanes":0,"name":"","oneway":false},"geometry":{"type":"LineString","coordinates":[[127.10409,37.54778],[127.10453,37.54786]]}},{"type":"Feature","properties":{"class":"alley","highway":"service","sidewalk":"unknown","lanes":0,"name":"","oneway":false},"geometry":{"type":"LineString","coordinates":[[127.10414,37.5476],[127.10441,37.54764]]}},{"type":"Feature","properties":{"class":"alley","highway":"service","sidewalk":"unknown","lanes":0,"name":"","oneway":false},"geometry":{"type":"LineString","coordinates":[[127.10268,37.54784],[127.10351,37.54819]]}},{"type":"Feature","properties":{"class":"alley","highway":"service","sidewalk":"unknown","lanes":0,"name":"","oneway":false},"geometry":{"type":"LineString","coordinates":[[127.10256,37.54801],[127.10326,37.5483]]}},{"type":"Feature","properties":{"class":"alley","highway":"service","sidewalk":"unknown","lanes":0,"name":"","oneway":false},"geometry":{"type":"LineString","coordinates":[[127.10049,37.55123],[127.10043,37.55111],[127.10027,37.5501],[127.10024,37.54995],[127.10019,37.54989],[127.10012,37.54988],[127.09871,37.54978],[127.09866,37.54977]]}},{"type":"Feature","properties":{"class":"alley","highway":"service","sidewalk":"unknown","lanes":0,"name":"","oneway":false},"geometry":{"type":"LineString","coordinates":[[127.10043,37.55111],[127.10023,37.55106],[127.10016,37.55103],[127.10011,37.55096],[127.10009,37.55083],[127.10006,37.5503],[127.10004,37.55025],[127.09999,37.55021],[127.09993,37.55019],[127.09987,37.55017],[127.09976,37.55017],[127.09874,37.55036],[127.09841,37.5504],[127.09837,37.5504],[127.09834,37.5504],[127.09832,37.55039],[127.09827,37.55037],[127.09824,37.55035],[127.09821,37.55028],[127.09821,37.55023],[127.09822,37.5502],[127.09827,37.55014],[127.09852,37.54991],[127.09871,37.54978]]}},{"type":"Feature","properties":{"class":"minor","highway":"residential","sidewalk":"unknown","lanes":0,"name":"","oneway":false},"geometry":{"type":"LineString","coordinates":[[127.1058,37.54776],[127.10578,37.54789],[127.10574,37.54809],[127.1057,37.54824],[127.10563,37.54838],[127.10556,37.54851],[127.10546,37.54866],[127.10545,37.54868],[127.10547,37.54871],[127.10549,37.54873],[127.10552,37.54875],[127.10555,37.54879],[127.10556,37.54882],[127.10558,37.5489],[127.10557,37.54897],[127.10555,37.54902],[127.10553,37.54907],[127.1055,37.54912],[127.10545,37.54919]]}},{"type":"Feature","properties":{"class":"minor","highway":"residential","sidewalk":"unknown","lanes":0,"name":"","oneway":false},"geometry":{"type":"LineString","coordinates":[[127.10612,37.54784],[127.10609,37.54798],[127.1061,37.54802],[127.10615,37.5481],[127.1062,37.54817],[127.10624,37.54826],[127.10624,37.54832],[127.10625,37.54838],[127.10622,37.54846],[127.10619,37.54853],[127.10614,37.54863],[127.1061,37.54872],[127.10605,37.54884],[127.10601,37.54893],[127.10595,37.54906]]}},{"type":"Feature","properties":{"class":"major","highway":"trunk","sidewalk":"likely","lanes":3,"name":"강변북로","oneway":true},"geometry":{"type":"LineString","coordinates":[[127.10609,37.54266],[127.10694,37.54335]]}},{"type":"Feature","properties":{"class":"major","highway":"primary","sidewalk":"likely","lanes":6,"name":"천호대로","oneway":true},"geometry":{"type":"LineString","coordinates":[[127.10702,37.54442],[127.10514,37.54494]]}}]}