{"type":"FeatureCollection","features":[{"type":"Feature","properties":{"class":"major","highway":"motorway","sidewalk":"likely","lanes":4,"name":"수도권제1순환고속도로","oneway":true},"geometry":{"type":"LineString","coordinates":[[127.17964,37.54829],[127.18059,37.54609],[127.18143,37.5445],[127.18203,37.54321]]}},{"type":"Feature","properties":{"class":"major","highway":"motorway_link","sidewalk":"likely","lanes":1,"name":"","oneway":true},"geometry":{"type":"LineString","coordinates":[[127.18107,37.54608],[127.18051,37.54742]]}},{"type":"Feature","properties":{"class":"major","highway":"motorway_link","sidewalk":"likely","lanes":2,"name":"","oneway":true},"geometry":{"type":"LineString","coordinates":[[127.18176,37.54426],[127.18122,37.54569],[127.18107,37.54608]]}},{"type":"Feature","properties":{"class":"major","highway":"motorway_link","sidewalk":"likely","lanes":1,"name":"","oneway":true},"geometry":{"type":"LineString","coordinates":[[127.18007,37.54911],[127.17966,37.54909],[127.17842,37.54892],[127.17829,37.54892],[127.17815,37.54893],[127.17805,37.54895],[127.17795,37.54897],[127.17789,37.549],[127.17782,37.54903],[127.17775,37.54908],[127.1777,37.54913],[127.17765,37.54921],[127.17762,37.5493],[127.17761,37.5494],[127.17762,37.54948],[127.17767,37.54957],[127.17773,37.54966],[127.17779,37.54971],[127.17788,37.54976],[127.17803,37.54982],[127.17812,37.54983],[127.1782,37.54982],[127.17828,37.54981],[127.17835,37.5498],[127.17841,37.54977],[127.17848,37.54975],[127.17856,37.5497],[127.17866,37.54961],[127.17872,37.54955],[127.17877,37.54946],[127.17883,37.5493]]}},{"type":"Feature","properties":{"class":"major","highway":"motorway","sidewalk":"likely","lanes":4,"name":"수도권제1순환고속도로","oneway":true},"geometry":{"type":"LineString","coordinates":[[127.18176,37.54426],[127.18077,37.54612],[127.17983,37.54832]]}},{"type":"Feature","properties":{"class":"major","highway":"motorway_link","sidewalk":"likely","lanes":1,"name":"","oneway":true},"geometry":{"type":"LineString","coordinates":[[127.18051,37.54742],[127.18035,37.54786]]}},{"type":"Feature","properties":{"class":"major","highway":"motorway_link","sidewalk":"likely","lanes":1,"name":"","oneway":true},"geometry":{"type":"LineString","coordinates":[[127.17971,37.54774],[127.18,37.54765],[127.18026,37.54763]]}},{"type":"Feature","properties":{"class":"major","highway":"motorway_link","sidewalk":"likely","lanes":1,"name":"","oneway":true},"geometry":{"type":"LineString","coordinates":[[127.17999,37.54889],[127.18064,37.54886],[127.18093,37.54885],[127.18107,37.54883],[127.18122,37.54877],[127.18132,37.5487],[127.18141,37.5486],[127.18145,37.54848],[127.18145,37.54836],[127.18141,37.54827],[127.18135,37.54817],[127.18125,37.54809],[127.18112,37.54803],[127.18092,37.54797],[127.18077,37.54798],[127.18061,37.54802],[127.18049,37.5481],[127.18038,37.54821],[127.18029,37.54833],[127.18022,37.54848]]}},{"type":"Feature","properties":{"class":"major","highway":"motorway_link","sidewalk":"likely","lanes":1,"name":"","oneway":true},"geometry":{"type":"LineString","coordinates":[[127.18172,37.54951],[127.18095,37.5495],[127.18064,37.54954],[127.18044,37.54962],[127.18024,37.54973],[127.18005,37.54987],[127.17974,37.55016],[127.1795,37.55048],[127.17927,37.55077]]}},{"type":"Feature","properties":{"class":"major","highway":"motorway_link","sidewalk":"likely","lanes":1,"name":"","oneway":true},"geometry":{"type":"LineString","coordinates":[[127.18026,37.54763],[127.18058,37.54764],[127.18082,37.54766],[127.18105,37.54773],[127.18128,37.54784],[127.18148,37.54802],[127.18169,37.54826]]}},{"type":"Feature","properties":{"class":"major","highway":"motorway_link","sidewalk":"likely","lanes":2,"name":"","oneway":true},"geometry":{"type":"LineString","coordinates":[[127.1801,37.54845],[127.17972,37.54946]]}},{"type":"Feature","properties":{"class":"major","highway":"motorway","sidewalk":"likely","lanes":5,"name":"수도권제1순환고속도로","oneway":true},"geometry":{"type":"LineString","coordinates":[[127.18534,37.53748],[127.18476,37.5383],[127.18436,37.53896],[127.18398,37.53964],[127.18176,37.54426]]}},{"type":"Feature","properties":{"class":"major","highway":"motorway","sidewalk":"likely","lanes":6,"name":"수도권제1순환고속도로","oneway":true},"geometry":{"type":"LineString","coordinates":[[127.18203,37.54321],[127.1832,37.54069],[127.18377,37.53954],[127.18413,37.53888],[127.18453,37.53822],[127.18516,37.53736],[127.18596,37.53645],[127.18671,37.53572],[127.18781,37.53485],[127.18791,37.53478],[127.18813,37.53463],[127.18874,37.53423],[127.18965,37.53373],[127.19071,37.53323],[127.1915,37.5329]]}},{"type":"Feature","properties":{"class":"minor","highway":"residential","sidewalk":"unknown","lanes":0,"name":"조정대로31번길","oneway":false},"geometry":{"type":"LineString","coordinates":[[127.1791,37.55123],[127.17917,37.55123],[127.17927,37.55116],[127.17934,37.55108],[127.17943,37.55089],[127.1798,37.55026],[127.17993,37.55014],[127.18009,37.55],[127.18023,37.54988],[127.18041,37.54977],[127.18054,37.5497],[127.18067,37.54966],[127.18075,37.54964],[127.1808,37.54963],[127.18093,37.54961]]}},{"type":"Feature","properties":{"class":"major","highway":"tertiary","sidewalk":"likely","lanes":0,"name":"풍산로","oneway":false},"geometry":{"type":"LineString","coordinates":[[127.18186,37.55886],[127.18182,37.55862],[127.18179,37.55849],[127.18175,37.55828],[127.1817,37.55809],[127.18168,37.55793],[127.18168,37.55775],[127.1817,37.55755],[127.18173,37.55739],[127.18176,37.55725],[127.18179,37.55709],[127.18182,37.55695],[127.18183,37.55683],[127.18184,37.55673],[127.18185,37.55646],[127.18185,37.55629],[127.18184,37.55613],[127.18182,37.556],[127.18181,37.55586],[127.18177,37.55558],[127.18171,37.55528],[127.18167,37.55504],[127.18166,37.55463],[127.18166,37.55451],[127.18165,37.55438],[127.18163,37.55414],[127.18163,37.55398],[127.18162,37.55378],[127.18161,37.55362],[127.1816,37.55345],[127.18159,37.55328],[127.18159,37.5532],[127.18159,37.55316]]}},{"type":"Feature","properties":{"class":"major","highway":"motorway_link","sidewalk":"likely","lanes":2,"name":"","oneway":true},"geometry":{"type":"LineString","coordinates":[[127.18035,37.54786],[127.1801,37.54845]]}},{"type":"Feature","properties":{"class":"major","highway":"motorway_link","sidewalk":"likely","lanes":1,"name":"","oneway":true},"geometry":{"type":"LineString","coordinates":[[127.18022,37.54848],[127.17982,37.54948]]}},{"type":"Feature","properties":{"class":"major","highway":"motorway_link","sidewalk":"likely","lanes":1,"name":"","oneway":true},"geometry":{"type":"LineString","coordinates":[[127.18107,37.54608],[127.18101,37.54666],[127.18105,37.54688],[127.18115,37.54716],[127.18169,37.54826]]}},{"type":"Feature","properties":{"class":"major","highway":"motorway_link","sidewalk":"likely","lanes":2,"name":"","oneway":true},"geometry":{"type":"LineString","coordinates":[[127.18169,37.54826],[127.18191,37.54869],[127.18202,37.54885],[127.18217,37.54899],[127.18244,37.54914],[127.18264,37.54922],[127.18283,37.54931],[127.1829,37.54934]]}},{"type":"Feature","properties":{"class":"major","highway":"motorway_link","sidewalk":"likely","lanes":2,"name":"","oneway":true},"geometry":{"type":"LineString","coordinates":[[127.17989,37.54687],[127.18054,37.54577],[127.18068,37.54551],[127.18203,37.54321]]}},{"type":"Feature","properties":{"class":"minor","highway":"unclassified","sidewalk":"unknown","lanes":0,"name":"","oneway":false},"geometry":{"type":"LineString","coordinates":[[127.1829,37.54103],[127.18338,37.54117]]}},{"type":"Feature","properties":{"class":"minor","highway":"unclassified","sidewalk":"unknown","lanes":0,"name":"","oneway":false},"geometry":{"type":"LineString","coordinates":[[127.18338,37.54117],[127.18346,37.5412],[127.18373,37.54135],[127.18397,37.54144],[127.18421,37.54147],[127.1844,37.54153]]}},{"type":"Feature","properties":{"class":"minor","highway":"unclassified","sidewalk":"unknown","lanes":0,"name":"풍초로","oneway":false},"geometry":{"type":"LineString","coordinates":[[127.19228,37.54488],[127.19219,37.54488],[127.19213,37.54486],[127.19212,37.54486],[127.19208,37.54485],[127.19204,37.54483],[127.192,37.54481],[127.19197,37.54478],[127.19193,37.54475],[127.19191,37.54472],[127.19189,37.54469],[127.19189,37.54468],[127.19187,37.54465],[127.19186,37.54463],[127.19182,37.54451],[127.19176,37.54437],[127.19169,37.54423],[127.1916,37.54408],[127.19155,37.54399],[127.19143,37.54387],[127.19119,37.54368],[127.19104,37.54356],[127.19095,37.54349],[127.19082,37.54342],[127.19074,37.54335],[127.19064,37.54325],[127.19053,37.54321],[127.19029,37.54309],[127.19012,37.54302],[127.18999,37.54294],[127.1898,37.54279],[127.18965,37.54264],[127.18938,37.54243],[127.18913,37.54224],[127.18899,37.54215],[127.18891,37.54212],[127.18877,37.54211],[127.1886,37.54208],[127.18843,37.54204],[127.18828,37.54202],[127.18816,37.54202],[127.18807,37.54201],[127.18802,37.54197],[127.18798,37.54189],[127.18797,37.54183],[127.188,37.54177],[127.18807,37.54171],[127.18815,37.54166],[127.18821,37.5416],[127.18825,37.54153],[127.18826,37.54146],[127.18826,37.5414],[127.18821,37.54133],[127.18813,37.54124],[127.18806,37.5412],[127.18797,37.54117],[127.18781,37.54112],[127.18761,37.54106],[127.18748,37.54102],[127.18734,37.54099],[127.18723,37.54096],[127.18712,37.54101],[127.18702,37.54107],[127.18695,37.54105],[127.18687,37.541],[127.18679,37.54094],[127.1867,37.54091],[127.18662,37.54085],[127.18656,37.5408],[127.18646,37.5407],[127.18639,37.54061],[127.1863,37.54052],[127.18624,37.54047],[127.18615,37.5404],[127.18603,37.54031],[127.18595,37.54023],[127.18594,37.54014],[127.18586,37.54003],[127.18572,37.53993],[127.18559,37.53994],[127.18544,37.53997],[127.18536,37.53999],[127.18524,37.53997],[127.18509,37.53994],[127.185,37.53992],[127.18475,37.5399],[127.18455,37.53987],[127.18423,37.53986],[127.18418,37.53982],[127.18408,37.53973]]}},{"type":"Feature","properties":{"class":"major","highway":"primary","sidewalk":"likely","lanes":0,"name":"천호대로","oneway":true},"geometry":{"type":"LineString","coordinates":[[127.18032,37.54894],[127.18104,37.54904],[127.18199,37.54918],[127.18282,37.54933],[127.1829,37.54934]]}},{"type":"Feature","properties":{"class":"major","highway":"secondary_link","sidewalk":"likely","lanes":0,"name":"미사강변대로","oneway":true},"geometry":{"type":"LineString","coordinates":[[127.18722,37.55076],[127.18642,37.55055],[127.18619,37.55055],[127.18607,37.55057],[127.18586,37.55066],[127.1857,37.55081],[127.18558,37.55096],[127.18547,37.55109],[127.18531,37.55127]]}},{"type":"Feature","properties":{"class":"major","highway":"tertiary","sidewalk":"yes","lanes":0,"name":"미사강변서로","oneway":false},"geometry":{"type":"LineString","coordinates":[[127.18476,37.5595],[127.18477,37.5593],[127.18477,37.55915],[127.18478,37.55869],[127.18477,37.55838],[127.18476,37.55823],[127.18473,37.55806],[127.1847,37.55793],[127.18468,37.5578],[127.18461,37.55749]]}},{"type":"Feature","properties":{"class":"major","highway":"tertiary","sidewalk":"likely","lanes":0,"name":"미사강변서로","oneway":false},"geometry":{"type":"LineString","coordinates":[[127.18476,37.5595],[127.18475,37.55969],[127.18475,37.55991]]}},{"type":"Feature","properties":{"class":"minor","highway":"unclassified","sidewalk":"unknown","lanes":0,"name":"","oneway":false},"geometry":{"type":"LineString","coordinates":[[127.18418,37.53982],[127.18414,37.53991],[127.18382,37.54045],[127.18346,37.5412]]}},{"type":"Feature","properties":{"class":"minor","highway":"unclassified","sidewalk":"unknown","lanes":0,"name":"","oneway":false},"geometry":{"type":"LineString","coordinates":[[127.18702,37.54107],[127.18697,37.5413],[127.18685,37.54149],[127.18666,37.54157],[127.18618,37.54146],[127.1858,37.54156],[127.18531,37.54147],[127.18503,37.54149],[127.18476,37.5414],[127.18458,37.54141],[127.1844,37.54153],[127.18423,37.54198],[127.18422,37.54241],[127.1837,37.54283],[127.18332,37.54312]]}},{"type":"Feature","properties":{"class":"minor","highway":"residential","sidewalk":"unknown","lanes":0,"name":"청뜰로","oneway":false},"geometry":{"type":"LineString","coordinates":[[127.18277,37.54261],[127.18284,37.54267],[127.18303,37.54282],[127.18332,37.54312],[127.18357,37.5434],[127.18373,37.5436],[127.18392,37.54388],[127.18397,37.54408],[127.18395,37.54429],[127.18396,37.54457],[127.18388,37.54472],[127.18385,37.54484],[127.18395,37.54529],[127.18369,37.54568],[127.18337,37.5459],[127.18302,37.54619],[127.18287,37.54636],[127.1828,37.54667],[127.18277,37.54701],[127.18272,37.54766],[127.18274,37.54789],[127.18276,37.54832],[127.18292,37.54889],[127.18294,37.54901],[127.18291,37.54922],[127.1829,37.54934]]}},{"type":"Feature","properties":{"class":"major","highway":"secondary","sidewalk":"likely","lanes":0,"name":"고덕로","oneway":false},"geometry":{"type":"LineString","coordinates":[[127.17996,37.55843],[127.18012,37.55846],[127.18016,37.55847],[127.18106,37.55868],[127.18165,37.55881],[127.18186,37.55886]]}},{"type":"Feature","properties":{"class":"minor","highway":"residential","sidewalk":"unknown","lanes":0,"name":"","oneway":false},"geometry":{"type":"LineString","coordinates":[[127.18419,37.55123],[127.18431,37.55125],[127.18497,37.5514]]}},{"type":"Feature","properties":{"class":"major","highway":"primary","sidewalk":"likely","lanes":3,"name":"천호대로","oneway":true},"geometry":{"type":"LineString","coordinates":[[127.18468,37.54961],[127.18517,37.54976],[127.1856,37.54987],[127.1858,37.54993],[127.18603,37.55001]]}},{"type":"Feature","properties":{"class":"major","highway":"primary_link","sidewalk":"likely","lanes":0,"name":"","oneway":true},"geometry":{"type":"LineString","coordinates":[[127.18523,37.54964],[127.18545,37.54966],[127.18567,37.54967],[127.18572,37.54967],[127.1859,37.54967],[127.18608,37.54966],[127.18622,37.54965],[127.18639,37.54962],[127.18714,37.54944]]}},{"type":"Feature","properties":{"class":"major","highway":"secondary","sidewalk":"likely","lanes":2,"name":"미사강변대로","oneway":false},"geometry":{"type":"LineString","coordinates":[[127.18511,37.55343],[127.18504,37.55329],[127.18501,37.5532],[127.18499,37.55312]]}},{"type":"Feature","properties":{"class":"major","highway":"primary_link","sidewalk":"likely","lanes":0,"name":"","oneway":true},"geometry":{"type":"LineString","coordinates":[[127.18574,37.5504],[127.1855,37.55014]]}},{"type":"Feature","properties":{"class":"major","highway":"secondary","sidewalk":"likely","lanes":0,"name":"미사강변남로","oneway":false},"geometry":{"type":"LineString","coordinates":[[127.18476,37.5595],[127.18456,37.55945],[127.18293,37.55909],[127.18208,37.55891],[127.18186,37.55886]]}},{"type":"Feature","properties":{"class":"major","highway":"tertiary","sidewalk":"yes","lanes":0,"name":"미사강변서로","oneway":false},"geometry":{"type":"LineString","coordinates":[[127.18461,37.55749],[127.18456,37.55729],[127.18451,37.55711],[127.18448,37.55697],[127.18445,37.55686]]}},{"type":"Feature","properties":{"class":"alley","highway":"service","sidewalk":"unknown","lanes":0,"name":"","oneway":false},"geometry":{"type":"LineString","coordinates":[[127.18183,37.55683],[127.18196,37.55684],[127.18218,37.55686],[127.18223,37.55687]]}},{"type":"Feature","properties":{"class":"alley","highway":"service","sidewalk":"unknown","lanes":0,"name":"입주민 전용","oneway":false},"geometry":{"type":"LineString","coordinates":[[127.18445,37.55686],[127.18432,37.55687],[127.18426,37.55688],[127.18418,37.55688],[127.18411,37.55688]]}},{"type":"Feature","properties":{"class":"major","highway":"tertiary","sidewalk":"yes","lanes":0,"name":"미사강변서로","oneway":false},"geometry":{"type":"LineString","coordinates":[[127.18445,37.55686],[127.1844,37.5566],[127.18435,37.55643],[127.18427,37.55608],[127.1842,37.55575]]}},{"type":"Feature","properties":{"class":"alley","highway":"service","sidewalk":"unknown","lanes":0,"name":"","oneway":false},"geometry":{"type":"LineString","coordinates":[[127.18159,37.55316],[127.18159,37.55307],[127.18161,37.55291],[127.18163,37.55285],[127.18166,37.55278],[127.18171,37.55273],[127.18176,37.5527]]}},{"type":"Feature","properties":{"class":"major","highway":"primary","sidewalk":"likely","lanes":0,"name":"황산지하도로","oneway":true},"geometry":{"type":"LineString","coordinates":[[127.18032,37.54894],[127.18197,37.5493],[127.18266,37.5494]]}},{"type":"Feature","properties":{"class":"major","highway":"primary","sidewalk":"likely","lanes":0,"name":"황산지하도로","oneway":true},"geometry":{"type":"LineString","coordinates":[[127.18266,37.5494],[127.1828,37.54942],[127.18325,37.54948],[127.18439,37.54966],[127.18509,37.5498],[127.18558,37.54992],[127.18597,37.55003],[127.18649,37.55024],[127.18673,37.55035],[127.18698,37.55049]]}},{"type":"Feature","properties":{"class":"major","highway":"primary","sidewalk":"likely","lanes":0,"name":"황산지하도로","oneway":true},"geometry":{"type":"LineString","coordinates":[[127.18262,37.54955],[127.18163,37.54939],[127.18015,37.54913]]}},{"type":"Feature","properties":{"class":"major","highway":"primary","sidewalk":"likely","lanes":0,"name":"황산지하도로","oneway":true},"geometry":{"type":"LineString","coordinates":[[127.18693,37.55056],[127.18664,37.55041],[127.18633,37.55028],[127.1858,37.55011],[127.18515,37.54996],[127.18448,37.54983],[127.1832,37.54963],[127.18262,37.54955]]}},{"type":"Feature","properties":{"class":"major","highway":"primary","sidewalk":"likely","lanes":0,"name":"천호대로","oneway":true},"geometry":{"type":"LineString","coordinates":[[127.1855,37.55014],[127.18509,37.55005],[127.18458,37.54993],[127.18402,37.54983],[127.18384,37.5498]]}},{"type":"Feature","properties":{"class":"alley","highway":"service","sidewalk":"unknown","lanes":1,"name":"","oneway":false},"geometry":{"type":"LineString","coordinates":[[127.18395,37.55446],[127.18381,37.55446],[127.18358,37.55448]]}},{"type":"Feature","properties":{"class":"alley","highway":"service","sidewalk":"unknown","lanes":0,"name":"입주민 전용","oneway":false},"geometry":{"type":"LineString","coordinates":[[127.18166,37.55451],[127.18177,37.55451],[127.1819,37.55451],[127.18194,37.5545],[127.18198,37.55448]]}},{"type":"Feature","properties":{"class":"alley","highway":"service","sidewalk":"unknown","lanes":0,"name":"","oneway":false},"geometry":{"type":"LineString","coordinates":[[127.18395,37.55446],[127.18407,37.55445],[127.18423,37.55444],[127.18432,37.55445],[127.18432,37.55445],[127.18439,37.55445],[127.18441,37.55446],[127.18444,37.55447],[127.18446,37.55448]]}},{"type":"Feature","properties":{"class":"minor","highway":"residential","sidewalk":"unknown","lanes":0,"name":"고덕로98길","oneway":false},"geometry":{"type":"LineString","coordinates":[[127.17996,37.55843],[127.18003,37.55827],[127.18007,37.55817],[127.18009,37.55805],[127.18009,37.55794],[127.18009,37.55778],[127.18008,37.55771],[127.18008,37.55767],[127.18006,37.5576],[127.18004,37.55752],[127.18002,37.55744],[127.17992,37.55709],[127.17989,37.55699],[127.17989,37.55699],[127.17983,37.55682],[127.17981,37.55674],[127.1797,37.5564],[127.17947,37.55567],[127.17944,37.55542],[127.17944,37.55512],[127.17944,37.55498],[127.17944,37.55485],[127.17944,37.55447],[127.17945,37.55431],[127.17947,37.55417],[127.17951,37.55402],[127.17953,37.55395],[127.17956,37.55388],[127.17958,37.55385],[127.1796,37.55381],[127.17963,37.55375],[127.17967,37.55369],[127.1797,37.55365],[127.17972,37.55362],[127.17981,37.55351],[127.18006,37.55326],[127.18017,37.55315]]}},{"type":"Feature","properties":{"class":"minor","highway":"residential","sidewalk":"unknown","lanes":0,"name":"","oneway":false},"geometry":{"type":"LineString","coordinates":[[127.18033,37.55314],[127.18044,37.55314],[127.18048,37.55314],[127.18142,37.55314],[127.18159,37.55316]]}},{"type":"Feature","properties":{"class":"minor","highway":"residential","sidewalk":"unknown","lanes":0,"name":"고덕로98길","oneway":false},"geometry":{"type":"LineString","coordinates":[[127.18029,37.55299],[127.18036,37.55287],[127.18055,37.55251],[127.18082,37.55202],[127.18092,37.55188],[127.18101,37.55178],[127.18107,37.55174],[127.1811,37.55172],[127.18117,37.55167],[127.18129,37.55159],[127.18137,37.55153],[127.18168,37.55134],[127.18188,37.55121],[127.18203,37.55113],[127.18217,37.55107],[127.18218,37.55106],[127.18227,37.55104],[127.18234,37.55102],[127.18242,37.55101],[127.18253,37.551],[127.18281,37.55099]]}},{"type":"Feature","properties":{"class":"minor","highway":"residential","sidewalk":"unknown","lanes":0,"name":"고덕로98길","oneway":false},"geometry":{"type":"LineString","coordinates":[[127.18068,37.55054],[127.18071,37.5505],[127.18079,37.55038],[127.1809,37.55022],[127.18098,37.55016],[127.18105,37.55012],[127.18111,37.55008],[127.18118,37.55005],[127.18128,37.55003],[127.18138,37.55002],[127.18163,37.55004],[127.18181,37.55005],[127.18222,37.55008],[127.18232,37.55008],[127.18263,37.55011],[127.18273,37.55012],[127.18279,37.55014],[127.18281,37.5502],[127.18281,37.55061],[127.18281,37.55087],[127.18281,37.55091],[127.18281,37.55099]]}},{"type":"Feature","properties":{"class":"minor","highway":"residential","sidewalk":"unknown","lanes":0,"name":"","oneway":false},"geometry":{"type":"LineString","coordinates":[[127.17944,37.55498],[127.17956,37.55498],[127.17961,37.55498],[127.17988,37.55498],[127.17996,37.55498],[127.17996,37.55491],[127.17996,37.5547],[127.17996,37.55466],[127.17996,37.55445],[127.17997,37.55434],[127.17999,37.5542],[127.18005,37.55407],[127.18008,37.55401],[127.18013,37.55394],[127.18018,37.55385],[127.18032,37.55368]]}},{"type":"Feature","properties":{"class":"minor","highway":"residential","sidewalk":"unknown","lanes":0,"name":"","oneway":false},"geometry":{"type":"LineString","coordinates":[[127.18013,37.55394],[127.18006,37.55391],[127.17975,37.5538],[127.17972,37.55378],[127.17963,37.55375]]}},{"type":"Feature","properties":{"class":"minor","highway":"residential","sidewalk":"unknown","lanes":0,"name":"","oneway":false},"geometry":{"type":"LineString","coordinates":[[127.17932,37.5577],[127.17995,37.55762],[127.17997,37.55761],[127.18006,37.5576]]}},{"type":"Feature","properties":{"class":"alley","highway":"service","sidewalk":"unknown","lanes":0,"name":"","oneway":false},"geometry":{"type":"LineString","coordinates":[[127.18449,37.55661],[127.18453,37.55661],[127.18458,37.55661],[127.18581,37.55669]]}},{"type":"Feature","properties":{"class":"alley","highway":"service","sidewalk":"unknown","lanes":0,"name":"","oneway":false},"geometry":{"type":"LineString","coordinates":[[127.1844,37.5566],[127.18449,37.55661]]}},{"type":"Feature","properties":{"class":"major","highway":"primary_link","sidewalk":"likely","lanes":2,"name":"","oneway":true},"geometry":{"type":"LineString","coordinates":[[127.18468,37.54961],[127.18519,37.54971],[127.18557,37.5498],[127.18577,37.54984],[127.18589,37.54984],[127.18599,37.54983],[127.18613,37.54981],[127.18623,37.54978],[127.18646,37.54969],[127.18714,37.54944]]}},{"type":"Feature","properties":{"class":"major","highway":"tertiary","sidewalk":"likely","lanes":0,"name":"초광로294번길","oneway":false},"geometry":{"type":"LineString","coordinates":[[127.18272,37.54766],[127.18146,37.54757]]}},{"type":"Feature","properties":{"class":"major","highway":"tertiary","sidewalk":"likely","lanes":0,"name":"초광로294번길","oneway":false},"geometry":{"type":"LineString","coordinates":[[127.18034,37.54746],[127.17985,37.54743]]}},{"type":"Feature","properties":{"class":"major","highway":"tertiary","sidewalk":"likely","lanes":0,"name":"초광로294번길","oneway":false},"geometry":{"type":"LineString","coordinates":[[127.18127,37.54755],[127.18034,37.54746]]}},{"type":"Feature","properties":{"class":"major","highway":"tertiary","sidewalk":"likely","lanes":0,"name":"초광로294번길","oneway":false},"geometry":{"type":"LineString","coordinates":[[127.18146,37.54757],[127.18127,37.54755]]}},{"type":"Feature","properties":{"class":"alley","highway":"service","sidewalk":"unknown","lanes":0,"name":"","oneway":true},"geometry":{"type":"LineString","coordinates":[[127.18223,37.55687],[127.18239,37.55681],[127.18262,37.55681],[127.18274,37.55681],[127.18278,37.55683],[127.18279,37.55687],[127.18279,37.55691],[127.18276,37.55693],[127.18272,37.55695],[127.18238,37.55695],[127.18223,37.55687]]}},{"type":"Feature","properties":{"class":"minor","highway":"residential","sidewalk":"unknown","lanes":0,"name":"미사강변서로","oneway":false},"geometry":{"type":"LineString","coordinates":[[127.18281,37.55099],[127.18297,37.55099],[127.18307,37.55099],[127.18314,37.55099],[127.18321,37.55101],[127.18346,37.55106],[127.18406,37.5512],[127.18419,37.55123],[127.18416,37.55131],[127.18401,37.55175],[127.18397,37.55199],[127.18396,37.55208],[127.18395,37.55212],[127.18393,37.55239],[127.18393,37.55245],[127.18392,37.55266],[127.18392,37.5527],[127.18393,37.55281],[127.18393,37.55295],[127.18393,37.55308],[127.18393,37.55314],[127.18392,37.55331]]}},{"type":"Feature","properties":{"class":"major","highway":"tertiary","sidewalk":"likely","lanes":0,"name":"풍산로","oneway":false},"geometry":{"type":"LineString","coordinates":[[127.18156,37.56168],[127.18168,37.56129],[127.18177,37.56094],[127.18183,37.56069],[127.18187,37.56038],[127.18189,37.56014],[127.1819,37.56003],[127.18191,37.55946],[127.18189,37.55924],[127.18187,37.55904],[127.18186,37.55886]]}},{"type":"Feature","properties":{"class":"alley","highway":"service","sidewalk":"unknown","lanes":0,"name":"풍산로","oneway":false},"geometry":{"type":"LineString","coordinates":[[127.18522,37.55345],[127.18535,37.55347],[127.18561,37.55349],[127.18612,37.55352],[127.18618,37.55353],[127.18623,37.55355],[127.18625,37.55357],[127.18627,37.5536],[127.18629,37.55381],[127.18629,37.55385],[127.1863,37.55391],[127.18632,37.55399],[127.18634,37.55406],[127.18637,37.55413],[127.1864,37.55419],[127.18645,37.55427],[127.18653,37.55436],[127.18654,37.55437],[127.1866,37.55444],[127.18664,37.55448],[127.18671,37.55455],[127.18672,37.55456],[127.1868,37.55464],[127.18685,37.5547],[127.18693,37.55478]]}},{"type":"Feature","properties":{"class":"major","highway":"secondary","sidewalk":"likely","lanes":2,"name":"미사강변대로","oneway":true},"geometry":{"type":"LineString","coordinates":[[127.18548,37.55405],[127.18566,37.5542],[127.18588,37.55442],[127.18621,37.55471],[127.18639,37.55487],[127.18651,37.55501]]}},{"type":"Feature","properties":{"class":"major","highway":"tertiary","sidewalk":"likely","lanes":0,"name":"풍산로","oneway":false},"geometry":{"type":"LineString","coordinates":[[127.18511,37.55343],[127.18522,37.55345]]}},{"type":"Feature","properties":{"class":"major","highway":"secondary","sidewalk":"likely","lanes":0,"name":"미사강변대로","oneway":false},"geometry":{"type":"LineString","coordinates":[[127.18574,37.5504],[127.18585,37.55023]]}},{"type":"Feature","properties":{"class":"major","highway":"secondary_link","sidewalk":"likely","lanes":0,"name":"미사강변대로","oneway":true},"geometry":{"type":"LineString","coordinates":[[127.18603,37.55028],[127.18585,37.55044],[127.18576,37.55055],[127.18565,37.55069],[127.18547,37.55109]]}},{"type":"Feature","properties":{"class":"major","highway":"primary","sidewalk":"likely","lanes":0,"name":"천호대로","oneway":true},"geometry":{"type":"LineString","coordinates":[[127.18007,37.54911],[127.1783,37.54877],[127.17784,37.54866],[127.17737,37.54852],[127.17671,37.54829]]}},{"type":"Feature","properties":{"class":"major","highway":"primary","sidewalk":"likely","lanes":0,"name":"천호대로","oneway":true},"geometry":{"type":"LineString","coordinates":[[127.18585,37.55023],[127.1855,37.55014]]}},{"type":"Feature","properties":{"class":"minor","highway":"residential","sidewalk":"unknown","lanes":0,"name":"","oneway":false},"geometry":{"type":"LineString","coordinates":[[127.18447,37.54958],[127.18449,37.54946],[127.18454,37.54919],[127.18455,37.54911],[127.1846,37.54885],[127.18463,37.54863],[127.18467,37.54837],[127.1847,37.54803],[127.1847,37.548],[127.18471,37.54779],[127.1847,37.54776],[127.18468,37.54773],[127.18461,37.54764],[127.18454,37.54755],[127.18445,37.54747],[127.18435,37.54737]]}},{"type":"Feature","properties":{"class":"minor","highway":"residential","sidewalk":"unknown","lanes":0,"name":"","oneway":false},"geometry":{"type":"LineString","coordinates":[[127.1847,37.54803],[127.18569,37.54803]]}},{"type":"Feature","properties":{"class":"minor","highway":"residential","sidewalk":"unknown","lanes":0,"name":"","oneway":false},"geometry":{"type":"LineString","coordinates":[[127.18467,37.54837],[127.18592,37.54839],[127.18596,37.54838],[127.18598,37.54834],[127.18599,37.54831],[127.18569,37.54803],[127.18544,37.54778],[127.18528,37.54766],[127.18518,37.54758],[127.18514,37.54754],[127.18501,37.54734],[127.18498,37.54727],[127.18493,37.54718]]}},{"type":"Feature","properties":{"class":"minor","highway":"residential","sidewalk":"unknown","lanes":0,"name":"","oneway":false},"geometry":{"type":"LineString","coordinates":[[127.18292,37.54889],[127.18311,37.5488],[127.18335,37.54868],[127.18346,37.54863],[127.18353,37.5486]]}},{"type":"Feature","properties":{"class":"minor","highway":"residential","sidewalk":"unknown","lanes":0,"name":"","oneway":false},"geometry":{"type":"LineString","coordinates":[[127.18353,37.5486],[127.1836,37.54866],[127.18379,37.54874],[127.18402,37.54882]]}},{"type":"Feature","properties":{"class":"minor","highway":"residential","sidewalk":"unknown","lanes":0,"name":"","oneway":false},"geometry":{"type":"LineString","coordinates":[[127.18353,37.5486],[127.18355,37.54857],[127.18355,37.5485],[127.18355,37.54841],[127.18381,37.5484],[127.18406,37.54837],[127.18422,37.54836],[127.18435,37.54836],[127.18467,37.54837]]}},{"type":"Feature","properties":{"class":"minor","highway":"residential","sidewalk":"unknown","lanes":0,"name":"","oneway":false},"geometry":{"type":"LineString","coordinates":[[127.18274,37.54789],[127.18297,37.54784],[127.18323,37.54776],[127.18335,37.54774],[127.18347,37.54771],[127.18358,37.54767],[127.18374,37.54758],[127.18386,37.54755],[127.18398,37.54755],[127.18407,37.54753],[127.18419,37.54747],[127.18435,37.54737],[127.18443,37.54732],[127.18456,37.54728],[127.18463,37.54726],[127.1847,37.54724],[127.18482,37.54721],[127.18493,37.54718],[127.18502,37.54712],[127.18513,37.54706],[127.18523,37.54704],[127.18545,37.54698],[127.18567,37.54695],[127.18589,37.54694],[127.18607,37.54694]]}},{"type":"Feature","properties":{"class":"minor","highway":"residential","sidewalk":"unknown","lanes":0,"name":"","oneway":false},"geometry":{"type":"LineString","coordinates":[[127.18406,37.54837],[127.18404,37.5483],[127.18402,37.54819],[127.18402,37.54811],[127.18402,37.54798],[127.18408,37.54774],[127.1841,37.54764],[127.18409,37.54758],[127.18407,37.54753]]}},{"type":"Feature","properties":{"class":"alley","highway":"service","sidewalk":"unknown","lanes":0,"name":"","oneway":false},"geometry":{"type":"LineString","coordinates":[[127.18523,37.54964],[127.18524,37.54957],[127.18525,37.54951],[127.18531,37.54913],[127.18533,37.54894],[127.18535,37.54884]]}},{"type":"Feature","properties":{"class":"minor","highway":"residential","sidewalk":"unknown","lanes":0,"name":"","oneway":false},"geometry":{"type":"LineString","coordinates":[[127.17748,37.54731],[127.17751,37.54712],[127.17759,37.54686],[127.17762,37.54679],[127.17769,37.54669],[127.17775,37.54662],[127.17783,37.54657],[127.17796,37.54648],[127.17806,37.54638],[127.17822,37.54631],[127.17837,37.54626],[127.17852,37.54623],[127.17862,37.54624],[127.17875,37.54622],[127.17892,37.5462],[127.17914,37.54618],[127.17938,37.54617],[127.17949,37.54616],[127.17962,37.54613],[127.1798,37.54612],[127.17992,37.54612],[127.18,37.5461],[127.18006,37.54607],[127.1801,37.54602],[127.18017,37.54592],[127.18024,37.5458],[127.18033,37.54561],[127.18042,37.54543],[127.1805,37.54528],[127.18062,37.54509],[127.18071,37.54498],[127.18079,37.54489],[127.18088,37.54487]]}},{"type":"Feature","properties":{"class":"minor","highway":"residential","sidewalk":"unknown","lanes":0,"name":"","oneway":false},"geometry":{"type":"LineString","coordinates":[[127.18201,37.54492],[127.18209,37.5449],[127.18216,37.54488],[127.18222,37.54485],[127.18226,37.5448],[127.18242,37.54454],[127.18254,37.54438],[127.18263,37.54427],[127.18268,37.54422],[127.18272,37.54415],[127.18275,37.5441],[127.18278,37.54406],[127.18283,37.54402],[127.18291,37.54398],[127.18297,37.54394],[127.18302,37.54383],[127.18306,37.54373],[127.18309,37.54365],[127.1831,37.54359],[127.1831,37.54353],[127.1831,37.54348],[127.18307,37.54346],[127.18306,37.54342],[127.18305,37.54336],[127.18306,37.5433],[127.18308,37.54326],[127.18314,37.54323],[127.18321,37.54319],[127.18332,37.54312]]}},{"type":"Feature","properties":{"class":"minor","highway":"residential","sidewalk":"unknown","lanes":0,"name":"","oneway":false},"geometry":{"type":"LineString","coordinates":[[127.18088,37.54487],[127.18201,37.54492]]}},{"type":"Feature","properties":{"class":"alley","highway":"service","sidewalk":"unknown","lanes":0,"name":"","oneway":true},"geometry":{"type":"LineString","coordinates":[[127.18475,37.55991],[127.18486,37.55994],[127.18508,37.55999],[127.18516,37.56001],[127.18534,37.56005],[127.18544,37.56007],[127.18581,37.56015],[127.18588,37.56016],[127.18596,37.56018]]}},{"type":"Feature","properties":{"class":"major","highway":"tertiary","sidewalk":"likely","lanes":0,"name":"미사강변서로","oneway":false},"geometry":{"type":"LineString","coordinates":[[127.18475,37.55991],[127.18472,37.56017],[127.18461,37.56062]]}},{"type":"Feature","properties":{"class":"major","highway":"secondary","sidewalk":"likely","lanes":0,"name":"미사강변남로","oneway":false},"geometry":{"type":"LineString","coordinates":[[127.1861,37.5598],[127.18548,37.55966],[127.18495,37.55954],[127.18476,37.5595]]}},{"type":"Feature","properties":{"class":"alley","highway":"service","sidewalk":"unknown","lanes":0,"name":"","oneway":false},"geometry":{"type":"LineString","coordinates":[[127.18561,37.55349],[127.18561,37.55344],[127.18562,37.55325]]}},{"type":"Feature","properties":{"class":"major","highway":"secondary_link","sidewalk":"likely","lanes":1,"name":"","oneway":true},"geometry":{"type":"LineString","coordinates":[[127.18459,37.55335],[127.1848,37.55331],[127.18484,37.55329],[127.18486,37.55327],[127.18488,37.55326],[127.18492,37.55322],[127.18496,37.55316],[127.18499,37.55312]]}},{"type":"Feature","properties":{"class":"major","highway":"tertiary","sidewalk":"likely","lanes":4,"name":"풍산로","oneway":false},"geometry":{"type":"LineString","coordinates":[[127.18459,37.55335],[127.18487,37.5534],[127.18511,37.55343]]}},{"type":"Feature","properties":{"class":"major","highway":"secondary","sidewalk":"likely","lanes":4,"name":"미사강변대로","oneway":false},"geometry":{"type":"LineString","coordinates":[[127.18496,37.55242],[127.185,37.55224],[127.18506,37.55197],[127.18511,37.55182],[127.18531,37.55127],[127.18539,37.55106],[127.1855,37.55083],[127.18561,37.55061],[127.18568,37.5505],[127.18574,37.5504]]}},{"type":"Feature","properties":{"class":"minor","highway":"residential","sidewalk":"unknown","lanes":0,"name":"","oneway":true},"geometry":{"type":"LineString","coordinates":[[127.18017,37.55315],[127.18016,37.55315],[127.18013,37.55312],[127.18012,37.55309],[127.18012,37.55306],[127.18013,37.55303],[127.18014,37.55302],[127.18015,37.55301],[127.18018,37.55299],[127.18022,37.55298],[127.18026,37.55298],[127.18029,37.55299]]}},{"type":"Feature","properties":{"class":"minor","highway":"residential","sidewalk":"unknown","lanes":0,"name":"","oneway":true},"geometry":{"type":"LineString","coordinates":[[127.18029,37.55299],[127.18033,37.553],[127.18035,37.55303],[127.18036,37.55306],[127.18037,37.55309],[127.18036,37.55312],[127.18033,37.55314],[127.1803,37.55316],[127.18027,37.55317],[127.18023,37.55317],[127.18019,37.55316],[127.18017,37.55315]]}},{"type":"Feature","properties":{"class":"minor","highway":"residential","sidewalk":"unknown","lanes":0,"name":"","oneway":true},"geometry":{"type":"LineString","coordinates":[[127.18068,37.55054],[127.18068,37.55058],[127.18062,37.55066],[127.1806,37.55068],[127.18058,37.5507],[127.18056,37.55072],[127.18053,37.55073],[127.18049,37.55073],[127.18046,37.55073],[127.18043,37.55071],[127.18041,37.55069],[127.1804,37.55067],[127.18039,37.55064],[127.1804,37.55062],[127.18042,37.55059],[127.18045,37.55057],[127.18048,37.55056],[127.18052,37.55056],[127.18055,37.55057],[127.18058,37.55058],[127.18061,37.55058],[127.18064,37.55056],[127.18068,37.55054]]}},{"type":"Feature","properties":{"class":"alley","highway":"service","sidewalk":"unknown","lanes":0,"name":"","oneway":false},"geometry":{"type":"LineString","coordinates":[[127.18419,37.55123],[127.18422,37.55115],[127.18422,37.55113]]}},{"type":"Feature","properties":{"class":"minor","highway":"residential","sidewalk":"unknown","lanes":0,"name":"","oneway":true},"geometry":{"type":"LineString","coordinates":[[127.18384,37.5498],[127.18361,37.54971],[127.18314,37.54964],[127.18303,37.54961],[127.18298,37.54957],[127.18292,37.54952],[127.1829,37.54945],[127.1829,37.54934]]}},{"type":"Feature","properties":{"class":"major","highway":"primary","sidewalk":"likely","lanes":0,"name":"천호대로","oneway":true},"geometry":{"type":"LineString","coordinates":[[127.1829,37.54934],[127.18391,37.5495],[127.18409,37.54953],[127.18422,37.54955],[127.18447,37.54958]]}},{"type":"Feature","properties":{"class":"major","highway":"primary","sidewalk":"likely","lanes":0,"name":"천호대로","oneway":true},"geometry":{"type":"LineString","coordinates":[[127.18447,37.54958],[127.18468,37.54961]]}},{"type":"Feature","properties":{"class":"major","highway":"primary_link","sidewalk":"likely","lanes":0,"name":"","oneway":true},"geometry":{"type":"LineString","coordinates":[[127.18468,37.54961],[127.18502,37.54962],[127.18523,37.54964]]}},{"type":"Feature","properties":{"class":"major","highway":"secondary","sidewalk":"likely","lanes":3,"name":"미사강변대로","oneway":false},"geometry":{"type":"LineString","coordinates":[[127.18499,37.55312],[127.18495,37.55291],[127.18493,37.55256],[127.18496,37.55242]]}},{"type":"Feature","properties":{"class":"alley","highway":"service","sidewalk":"unknown","lanes":0,"name":"","oneway":false},"geometry":{"type":"LineString","coordinates":[[127.1847,37.55793],[127.18486,37.55791],[127.18494,37.5579],[127.18505,37.55789]]}},{"type":"Feature","properties":{"class":"alley","highway":"service","sidewalk":"unknown","lanes":0,"name":"","oneway":false},"geometry":{"type":"LineString","coordinates":[[127.18505,37.55789],[127.18506,37.55793],[127.18509,37.55795],[127.18512,37.55796],[127.18515,37.55797],[127.18518,37.55797],[127.18522,37.55797],[127.18525,37.55796],[127.18528,37.55794],[127.18531,37.55792]]}},{"type":"Feature","properties":{"class":"alley","highway":"service","sidewalk":"unknown","lanes":0,"name":"","oneway":false},"geometry":{"type":"LineString","coordinates":[[127.18505,37.55789],[127.18504,37.55784],[127.18501,37.55767],[127.18492,37.55717]]}},{"type":"Feature","properties":{"class":"major","highway":"tertiary","sidewalk":"likely","lanes":0,"name":"풍산로","oneway":false},"geometry":{"type":"LineString","coordinates":[[127.18159,37.55316],[127.18173,37.55316],[127.18196,37.55317],[127.1826,37.55321],[127.18365,37.55328],[127.18372,37.55329],[127.18392,37.55331]]}},{"type":"Feature","properties":{"class":"major","highway":"tertiary","sidewalk":"likely","lanes":0,"name":"미사강변서로","oneway":false},"geometry":{"type":"LineString","coordinates":[[127.1842,37.55575],[127.18414,37.55547],[127.18402,37.55491],[127.18396,37.5546],[127.18395,37.55446],[127.18395,37.55437],[127.18394,37.55405],[127.18393,37.55354],[127.18393,37.55346],[127.18392,37.55331]]}},{"type":"Feature","properties":{"class":"major","highway":"tertiary","sidewalk":"likely","lanes":0,"name":"풍산로","oneway":false},"geometry":{"type":"LineString","coordinates":[[127.18392,37.55331],[127.1841,37.55332],[127.18419,37.55332],[127.18459,37.55335]]}},{"type":"Feature","properties":{"class":"major","highway":"primary","sidewalk":"likely","lanes":0,"name":"천호대로","oneway":true},"geometry":{"type":"LineString","coordinates":[[127.18015,37.54913],[127.18007,37.54911]]}},{"type":"Feature","properties":{"class":"major","highway":"primary","sidewalk":"likely","lanes":0,"name":"천호대로","oneway":true},"geometry":{"type":"LineString","coordinates":[[127.18172,37.54951],[127.18097,37.54936],[127.18015,37.54913]]}},{"type":"Feature","properties":{"class":"major","highway":"primary","sidewalk":"likely","lanes":0,"name":"천호대로","oneway":true},"geometry":{"type":"LineString","coordinates":[[127.17999,37.54889],[127.18032,37.54894]]}},{"type":"Feature","properties":{"class":"major","highway":"primary","sidewalk":"likely","lanes":0,"name":"천호대로","oneway":true},"geometry":{"type":"LineString","coordinates":[[127.18384,37.5498],[127.18315,37.54973],[127.18274,37.54968],[127.1827,37.54968],[127.18228,37.54961],[127.18172,37.54951]]}},{"type":"Feature","properties":{"class":"alley","highway":"service","sidewalk":"unknown","lanes":0,"name":"","oneway":false},"geometry":{"type":"LineString","coordinates":[[127.18501,37.54734],[127.1858,37.54751]]}},{"type":"Feature","properties":{"class":"minor","highway":"residential","sidewalk":"unknown","lanes":0,"name":"","oneway":false},"geometry":{"type":"LineString","coordinates":[[127.18396,37.54457],[127.18424,37.5446],[127.1848,37.54466],[127.18486,37.54449]]}},{"type":"Feature","properties":{"class":"minor","highway":"residential","sidewalk":"unknown","lanes":0,"name":"","oneway":false},"geometry":{"type":"LineString","coordinates":[[127.18424,37.5446],[127.18437,37.54483],[127.18463,37.545],[127.18499,37.54523],[127.1853,37.54555],[127.1855,37.54585],[127.18555,37.54591],[127.18561,37.54596],[127.18586,37.5461],[127.18609,37.5463]]}},{"type":"Feature","properties":{"class":"minor","highway":"residential","sidewalk":"unknown","lanes":0,"name":"","oneway":false},"geometry":{"type":"LineString","coordinates":[[127.18337,37.5459],[127.18332,37.54576],[127.18333,37.54556],[127.18329,37.54536],[127.18316,37.54523],[127.18309,37.54505],[127.18301,37.54487],[127.183,37.54463],[127.183,37.54439],[127.18304,37.54417],[127.18306,37.54401],[127.18297,37.54394]]}},{"type":"Feature","properties":{"class":"minor","highway":"residential","sidewalk":"unknown","lanes":0,"name":"","oneway":false},"geometry":{"type":"LineString","coordinates":[[127.18306,37.54401],[127.18317,37.54393],[127.1832,37.54386],[127.18334,37.54387],[127.18344,37.54401]]}},{"type":"Feature","properties":{"class":"minor","highway":"residential","sidewalk":"unknown","lanes":0,"name":"","oneway":false},"geometry":{"type":"LineString","coordinates":[[127.18304,37.54417],[127.1834,37.54421]]}},{"type":"Feature","properties":{"class":"minor","highway":"residential","sidewalk":"unknown","lanes":0,"name":"","oneway":false},"geometry":{"type":"LineString","coordinates":[[127.18297,37.54394],[127.1827,37.54386],[127.18258,37.54384],[127.18246,37.54373],[127.18242,37.54359],[127.18246,37.54347],[127.18247,37.54343],[127.18284,37.54267],[127.18291,37.54248]]}},{"type":"Feature","properties":{"class":"minor","highway":"unclassified","sidewalk":"unknown","lanes":0,"name":"","oneway":false},"geometry":{"type":"LineString","coordinates":[[127.18218,37.54222],[127.18192,37.54197],[127.1816,37.54186],[127.18127,37.54144],[127.18101,37.54118],[127.18067,37.54096],[127.18013,37.54084],[127.17969,37.54073],[127.17966,37.54071],[127.17928,37.54056],[127.17887,37.5403]]}},{"type":"Feature","properties":{"class":"minor","highway":"unclassified","sidewalk":"unknown","lanes":0,"name":"","oneway":false},"geometry":{"type":"LineString","coordinates":[[127.17966,37.54071],[127.17988,37.54044],[127.1801,37.54022]]}},{"type":"Feature","properties":{"class":"minor","highway":"residential","sidewalk":"unknown","lanes":0,"name":"","oneway":false},"geometry":{"type":"LineString","coordinates":[[127.18277,37.54261],[127.18218,37.54222]]}},{"type":"Feature","properties":{"class":"minor","highway":"residential","sidewalk":"unknown","lanes":0,"name":"","oneway":false},"geometry":{"type":"LineString","coordinates":[[127.18127,37.54144],[127.18118,37.54151],[127.18103,37.54154],[127.18084,37.54168],[127.18058,37.54191],[127.18044,37.54202],[127.18006,37.5421],[127.18017,37.54227],[127.18038,37.54241],[127.18053,37.54239],[127.18065,37.54237],[127.18087,37.54238],[127.18109,37.54249],[127.18114,37.54264],[127.18126,37.54282],[127.18146,37.54299],[127.18173,37.54317]]}},{"type":"Feature","properties":{"class":"minor","highway":"residential","sidewalk":"unknown","lanes":0,"name":"","oneway":false},"geometry":{"type":"LineString","coordinates":[[127.18173,37.54317],[127.18246,37.54347]]}},{"type":"Feature","properties":{"class":"alley","highway":"service","sidewalk":"unknown","lanes":0,"name":"","oneway":false},"geometry":{"type":"LineString","coordinates":[[127.18607,37.54694],[127.18595,37.5467],[127.18572,37.54657],[127.1849,37.54653],[127.18487,37.54652],[127.18484,37.54651],[127.18482,37.54649],[127.18481,37.54646],[127.18481,37.54644],[127.18481,37.54641],[127.18482,37.54638],[127.18485,37.54636],[127.18488,37.54634],[127.1849,37.54633],[127.18494,37.54633],[127.18522,37.54634]]}},{"type":"Feature","properties":{"class":"alley","highway":"service","sidewalk":"unknown","lanes":0,"name":"","oneway":false},"geometry":{"type":"LineString","coordinates":[[127.18335,37.54774],[127.18336,37.54768],[127.18337,37.54762],[127.18345,37.54724],[127.18352,37.54691]]}},{"type":"Feature","properties":{"class":"alley","highway":"service","sidewalk":"unknown","lanes":0,"name":"","oneway":false},"geometry":{"type":"LineString","coordinates":[[127.18293,37.55909],[127.18297,37.55896],[127.18299,37.55892],[127.18299,37.5589],[127.18304,37.55875]]}},{"type":"Feature","properties":{"class":"alley","highway":"service","sidewalk":"unknown","lanes":0,"name":"","oneway":false},"geometry":{"type":"LineString","coordinates":[[127.18432,37.55445],[127.18435,37.55465]]}},{"type":"Feature","properties":{"class":"alley","highway":"service","sidewalk":"unknown","lanes":0,"name":"","oneway":false},"geometry":{"type":"LineString","coordinates":[[127.18423,37.55444],[127.18425,37.55442],[127.18426,37.55441],[127.18429,37.5544],[127.18432,37.5544],[127.18434,37.5544],[127.18437,37.55442],[127.18438,37.55443],[127.18439,37.55445]]}},{"type":"Feature","properties":{"class":"alley","highway":"service","sidewalk":"unknown","lanes":0,"name":"","oneway":false},"geometry":{"type":"LineString","coordinates":[[127.1847,37.55793],[127.18457,37.55795],[127.18442,37.55799],[127.18432,37.55803],[127.18421,37.55805],[127.18408,37.55805]]}},{"type":"Feature","properties":{"class":"alley","highway":"service","sidewalk":"unknown","lanes":0,"name":"","oneway":false},"geometry":{"type":"LineString","coordinates":[[127.17983,37.55682],[127.17992,37.55681],[127.17995,37.55681],[127.18004,37.55681]]}},{"type":"Feature","properties":{"class":"alley","highway":"service","sidewalk":"unknown","lanes":0,"name":"","oneway":false},"geometry":{"type":"LineString","coordinates":[[127.18004,37.55681],[127.18011,37.5568],[127.18018,37.5568]]}},{"type":"Feature","properties":{"class":"alley","highway":"service","sidewalk":"unknown","lanes":0,"name":"","oneway":false},"geometry":{"type":"LineString","coordinates":[[127.18018,37.5568],[127.18021,37.5568]]}},{"type":"Feature","properties":{"class":"alley","highway":"service","sidewalk":"unknown","lanes":0,"name":"","oneway":true},"geometry":{"type":"LineString","coordinates":[[127.18035,37.55678],[127.18036,37.5568],[127.18035,37.55682],[127.18034,37.55684],[127.18032,37.55685],[127.18029,37.55686],[127.18027,37.55686],[127.18025,37.55685],[127.18023,37.55683],[127.18021,37.55682],[127.18021,37.5568],[127.18021,37.55678],[127.18022,37.55676],[127.18024,37.55675],[127.18026,37.55674],[127.18029,37.55674],[127.18031,37.55674],[127.18033,37.55675],[127.18035,37.55676],[127.18035,37.55678]]}},{"type":"Feature","properties":{"class":"alley","highway":"service","sidewalk":"unknown","lanes":0,"name":"","oneway":false},"geometry":{"type":"LineString","coordinates":[[127.18032,37.55685],[127.18039,37.55696],[127.18046,37.55721]]}},{"type":"Feature","properties":{"class":"alley","highway":"service","sidewalk":"unknown","lanes":0,"name":"","oneway":false},"geometry":{"type":"LineString","coordinates":[[127.18046,37.55721],[127.18048,37.55732]]}},{"type":"Feature","properties":{"class":"alley","highway":"service","sidewalk":"unknown","lanes":0,"name":"","oneway":false},"geometry":{"type":"LineString","coordinates":[[127.18048,37.55732],[127.1805,37.55742],[127.18136,37.55741]]}},{"type":"Feature","properties":{"class":"alley","highway":"service","sidewalk":"unknown","lanes":0,"name":"","oneway":false},"geometry":{"type":"LineString","coordinates":[[127.17996,37.55498],[127.18002,37.55498],[127.18011,37.55499],[127.18032,37.55498]]}},{"type":"Feature","properties":{"class":"alley","highway":"service","sidewalk":"unknown","lanes":0,"name":"","oneway":false},"geometry":{"type":"LineString","coordinates":[[127.18013,37.55394],[127.1802,37.55397],[127.18031,37.55402],[127.18043,37.55402],[127.18058,37.55403]]}},{"type":"Feature","properties":{"class":"alley","highway":"service","sidewalk":"unknown","lanes":0,"name":"","oneway":false},"geometry":{"type":"LineString","coordinates":[[127.18117,37.55167],[127.18124,37.55173],[127.18126,37.55175],[127.18135,37.55183],[127.18143,37.5519],[127.18145,37.55192]]}},{"type":"Feature","properties":{"class":"alley","highway":"service","sidewalk":"unknown","lanes":0,"name":"","oneway":false},"geometry":{"type":"LineString","coordinates":[[127.18143,37.5519],[127.18141,37.55197],[127.18142,37.55199],[127.18158,37.55212],[127.1816,37.55212],[127.18169,37.55207],[127.1817,37.55205],[127.18157,37.55189],[127.18155,37.55188],[127.18143,37.5519]]}},{"type":"Feature","properties":{"class":"alley","highway":"service","sidewalk":"unknown","lanes":0,"name":"","oneway":false},"geometry":{"type":"LineString","coordinates":[[127.18117,37.55167],[127.18111,37.5516],[127.18108,37.55157],[127.18101,37.5515],[127.18097,37.55145],[127.18096,37.55144],[127.18095,37.55142],[127.18095,37.5514],[127.18094,37.55138]]}},{"type":"Feature","properties":{"class":"alley","highway":"service","sidewalk":"unknown","lanes":0,"name":"","oneway":false},"geometry":{"type":"LineString","coordinates":[[127.18531,37.54913],[127.18605,37.54915]]}},{"type":"Feature","properties":{"class":"alley","highway":"service","sidewalk":"unknown","lanes":0,"name":"","oneway":false},"geometry":{"type":"LineString","coordinates":[[127.18525,37.54951],[127.18523,37.54922]]}},{"type":"Feature","properties":{"class":"alley","highway":"service","sidewalk":"unknown","lanes":0,"name":"","oneway":false},"geometry":{"type":"LineString","coordinates":[[127.18231,37.55687],[127.18239,37.55688],[127.18261,37.55689]]}},{"type":"Feature","properties":{"class":"alley","highway":"service","sidewalk":"unknown","lanes":0,"name":"","oneway":false},"geometry":{"type":"LineString","coordinates":[[127.17999,37.55634],[127.18024,37.55633]]}},{"type":"Feature","properties":{"class":"alley","highway":"service","sidewalk":"unknown","lanes":0,"name":"","oneway":false},"geometry":{"type":"LineString","coordinates":[[127.18097,37.55145],[127.18097,37.55147],[127.18095,37.55148],[127.18093,37.5515],[127.18091,37.5515],[127.18088,37.55149],[127.18086,37.55147],[127.18085,37.55146],[127.18085,37.55144],[127.18086,37.55142],[127.18088,37.55141],[127.1809,37.5514],[127.18093,37.5514],[127.18095,37.5514]]}},{"type":"Feature","properties":{"class":"alley","highway":"service","sidewalk":"unknown","lanes":0,"name":"","oneway":false},"geometry":{"type":"LineString","coordinates":[[127.18162,37.55016],[127.18161,37.5502],[127.18162,37.55027],[127.18164,37.55032],[127.18167,37.55037]]}},{"type":"Feature","properties":{"class":"alley","highway":"service","sidewalk":"unknown","lanes":0,"name":"","oneway":false},"geometry":{"type":"LineString","coordinates":[[127.18393,37.55245],[127.18382,37.55244],[127.18374,37.55244]]}},{"type":"Feature","properties":{"class":"alley","highway":"service","sidewalk":"unknown","lanes":0,"name":"","oneway":false},"geometry":{"type":"LineString","coordinates":[[127.18745,37.55168],[127.18738,37.55177],[127.18728,37.55182],[127.18663,37.55194],[127.18652,37.55218],[127.18637,37.55225],[127.18625,37.55231],[127.18618,37.55242],[127.18618,37.55298],[127.18602,37.55302],[127.18583,37.55301],[127.18571,37.55289],[127.18541,37.55288],[127.18539,37.55242],[127.18542,37.55219],[127.1856,37.55176],[127.18571,37.5515],[127.18586,37.55114],[127.18592,37.55107],[127.18605,37.55106],[127.18743,37.55147],[127.18751,37.55155]]}},{"type":"Feature","properties":{"class":"alley","highway":"service","sidewalk":"unknown","lanes":0,"name":"","oneway":false},"geometry":{"type":"LineString","coordinates":[[127.18578,37.55082],[127.18582,37.55082],[127.18585,37.55083],[127.1859,37.55085]]}},{"type":"Feature","properties":{"class":"alley","highway":"service","sidewalk":"unknown","lanes":0,"name":"","oneway":false},"geometry":{"type":"LineString","coordinates":[[127.18393,37.55295],[127.184,37.55295],[127.18406,37.55295],[127.1843,37.55296],[127.1843,37.55287]]}},{"type":"Feature","properties":{"class":"alley","highway":"service","sidewalk":"unknown","lanes":0,"name":"","oneway":false},"geometry":{"type":"LineString","coordinates":[[127.18409,37.5527],[127.18416,37.5527],[127.18424,37.55265]]}},{"type":"Feature","properties":{"class":"alley","highway":"service","sidewalk":"unknown","lanes":0,"name":"","oneway":false},"geometry":{"type":"LineString","coordinates":[[127.18412,37.55209],[127.18423,37.55211],[127.18426,37.55211],[127.18428,37.55212],[127.18427,37.55217],[127.18424,37.55218],[127.18415,37.55218]]}},{"type":"Feature","properties":{"class":"alley","highway":"service","sidewalk":"unknown","lanes":0,"name":"","oneway":false},"geometry":{"type":"LineString","coordinates":[[127.18444,37.55812],[127.18442,37.55799]]}},{"type":"Feature","properties":{"class":"alley","highway":"service","sidewalk":"unknown","lanes":0,"name":"","oneway":false},"geometry":{"type":"LineString","coordinates":[[127.18571,37.5515],[127.1861,37.55161]]}},{"type":"Feature","properties":{"class":"alley","highway":"service","sidewalk":"unknown","lanes":0,"name":"","oneway":false},"geometry":{"type":"LineString","coordinates":[[127.1856,37.55176],[127.18594,37.55185]]}},{"type":"Feature","properties":{"class":"alley","highway":"service","sidewalk":"unknown","lanes":0,"name":"","oneway":true},"geometry":{"type":"LineString","coordinates":[[127.18036,37.55674],[127.18053,37.55674]]}},{"type":"Feature","properties":{"class":"alley","highway":"service","sidewalk":"unknown","lanes":0,"name":"","oneway":true},"geometry":{"type":"LineString","coordinates":[[127.18062,37.55674],[127.18058,37.55674],[127.18058,37.55676],[127.18035,37.55676]]}},{"type":"Feature","properties":{"class":"alley","highway":"service","sidewalk":"unknown","lanes":0,"name":"","oneway":false},"geometry":{"type":"LineString","coordinates":[[127.18058,37.55676],[127.18088,37.55676]]}},{"type":"Feature","properties":{"class":"alley","highway":"service","sidewalk":"unknown","lanes":0,"name":"","oneway":false},"geometry":{"type":"LineString","coordinates":[[127.18392,37.5527],[127.18399,37.55268],[127.18409,37.5527]]}},{"type":"Feature","properties":{"class":"alley","highway":"service","sidewalk":"unknown","lanes":0,"name":"","oneway":false},"geometry":{"type":"LineString","coordinates":[[127.18396,37.55208],[127.18401,37.55208],[127.18412,37.55209]]}},{"type":"Feature","properties":{"class":"alley","highway":"service","sidewalk":"unknown","lanes":0,"name":"","oneway":false},"geometry":{"type":"LineString","coordinates":[[127.18374,37.55244],[127.1836,37.55243]]}},{"type":"Feature","properties":{"class":"alley","highway":"service","sidewalk":"unknown","lanes":0,"name":"","oneway":false},"geometry":{"type":"LineString","coordinates":[[127.18176,37.5527],[127.18187,37.55264]]}},{"type":"Feature","properties":{"class":"alley","highway":"service","sidewalk":"unknown","lanes":0,"name":"","oneway":false},"geometry":{"type":"LineString","coordinates":[[127.18094,37.55138],[127.18095,37.55135],[127.18099,37.55132]]}},{"type":"Feature","properties":{"class":"alley","highway":"service","sidewalk":"unknown","lanes":0,"name":"입주민 전용","oneway":false},"geometry":{"type":"LineString","coordinates":[[127.18163,37.55004],[127.18162,37.55008],[127.18162,37.55011],[127.18162,37.55016]]}},{"type":"Feature","properties":{"class":"alley","highway":"service","sidewalk":"unknown","lanes":0,"name":"","oneway":false},"geometry":{"type":"LineString","coordinates":[[127.18145,37.55192],[127.18156,37.55201]]}},{"type":"Feature","properties":{"class":"alley","highway":"service","sidewalk":"unknown","lanes":0,"name":"","oneway":false},"geometry":{"type":"LineString","coordinates":[[127.18058,37.55403],[127.18081,37.55402]]}},{"type":"Feature","properties":{"class":"alley","highway":"service","sidewalk":"unknown","lanes":0,"name":"","oneway":false},"geometry":{"type":"LineString","coordinates":[[127.18032,37.55498],[127.18052,37.55498]]}},{"type":"Feature","properties":{"class":"alley","highway":"service","sidewalk":"unknown","lanes":0,"name":"","oneway":true},"geometry":{"type":"LineString","coordinates":[[127.18031,37.55674],[127.18036,37.55674]]}},{"type":"Feature","properties":{"class":"alley","highway":"service","sidewalk":"unknown","lanes":0,"name":"","oneway":true},"geometry":{"type":"LineString","coordinates":[[127.18075,37.55674],[127.18062,37.55674]]}},{"type":"Feature","properties":{"class":"alley","highway":"service","sidewalk":"unknown","lanes":0,"name":"","oneway":false},"geometry":{"type":"LineString","coordinates":[[127.18198,37.55448],[127.18201,37.55443],[127.18203,37.55441],[127.18206,37.55439],[127.1821,37.55436],[127.18214,37.55435],[127.18219,37.55434]]}},{"type":"Feature","properties":{"class":"alley","highway":"service","sidewalk":"unknown","lanes":1,"name":"","oneway":false},"geometry":{"type":"LineString","coordinates":[[127.18358,37.55448],[127.18353,37.55448],[127.1835,37.55447],[127.1834,37.55438]]}},{"type":"Feature","properties":{"class":"alley","highway":"service","sidewalk":"unknown","lanes":0,"name":"","oneway":false},"geometry":{"type":"LineString","coordinates":[[127.18411,37.55688],[127.1839,37.55688]]}},{"type":"Feature","properties":{"class":"alley","highway":"service","sidewalk":"unknown","lanes":0,"name":"","oneway":false},"geometry":{"type":"LineString","coordinates":[[127.18223,37.55687],[127.18231,37.55687]]}},{"type":"Feature","properties":{"class":"alley","highway":"service","sidewalk":"unknown","lanes":0,"name":"","oneway":false},"geometry":{"type":"LineString","coordinates":[[127.18408,37.55805],[127.18385,37.55793]]}},{"type":"Feature","properties":{"class":"alley","highway":"service","sidewalk":"unknown","lanes":0,"name":"","oneway":false},"geometry":{"type":"LineString","coordinates":[[127.18291,37.55888],[127.18299,37.5589]]}},{"type":"Feature","properties":{"class":"alley","highway":"service","sidewalk":"unknown","lanes":0,"name":"","oneway":false},"geometry":{"type":"LineString","coordinates":[[127.18446,37.55448],[127.18449,37.55449],[127.18451,37.5545],[127.18453,37.55452],[127.18455,37.55455]]}},{"type":"Feature","properties":{"class":"alley","highway":"service","sidewalk":"unknown","lanes":0,"name":"","oneway":false},"geometry":{"type":"LineString","coordinates":[[127.18533,37.55793],[127.18536,37.55793],[127.18539,37.55794],[127.18542,37.55796],[127.18543,37.55799]]}},{"type":"Feature","properties":{"class":"alley","highway":"service","sidewalk":"unknown","lanes":0,"name":"","oneway":false},"geometry":{"type":"LineString","coordinates":[[127.18346,37.55106],[127.18348,37.551],[127.18349,37.55097]]}},{"type":"Feature","properties":{"class":"alley","highway":"service","sidewalk":"unknown","lanes":0,"name":"","oneway":false},"geometry":{"type":"LineString","coordinates":[[127.18349,37.55097],[127.1835,37.55095],[127.18355,37.55081]]}},{"type":"Feature","properties":{"class":"alley","highway":"service","sidewalk":"unknown","lanes":0,"name":"","oneway":false},"geometry":{"type":"LineString","coordinates":[[127.18355,37.55081],[127.18357,37.55077],[127.18358,37.55074]]}},{"type":"Feature","properties":{"class":"alley","highway":"service","sidewalk":"unknown","lanes":0,"name":"","oneway":false},"geometry":{"type":"LineString","coordinates":[[127.18357,37.55077],[127.18352,37.55068],[127.18358,37.55052],[127.18349,37.55051]]}},{"type":"Feature","properties":{"class":"alley","highway":"service","sidewalk":"unknown","lanes":0,"name":"","oneway":false},"geometry":{"type":"LineString","coordinates":[[127.18343,37.55057],[127.1834,37.55065],[127.1835,37.55067]]}},{"type":"Feature","properties":{"class":"alley","highway":"service","sidewalk":"unknown","lanes":0,"name":"","oneway":false},"geometry":{"type":"LineString","coordinates":[[127.1835,37.55067],[127.18352,37.55068]]}},{"type":"Feature","properties":{"class":"alley","highway":"service","sidewalk":"unknown","lanes":0,"name":"","oneway":false},"geometry":{"type":"LineString","coordinates":[[127.18349,37.55051],[127.18345,37.5505],[127.18343,37.55055]]}},{"type":"Feature","properties":{"class":"alley","highway":"service","sidewalk":"unknown","lanes":0,"name":"","oneway":false},"geometry":{"type":"LineString","coordinates":[[127.18343,37.55055],[127.18343,37.55057]]}},{"type":"Feature","properties":{"class":"alley","highway":"service","sidewalk":"unknown","lanes":0,"name":"","oneway":false},"geometry":{"type":"LineString","coordinates":[[127.18358,37.55074],[127.18366,37.55052]]}},{"type":"Feature","properties":{"class":"alley","highway":"service","sidewalk":"unknown","lanes":0,"name":"","oneway":false},"geometry":{"type":"LineString","coordinates":[[127.18417,37.5506],[127.18429,37.55063],[127.18439,37.55065],[127.18445,37.55049],[127.18423,37.55044],[127.18417,37.5506]]}},{"type":"Feature","properties":{"class":"alley","highway":"service","sidewalk":"unknown","lanes":0,"name":"","oneway":false},"geometry":{"type":"LineString","coordinates":[[127.18443,37.55081],[127.1846,37.55085],[127.18464,37.55088],[127.18466,37.55092],[127.18467,37.55097]]}},{"type":"Feature","properties":{"class":"alley","highway":"service","sidewalk":"unknown","lanes":0,"name":"","oneway":false},"geometry":{"type":"LineString","coordinates":[[127.18575,37.55389],[127.18606,37.55387]]}},{"type":"Feature","properties":{"class":"alley","highway":"service","sidewalk":"unknown","lanes":0,"name":"","oneway":false},"geometry":{"type":"LineString","coordinates":[[127.18508,37.55999],[127.18509,37.55996],[127.1851,37.55991]]}},{"type":"Feature","properties":{"class":"alley","highway":"service","sidewalk":"unknown","lanes":0,"name":"","oneway":false},"geometry":{"type":"LineString","coordinates":[[127.1851,37.55991],[127.18512,37.55988]]}},{"type":"Feature","properties":{"class":"alley","highway":"service","sidewalk":"unknown","lanes":0,"name":"","oneway":false},"geometry":{"type":"LineString","coordinates":[[127.18534,37.55995],[127.18522,37.55992],[127.18521,37.55992],[127.1852,37.55992],[127.18519,37.55993],[127.18518,37.55998],[127.18516,37.56001]]}},{"type":"Feature","properties":{"class":"alley","highway":"service","sidewalk":"unknown","lanes":0,"name":"","oneway":false},"geometry":{"type":"LineString","coordinates":[[127.18538,37.55996],[127.18534,37.55995]]}},{"type":"Feature","properties":{"class":"alley","highway":"service","sidewalk":"unknown","lanes":0,"name":"","oneway":false},"geometry":{"type":"LineString","coordinates":[[127.18544,37.56007],[127.18545,37.56004],[127.18546,37.55999],[127.18547,37.55998],[127.18548,37.55998],[127.18561,37.56001]]}},{"type":"Feature","properties":{"class":"alley","highway":"pedestrian","sidewalk":"unknown","lanes":0,"name":"","oneway":false},"geometry":{"type":"LineString","coordinates":[[127.18272,37.54959],[127.18276,37.54959],[127.1828,37.5496],[127.18281,37.54956],[127.18277,37.54956],[127.18273,37.54955],[127.18272,37.54959]]}},{"type":"Feature","properties":{"class":"alley","highway":"pedestrian","sidewalk":"unknown","lanes":0,"name":"","oneway":false},"geometry":{"type":"LineString","coordinates":[[127.18576,37.55045],[127.18574,37.55044],[127.18576,37.55041],[127.18578,37.55038],[127.1858,37.55039],[127.18578,37.55042],[127.18576,37.55045]]}},{"type":"Feature","properties":{"class":"alley","highway":"service","sidewalk":"unknown","lanes":0,"name":"","oneway":false},"geometry":{"type":"LineString","coordinates":[[127.18455,37.54911],[127.18488,37.54915]]}},{"type":"Feature","properties":{"class":"alley","highway":"service","sidewalk":"unknown","lanes":0,"name":"","oneway":false},"geometry":{"type":"LineString","coordinates":[[127.18523,37.54922],[127.18497,37.54917]]}},{"type":"Feature","properties":{"class":"alley","highway":"service","sidewalk":"unknown","lanes":0,"name":"","oneway":false},"geometry":{"type":"LineString","coordinates":[[127.18549,37.54851],[127.18548,37.54875],[127.18535,37.54884]]}},{"type":"Feature","properties":{"class":"alley","highway":"service","sidewalk":"unknown","lanes":0,"name":"","oneway":false},"geometry":{"type":"LineString","coordinates":[[127.18548,37.54875],[127.18561,37.54875]]}},{"type":"Feature","properties":{"class":"alley","highway":"service","sidewalk":"unknown","lanes":0,"name":"","oneway":false},"geometry":{"type":"LineString","coordinates":[[127.18568,37.54956],[127.18569,37.54934]]}},{"type":"Feature","properties":{"class":"alley","highway":"service","sidewalk":"unknown","lanes":0,"name":"","oneway":false},"geometry":{"type":"LineString","coordinates":[[127.18567,37.54967],[127.18567,37.54961],[127.18568,37.54956]]}},{"type":"Feature","properties":{"class":"alley","highway":"service","sidewalk":"unknown","lanes":0,"name":"","oneway":false},"geometry":{"type":"LineString","coordinates":[[127.18569,37.54934],[127.18569,37.54925],[127.18561,37.54925]]}},{"type":"Feature","properties":{"class":"alley","highway":"service","sidewalk":"unknown","lanes":0,"name":"","oneway":false},"geometry":{"type":"LineString","coordinates":[[127.18533,37.54894],[127.18609,37.54898]]}},{"type":"Feature","properties":{"class":"alley","highway":"service","sidewalk":"unknown","lanes":0,"name":"","oneway":false},"geometry":{"type":"LineString","coordinates":[[127.18454,37.54919],[127.18445,37.54912],[127.1843,37.54909],[127.18421,37.54904],[127.18414,37.54898],[127.18407,37.54887]]}},{"type":"Feature","properties":{"class":"alley","highway":"service","sidewalk":"unknown","lanes":0,"name":"","oneway":false},"geometry":{"type":"LineString","coordinates":[[127.18391,37.5495],[127.18395,37.54938],[127.18401,37.54922],[127.18368,37.54916],[127.18371,37.54904]]}},{"type":"Feature","properties":{"class":"alley","highway":"service","sidewalk":"unknown","lanes":0,"name":"","oneway":false},"geometry":{"type":"LineString","coordinates":[[127.18422,37.54955],[127.18425,37.54943],[127.18427,37.54933]]}},{"type":"Feature","properties":{"class":"alley","highway":"service","sidewalk":"unknown","lanes":0,"name":"","oneway":false},"geometry":{"type":"LineString","coordinates":[[127.18421,37.54931],[127.18427,37.54933],[127.18436,37.54934]]}},{"type":"Feature","properties":{"class":"alley","highway":"service","sidewalk":"unknown","lanes":0,"name":"","oneway":false},"geometry":{"type":"LineString","coordinates":[[127.18355,37.54841],[127.18355,37.54819],[127.18367,37.54818]]}},{"type":"Feature","properties":{"class":"alley","highway":"service","sidewalk":"unknown","lanes":0,"name":"","oneway":false},"geometry":{"type":"LineString","coordinates":[[127.18355,37.54841],[127.18349,37.54841],[127.18348,37.54831]]}},{"type":"Feature","properties":{"class":"alley","highway":"service","sidewalk":"unknown","lanes":0,"name":"","oneway":false},"geometry":{"type":"LineString","coordinates":[[127.18445,37.54747],[127.18439,37.54752],[127.1843,37.54758],[127.18423,37.54803],[127.18423,37.54832],[127.18422,37.54836]]}},{"type":"Feature","properties":{"class":"alley","highway":"service","sidewalk":"unknown","lanes":0,"name":"","oneway":false},"geometry":{"type":"LineString","coordinates":[[127.1847,37.548],[127.18441,37.54803],[127.18423,37.54803]]}},{"type":"Feature","properties":{"class":"alley","highway":"service","sidewalk":"unknown","lanes":0,"name":"","oneway":false},"geometry":{"type":"LineString","coordinates":[[127.18402,37.54798],[127.18394,37.54798],[127.18385,37.54799]]}},{"type":"Feature","properties":{"class":"alley","highway":"service","sidewalk":"unknown","lanes":0,"name":"","oneway":false},"geometry":{"type":"LineString","coordinates":[[127.18385,37.54806],[127.18385,37.54799],[127.18385,37.54781]]}},{"type":"Feature","properties":{"class":"alley","highway":"service","sidewalk":"unknown","lanes":0,"name":"","oneway":false},"geometry":{"type":"LineString","coordinates":[[127.18454,37.54755],[127.18462,37.54744],[127.18464,37.54735],[127.18463,37.54726]]}},{"type":"Feature","properties":{"class":"alley","highway":"service","sidewalk":"unknown","lanes":0,"name":"","oneway":false},"geometry":{"type":"LineString","coordinates":[[127.18523,37.54704],[127.18544,37.5472],[127.18573,37.54729]]}},{"type":"Feature","properties":{"class":"alley","highway":"service","sidewalk":"unknown","lanes":0,"name":"","oneway":false},"geometry":{"type":"LineString","coordinates":[[127.18346,37.54863],[127.1835,37.54871],[127.18344,37.54893]]}},{"type":"Feature","properties":{"class":"alley","highway":"service","sidewalk":"unknown","lanes":0,"name":"","oneway":false},"geometry":{"type":"LineString","coordinates":[[127.1828,37.54667],[127.18263,37.54656],[127.18272,37.54641]]}},{"type":"Feature","properties":{"class":"alley","highway":"service","sidewalk":"unknown","lanes":0,"name":"","oneway":false},"geometry":{"type":"LineString","coordinates":[[127.18263,37.54656],[127.18251,37.5466]]}},{"type":"Feature","properties":{"class":"alley","highway":"service","sidewalk":"unknown","lanes":0,"name":"","oneway":false},"geometry":{"type":"LineString","coordinates":[[127.18345,37.54724],[127.18379,37.54723]]}},{"type":"Feature","properties":{"class":"alley","highway":"service","sidewalk":"unknown","lanes":0,"name":"","oneway":false},"geometry":{"type":"LineString","coordinates":[[127.18481,37.54641],[127.18443,37.54641],[127.18425,37.54642],[127.18418,37.54641],[127.18414,37.54638],[127.18411,37.54635],[127.18405,37.54634],[127.18375,37.54633],[127.1837,37.54635],[127.18366,37.5464],[127.18363,37.54644],[127.18352,37.54691]]}},{"type":"Feature","properties":{"class":"alley","highway":"service","sidewalk":"unknown","lanes":0,"name":"","oneway":false},"geometry":{"type":"LineString","coordinates":[[127.18434,37.55079],[127.1844,37.5508],[127.18443,37.55081]]}},{"type":"Feature","properties":{"class":"alley","highway":"service","sidewalk":"unknown","lanes":0,"name":"","oneway":false},"geometry":{"type":"LineString","coordinates":[[127.18417,37.5506],[127.18412,37.55059],[127.18409,37.55058]]}},{"type":"Feature","properties":{"class":"alley","highway":"service","sidewalk":"unknown","lanes":0,"name":"","oneway":false},"geometry":{"type":"LineString","coordinates":[[127.18431,37.55089],[127.18434,37.55079],[127.18439,37.55065]]}},{"type":"Feature","properties":{"class":"alley","highway":"service","sidewalk":"unknown","lanes":0,"name":"","oneway":false},"geometry":{"type":"LineString","coordinates":[[127.18422,37.55113],[127.18425,37.55106],[127.18431,37.55089]]}},{"type":"Feature","properties":{"class":"major","highway":"secondary","sidewalk":"likely","lanes":2,"name":"미사강변대로","oneway":false},"geometry":{"type":"LineString","coordinates":[[127.18548,37.55405],[127.1853,37.55379],[127.18518,37.55361],[127.18511,37.55343]]}},{"type":"Feature","properties":{"class":"minor","highway":"unclassified","sidewalk":"unknown","lanes":0,"name":"","oneway":false},"geometry":{"type":"LineString","coordinates":[[127.18361,37.53928],[127.18352,37.53943],[127.18331,37.53976],[127.18322,37.5399],[127.18313,37.54007],[127.18301,37.54033],[127.1829,37.54056],[127.18283,37.54079],[127.18279,37.54094],[127.18279,37.54098],[127.18283,37.54101],[127.1829,37.54103]]}},{"type":"Feature","properties":{"class":"alley","highway":"service","sidewalk":"unknown","lanes":0,"name":"","oneway":false},"geometry":{"type":"LineString","coordinates":[[127.18505,37.55789],[127.18512,37.55789],[127.18519,37.5579],[127.18526,37.55791],[127.18531,37.55792],[127.18533,37.55793]]}},{"type":"Feature","properties":{"class":"major","highway":"secondary","sidewalk":"likely","lanes":2,"name":"미사강변대로","oneway":true},"geometry":{"type":"LineString","coordinates":[[127.1864,37.55506],[127.18634,37.55499],[127.1862,37.55484],[127.18602,37.55468],[127.18582,37.55452],[127.18568,37.55438],[127.18557,37.55426],[127.18548,37.55405]]}},{"type":"Feature","properties":{"class":"minor","highway":"residential","sidewalk":"unknown","lanes":0,"name":"","oneway":false},"geometry":{"type":"LineString","coordinates":[[127.17962,37.55936],[127.17977,37.55935],[127.17987,37.55935],[127.18013,37.55944],[127.18018,37.55948],[127.18032,37.55959],[127.18044,37.55985],[127.18054,37.56011],[127.18056,37.56017],[127.18062,37.56032],[127.18067,37.5606],[127.18004,37.56069],[127.17988,37.56071]]}},{"type":"Feature","properties":{"class":"alley","highway":"service","sidewalk":"unknown","lanes":0,"name":"","oneway":false},"geometry":{"type":"LineString","coordinates":[[127.18018,37.55948],[127.18034,37.55937],[127.18053,37.55926],[127.18091,37.55904]]}},{"type":"Feature","properties":{"class":"alley","highway":"service","sidewalk":"unknown","lanes":0,"name":"","oneway":false},"geometry":{"type":"LineString","coordinates":[[127.18019,37.55931],[127.18027,37.55933],[127.18034,37.55937]]}},{"type":"Feature","properties":{"class":"alley","highway":"service","sidewalk":"unknown","lanes":0,"name":"","oneway":false},"geometry":{"type":"LineString","coordinates":[[127.18042,37.55913],[127.18053,37.55926]]}}]}