{"type":"FeatureCollection","features":[{"type":"Feature","properties":{"class":"minor","highway":"unclassified","sidewalk":"unknown","lanes":1,"name":"개화동로2길","oneway":false},"geometry":{"type":"LineString","coordinates":[[126.78408,37.54696],[126.78466,37.54625],[126.78762,37.54265],[126.78766,37.54257]]}},{"type":"Feature","properties":{"class":"minor","highway":"unclassified","sidewalk":"unknown","lanes":1,"name":"개화동로2길","oneway":false},"geometry":{"type":"LineString","coordinates":[[126.77947,37.55327],[126.77953,37.55262],[126.7796,37.55249],[126.77964,37.55243],[126.77981,37.55213],[126.78035,37.55148],[126.78159,37.54996],[126.7831,37.54813],[126.78408,37.54696]]}},{"type":"Feature","properties":{"class":"minor","highway":"unclassified","sidewalk":"unknown","lanes":0,"name":"대장로","oneway":false},"geometry":{"type":"LineString","coordinates":[[126.80021,37.54046],[126.80009,37.54044],[126.79937,37.54031],[126.79843,37.54026],[126.79829,37.54027],[126.79818,37.54029],[126.79808,37.54034],[126.79768,37.54057],[126.79755,37.54064],[126.79742,37.54067],[126.79733,37.54067],[126.79701,37.54061],[126.7963,37.54041],[126.79618,37.5404],[126.79608,37.5404],[126.79497,37.54067],[126.79473,37.54076],[126.79461,37.54084],[126.79433,37.54111],[126.79423,37.54118],[126.7942,37.5412],[126.79411,37.54123],[126.79399,37.54126],[126.79266,37.54144],[126.79196,37.54153],[126.79177,37.54153],[126.79158,37.54151],[126.79108,37.54141],[126.79103,37.5414],[126.79095,37.54139],[126.79087,37.54137],[126.79071,37.54135],[126.79055,37.54134],[126.7901,37.5414],[126.78818,37.54163]]}},{"type":"Feature","properties":{"class":"alley","highway":"service","sidewalk":"unknown","lanes":0,"name":"","oneway":false},"geometry":{"type":"LineString","coordinates":[[126.78707,37.55429],[126.78709,37.55415],[126.78723,37.55326],[126.78726,37.55318],[126.78729,37.55312],[126.78733,37.55306],[126.78741,37.553],[126.78878,37.55194],[126.78888,37.55187],[126.78897,37.55184],[126.78907,37.55184],[126.78917,37.55185],[126.78924,37.55189],[126.78932,37.55194],[126.78967,37.55221],[126.78972,37.55224],[126.78987,37.55216],[126.78999,37.55209],[126.79008,37.55203],[126.79042,37.55176],[126.79311,37.54959],[126.79323,37.54951],[126.79333,37.54947],[126.79341,37.54946],[126.79351,37.54945],[126.79358,37.54946],[126.79368,37.5495],[126.79376,37.54955],[126.79492,37.55047],[126.79498,37.55051],[126.79506,37.55055],[126.79512,37.55057],[126.79519,37.55058],[126.79525,37.55057],[126.7953,37.55056],[126.79536,37.55052],[126.79543,37.55047],[126.79629,37.54978],[126.79695,37.54926],[126.79784,37.54855],[126.7998,37.54698],[126.80197,37.54526],[126.80216,37.54513],[126.80231,37.54506],[126.80248,37.54498],[126.80268,37.5449],[126.80283,37.54482],[126.80298,37.54472],[126.80323,37.54453],[126.80336,37.54442],[126.80371,37.54414],[126.80438,37.5436],[126.80443,37.54356],[126.80451,37.54351],[126.80465,37.54345],[126.80483,37.5434],[126.80499,37.54338],[126.80524,37.54338],[126.80895,37.54352],[126.80961,37.54355],[126.8098,37.54356],[126.80991,37.54358],[126.81,37.5436],[126.81009,37.54362],[126.81017,37.54366],[126.81027,37.54372],[126.81042,37.54381],[126.8114,37.5446],[126.81155,37.54474],[126.81164,37.54485],[126.81167,37.54496],[126.81169,37.54507],[126.8117,37.54517],[126.81169,37.54528],[126.81166,37.54541],[126.81162,37.54552],[126.81155,37.54563],[126.81144,37.54574],[126.81002,37.54697],[126.80997,37.54702],[126.80993,37.54709],[126.8099,37.54714],[126.80987,37.54732],[126.80986,37.54742],[126.80985,37.54749],[126.80987,37.54758],[126.80988,37.54765],[126.80991,37.54772],[126.80997,37.54778],[126.81055,37.54822],[126.81154,37.54899],[126.81183,37.54921],[126.81187,37.54926],[126.81191,37.54932],[126.81193,37.54936],[126.81192,37.54941],[126.8119,37.54946],[126.81187,37.54951],[126.81173,37.54965],[126.81117,37.5501],[126.80659,37.55373],[126.80566,37.55445],[126.80543,37.55466],[126.80537,37.5547],[126.80526,37.55481],[126.80511,37.55496],[126.80461,37.55547],[126.80429,37.55579],[126.80418,37.5559],[126.80395,37.5561],[126.80359,37.55638],[126.80321,37.55669],[126.80303,37.55683],[126.80266,37.55714],[126.80247,37.55729],[126.80215,37.55755],[126.80205,37.55763],[126.8018,37.55783],[126.80159,37.558],[126.80143,37.55813],[126.80102,37.55845],[126.80087,37.55857],[126.80043,37.55892],[126.80042,37.55893],[126.80036,37.55898],[126.80026,37.55905],[126.80013,37.55916],[126.79998,37.55926],[126.79993,37.55929],[126.79979,37.55937],[126.79971,37.55941],[126.79962,37.55943],[126.79956,37.55944],[126.79948,37.55945],[126.79947,37.55945],[126.79935,37.55946],[126.79927,37.55947],[126.79872,37.55953],[126.79828,37.55958],[126.79783,37.55963],[126.79739,37.55968],[126.79684,37.55974],[126.79666,37.55977],[126.79654,37.55979],[126.79647,37.55981],[126.7964,37.55982],[126.79633,37.55986],[126.79624,37.55992],[126.79609,37.56007],[126.79601,37.56016],[126.79597,37.56021],[126.79593,37.56029],[126.79592,37.56037],[126.79592,37.56058],[126.79593,37.56092],[126.79596,37.56104]]}},{"type":"Feature","properties":{"class":"alley","highway":"service","sidewalk":"unknown","lanes":0,"name":"","oneway":false},"geometry":{"type":"LineString","coordinates":[[126.79958,37.56031],[126.79958,37.56014],[126.79958,37.55966],[126.79958,37.55961],[126.79958,37.55958],[126.79959,37.55955],[126.79962,37.55952],[126.79964,37.55949],[126.79966,37.55946],[126.79971,37.55941]]}},{"type":"Feature","properties":{"class":"alley","highway":"service","sidewalk":"unknown","lanes":0,"name":"","oneway":false},"geometry":{"type":"LineString","coordinates":[[126.80026,37.55905],[126.79989,37.55875],[126.79857,37.55771]]}},{"type":"Feature","properties":{"class":"alley","highway":"service","sidewalk":"unknown","lanes":0,"name":"","oneway":false},"geometry":{"type":"LineString","coordinates":[[126.78972,37.55224],[126.78955,37.55235],[126.78707,37.55429]]}},{"type":"Feature","properties":{"class":"alley","highway":"service","sidewalk":"unknown","lanes":0,"name":"","oneway":false},"geometry":{"type":"LineString","coordinates":[[126.78707,37.55429],[126.78577,37.55537],[126.78512,37.55591],[126.7851,37.55595],[126.78509,37.55599],[126.78509,37.55602],[126.78512,37.55605],[126.78598,37.5567],[126.78618,37.55685],[126.78635,37.55695],[126.78652,37.55705],[126.78661,37.55714],[126.78664,37.55719],[126.78666,37.55723],[126.78666,37.5573],[126.78664,37.55735],[126.78663,37.55739],[126.7866,37.55743],[126.78654,37.55748],[126.7742,37.56733],[126.77186,37.56919],[126.77147,37.5695],[126.77099,37.56986],[126.7709,37.56995],[126.77084,37.57005],[126.77081,37.57014],[126.77081,37.57021],[126.77082,37.57027],[126.77084,37.57032],[126.77088,37.5704],[126.77091,37.57045],[126.77095,37.5705],[126.77104,37.57057],[126.77163,37.57104],[126.77265,37.57186],[126.77375,37.57273],[126.77426,37.57313],[126.77591,37.57444],[126.77639,37.57482],[126.77644,37.57486],[126.7765,37.57489],[126.77657,37.57492],[126.77663,37.57494],[126.7767,37.57495],[126.77677,37.57495],[126.77683,37.57495],[126.7769,37.57494],[126.77696,37.57493],[126.77701,37.57491],[126.77709,37.57488],[126.77714,37.57485],[126.77728,37.57475],[126.77833,37.5739],[126.78133,37.57152],[126.78368,37.56963],[126.78395,37.56942],[126.78403,37.56935],[126.78407,37.56929],[126.7841,37.56923],[126.78412,37.56918],[126.78414,37.56913],[126.78415,37.56909],[126.78417,37.56906],[126.7842,37.56904],[126.78423,37.569],[126.78495,37.56844],[126.78861,37.5655],[126.78874,37.56543],[126.78882,37.56541],[126.78889,37.56538],[126.78897,37.56536],[126.78906,37.56535],[126.78914,37.56534],[126.78923,37.56534],[126.78933,37.56535],[126.78942,37.56538],[126.78949,37.56542],[126.78958,37.56547],[126.78975,37.56561],[126.79044,37.56614],[126.79051,37.56619],[126.79058,37.56622],[126.79065,37.56625],[126.79075,37.56628],[126.79084,37.56629],[126.79093,37.56629],[126.79102,37.56628],[126.7911,37.56626],[126.79118,37.56623],[126.79123,37.56619],[126.79179,37.56573],[126.79187,37.56569],[126.79195,37.56565],[126.79203,37.56563],[126.79211,37.56563],[126.79219,37.56564],[126.79225,37.56566],[126.7923,37.56569],[126.79234,37.56572],[126.79634,37.56887],[126.79948,37.57137],[126.7997,37.57156],[126.80004,37.57182],[126.80043,37.57213],[126.80051,37.57217],[126.80055,37.57218],[126.80062,37.57219],[126.80067,37.57219],[126.80072,37.57219],[126.80078,37.57218],[126.80084,37.57215],[126.80089,37.57212],[126.80126,37.57182],[126.80196,37.57122],[126.80287,37.5705]]}},{"type":"Feature","properties":{"class":"alley","highway":"service","sidewalk":"unknown","lanes":0,"name":"","oneway":false},"geometry":{"type":"LineString","coordinates":[[126.81055,37.54822],[126.80898,37.54946],[126.80862,37.54974],[126.80838,37.54994],[126.80784,37.55036],[126.8073,37.55079],[126.80675,37.55122],[126.80631,37.55157],[126.80578,37.55199],[126.80415,37.55328],[126.80415,37.55328],[126.80318,37.55405],[126.80263,37.55449],[126.80206,37.55496],[126.80146,37.55543],[126.80087,37.5559],[126.80041,37.55627],[126.8002,37.55643],[126.79993,37.55665],[126.79954,37.55697],[126.79914,37.55728],[126.79882,37.55754],[126.79863,37.55769],[126.79857,37.55771],[126.79847,37.55777],[126.79836,37.55786],[126.79802,37.55813],[126.79769,37.55839],[126.79759,37.55847]]}},{"type":"Feature","properties":{"class":"minor","highway":"unclassified","sidewalk":"unknown","lanes":0,"name":"개화동로4길","oneway":false},"geometry":{"type":"LineString","coordinates":[[126.78071,37.55744],[126.77967,37.55585],[126.77962,37.55571],[126.77959,37.55555],[126.77958,37.5554],[126.77959,37.55523],[126.77963,37.55481],[126.77965,37.55463],[126.77988,37.55292],[126.77992,37.55272],[126.77998,37.55255],[126.78008,37.55238],[126.78089,37.55139],[126.78162,37.55055],[126.78346,37.54832],[126.78395,37.54773],[126.78687,37.54419],[126.78771,37.54317],[126.78794,37.54288],[126.7881,37.54261],[126.78813,37.5425],[126.78821,37.54219],[126.78823,37.54195],[126.78821,37.54182]]}},{"type":"Feature","properties":{"class":"alley","highway":"service","sidewalk":"unknown","lanes":0,"name":"","oneway":false},"geometry":{"type":"LineString","coordinates":[[126.79927,37.54444],[126.79912,37.54452],[126.79889,37.54465],[126.79876,37.54472],[126.79865,37.54479],[126.79858,37.54485]]}},{"type":"Feature","properties":{"class":"minor","highway":"residential","sidewalk":"unknown","lanes":0,"name":"오정로","oneway":false},"geometry":{"type":"LineString","coordinates":[[126.79927,37.54444],[126.79926,37.54452],[126.79929,37.5446],[126.79935,37.54468],[126.79945,37.54478],[126.79961,37.5449],[126.79988,37.54511],[126.80011,37.5453],[126.80031,37.54544],[126.80042,37.5455],[126.8006,37.54563]]}},{"type":"Feature","properties":{"class":"alley","highway":"service","sidewalk":"unknown","lanes":0,"name":"","oneway":false},"geometry":{"type":"LineString","coordinates":[[126.79886,37.5469],[126.7981,37.5463],[126.79799,37.54621],[126.79794,37.54617],[126.79788,37.54614],[126.79783,37.54612],[126.79777,37.54611],[126.79771,37.54611],[126.79765,37.54608],[126.7976,37.54604],[126.79733,37.54582],[126.79729,37.54579],[126.79728,37.54576],[126.79729,37.54572],[126.79834,37.54488]]}},{"type":"Feature","properties":{"class":"alley","highway":"service","sidewalk":"unknown","lanes":0,"name":"","oneway":false},"geometry":{"type":"LineString","coordinates":[[126.79858,37.54485],[126.79834,37.54488]]}},{"type":"Feature","properties":{"class":"alley","highway":"service","sidewalk":"unknown","lanes":0,"name":"","oneway":false},"geometry":{"type":"LineString","coordinates":[[126.79773,37.54517],[126.79723,37.54478]]}},{"type":"Feature","properties":{"class":"alley","highway":"service","sidewalk":"unknown","lanes":0,"name":"","oneway":false},"geometry":{"type":"LineString","coordinates":[[126.79787,37.54506],[126.79737,37.54467]]}},{"type":"Feature","properties":{"class":"alley","highway":"service","sidewalk":"unknown","lanes":0,"name":"","oneway":false},"geometry":{"type":"LineString","coordinates":[[126.79801,37.54496],[126.79771,37.54471]]}},{"type":"Feature","properties":{"class":"alley","highway":"service","sidewalk":"unknown","lanes":0,"name":"","oneway":false},"geometry":{"type":"LineString","coordinates":[[126.7981,37.5463],[126.79803,37.54636],[126.79781,37.54653]]}},{"type":"Feature","properties":{"class":"alley","highway":"service","sidewalk":"unknown","lanes":0,"name":"","oneway":false},"geometry":{"type":"LineString","coordinates":[[126.79803,37.54636],[126.79848,37.54671],[126.79782,37.54724],[126.79751,37.54701],[126.79758,37.54688],[126.79791,37.54662],[126.79781,37.54653],[126.79775,37.54648],[126.7974,37.5462],[126.7976,37.54604]]}},{"type":"Feature","properties":{"class":"alley","highway":"service","sidewalk":"unknown","lanes":0,"name":"","oneway":false},"geometry":{"type":"LineString","coordinates":[[126.79758,37.54688],[126.79741,37.54675],[126.79775,37.54648]]}},{"type":"Feature","properties":{"class":"alley","highway":"service","sidewalk":"unknown","lanes":0,"name":"","oneway":false},"geometry":{"type":"LineString","coordinates":[[126.79729,37.54572],[126.79721,37.54579],[126.79704,37.54592],[126.79703,37.54594],[126.79701,37.54596],[126.79689,37.54606],[126.79675,37.54628]]}},{"type":"Feature","properties":{"class":"alley","highway":"service","sidewalk":"unknown","lanes":0,"name":"","oneway":false},"geometry":{"type":"LineString","coordinates":[[126.79729,37.54579],[126.79725,37.54578],[126.79721,37.54579]]}},{"type":"Feature","properties":{"class":"alley","highway":"service","sidewalk":"unknown","lanes":0,"name":"","oneway":false},"geometry":{"type":"LineString","coordinates":[[126.79799,37.54621],[126.7981,37.54612],[126.79829,37.54628],[126.79842,37.54618],[126.79875,37.54615],[126.79893,37.54601],[126.79901,37.54601],[126.79929,37.54578]]}},{"type":"Feature","properties":{"class":"alley","highway":"service","sidewalk":"unknown","lanes":0,"name":"","oneway":false},"geometry":{"type":"LineString","coordinates":[[126.79816,37.54592],[126.79819,37.54595],[126.7982,37.54597],[126.79821,37.546],[126.7982,37.54602],[126.7982,37.54603],[126.79818,37.54606],[126.79815,37.54608],[126.79812,37.54609],[126.7981,37.54609],[126.79808,37.54609],[126.79804,37.54608],[126.79801,37.54606],[126.79798,37.54604],[126.79797,37.54601],[126.79798,37.54598],[126.79799,37.54595],[126.79802,37.54592],[126.79805,37.54591],[126.79809,37.54591],[126.79813,37.54591],[126.79816,37.54592]]}},{"type":"Feature","properties":{"class":"alley","highway":"service","sidewalk":"unknown","lanes":0,"name":"","oneway":false},"geometry":{"type":"LineString","coordinates":[[126.7981,37.54612],[126.7981,37.54609]]}},{"type":"Feature","properties":{"class":"alley","highway":"service","sidewalk":"unknown","lanes":0,"name":"","oneway":false},"geometry":{"type":"LineString","coordinates":[[126.79842,37.54618],[126.7982,37.54602]]}},{"type":"Feature","properties":{"class":"alley","highway":"service","sidewalk":"unknown","lanes":0,"name":"","oneway":false},"geometry":{"type":"LineString","coordinates":[[126.79816,37.54484],[126.79771,37.54471],[126.79742,37.54463],[126.79737,37.54467],[126.79723,37.54478],[126.7971,37.54488],[126.7976,37.54527],[126.79773,37.54517],[126.79787,37.54506],[126.79801,37.54496],[126.79816,37.54484]]}},{"type":"Feature","properties":{"class":"alley","highway":"service","sidewalk":"unknown","lanes":0,"name":"","oneway":false},"geometry":{"type":"LineString","coordinates":[[126.79858,37.54485],[126.79873,37.54497],[126.79886,37.54507],[126.79899,37.54517],[126.79912,37.54527],[126.79925,37.54538],[126.79939,37.54548],[126.79952,37.54558]]}},{"type":"Feature","properties":{"class":"alley","highway":"service","sidewalk":"unknown","lanes":0,"name":"","oneway":false},"geometry":{"type":"LineString","coordinates":[[126.79938,37.54569],[126.79952,37.54558],[126.7999,37.54527]]}},{"type":"Feature","properties":{"class":"alley","highway":"service","sidewalk":"unknown","lanes":0,"name":"","oneway":false},"geometry":{"type":"LineString","coordinates":[[126.79925,37.54559],[126.79939,37.54548],[126.79977,37.54517]]}},{"type":"Feature","properties":{"class":"alley","highway":"service","sidewalk":"unknown","lanes":0,"name":"","oneway":false},"geometry":{"type":"LineString","coordinates":[[126.79912,37.54549],[126.79925,37.54538],[126.79964,37.54507]]}},{"type":"Feature","properties":{"class":"alley","highway":"service","sidewalk":"unknown","lanes":0,"name":"","oneway":false},"geometry":{"type":"LineString","coordinates":[[126.79865,37.54565],[126.79912,37.54527],[126.79951,37.54497]]}},{"type":"Feature","properties":{"class":"alley","highway":"service","sidewalk":"unknown","lanes":0,"name":"","oneway":false},"geometry":{"type":"LineString","coordinates":[[126.79851,37.54556],[126.79899,37.54517],[126.79938,37.54487]]}},{"type":"Feature","properties":{"class":"alley","highway":"service","sidewalk":"unknown","lanes":0,"name":"","oneway":false},"geometry":{"type":"LineString","coordinates":[[126.79838,37.54545],[126.79886,37.54507],[126.79925,37.54477]]}},{"type":"Feature","properties":{"class":"alley","highway":"service","sidewalk":"unknown","lanes":0,"name":"","oneway":false},"geometry":{"type":"LineString","coordinates":[[126.79825,37.54535],[126.79873,37.54497],[126.79911,37.54466]]}},{"type":"Feature","properties":{"class":"alley","highway":"service","sidewalk":"unknown","lanes":0,"name":"","oneway":false},"geometry":{"type":"LineString","coordinates":[[126.79997,37.54385],[126.79998,37.54393],[126.79995,37.54401],[126.79938,37.5445]]}},{"type":"Feature","properties":{"class":"alley","highway":"service","sidewalk":"unknown","lanes":0,"name":"","oneway":false},"geometry":{"type":"LineString","coordinates":[[126.79858,37.54485],[126.79849,37.54493],[126.79793,37.54538]]}},{"type":"Feature","properties":{"class":"alley","highway":"service","sidewalk":"unknown","lanes":0,"name":"","oneway":false},"geometry":{"type":"LineString","coordinates":[[126.79834,37.54488],[126.79816,37.54484]]}},{"type":"Feature","properties":{"class":"alley","highway":"service","sidewalk":"unknown","lanes":0,"name":"","oneway":false},"geometry":{"type":"LineString","coordinates":[[126.79947,37.54656],[126.79947,37.54666],[126.79947,37.5467],[126.79947,37.54674],[126.79948,37.54678]]}},{"type":"Feature","properties":{"class":"minor","highway":"unclassified","sidewalk":"unknown","lanes":0,"name":"개화동로4길","oneway":false},"geometry":{"type":"LineString","coordinates":[[126.78687,37.54419],[126.78892,37.54528],[126.78914,37.5454],[126.78943,37.54556]]}},{"type":"Feature","properties":{"class":"alley","highway":"service","sidewalk":"unknown","lanes":0,"name":"","oneway":false},"geometry":{"type":"LineString","coordinates":[[126.78709,37.55415],[126.78576,37.55352],[126.78565,37.55349],[126.78554,37.55349],[126.78542,37.55349],[126.78529,37.55352],[126.78518,37.55356],[126.78508,37.55361],[126.78404,37.55452],[126.784,37.55455],[126.78395,37.55456],[126.78392,37.55457],[126.78388,37.55457],[126.78383,37.55456],[126.78317,37.55412]]}},{"type":"Feature","properties":{"class":"minor","highway":"unclassified","sidewalk":"unknown","lanes":0,"name":"대장로118번길","oneway":false},"geometry":{"type":"LineString","coordinates":[[126.7882,37.54173],[126.78821,37.54182],[126.78835,37.54183],[126.78864,37.5418],[126.78889,37.54176],[126.78912,37.54171],[126.78935,37.54167],[126.78952,37.54177],[126.78972,37.54191],[126.78998,37.54206],[126.79028,37.54223],[126.79054,37.54236],[126.79079,37.54244],[126.79099,37.54257],[126.7912,37.54267],[126.79153,37.54274]]}},{"type":"Feature","properties":{"class":"minor","highway":"unclassified","sidewalk":"unknown","lanes":0,"name":"대장로","oneway":false},"geometry":{"type":"LineString","coordinates":[[126.79103,37.5414],[126.79099,37.54152]]}},{"type":"Feature","properties":{"class":"minor","highway":"unclassified","sidewalk":"unknown","lanes":1,"name":"대장로","oneway":false},"geometry":{"type":"LineString","coordinates":[[126.78775,37.54169],[126.78778,37.54182],[126.7878,37.54194],[126.78778,37.54227],[126.78773,37.54245],[126.78766,37.54257]]}},{"type":"Feature","properties":{"class":"minor","highway":"unclassified","sidewalk":"unknown","lanes":0,"name":"대장로","oneway":false},"geometry":{"type":"LineString","coordinates":[[126.78117,37.54324],[126.78095,37.54314],[126.78058,37.54306],[126.78024,37.543],[126.77998,37.54297],[126.77979,37.54298],[126.77935,37.54292],[126.77872,37.54273],[126.77853,37.54264],[126.77835,37.54262],[126.77807,37.54266],[126.7778,37.54262]]}},{"type":"Feature","properties":{"class":"minor","highway":"unclassified","sidewalk":"unknown","lanes":0,"name":"대장로187번길","oneway":false},"geometry":{"type":"LineString","coordinates":[[126.78138,37.54313],[126.78129,37.5429],[126.78138,37.54283],[126.78138,37.54272],[126.7813,37.54254],[126.78112,37.54236],[126.78107,37.54233],[126.78091,37.54222],[126.78076,37.54219],[126.78055,37.54223],[126.78047,37.54229],[126.7803,37.54229]]}},{"type":"Feature","properties":{"class":"minor","highway":"unclassified","sidewalk":"unknown","lanes":0,"name":"대장로","oneway":false},"geometry":{"type":"LineString","coordinates":[[126.78044,37.54378],[126.78019,37.54378],[126.78019,37.54371],[126.78014,37.54366],[126.78003,37.54362],[126.78012,37.54346],[126.78016,37.54325],[126.78024,37.543]]}},{"type":"Feature","properties":{"class":"minor","highway":"unclassified","sidewalk":"unknown","lanes":0,"name":"대장로","oneway":false},"geometry":{"type":"LineString","coordinates":[[126.78162,37.54306],[126.78169,37.54314],[126.78176,37.54323],[126.78183,37.54336],[126.78188,37.54348],[126.7818,37.54354],[126.78171,37.5436],[126.78153,37.54361],[126.78138,37.54367]]}},{"type":"Feature","properties":{"class":"minor","highway":"unclassified","sidewalk":"unknown","lanes":0,"name":"대장로","oneway":false},"geometry":{"type":"LineString","coordinates":[[126.78384,37.54175],[126.7839,37.54189],[126.78391,37.5419],[126.78398,37.5421],[126.78405,37.54226],[126.78406,37.54229],[126.78422,37.54252],[126.78439,37.54273]]}},{"type":"Feature","properties":{"class":"minor","highway":"unclassified","sidewalk":"unknown","lanes":0,"name":"대장로138번길","oneway":false},"geometry":{"type":"LineString","coordinates":[[126.78603,37.54185],[126.78575,37.542],[126.78561,37.54207],[126.78546,37.54219],[126.78534,37.54224],[126.78524,37.54227],[126.78506,37.54236],[126.78492,37.54246],[126.78482,37.54258],[126.78475,37.54264],[126.78439,37.54273],[126.78426,37.5429],[126.78412,37.54286],[126.78386,37.54292],[126.78374,37.54294],[126.78367,37.54292],[126.78356,37.54273],[126.78348,37.54248],[126.78337,37.54226],[126.78331,37.54217]]}},{"type":"Feature","properties":{"class":"minor","highway":"unclassified","sidewalk":"unknown","lanes":0,"name":"대장로138번길","oneway":false},"geometry":{"type":"LineString","coordinates":[[126.78475,37.54264],[126.78475,37.54272],[126.7847,37.54281],[126.7847,37.54293],[126.7847,37.543]]}},{"type":"Feature","properties":{"class":"minor","highway":"unclassified","sidewalk":"unknown","lanes":0,"name":"대장로138번길","oneway":false},"geometry":{"type":"LineString","coordinates":[[126.78534,37.54224],[126.78546,37.54256],[126.78556,37.54274]]}},{"type":"Feature","properties":{"class":"minor","highway":"unclassified","sidewalk":"unknown","lanes":0,"name":"대장로187번길","oneway":false},"geometry":{"type":"LineString","coordinates":[[126.78107,37.54233],[126.78142,37.5421]]}},{"type":"Feature","properties":{"class":"minor","highway":"unclassified","sidewalk":"unknown","lanes":0,"name":"대장로138번길","oneway":false},"geometry":{"type":"LineString","coordinates":[[126.78575,37.542],[126.78584,37.54212],[126.7859,37.54224],[126.7859,37.54235],[126.78596,37.54245],[126.78604,37.54259]]}},{"type":"Feature","properties":{"class":"minor","highway":"unclassified","sidewalk":"unknown","lanes":0,"name":"대장로138번길","oneway":false},"geometry":{"type":"LineString","coordinates":[[126.7859,37.54224],[126.78598,37.54223],[126.78615,37.54208],[126.78633,37.54196],[126.78653,37.54182]]}},{"type":"Feature","properties":{"class":"minor","highway":"unclassified","sidewalk":"unknown","lanes":0,"name":"대장로138번길","oneway":false},"geometry":{"type":"LineString","coordinates":[[126.78426,37.5429],[126.7842,37.54314]]}},{"type":"Feature","properties":{"class":"minor","highway":"unclassified","sidewalk":"unknown","lanes":0,"name":"대장로","oneway":false},"geometry":{"type":"LineString","coordinates":[[126.78555,37.54187],[126.78555,37.54164],[126.78548,37.54155],[126.78537,37.54138],[126.78496,37.54138],[126.7849,37.54176],[126.78488,37.54182]]}},{"type":"Feature","properties":{"class":"minor","highway":"unclassified","sidewalk":"unknown","lanes":0,"name":"대장로","oneway":false},"geometry":{"type":"LineString","coordinates":[[126.78405,37.54151],[126.78431,37.54124],[126.78442,37.54119],[126.78443,37.54136],[126.7844,37.54148]]}},{"type":"Feature","properties":{"class":"minor","highway":"unclassified","sidewalk":"unknown","lanes":0,"name":"대장로","oneway":false},"geometry":{"type":"LineString","coordinates":[[126.78405,37.54151],[126.78394,37.54145],[126.7836,37.54136],[126.78309,37.54128],[126.78253,37.54119]]}},{"type":"Feature","properties":{"class":"minor","highway":"unclassified","sidewalk":"unknown","lanes":0,"name":"","oneway":false},"geometry":{"type":"LineString","coordinates":[[126.78142,37.5421],[126.7816,37.54194],[126.78173,37.54185],[126.78187,37.54185],[126.78203,37.54184],[126.78214,37.5418],[126.78222,37.54166],[126.78238,37.54142],[126.78253,37.54119]]}},{"type":"Feature","properties":{"class":"minor","highway":"unclassified","sidewalk":"unknown","lanes":0,"name":"","oneway":false},"geometry":{"type":"LineString","coordinates":[[126.76868,37.54324],[126.77289,37.5423],[126.78041,37.54064],[126.78182,37.54032]]}},{"type":"Feature","properties":{"class":"minor","highway":"unclassified","sidewalk":"unknown","lanes":0,"name":"","oneway":false},"geometry":{"type":"LineString","coordinates":[[126.78182,37.54032],[126.78195,37.54046]]}},{"type":"Feature","properties":{"class":"minor","highway":"unclassified","sidewalk":"unknown","lanes":0,"name":"","oneway":false},"geometry":{"type":"LineString","coordinates":[[126.78195,37.54046],[126.78214,37.54078],[126.78231,37.54103],[126.78241,37.54114],[126.78253,37.54119]]}},{"type":"Feature","properties":{"class":"minor","highway":"unclassified","sidewalk":"unknown","lanes":0,"name":"대장로","oneway":false},"geometry":{"type":"LineString","coordinates":[[126.79099,37.54152],[126.79092,37.54172],[126.79092,37.54177]]}},{"type":"Feature","properties":{"class":"minor","highway":"unclassified","sidewalk":"unknown","lanes":0,"name":"대장로","oneway":false},"geometry":{"type":"LineString","coordinates":[[126.7877,37.5417],[126.78731,37.54175],[126.78659,37.54182],[126.78653,37.54182],[126.78603,37.54185],[126.78591,37.54186],[126.78555,37.54187],[126.78553,37.54187],[126.78551,37.54187],[126.78498,37.54183],[126.78488,37.54182],[126.78465,37.5418],[126.78405,37.54151],[126.78384,37.54175],[126.78377,37.54183],[126.78352,37.54206],[126.78331,37.54217],[126.7832,37.54222],[126.78283,37.54259],[126.78276,37.54264],[126.78257,37.54279],[126.78212,37.5429],[126.78162,37.54306],[126.78138,37.54313],[126.78117,37.54324],[126.78085,37.54345],[126.78044,37.54378],[126.78046,37.54448]]}},{"type":"Feature","properties":{"class":"minor","highway":"unclassified","sidewalk":"unknown","lanes":0,"name":"대장로","oneway":false},"geometry":{"type":"LineString","coordinates":[[126.78465,37.5418],[126.7843,37.54183],[126.78409,37.54186],[126.78391,37.5419]]}},{"type":"Feature","properties":{"class":"minor","highway":"unclassified","sidewalk":"unknown","lanes":0,"name":"","oneway":false},"geometry":{"type":"LineString","coordinates":[[126.78405,37.54226],[126.78432,37.54219],[126.78451,37.54217]]}},{"type":"Feature","properties":{"class":"minor","highway":"unclassified","sidewalk":"unknown","lanes":0,"name":"","oneway":false},"geometry":{"type":"LineString","coordinates":[[126.78551,37.54187],[126.78561,37.54207]]}},{"type":"Feature","properties":{"class":"minor","highway":"unclassified","sidewalk":"unknown","lanes":0,"name":"","oneway":false},"geometry":{"type":"LineString","coordinates":[[126.78023,37.55755],[126.78023,37.55759]]}},{"type":"Feature","properties":{"class":"minor","highway":"unclassified","sidewalk":"unknown","lanes":0,"name":"","oneway":false},"geometry":{"type":"LineString","coordinates":[[126.78023,37.55759],[126.78057,37.55748]]}},{"type":"Feature","properties":{"class":"minor","highway":"unclassified","sidewalk":"unknown","lanes":0,"name":"","oneway":false},"geometry":{"type":"LineString","coordinates":[[126.78057,37.55748],[126.78071,37.55744]]}},{"type":"Feature","properties":{"class":"minor","highway":"unclassified","sidewalk":"unknown","lanes":0,"name":"대장로","oneway":false},"geometry":{"type":"LineString","coordinates":[[126.78818,37.54163],[126.78775,37.54169]]}},{"type":"Feature","properties":{"class":"alley","highway":"service","sidewalk":"unknown","lanes":0,"name":"","oneway":false},"geometry":{"type":"LineString","coordinates":[[126.78933,37.55888],[126.78936,37.55885],[126.79153,37.55713],[126.79364,37.55544],[126.79368,37.55541],[126.79371,37.55539],[126.79484,37.55495],[126.79489,37.55493],[126.79491,37.55491],[126.79522,37.55467],[126.79526,37.55463],[126.79528,37.55461],[126.7953,37.55459]]}},{"type":"Feature","properties":{"class":"alley","highway":"service","sidewalk":"unknown","lanes":0,"name":"","oneway":false},"geometry":{"type":"LineString","coordinates":[[126.79153,37.55713],[126.79189,37.55743]]}},{"type":"Feature","properties":{"class":"alley","highway":"service","sidewalk":"unknown","lanes":0,"name":"","oneway":false},"geometry":{"type":"LineString","coordinates":[[126.78365,37.5642],[126.78367,37.56419],[126.78368,37.56418],[126.7837,37.56416],[126.78601,37.56163],[126.78613,37.56152],[126.78894,37.55929],[126.78899,37.55925],[126.78902,37.55922],[126.78915,37.55907],[126.78933,37.55888]]}},{"type":"Feature","properties":{"class":"alley","highway":"service","sidewalk":"unknown","lanes":0,"name":"","oneway":false},"geometry":{"type":"LineString","coordinates":[[126.7953,37.55459],[126.79537,37.55433],[126.79543,37.55414],[126.79544,37.55412],[126.79545,37.5541],[126.79554,37.55401],[126.80209,37.5494],[126.80211,37.54938],[126.80213,37.54936],[126.80214,37.54934],[126.80224,37.54916],[126.80234,37.54895]]}},{"type":"Feature","properties":{"class":"alley","highway":"service","sidewalk":"unknown","lanes":0,"name":"","oneway":false},"geometry":{"type":"LineString","coordinates":[[126.79629,37.54978],[126.79634,37.54981],[126.79636,37.54982],[126.79639,37.54983],[126.79641,37.54983],[126.79645,37.54983],[126.79672,37.54985],[126.79674,37.54985],[126.79675,37.54985],[126.79676,37.54985],[126.79678,37.54984],[126.7975,37.54928]]}},{"type":"Feature","properties":{"class":"minor","highway":"residential","sidewalk":"unknown","lanes":0,"name":"오정로","oneway":false},"geometry":{"type":"LineString","coordinates":[[126.8006,37.54563],[126.79947,37.54656],[126.79886,37.5469]]}},{"type":"Feature","properties":{"class":"alley","highway":"service","sidewalk":"unknown","lanes":0,"name":"","oneway":false},"geometry":{"type":"LineString","coordinates":[[126.78577,37.55537],[126.78584,37.55544],[126.78586,37.55547],[126.78586,37.5555],[126.78585,37.55553],[126.78581,37.55557],[126.78529,37.55603]]}},{"type":"Feature","properties":{"class":"alley","highway":"service","sidewalk":"unknown","lanes":0,"name":"","oneway":false},"geometry":{"type":"LineString","coordinates":[[126.79948,37.54678],[126.79952,37.5468],[126.79956,37.54683],[126.7996,37.54686],[126.79969,37.54691],[126.79975,37.54694],[126.7998,37.54698]]}},{"type":"Feature","properties":{"class":"minor","highway":"unclassified","sidewalk":"unknown","lanes":0,"name":"","oneway":false},"geometry":{"type":"LineString","coordinates":[[126.77963,37.55481],[126.77982,37.55471],[126.78014,37.55447],[126.78049,37.55419],[126.78087,37.55389],[126.78121,37.55361],[126.78139,37.55345],[126.78151,37.55338],[126.78161,37.55333],[126.78171,37.55326],[126.7818,37.55318],[126.78189,37.5531],[126.78206,37.55297],[126.78226,37.55279],[126.78237,37.55271],[126.78247,37.55264],[126.78259,37.55257],[126.78281,37.5524],[126.78301,37.55225],[126.78314,37.55216],[126.78326,37.55204],[126.78334,37.55196],[126.78345,37.55189],[126.7836,37.5518],[126.78374,37.55174],[126.78376,37.55173],[126.78379,37.55168],[126.78386,37.55159],[126.78412,37.55138],[126.78442,37.55114],[126.78462,37.55101],[126.78481,37.55088],[126.78496,37.55078],[126.78511,37.55067],[126.78522,37.55056]]}},{"type":"Feature","properties":{"class":"minor","highway":"residential","sidewalk":"unknown","lanes":0,"name":"오정로","oneway":false},"geometry":{"type":"LineString","coordinates":[[126.80003,37.5438],[126.79997,37.54385]]}},{"type":"Feature","properties":{"class":"minor","highway":"residential","sidewalk":"unknown","lanes":0,"name":"오정로","oneway":false},"geometry":{"type":"LineString","coordinates":[[126.79997,37.54385],[126.79991,37.5439],[126.79968,37.54409],[126.79943,37.5443],[126.79927,37.54444]]}},{"type":"Feature","properties":{"class":"alley","highway":"service","sidewalk":"unknown","lanes":0,"name":"","oneway":false},"geometry":{"type":"LineString","coordinates":[[126.79886,37.5469],[126.79814,37.5473],[126.798,37.54736],[126.79784,37.54738],[126.79768,37.54736],[126.79755,37.54729],[126.79733,37.54712],[126.7972,37.54703],[126.79692,37.54688],[126.7968,37.54681],[126.79675,37.54678]]}},{"type":"Feature","properties":{"class":"alley","highway":"service","sidewalk":"unknown","lanes":0,"name":"","oneway":false},"geometry":{"type":"LineString","coordinates":[[126.7968,37.54681],[126.79676,37.54699],[126.79675,37.54707],[126.79674,37.54713],[126.79673,37.54729],[126.79672,37.54734],[126.7966,37.54743],[126.79646,37.54754],[126.79614,37.54752],[126.79595,37.54751],[126.79576,37.5475],[126.79556,37.54749],[126.79535,37.54748],[126.79517,37.54747],[126.79501,37.54746]]}},{"type":"Feature","properties":{"class":"alley","highway":"service","sidewalk":"unknown","lanes":0,"name":"","oneway":true},"geometry":{"type":"LineString","coordinates":[[126.79595,37.54751],[126.79603,37.5468]]}},{"type":"Feature","properties":{"class":"alley","highway":"service","sidewalk":"unknown","lanes":0,"name":"","oneway":true},"geometry":{"type":"LineString","coordinates":[[126.79603,37.54675],[126.79605,37.5467],[126.79609,37.54666],[126.79615,37.54664],[126.79621,37.54663],[126.79627,37.54664],[126.79632,37.54666],[126.79637,37.54669],[126.7964,37.54674],[126.7964,37.54678],[126.79639,37.54683],[126.79636,37.54687],[126.79632,37.54691],[126.79626,37.54693],[126.7962,37.54693],[126.79613,37.54692],[126.79608,37.54689],[126.79604,37.54685],[126.79603,37.5468],[126.79603,37.54675]]}},{"type":"Feature","properties":{"class":"alley","highway":"service","sidewalk":"unknown","lanes":0,"name":"","oneway":true},"geometry":{"type":"LineString","coordinates":[[126.79627,37.54664],[126.79637,37.54664],[126.79674,37.54675],[126.79675,37.54678]]}},{"type":"Feature","properties":{"class":"alley","highway":"service","sidewalk":"unknown","lanes":0,"name":"","oneway":true},"geometry":{"type":"LineString","coordinates":[[126.79675,37.54678],[126.79658,37.5468],[126.79646,37.54684],[126.7964,37.54687],[126.79632,37.54691]]}},{"type":"Feature","properties":{"class":"alley","highway":"service","sidewalk":"unknown","lanes":0,"name":"","oneway":true},"geometry":{"type":"LineString","coordinates":[[126.79646,37.54754],[126.79611,37.54783],[126.79591,37.54799],[126.7958,37.54808],[126.79575,37.54811],[126.7957,37.54812],[126.79567,37.54812],[126.79561,37.54812],[126.79553,37.5481],[126.7955,37.54807],[126.79532,37.54792],[126.79514,37.54777]]}},{"type":"Feature","properties":{"class":"alley","highway":"service","sidewalk":"unknown","lanes":0,"name":"","oneway":false},"geometry":{"type":"LineString","coordinates":[[126.79535,37.54748],[126.79532,37.54792]]}},{"type":"Feature","properties":{"class":"alley","highway":"service","sidewalk":"unknown","lanes":0,"name":"","oneway":false},"geometry":{"type":"LineString","coordinates":[[126.7955,37.54807],[126.79556,37.54749]]}},{"type":"Feature","properties":{"class":"alley","highway":"service","sidewalk":"unknown","lanes":0,"name":"","oneway":true},"geometry":{"type":"LineString","coordinates":[[126.79614,37.54752],[126.79611,37.54783]]}},{"type":"Feature","properties":{"class":"alley","highway":"service","sidewalk":"unknown","lanes":0,"name":"","oneway":false},"geometry":{"type":"LineString","coordinates":[[126.79595,37.54751],[126.79591,37.54799]]}},{"type":"Feature","properties":{"class":"alley","highway":"service","sidewalk":"unknown","lanes":0,"name":"","oneway":false},"geometry":{"type":"LineString","coordinates":[[126.7957,37.54812],[126.79576,37.5475]]}},{"type":"Feature","properties":{"class":"alley","highway":"service","sidewalk":"unknown","lanes":0,"name":"","oneway":false},"geometry":{"type":"LineString","coordinates":[[126.79517,37.54747],[126.79518,37.54735],[126.79577,37.54738],[126.79576,37.5475]]}},{"type":"Feature","properties":{"class":"alley","highway":"service","sidewalk":"unknown","lanes":0,"name":"","oneway":true},"geometry":{"type":"LineString","coordinates":[[126.79514,37.54777],[126.79517,37.54747]]}},{"type":"Feature","properties":{"class":"alley","highway":"service","sidewalk":"unknown","lanes":0,"name":"","oneway":false},"geometry":{"type":"LineString","coordinates":[[126.79676,37.54699],[126.79644,37.54697]]}},{"type":"Feature","properties":{"class":"alley","highway":"service","sidewalk":"unknown","lanes":0,"name":"","oneway":false},"geometry":{"type":"LineString","coordinates":[[126.79675,37.54707],[126.797,37.54708]]}},{"type":"Feature","properties":{"class":"alley","highway":"service","sidewalk":"unknown","lanes":0,"name":"","oneway":false},"geometry":{"type":"LineString","coordinates":[[126.79674,37.54713],[126.79617,37.5471],[126.79616,37.54726],[126.79615,37.54741],[126.79614,37.54752]]}},{"type":"Feature","properties":{"class":"alley","highway":"service","sidewalk":"unknown","lanes":0,"name":"","oneway":false},"geometry":{"type":"LineString","coordinates":[[126.79615,37.54741],[126.7966,37.54743]]}},{"type":"Feature","properties":{"class":"alley","highway":"service","sidewalk":"unknown","lanes":0,"name":"","oneway":false},"geometry":{"type":"LineString","coordinates":[[126.79673,37.54729],[126.79616,37.54726]]}},{"type":"Feature","properties":{"class":"alley","highway":"service","sidewalk":"unknown","lanes":0,"name":"","oneway":false},"geometry":{"type":"LineString","coordinates":[[126.79621,37.54663],[126.79628,37.54645],[126.79687,37.54664],[126.7968,37.54681]]}},{"type":"Feature","properties":{"class":"alley","highway":"service","sidewalk":"unknown","lanes":0,"name":"","oneway":false},"geometry":{"type":"LineString","coordinates":[[126.79628,37.54645],[126.79626,37.54639],[126.79636,37.54619],[126.79639,37.54613]]}},{"type":"Feature","properties":{"class":"alley","highway":"service","sidewalk":"unknown","lanes":0,"name":"","oneway":false},"geometry":{"type":"LineString","coordinates":[[126.79636,37.54619],[126.79617,37.54611],[126.79593,37.54596],[126.7959,37.54592],[126.79587,37.54587],[126.7958,37.54581],[126.79531,37.5456],[126.7951,37.54556],[126.79458,37.54584],[126.7942,37.54603],[126.79394,37.54613],[126.79384,37.54617],[126.7936,37.5463],[126.79347,37.5464],[126.79288,37.54708],[126.7927,37.54718],[126.79205,37.54751],[126.79202,37.54753],[126.79173,37.54768],[126.79162,37.54772],[126.79148,37.54773],[126.79141,37.54776],[126.79136,37.54784],[126.79131,37.54799],[126.79124,37.54813],[126.79116,37.5482],[126.79104,37.54841],[126.79098,37.54853],[126.79098,37.54859],[126.791,37.54867],[126.79102,37.54874],[126.79081,37.54915],[126.79072,37.54923],[126.79049,37.54971],[126.79027,37.54979],[126.79007,37.54993],[126.78987,37.55007],[126.78967,37.55018],[126.78949,37.55023],[126.78924,37.55024],[126.78899,37.55022],[126.78842,37.55015],[126.78815,37.55011],[126.78814,37.55011],[126.78795,37.55011],[126.78776,37.55013],[126.78751,37.55019],[126.78731,37.55026],[126.78714,37.55036],[126.78705,37.55045],[126.78698,37.55057],[126.78689,37.55064],[126.78667,37.55075],[126.78652,37.5508],[126.78649,37.55081],[126.78612,37.55079],[126.78604,37.55083],[126.78568,37.55107],[126.78544,37.55127],[126.78528,37.55135],[126.78509,37.55146],[126.78478,37.55173],[126.78458,37.55203],[126.78444,37.55213],[126.78396,37.55254],[126.78373,37.55275],[126.78363,37.55278],[126.7834,37.55278],[126.78331,37.55275],[126.78315,37.5527],[126.78294,37.55264],[126.78287,37.55264],[126.78279,37.55268],[126.78269,37.55279],[126.78235,37.55308],[126.78227,37.55318],[126.78214,37.55326],[126.7821,37.55332],[126.78213,37.55345],[126.78213,37.55352],[126.7821,37.55355],[126.78207,37.5536],[126.78199,37.55369],[126.78185,37.5539],[126.78146,37.55433],[126.78114,37.55463],[126.78094,37.55492],[126.78074,37.55523],[126.78081,37.5554],[126.7809,37.55553],[126.78097,37.55559],[126.78115,37.55566],[126.78129,37.55575],[126.78149,37.55581],[126.78175,37.55582],[126.78185,37.55581],[126.78206,37.55582],[126.78221,37.5558],[126.78246,37.55572],[126.78265,37.55563],[126.78277,37.55559],[126.78287,37.55559],[126.78309,37.55541],[126.78324,37.55523],[126.78328,37.55514]]}},{"type":"Feature","properties":{"class":"alley","highway":"service","sidewalk":"unknown","lanes":0,"name":"","oneway":false},"geometry":{"type":"LineString","coordinates":[[126.79531,37.5456],[126.79585,37.54499],[126.79581,37.54496],[126.79581,37.54491],[126.79585,37.54481],[126.7959,37.5447],[126.79591,37.54463],[126.79592,37.54446],[126.79593,37.54441],[126.796,37.54432],[126.79615,37.54416],[126.79623,37.54405],[126.79631,37.54389],[126.7966,37.54356],[126.79676,37.54346],[126.79687,37.54343],[126.79726,37.54341],[126.79746,37.54336],[126.79761,37.5433],[126.79775,37.54331],[126.79781,37.54335],[126.79784,37.5434],[126.79791,37.54381],[126.79811,37.54413],[126.79819,37.54423],[126.79827,37.5443],[126.79839,37.54436],[126.79857,37.54438],[126.79883,37.5444]]}},{"type":"Feature","properties":{"class":"alley","highway":"service","sidewalk":"unknown","lanes":0,"name":"","oneway":false},"geometry":{"type":"LineString","coordinates":[[126.79761,37.5433],[126.79757,37.54317],[126.79756,37.54304],[126.79754,37.54294],[126.79746,37.54287],[126.79733,37.5428],[126.79727,37.54274],[126.79724,37.5427],[126.79719,37.54269],[126.79712,37.54269],[126.79706,37.54272],[126.79692,37.54286],[126.79677,37.54296],[126.79632,37.54321],[126.79612,37.54327],[126.79598,37.54336],[126.79582,37.54342],[126.79577,37.54345],[126.79559,37.54361],[126.79539,37.54373],[126.79532,37.54378],[126.7952,37.54391],[126.79498,37.54406],[126.79494,37.54411],[126.79493,37.54417],[126.79491,37.54427],[126.79488,37.54434],[126.79473,37.5445],[126.7945,37.54464],[126.79444,37.54474],[126.79443,37.54487],[126.79445,37.54502],[126.79475,37.54525],[126.79495,37.5454],[126.7951,37.54556]]}},{"type":"Feature","properties":{"class":"alley","highway":"service","sidewalk":"unknown","lanes":0,"name":"","oneway":false},"geometry":{"type":"LineString","coordinates":[[126.79475,37.54525],[126.79462,37.54538],[126.79448,37.54561],[126.79439,37.54569],[126.79417,37.54584],[126.79411,37.54589],[126.79403,37.546],[126.79394,37.54613]]}},{"type":"Feature","properties":{"class":"alley","highway":"service","sidewalk":"unknown","lanes":0,"name":"","oneway":false},"geometry":{"type":"LineString","coordinates":[[126.7945,37.54464],[126.79449,37.54458],[126.7945,37.54445],[126.79448,37.54441],[126.79443,37.54437],[126.79437,37.54437],[126.79432,37.54439],[126.79426,37.54445],[126.79414,37.54458],[126.79368,37.54484],[126.79339,37.54497],[126.79318,37.54508],[126.79261,37.54551],[126.79239,37.54568],[126.79228,37.54572],[126.79214,37.54575],[126.79204,37.54582],[126.79196,37.54592],[126.79192,37.54606],[126.79187,37.54613],[126.79172,37.54623],[126.79134,37.54657],[126.79126,37.54661],[126.79115,37.54661],[126.79103,37.54661],[126.79097,37.54662],[126.79085,37.54667],[126.79067,37.5468],[126.79037,37.54713],[126.79008,37.54738],[126.78986,37.54753],[126.7897,37.54765],[126.78957,37.5477],[126.78949,37.54777],[126.7894,37.54794],[126.78923,37.54818],[126.78909,37.54835],[126.78861,37.54879],[126.78849,37.54893],[126.78832,37.54914],[126.78813,37.54933],[126.78802,37.54944],[126.78792,37.54954],[126.78788,37.54956],[126.78766,37.54958],[126.78741,37.54957],[126.78713,37.54958],[126.78706,37.54957],[126.78697,37.54955],[126.7869,37.54955],[126.78685,37.54957],[126.78655,37.54982],[126.78652,37.54987],[126.78652,37.55002],[126.78651,37.55007],[126.78648,37.55015],[126.78635,37.55041],[126.78621,37.5506],[126.78614,37.55072],[126.78612,37.55079]]}},{"type":"Feature","properties":{"class":"alley","highway":"service","sidewalk":"unknown","lanes":0,"name":"","oneway":false},"geometry":{"type":"LineString","coordinates":[[126.79205,37.54751],[126.79201,37.54771],[126.79199,37.54778],[126.79194,37.54786],[126.79181,37.54803],[126.79174,37.54813],[126.79167,37.54818],[126.79149,37.54831],[126.7914,37.54839],[126.79137,37.54844],[126.79133,37.54851],[126.79132,37.54858],[126.79132,37.54867],[126.79135,37.54876],[126.79138,37.54883],[126.79137,37.5489],[126.79134,37.54898],[126.79125,37.5491],[126.79115,37.54919],[126.7911,37.54927],[126.79099,37.54937],[126.79086,37.54953],[126.79079,37.54959],[126.7907,37.54968],[126.79065,37.5497],[126.79049,37.54971]]}},{"type":"Feature","properties":{"class":"alley","highway":"service","sidewalk":"unknown","lanes":0,"name":"","oneway":false},"geometry":{"type":"LineString","coordinates":[[126.78652,37.5508],[126.78663,37.55099],[126.78664,37.55104],[126.78663,37.55108],[126.78659,37.55118],[126.78644,37.55135],[126.78641,37.55139],[126.78635,37.55153],[126.78632,37.55165],[126.78629,37.55171],[126.7862,37.55179],[126.78607,37.55188],[126.78595,37.55195],[126.78588,37.55201],[126.78573,37.55209],[126.78559,37.55225],[126.78552,37.5523],[126.78543,37.55233]]}},{"type":"Feature","properties":{"class":"alley","highway":"service","sidewalk":"unknown","lanes":0,"name":"","oneway":false},"geometry":{"type":"LineString","coordinates":[[126.78458,37.55203],[126.7847,37.55205],[126.78481,37.55204],[126.78499,37.55197],[126.78506,37.55197],[126.78511,37.55199],[126.78517,37.55206],[126.7852,37.55212],[126.78543,37.55233],[126.78543,37.55241],[126.78549,37.5525],[126.78559,37.55258],[126.78574,37.55265]]}},{"type":"Feature","properties":{"class":"alley","highway":"service","sidewalk":"unknown","lanes":0,"name":"","oneway":false},"geometry":{"type":"LineString","coordinates":[[126.79883,37.5444],[126.79961,37.5445]]}},{"type":"Feature","properties":{"class":"alley","highway":"service","sidewalk":"unknown","lanes":0,"name":"","oneway":false},"geometry":{"type":"LineString","coordinates":[[126.79961,37.5445],[126.79993,37.54438],[126.80003,37.54439],[126.80013,37.54439],[126.80023,37.54435],[126.8004,37.54424],[126.80057,37.54413],[126.80064,37.54411],[126.80085,37.54419],[126.80095,37.54424],[126.80099,37.54426],[126.80118,37.54443],[126.80123,37.54451],[126.80131,37.54464],[126.80136,37.54465],[126.80145,37.54462],[126.80153,37.54456],[126.802,37.54404],[126.80203,37.54395],[126.80205,37.54389],[126.80213,37.54375],[126.80217,37.54366],[126.80216,37.5436],[126.80216,37.54355],[126.80211,37.54351],[126.80204,37.54348],[126.80192,37.54346],[126.80178,37.54345],[126.80171,37.54343],[126.8016,37.54337],[126.8015,37.54327],[126.8015,37.54318],[126.80153,37.54308],[126.80187,37.54268],[126.80202,37.54244],[126.80204,37.54231],[126.80209,37.54225],[126.8022,37.54221],[126.80239,37.54224],[126.80249,37.5423],[126.80271,37.54237],[126.8029,37.54248],[126.80297,37.5425],[126.80311,37.5425],[126.80317,37.54246]]}},{"type":"Feature","properties":{"class":"alley","highway":"service","sidewalk":"unknown","lanes":0,"name":"","oneway":false},"geometry":{"type":"LineString","coordinates":[[126.7959,37.54592],[126.7959,37.54609],[126.7958,37.5463],[126.7957,37.54637],[126.79565,37.54648],[126.79552,37.54655],[126.79538,37.54666],[126.79516,37.54683],[126.7949,37.54703],[126.79446,37.54738],[126.79425,37.54758],[126.79417,37.54768],[126.7941,37.5478],[126.79405,37.54791],[126.79393,37.54806],[126.79389,37.54812],[126.79384,37.54818],[126.7938,37.54831],[126.79375,37.54841],[126.79344,37.54872],[126.79329,37.5488],[126.79319,37.54886],[126.79304,37.549],[126.79295,37.54909],[126.79282,37.54914],[126.79276,37.54912],[126.79272,37.54906],[126.79271,37.549],[126.79271,37.54893],[126.79275,37.54887],[126.79286,37.54871],[126.79287,37.54863],[126.79285,37.54853],[126.79283,37.54847],[126.7928,37.54842],[126.79272,37.5484],[126.79265,37.54839],[126.79258,37.54841],[126.79247,37.54846],[126.7924,37.54854],[126.7923,37.54871],[126.79219,37.54881],[126.79199,37.54897],[126.7919,37.54909],[126.79178,37.54936],[126.79173,37.54944],[126.79154,37.54967],[126.79106,37.55011],[126.79094,37.55019],[126.79046,37.55048],[126.79035,37.55055],[126.79027,37.55061],[126.79017,37.55069],[126.78999,37.55076],[126.78961,37.55095],[126.78939,37.55102],[126.78919,37.55112]]}},{"type":"Feature","properties":{"class":"alley","highway":"service","sidewalk":"unknown","lanes":0,"name":"","oneway":false},"geometry":{"type":"LineString","coordinates":[[126.78815,37.55011],[126.78802,37.55023],[126.78796,37.55037],[126.78797,37.55053],[126.78799,37.55067],[126.78817,37.55078],[126.78826,37.55078],[126.78858,37.55081],[126.78867,37.55082],[126.78875,37.55088],[126.78895,37.55104],[126.78919,37.55112],[126.78943,37.55125],[126.78955,37.55136]]}},{"type":"Feature","properties":{"class":"alley","highway":"service","sidewalk":"unknown","lanes":0,"name":"","oneway":false},"geometry":{"type":"LineString","coordinates":[[126.78799,37.55067],[126.78789,37.55075],[126.78778,37.55095],[126.78766,37.55124],[126.78763,37.55143],[126.78752,37.55154],[126.78737,37.55164],[126.78732,37.55173],[126.78736,37.55202],[126.7873,37.55223],[126.78726,37.55235],[126.7873,37.55256],[126.78725,37.55264],[126.78687,37.55302],[126.78681,37.55313],[126.78669,37.5533],[126.78653,37.55344],[126.78648,37.55347],[126.78629,37.55346],[126.78616,37.55342],[126.78595,37.55333],[126.78587,37.55327],[126.7858,37.55317],[126.78576,37.55307],[126.78572,37.5529],[126.78571,37.55279],[126.78573,37.5527],[126.78574,37.55265],[126.78589,37.5525],[126.78594,37.55243],[126.78596,37.55233],[126.78598,37.55224],[126.78603,37.55217],[126.78608,37.55213],[126.78615,37.5521],[126.78622,37.55209],[126.78627,37.55209],[126.78638,37.55211],[126.7865,37.55213],[126.78656,37.55213],[126.78663,37.55211],[126.78672,37.55208],[126.78678,37.55203],[126.78686,37.55193],[126.78695,37.55182],[126.78709,37.5517],[126.78721,37.55159],[126.78727,37.55152],[126.78736,37.55136],[126.78745,37.55123],[126.7875,37.55109],[126.78757,37.55096],[126.78769,37.55084],[126.78776,37.55078],[126.78782,37.55076],[126.78789,37.55075]]}},{"type":"Feature","properties":{"class":"alley","highway":"service","sidewalk":"unknown","lanes":0,"name":"","oneway":false},"geometry":{"type":"LineString","coordinates":[[126.78287,37.55559],[126.78286,37.55567],[126.78283,37.55582],[126.78281,37.55598],[126.78268,37.55607],[126.78258,37.55615],[126.78255,37.5562],[126.78255,37.55626],[126.78257,37.5563],[126.78261,37.55631],[126.78267,37.5563],[126.78273,37.55623],[126.78289,37.55604],[126.78302,37.55595],[126.78313,37.55582],[126.7832,37.55576],[126.78326,37.55572],[126.78336,37.5556],[126.78354,37.55544],[126.78363,37.5554],[126.78394,37.55531],[126.78413,37.55523],[126.78441,37.55505],[126.78453,37.55499],[126.78468,37.55491],[126.78483,37.55485],[126.78503,37.55481],[126.78528,37.55455],[126.78534,37.55449],[126.78537,37.55439],[126.7854,37.55429],[126.78545,37.55425],[126.78559,37.5542],[126.78572,37.55417],[126.78592,37.554],[126.78605,37.55399],[126.78633,37.55408],[126.78647,37.55419],[126.7865,37.55427],[126.78651,37.55438],[126.78656,37.55444],[126.78665,37.5545]]}},{"type":"Feature","properties":{"class":"alley","highway":"service","sidewalk":"unknown","lanes":0,"name":"","oneway":false},"geometry":{"type":"LineString","coordinates":[[126.78281,37.55598],[126.78289,37.55604]]}},{"type":"Feature","properties":{"class":"alley","highway":"service","sidewalk":"unknown","lanes":0,"name":"","oneway":false},"geometry":{"type":"LineString","coordinates":[[126.78074,37.55523],[126.78056,37.55533],[126.78049,37.55537],[126.78035,37.55536],[126.78021,37.55533],[126.78012,37.55534],[126.78007,37.55536],[126.78004,37.55542],[126.78006,37.55548],[126.78017,37.55558],[126.78048,37.55579],[126.78052,37.55586],[126.78054,37.55595],[126.78066,37.5561],[126.78079,37.55617],[126.78095,37.55624],[126.78133,37.55654],[126.78155,37.55668],[126.78178,37.5569],[126.78187,37.55699],[126.78187,37.55709],[126.78174,37.55745],[126.78151,37.5576],[126.78146,37.55769],[126.78147,37.55778],[126.7815,37.55787],[126.78163,37.55798],[126.78171,37.55807],[126.78177,37.5581],[126.78186,37.55809],[126.78193,37.55804],[126.78224,37.55774],[126.78248,37.55757],[126.78268,37.55743],[126.78276,37.55734],[126.78289,37.55724],[126.78293,37.55712],[126.78297,37.55706],[126.78301,37.55696],[126.78301,37.55689],[126.78299,37.55679],[126.78284,37.55657],[126.78283,37.55653],[126.78285,37.55635],[126.78289,37.55624],[126.78297,37.55619],[126.78311,37.55619],[126.78325,37.55621],[126.78349,37.55632],[126.78359,37.55635],[126.7837,37.55635],[126.78381,37.55631],[126.78394,37.55619],[126.78402,37.55611],[126.78419,37.55595],[126.78423,37.55589],[126.78429,37.55579],[126.78442,37.55567],[126.78452,37.55557],[126.78471,37.55542],[126.78483,37.55532],[126.7849,37.55524],[126.78498,37.55512],[126.78503,37.55504],[126.78505,37.55497],[126.78503,37.55481]]}},{"type":"Feature","properties":{"class":"alley","highway":"service","sidewalk":"unknown","lanes":0,"name":"","oneway":false},"geometry":{"type":"LineString","coordinates":[[126.78648,37.55347],[126.78657,37.55359],[126.78667,37.55366],[126.78675,37.55368],[126.78696,37.55367]]}},{"type":"Feature","properties":{"class":"alley","highway":"service","sidewalk":"unknown","lanes":0,"name":"","oneway":false},"geometry":{"type":"LineString","coordinates":[[126.78331,37.55275],[126.78311,37.55295],[126.78281,37.55331],[126.78271,37.55335],[126.78257,37.55335],[126.78248,37.55342],[126.78231,37.55354],[126.78223,37.55356],[126.7821,37.55355]]}},{"type":"Feature","properties":{"class":"alley","highway":"service","sidewalk":"unknown","lanes":0,"name":"","oneway":false},"geometry":{"type":"LineString","coordinates":[[126.78173,37.56012],[126.78168,37.56026],[126.78183,37.56039],[126.78199,37.56042],[126.78244,37.56042],[126.78288,37.56006],[126.7831,37.55989],[126.78355,37.55953],[126.78359,37.55946],[126.78359,37.5594],[126.78355,37.55931],[126.78343,37.55922],[126.78223,37.55828],[126.78298,37.55767],[126.78334,37.55738],[126.7839,37.55693]]}},{"type":"Feature","properties":{"class":"alley","highway":"service","sidewalk":"unknown","lanes":0,"name":"","oneway":false},"geometry":{"type":"LineString","coordinates":[[126.78528,37.55717],[126.78486,37.55685],[126.7843,37.5564],[126.78421,37.55639],[126.78373,37.55679],[126.78342,37.55705],[126.78335,37.55721],[126.78334,37.55738],[126.78379,37.55772],[126.78421,37.55804],[126.78429,37.5581]]}},{"type":"Feature","properties":{"class":"alley","highway":"service","sidewalk":"unknown","lanes":0,"name":"","oneway":false},"geometry":{"type":"LineString","coordinates":[[126.78379,37.55772],[126.78436,37.55726],[126.78486,37.55685]]}},{"type":"Feature","properties":{"class":"alley","highway":"service","sidewalk":"unknown","lanes":0,"name":"","oneway":false},"geometry":{"type":"LineString","coordinates":[[126.78373,37.55679],[126.7839,37.55693],[126.78436,37.55726],[126.78477,37.55758]]}},{"type":"Feature","properties":{"class":"alley","highway":"service","sidewalk":"unknown","lanes":0,"name":"","oneway":false},"geometry":{"type":"LineString","coordinates":[[126.78421,37.55804],[126.78477,37.55758],[126.78528,37.55717],[126.78579,37.55677],[126.78593,37.55675]]}},{"type":"Feature","properties":{"class":"alley","highway":"service","sidewalk":"unknown","lanes":0,"name":"","oneway":false},"geometry":{"type":"LineString","coordinates":[[126.78593,37.55675],[126.78585,37.55686],[126.78429,37.5581]]}},{"type":"Feature","properties":{"class":"alley","highway":"service","sidewalk":"unknown","lanes":0,"name":"","oneway":false},"geometry":{"type":"LineString","coordinates":[[126.78593,37.55675],[126.78598,37.5567]]}},{"type":"Feature","properties":{"class":"alley","highway":"service","sidewalk":"unknown","lanes":0,"name":"","oneway":false},"geometry":{"type":"LineString","coordinates":[[126.78288,37.56006],[126.7825,37.55977]]}},{"type":"Feature","properties":{"class":"alley","highway":"service","sidewalk":"unknown","lanes":0,"name":"","oneway":false},"geometry":{"type":"LineString","coordinates":[[126.7825,37.55977],[126.78244,37.55973],[126.78212,37.55949],[126.78225,37.55938],[126.78226,37.55938],[126.78258,37.55961],[126.78244,37.55973]]}},{"type":"Feature","properties":{"class":"alley","highway":"service","sidewalk":"unknown","lanes":0,"name":"","oneway":false},"geometry":{"type":"LineString","coordinates":[[126.80125,37.54223],[126.80109,37.54195],[126.80112,37.5418],[126.80092,37.54145],[126.80084,37.54128],[126.80073,37.54116],[126.80048,37.54104],[126.80014,37.54091],[126.80002,37.54087],[126.79903,37.54059],[126.79872,37.54053],[126.79848,37.54055],[126.79818,37.54064],[126.79766,37.54087],[126.79743,37.54094],[126.79713,37.54103],[126.79651,37.54125],[126.79631,37.54134],[126.79584,37.54156],[126.79546,37.54188],[126.79542,37.54205],[126.79549,37.54234],[126.79564,37.54249],[126.79583,37.54258],[126.79612,37.54263],[126.79633,37.54259],[126.79653,37.54246],[126.79675,37.54228],[126.7969,37.54218],[126.79699,37.54215],[126.79729,37.54211],[126.79747,37.54207],[126.79755,37.54205],[126.79863,37.54166],[126.79891,37.54157],[126.7996,37.54182],[126.79969,37.54185],[126.80033,37.54208]]}},{"type":"Feature","properties":{"class":"alley","highway":"service","sidewalk":"unknown","lanes":0,"name":"","oneway":false},"geometry":{"type":"LineString","coordinates":[[126.80109,37.54195],[126.80049,37.54205],[126.80033,37.54208],[126.79959,37.54214],[126.79954,37.54215],[126.79833,37.5426],[126.79833,37.54264],[126.79848,37.54288],[126.79942,37.54254],[126.79954,37.54273]]}},{"type":"Feature","properties":{"class":"alley","highway":"service","sidewalk":"unknown","lanes":0,"name":"","oneway":false},"geometry":{"type":"LineString","coordinates":[[126.79959,37.54214],[126.7996,37.54182]]}},{"type":"Feature","properties":{"class":"alley","highway":"service","sidewalk":"unknown","lanes":0,"name":"","oneway":false},"geometry":{"type":"LineString","coordinates":[[126.80125,37.54223],[126.80131,37.54247],[126.80129,37.54255],[126.80115,37.54271],[126.8006,37.54314],[126.80005,37.54353],[126.7999,37.54362],[126.79948,37.54383],[126.79906,37.54396],[126.79895,37.54397],[126.79884,37.54391],[126.79873,37.54375],[126.79867,37.54353],[126.79863,37.54334],[126.79825,37.54276],[126.79802,37.54248],[126.7977,37.54224],[126.79747,37.54207]]}},{"type":"Feature","properties":{"class":"alley","highway":"service","sidewalk":"unknown","lanes":0,"name":"","oneway":false},"geometry":{"type":"LineString","coordinates":[[126.7969,37.54218],[126.7968,37.54212],[126.79669,37.54196],[126.79631,37.54134]]}},{"type":"Feature","properties":{"class":"alley","highway":"service","sidewalk":"unknown","lanes":0,"name":"","oneway":false},"geometry":{"type":"LineString","coordinates":[[126.79969,37.54185],[126.80014,37.54091]]}},{"type":"Feature","properties":{"class":"alley","highway":"service","sidewalk":"unknown","lanes":0,"name":"","oneway":false},"geometry":{"type":"LineString","coordinates":[[126.79629,37.54811],[126.79667,37.5484],[126.79711,37.54805]]}},{"type":"Feature","properties":{"class":"alley","highway":"service","sidewalk":"unknown","lanes":0,"name":"","oneway":false},"geometry":{"type":"LineString","coordinates":[[126.79695,37.54926],[126.79591,37.54842],[126.79629,37.54811],[126.79679,37.54771]]}},{"type":"Feature","properties":{"class":"minor","highway":"unclassified","sidewalk":"unknown","lanes":0,"name":"대장로118번길","oneway":false},"geometry":{"type":"LineString","coordinates":[[126.78818,37.54165],[126.7882,37.54173]]}},{"type":"Feature","properties":{"class":"minor","highway":"unclassified","sidewalk":"unknown","lanes":0,"name":"대장로118번길","oneway":false},"geometry":{"type":"LineString","coordinates":[[126.78818,37.54163],[126.78818,37.54165]]}},{"type":"Feature","properties":{"class":"minor","highway":"unclassified","sidewalk":"unknown","lanes":0,"name":"대장로","oneway":false},"geometry":{"type":"LineString","coordinates":[[126.78775,37.54169],[126.78773,37.54169],[126.7877,37.5417]]}},{"type":"Feature","properties":{"class":"alley","highway":"service","sidewalk":"unknown","lanes":0,"name":"","oneway":false},"geometry":{"type":"LineString","coordinates":[[126.79042,37.55176],[126.79061,37.55192],[126.79071,37.55199],[126.79095,37.55181]]}},{"type":"Feature","properties":{"class":"alley","highway":"service","sidewalk":"unknown","lanes":0,"name":"","oneway":false},"geometry":{"type":"LineString","coordinates":[[126.79061,37.55192],[126.79084,37.55173]]}}]}