{"type":"FeatureCollection","features":[{"type":"Feature","properties":{"class":"major","highway":"tertiary","sidewalk":"likely","lanes":0,"name":"토평강변로","oneway":true},"geometry":{"type":"LineString","coordinates":[[127.11947,37.56937],[127.11958,37.56934],[127.1198,37.56939],[127.12057,37.5697],[127.12093,37.56985],[127.12258,37.57056],[127.12333,37.57086],[127.12365,37.57099]]}},{"type":"Feature","properties":{"class":"major","highway":"secondary","sidewalk":"likely","lanes":2,"name":"사가정로","oneway":true},"geometry":{"type":"LineString","coordinates":[[127.12337,37.5768],[127.12235,37.57717],[127.12132,37.57744],[127.11952,37.57778],[127.11329,37.57869],[127.10443,37.58001],[127.10113,37.58029],[127.09794,37.5805],[127.0949,37.58051],[127.09339,37.58055]]}},{"type":"Feature","properties":{"class":"major","highway":"trunk","sidewalk":"likely","lanes":3,"name":"강변북로","oneway":true},"geometry":{"type":"LineString","coordinates":[[127.12281,37.56916],[127.1221,37.5686],[127.12143,37.56803],[127.12088,37.56749],[127.12049,37.56711],[127.12015,37.56678],[127.11978,37.56638],[127.11919,37.56571]]}},{"type":"Feature","properties":{"class":"alley","highway":"service","sidewalk":"unknown","lanes":0,"name":"","oneway":false},"geometry":{"type":"LineString","coordinates":[[127.11289,37.57569],[127.11285,37.57555],[127.11238,37.57569]]}},{"type":"Feature","properties":{"class":"major","highway":"tertiary","sidewalk":"yes","lanes":2,"name":"아치울길","oneway":false},"geometry":{"type":"LineString","coordinates":[[127.12214,37.57358],[127.12202,37.57361],[127.12191,37.57364],[127.12184,37.57365],[127.12137,37.57375],[127.12061,37.57408],[127.12016,37.57426],[127.11978,37.57442],[127.11972,37.57445],[127.11913,37.5747],[127.11882,37.57482],[127.11842,37.57499],[127.11833,37.57502],[127.11787,37.57515],[127.11725,37.57515],[127.11674,37.57526],[127.11647,37.57549],[127.11633,37.5758],[127.1162,37.57593],[127.11565,37.57618]]}},{"type":"Feature","properties":{"class":"minor","highway":"residential","sidewalk":"unknown","lanes":0,"name":"","oneway":false},"geometry":{"type":"LineString","coordinates":[[127.11306,37.57565],[127.11319,37.57592],[127.11331,37.57618]]}},{"type":"Feature","properties":{"class":"minor","highway":"unclassified","sidewalk":"unknown","lanes":0,"name":"","oneway":false},"geometry":{"type":"LineString","coordinates":[[127.11838,37.56849],[127.11821,37.56854],[127.11803,37.56874],[127.11738,37.56893],[127.11731,37.56883],[127.11734,37.56874],[127.11758,37.5683],[127.11774,37.56823],[127.11813,37.56829]]}},{"type":"Feature","properties":{"class":"alley","highway":"service","sidewalk":"unknown","lanes":0,"name":"","oneway":false},"geometry":{"type":"LineString","coordinates":[[127.11849,37.56847],[127.11912,37.5682],[127.11969,37.56815],[127.11992,37.56808],[127.12044,37.56756],[127.12062,37.56754],[127.12147,37.56827]]}},{"type":"Feature","properties":{"class":"alley","highway":"service","sidewalk":"unknown","lanes":0,"name":"","oneway":false},"geometry":{"type":"LineString","coordinates":[[127.11696,37.56708],[127.11668,37.5673]]}},{"type":"Feature","properties":{"class":"alley","highway":"service","sidewalk":"unknown","lanes":0,"name":"","oneway":false},"geometry":{"type":"LineString","coordinates":[[127.11619,37.56716],[127.11648,37.56715],[127.11668,37.5673],[127.11705,37.56758]]}},{"type":"Feature","properties":{"class":"minor","highway":"unclassified","sidewalk":"unknown","lanes":0,"name":"","oneway":false},"geometry":{"type":"LineString","coordinates":[[127.11734,37.56874],[127.11696,37.56896],[127.11669,37.56911],[127.11677,37.56928],[127.11684,37.5696],[127.1166,37.56997],[127.11621,37.5701],[127.11599,37.57036],[127.11581,37.57068],[127.11558,37.57086],[127.11537,37.57098],[127.11504,37.57097],[127.11457,37.57048],[127.11461,37.57016],[127.11482,37.5699],[127.11526,37.56971],[127.11568,37.56951],[127.11583,37.56941],[127.11627,37.56929],[127.11669,37.56911]]}},{"type":"Feature","properties":{"class":"alley","highway":"service","sidewalk":"unknown","lanes":0,"name":"","oneway":false},"geometry":{"type":"LineString","coordinates":[[127.11311,37.56043],[127.11265,37.56032],[127.11254,37.56026],[127.11253,37.56014],[127.11207,37.56002],[127.11196,37.5599],[127.11169,37.55973],[127.11135,37.55929],[127.11115,37.55919],[127.11029,37.55878]]}},{"type":"Feature","properties":{"class":"minor","highway":"unclassified","sidewalk":"unknown","lanes":0,"name":"우미내길","oneway":false},"geometry":{"type":"LineString","coordinates":[[127.11096,37.5609],[127.11137,37.5611],[127.11203,37.5616],[127.11261,37.56181],[127.11285,37.56209]]}},{"type":"Feature","properties":{"class":"alley","highway":"service","sidewalk":"unknown","lanes":0,"name":"","oneway":false},"geometry":{"type":"LineString","coordinates":[[127.11069,37.5615],[127.11033,37.56111],[127.11034,37.56103],[127.11038,37.56101],[127.11047,37.56097],[127.11096,37.5609]]}},{"type":"Feature","properties":{"class":"minor","highway":"unclassified","sidewalk":"unknown","lanes":0,"name":"","oneway":false},"geometry":{"type":"LineString","coordinates":[[127.11285,37.56209],[127.11225,37.56203],[127.11206,37.56199]]}},{"type":"Feature","properties":{"class":"alley","highway":"service","sidewalk":"unknown","lanes":0,"name":"","oneway":false},"geometry":{"type":"LineString","coordinates":[[127.1129,37.55974],[127.11292,37.55989],[127.11308,37.5601],[127.11329,37.56019],[127.11341,37.56019]]}},{"type":"Feature","properties":{"class":"minor","highway":"unclassified","sidewalk":"unknown","lanes":0,"name":"","oneway":false},"geometry":{"type":"LineString","coordinates":[[127.11684,37.56677],[127.11738,37.56656],[127.11785,37.56731]]}},{"type":"Feature","properties":{"class":"minor","highway":"residential","sidewalk":"unknown","lanes":0,"name":"","oneway":false},"geometry":{"type":"LineString","coordinates":[[127.11535,37.57617],[127.1153,37.57581],[127.11527,37.57556],[127.11522,37.57552],[127.11454,37.57554],[127.11457,37.57582],[127.11378,37.57581],[127.11361,37.57581],[127.11319,37.57592],[127.11257,37.5761],[127.11205,37.57623]]}},{"type":"Feature","properties":{"class":"minor","highway":"residential","sidewalk":"unknown","lanes":0,"name":"","oneway":false},"geometry":{"type":"LineString","coordinates":[[127.11457,37.57582],[127.11458,37.57618]]}},{"type":"Feature","properties":{"class":"minor","highway":"residential","sidewalk":"unknown","lanes":0,"name":"","oneway":false},"geometry":{"type":"LineString","coordinates":[[127.11457,37.57582],[127.1153,37.57581]]}},{"type":"Feature","properties":{"class":"minor","highway":"residential","sidewalk":"unknown","lanes":0,"name":"","oneway":false},"geometry":{"type":"LineString","coordinates":[[127.11454,37.57554],[127.11414,37.57553]]}},{"type":"Feature","properties":{"class":"minor","highway":"residential","sidewalk":"unknown","lanes":0,"name":"","oneway":false},"geometry":{"type":"LineString","coordinates":[[127.11522,37.57552],[127.11495,37.5753]]}},{"type":"Feature","properties":{"class":"minor","highway":"residential","sidewalk":"unknown","lanes":0,"name":"","oneway":false},"geometry":{"type":"LineString","coordinates":[[127.11725,37.57515],[127.11721,37.57521],[127.11717,37.57535],[127.1172,37.5755],[127.11718,37.57566],[127.11712,37.57588],[127.11709,37.576],[127.11706,37.5762],[127.11701,37.57635]]}},{"type":"Feature","properties":{"class":"minor","highway":"residential","sidewalk":"unknown","lanes":0,"name":"아치울길3번길","oneway":false},"geometry":{"type":"LineString","coordinates":[[127.12137,37.57375],[127.12126,37.57364],[127.12104,37.57355],[127.12094,37.5735],[127.12063,37.57329],[127.12035,37.57313],[127.12029,37.57309],[127.12011,37.57307],[127.11993,37.57305],[127.11972,37.57316],[127.1195,37.57327],[127.11933,37.57341],[127.11916,37.57361],[127.11896,37.57389],[127.11883,37.574],[127.11842,37.57427]]}},{"type":"Feature","properties":{"class":"minor","highway":"residential","sidewalk":"unknown","lanes":0,"name":"아치울길3번길","oneway":false},"geometry":{"type":"LineString","coordinates":[[127.11842,37.57427],[127.1182,37.57429],[127.11814,37.57429],[127.11752,37.57435],[127.11744,37.57428],[127.11738,37.57418],[127.11737,37.5741],[127.11741,37.57404],[127.11795,37.57346],[127.11801,37.57337],[127.1175,37.57311],[127.11715,37.57291]]}},{"type":"Feature","properties":{"class":"minor","highway":"unclassified","sidewalk":"unknown","lanes":0,"name":"","oneway":false},"geometry":{"type":"LineString","coordinates":[[127.11993,37.57305],[127.11959,37.57295],[127.11918,37.57297],[127.11889,37.57294]]}},{"type":"Feature","properties":{"class":"minor","highway":"unclassified","sidewalk":"unknown","lanes":0,"name":"","oneway":false},"geometry":{"type":"LineString","coordinates":[[127.121,37.57176],[127.12087,37.5718],[127.12086,37.57188],[127.1209,37.57229],[127.12083,37.57231],[127.1207,37.57228],[127.12019,37.5721],[127.12002,37.57204],[127.11994,37.57198],[127.11975,37.57182],[127.1197,37.57181],[127.11962,37.57181]]}},{"type":"Feature","properties":{"class":"major","highway":"primary","sidewalk":"yes","lanes":3,"name":"아차산로","oneway":true},"geometry":{"type":"LineString","coordinates":[[127.11474,37.561],[127.11476,37.5612],[127.1149,37.56203],[127.11497,37.56243],[127.11503,37.56282],[127.1152,37.56384],[127.11527,37.56415],[127.11532,37.5643],[127.11536,37.56439],[127.11547,37.5646],[127.11553,37.56472],[127.11571,37.56506],[127.11607,37.5656],[127.11667,37.56652],[127.11684,37.56677],[127.11703,37.56701],[127.11732,37.56737],[127.1177,37.56775],[127.11828,37.56828],[127.11849,37.56847],[127.11873,37.56869],[127.11912,37.56904],[127.11933,37.56923],[127.11947,37.56937],[127.1196,37.56947],[127.11981,37.5697],[127.12,37.56992],[127.12009,37.57004],[127.12022,37.57022],[127.12055,37.57072],[127.1209,37.57133],[127.12135,37.57213],[127.12182,37.57302],[127.122,37.57334],[127.12204,37.5734],[127.12214,37.57358],[127.12222,37.57371],[127.12245,37.57417],[127.12279,37.57472],[127.12315,37.57519],[127.12363,37.57571],[127.1238,37.57588],[127.12393,37.57601]]}},{"type":"Feature","properties":{"class":"major","highway":"tertiary","sidewalk":"likely","lanes":0,"name":"토평강변로","oneway":true},"geometry":{"type":"LineString","coordinates":[[127.12379,37.57113],[127.12342,37.57098],[127.12072,37.56985],[127.12052,37.56977],[127.12004,37.56957],[127.11968,37.56943],[127.11958,37.56938],[127.11947,37.56937]]}},{"type":"Feature","properties":{"class":"major","highway":"tertiary","sidewalk":"likely","lanes":0,"name":"","oneway":false},"geometry":{"type":"LineString","coordinates":[[127.11947,37.56937],[127.11937,37.56942]]}},{"type":"Feature","properties":{"class":"major","highway":"primary_link","sidewalk":"likely","lanes":0,"name":"","oneway":true},"geometry":{"type":"LineString","coordinates":[[127.11912,37.56904],[127.11948,37.56922],[127.1198,37.56939]]}},{"type":"Feature","properties":{"class":"major","highway":"secondary","sidewalk":"likely","lanes":2,"name":"사가정로","oneway":true},"geometry":{"type":"LineString","coordinates":[[127.09294,37.5805],[127.09344,37.5805],[127.09447,37.58047],[127.09587,37.58044],[127.09805,37.58043],[127.09892,37.58037],[127.10154,37.5802],[127.10235,37.58013],[127.10291,37.58008],[127.10446,37.57994],[127.10524,37.57982],[127.10725,37.57951],[127.10973,37.57915],[127.11211,37.57878],[127.11301,37.57865],[127.11446,37.57844],[127.11625,37.57817],[127.11743,37.57799],[127.11886,37.57777],[127.11954,37.57767],[127.12032,37.57752],[127.12122,37.57732],[127.12212,37.57704],[127.1233,37.57659]]}},{"type":"Feature","properties":{"class":"minor","highway":"unclassified","sidewalk":"unknown","lanes":0,"name":"","oneway":false},"geometry":{"type":"LineString","coordinates":[[127.11909,37.56574],[127.11763,37.56409],[127.11611,37.56236],[127.11588,37.56208],[127.11511,37.56132]]}},{"type":"Feature","properties":{"class":"major","highway":"trunk","sidewalk":"likely","lanes":3,"name":"강변북로","oneway":true},"geometry":{"type":"LineString","coordinates":[[127.11423,37.55775],[127.11487,37.55905],[127.11603,37.5614],[127.11655,37.56227],[127.11693,37.56283],[127.11736,37.56338],[127.11773,37.56382],[127.11853,37.56475],[127.11935,37.56568]]}},{"type":"Feature","properties":{"class":"major","highway":"trunk","sidewalk":"likely","lanes":3,"name":"강변북로","oneway":true},"geometry":{"type":"LineString","coordinates":[[127.11919,37.56571],[127.11822,37.56464],[127.11743,37.56371],[127.1164,37.56232],[127.11591,37.56149],[127.11475,37.55912],[127.11407,37.55777]]}},{"type":"Feature","properties":{"class":"major","highway":"primary","sidewalk":"likely","lanes":0,"name":"아차산로","oneway":true},"geometry":{"type":"LineString","coordinates":[[127.11754,37.56776],[127.11728,37.56747],[127.11696,37.56708],[127.11673,37.56678],[127.11597,37.56565],[127.11595,37.56562],[127.11552,37.56494],[127.11542,37.56476],[127.11529,37.56451],[127.11521,37.56432],[127.11516,37.56417],[127.11513,37.56406],[127.11506,37.5637],[127.11503,37.56342],[127.11503,37.56334],[127.11492,37.56282],[127.11486,37.56227],[127.11468,37.56125],[127.11459,37.56073],[127.11452,37.56021],[127.11436,37.55974],[127.11416,37.5593],[127.11397,37.55894]]}},{"type":"Feature","properties":{"class":"minor","highway":"residential","sidewalk":"unknown","lanes":0,"name":"","oneway":false},"geometry":{"type":"LineString","coordinates":[[127.11503,37.56342],[127.11479,37.5634],[127.11443,37.56354],[127.11432,37.56372],[127.11424,37.56378],[127.11413,37.56368],[127.11407,37.56349],[127.11373,37.56338],[127.11349,37.56333],[127.11333,37.56327],[127.1132,37.56309],[127.11305,37.56265],[127.11303,37.56256]]}},{"type":"Feature","properties":{"class":"minor","highway":"residential","sidewalk":"unknown","lanes":0,"name":"","oneway":false},"geometry":{"type":"LineString","coordinates":[[127.11285,37.56243],[127.11303,37.56256],[127.11347,37.56272],[127.11369,37.5625]]}},{"type":"Feature","properties":{"class":"major","highway":"tertiary","sidewalk":"likely","lanes":0,"name":"우미내길","oneway":false},"geometry":{"type":"LineString","coordinates":[[127.11285,37.56209],[127.11322,37.56225],[127.11369,37.5625],[127.11478,37.56283],[127.11492,37.56282],[127.11498,37.56282],[127.11503,37.56282]]}},{"type":"Feature","properties":{"class":"minor","highway":"residential","sidewalk":"unknown","lanes":0,"name":"아치울길","oneway":false},"geometry":{"type":"LineString","coordinates":[[127.11565,37.57618],[127.11535,37.57617],[127.11531,37.57617],[127.11502,37.57618],[127.11458,37.57618],[127.11399,37.57608],[127.1137,37.57607],[127.11331,37.57618],[127.11217,37.57649],[127.11205,37.57623],[127.11204,37.57611],[127.11213,37.57595],[127.11289,37.57569],[127.11306,37.57565],[127.11329,37.57557],[127.11351,37.57553],[127.11414,37.57553],[127.11418,37.57549],[127.11425,37.5754],[127.11438,37.57527],[127.11487,37.57523],[127.11495,37.5753]]}},{"type":"Feature","properties":{"class":"minor","highway":"unclassified","sidewalk":"unknown","lanes":0,"name":"","oneway":false},"geometry":{"type":"LineString","coordinates":[[127.11842,37.57427],[127.11859,37.57447],[127.11882,37.57482]]}},{"type":"Feature","properties":{"class":"minor","highway":"residential","sidewalk":"unknown","lanes":0,"name":"아치울길22번길","oneway":false},"geometry":{"type":"LineString","coordinates":[[127.11972,37.57445],[127.11969,37.57453],[127.11946,37.57486],[127.1196,37.57494],[127.11964,37.57517],[127.11975,37.57536],[127.12005,37.57553],[127.1201,37.57562],[127.12072,37.5761],[127.12091,37.57633],[127.12102,37.57635],[127.12122,37.57618],[127.12129,37.57608],[127.1214,37.57602],[127.1215,37.57602],[127.12154,37.57608],[127.12151,37.57613],[127.12139,37.57629],[127.12135,37.57643],[127.12146,37.57672],[127.12126,37.57683]]}},{"type":"Feature","properties":{"class":"minor","highway":"residential","sidewalk":"unknown","lanes":0,"name":"","oneway":false},"geometry":{"type":"LineString","coordinates":[[127.11946,37.57486],[127.11883,37.57504],[127.11833,37.57502]]}},{"type":"Feature","properties":{"class":"major","highway":"primary","sidewalk":"likely","lanes":0,"name":"아차산로","oneway":true},"geometry":{"type":"LineString","coordinates":[[127.11422,37.5592],[127.11433,37.55945],[127.11448,37.5598],[127.11457,37.56008],[127.11461,37.56025],[127.11469,37.56073],[127.11474,37.561]]}},{"type":"Feature","properties":{"class":"alley","highway":"service","sidewalk":"unknown","lanes":0,"name":"","oneway":false},"geometry":{"type":"LineString","coordinates":[[127.11801,37.57337],[127.11823,37.5734],[127.11839,37.57349],[127.11852,37.57347],[127.11843,37.57363],[127.11845,37.57371],[127.11844,37.57379],[127.11838,37.57388],[127.11808,37.57405],[127.11814,37.57429]]}},{"type":"Feature","properties":{"class":"major","highway":"trunk","sidewalk":"likely","lanes":3,"name":"강변북로","oneway":true},"geometry":{"type":"LineString","coordinates":[[127.11935,37.56568],[127.11986,37.56624],[127.12059,37.56701],[127.12098,37.5674],[127.12138,37.56777],[127.1218,37.56814],[127.12222,37.56851],[127.12268,37.56888],[127.12305,37.56917]]}},{"type":"Feature","properties":{"class":"minor","highway":"residential","sidewalk":"unknown","lanes":0,"name":"","oneway":false},"geometry":{"type":"LineString","coordinates":[[127.11521,37.56432],[127.11511,37.56435],[127.11504,37.56438],[127.1148,37.56459],[127.11471,37.56466],[127.11392,37.56521],[127.11387,37.56525],[127.11353,37.5655],[127.11343,37.56557],[127.11334,37.56564],[127.11291,37.56596],[127.11248,37.56627],[127.11206,37.56655],[127.11203,37.56657],[127.11196,37.56661],[127.11185,37.56665],[127.11168,37.56666],[127.11157,37.56666],[127.11142,37.56664],[127.11123,37.56658],[127.11102,37.56649],[127.11045,37.56617]]}},{"type":"Feature","properties":{"class":"alley","highway":"service","sidewalk":"unknown","lanes":0,"name":"","oneway":false},"geometry":{"type":"LineString","coordinates":[[127.1148,37.56459],[127.11487,37.56467],[127.11497,37.56481],[127.11511,37.56505],[127.11521,37.56521]]}},{"type":"Feature","properties":{"class":"alley","highway":"service","sidewalk":"unknown","lanes":0,"name":"","oneway":false},"geometry":{"type":"LineString","coordinates":[[127.11353,37.5655],[127.11353,37.56553],[127.11355,37.56556],[127.11359,37.56559],[127.11363,37.56561],[127.11367,37.56563],[127.11372,37.56564]]}},{"type":"Feature","properties":{"class":"alley","highway":"service","sidewalk":"unknown","lanes":0,"name":"","oneway":false},"geometry":{"type":"LineString","coordinates":[[127.11334,37.56564],[127.1135,37.56574],[127.1136,37.56579],[127.11368,37.56582],[127.1138,37.56585],[127.11392,37.5659],[127.11408,37.56597],[127.1142,37.56603],[127.11425,37.56605],[127.11434,37.56609],[127.11442,37.56613],[127.11447,37.56615],[127.11455,37.56617],[127.11466,37.56619],[127.11496,37.56624],[127.11506,37.56624],[127.11516,37.56623],[127.11528,37.56619],[127.11541,37.56614],[127.11552,37.56607],[127.11566,37.56595],[127.11587,37.56574],[127.11597,37.56565]]}},{"type":"Feature","properties":{"class":"alley","highway":"service","sidewalk":"unknown","lanes":0,"name":"","oneway":false},"geometry":{"type":"LineString","coordinates":[[127.1136,37.56579],[127.11359,37.56577],[127.11359,37.56573],[127.1136,37.5657],[127.11362,37.56566],[127.11366,37.56565],[127.11372,37.56564]]}},{"type":"Feature","properties":{"class":"alley","highway":"service","sidewalk":"unknown","lanes":0,"name":"","oneway":false},"geometry":{"type":"LineString","coordinates":[[127.11372,37.56564],[127.11334,37.56564]]}},{"type":"Feature","properties":{"class":"alley","highway":"service","sidewalk":"unknown","lanes":0,"name":"","oneway":false},"geometry":{"type":"LineString","coordinates":[[127.1136,37.56579],[127.1135,37.56579],[127.11339,37.56581],[127.11329,37.56584],[127.11322,37.56587],[127.11297,37.56604],[127.11233,37.56649],[127.11223,37.56655],[127.11212,37.56661],[127.11207,37.56664],[127.112,37.56668],[127.11189,37.56671],[127.11176,37.56674],[127.11164,37.56676],[127.11093,37.56685],[127.11087,37.56685],[127.1108,37.56684],[127.11073,37.56681],[127.11022,37.56652]]}},{"type":"Feature","properties":{"class":"alley","highway":"service","sidewalk":"unknown","lanes":0,"name":"","oneway":false},"geometry":{"type":"LineString","coordinates":[[127.11203,37.56657],[127.11207,37.56664],[127.11209,37.56668],[127.1121,37.56675],[127.11211,37.56685],[127.1121,37.56692],[127.11207,37.56697],[127.11205,37.56702],[127.11203,37.56709],[127.11202,37.56714],[127.11203,37.56718],[127.11204,37.56721]]}},{"type":"Feature","properties":{"class":"alley","highway":"service","sidewalk":"unknown","lanes":0,"name":"","oneway":false},"geometry":{"type":"LineString","coordinates":[[127.11205,37.56702],[127.11199,37.56702],[127.11194,37.56703],[127.11178,37.56707]]}},{"type":"Feature","properties":{"class":"alley","highway":"service","sidewalk":"unknown","lanes":0,"name":"","oneway":false},"geometry":{"type":"LineString","coordinates":[[127.11387,37.56525],[127.1138,37.56521],[127.11374,37.56516],[127.11369,37.56513],[127.11366,37.56509],[127.11363,37.56504],[127.1136,37.56496],[127.11357,37.56484],[127.11357,37.56477],[127.11356,37.56472],[127.11357,37.56468],[127.11358,37.56465],[127.11361,37.56461],[127.11367,37.56458],[127.1139,37.56446]]}},{"type":"Feature","properties":{"class":"alley","highway":"service","sidewalk":"unknown","lanes":0,"name":"","oneway":false},"geometry":{"type":"LineString","coordinates":[[127.11466,37.56619],[127.11468,37.56608]]}},{"type":"Feature","properties":{"class":"alley","highway":"service","sidewalk":"unknown","lanes":0,"name":"","oneway":false},"geometry":{"type":"LineString","coordinates":[[127.11447,37.56615],[127.11437,37.56614],[127.11433,37.56615],[127.1143,37.56616],[127.11429,37.56619],[127.11426,37.56641],[127.11428,37.56645],[127.11432,37.56649],[127.11438,37.5665],[127.11486,37.56658]]}},{"type":"Feature","properties":{"class":"alley","highway":"service","sidewalk":"unknown","lanes":0,"name":"","oneway":false},"geometry":{"type":"LineString","coordinates":[[127.1143,37.56616],[127.11429,37.56612],[127.11427,37.56608],[127.11425,37.56605]]}},{"type":"Feature","properties":{"class":"alley","highway":"service","sidewalk":"unknown","lanes":0,"name":"","oneway":false},"geometry":{"type":"LineString","coordinates":[[127.1142,37.56603],[127.11412,37.56641],[127.1141,37.56655],[127.11408,37.5666],[127.11406,37.56663],[127.11399,37.56673],[127.11395,37.56681],[127.1139,37.5669],[127.11378,37.56719],[127.11376,37.56726],[127.11374,37.56731],[127.11373,37.56737],[127.11374,37.56748],[127.11375,37.56764],[127.11376,37.56777],[127.11377,37.56786],[127.11377,37.56792],[127.11376,37.56799],[127.11375,37.56806],[127.11371,37.56818],[127.11367,37.56825],[127.11364,37.56829],[127.11359,37.56834],[127.11354,37.56838],[127.1135,37.56843],[127.11347,37.56849],[127.11345,37.56861],[127.11344,37.56864],[127.11343,37.56869],[127.11341,37.56873],[127.11339,37.56877],[127.11336,37.56882],[127.11336,37.56886],[127.11339,37.5689],[127.11342,37.56894],[127.11343,37.56898],[127.11342,37.56901],[127.11341,37.56904],[127.1134,37.56908],[127.1134,37.56912],[127.11342,37.56917],[127.11346,37.56923],[127.11352,37.56929],[127.11356,37.56935],[127.11362,37.56945],[127.11366,37.56957],[127.1137,37.56969]]}},{"type":"Feature","properties":{"class":"alley","highway":"service","sidewalk":"unknown","lanes":0,"name":"","oneway":false},"geometry":{"type":"LineString","coordinates":[[127.11344,37.56864],[127.11426,37.56877]]}},{"type":"Feature","properties":{"class":"minor","highway":"residential","sidewalk":"unknown","lanes":0,"name":"","oneway":false},"geometry":{"type":"LineString","coordinates":[[127.11532,37.5643],[127.11521,37.56432]]}},{"type":"Feature","properties":{"class":"major","highway":"primary_link","sidewalk":"likely","lanes":0,"name":"","oneway":true},"geometry":{"type":"LineString","coordinates":[[127.11542,37.56476],[127.11553,37.56472]]}},{"type":"Feature","properties":{"class":"major","highway":"primary_link","sidewalk":"likely","lanes":0,"name":"","oneway":true},"geometry":{"type":"LineString","coordinates":[[127.11527,37.56415],[127.11516,37.56417]]}},{"type":"Feature","properties":{"class":"major","highway":"primary","sidewalk":"yes","lanes":3,"name":"아차산로","oneway":true},"geometry":{"type":"LineString","coordinates":[[127.12389,37.57615],[127.12364,37.57593],[127.1234,37.57569],[127.12299,37.57522],[127.12268,37.57479],[127.12236,37.57427],[127.1221,37.57375],[127.12202,37.57361],[127.12193,37.57343],[127.12189,37.57338],[127.121,37.57176],[127.1208,37.57137],[127.12005,37.57022],[127.1199,37.57],[127.11949,37.56953],[127.11937,37.56942],[127.11931,37.56937],[127.11838,37.56849],[127.11813,37.56829],[127.1177,37.56791],[127.11754,37.56776]]}}]}