{"type":"FeatureCollection","features":[{"type":"Feature","properties":{"class":"major","highway":"primary","sidewalk":"likely","lanes":0,"name":"개화동로","oneway":true},"geometry":{"type":"LineString","coordinates":[[126.80367,37.57265],[126.80361,37.57287],[126.80345,37.57336],[126.80335,37.57368],[126.80309,37.57424],[126.80308,37.57426],[126.8029,37.57458],[126.80285,37.57466],[126.80263,37.57497],[126.80202,37.57585],[126.80149,37.57663],[126.80082,37.5776],[126.80075,37.5777],[126.80044,37.57815],[126.80003,37.57875],[126.79982,37.57906]]}},{"type":"Feature","properties":{"class":"major","highway":"motorway_link","sidewalk":"likely","lanes":1,"name":"","oneway":true},"geometry":{"type":"LineString","coordinates":[[126.80346,37.57264],[126.80326,37.57269],[126.80299,37.57276],[126.80282,37.57281],[126.80266,37.57288],[126.80255,37.57293],[126.80226,37.57312],[126.80212,37.57325],[126.80196,37.57342],[126.80185,37.57355],[126.80178,37.57369],[126.80168,37.57394],[126.80138,37.57503],[126.80123,37.57545],[126.80109,37.57579],[126.80084,37.57617],[126.79955,37.578]]}},{"type":"Feature","properties":{"class":"minor","highway":"residential","sidewalk":"unknown","lanes":0,"name":"개화동로7길","oneway":true},"geometry":{"type":"LineString","coordinates":[[126.80064,37.58048],[126.80044,37.58039],[126.80024,37.58031],[126.7999,37.58017],[126.79954,37.58001],[126.79925,37.57989]]}},{"type":"Feature","properties":{"class":"minor","highway":"residential","sidewalk":"unknown","lanes":0,"name":"개화동로7길","oneway":true},"geometry":{"type":"LineString","coordinates":[[126.7993,37.57981],[126.79959,37.57993],[126.79996,37.58009],[126.8003,37.58023],[126.8007,37.58039]]}},{"type":"Feature","properties":{"class":"alley","highway":"service","sidewalk":"unknown","lanes":2,"name":"","oneway":true},"geometry":{"type":"LineString","coordinates":[[126.80011,37.5644],[126.79994,37.5642],[126.79983,37.56407],[126.79977,37.56396],[126.79975,37.56387],[126.79973,37.56378],[126.79975,37.56368],[126.79978,37.5636],[126.79986,37.56348],[126.79996,37.56337]]}},{"type":"Feature","properties":{"class":"alley","highway":"service","sidewalk":"unknown","lanes":7,"name":"하늘길","oneway":true},"geometry":{"type":"LineString","coordinates":[[126.79958,37.56244],[126.79972,37.56239],[126.79989,37.56227],[126.80005,37.56213],[126.80027,37.56194],[126.80034,37.56186],[126.80039,37.56182],[126.80043,37.56178],[126.80048,37.56171],[126.80055,37.56158]]}},{"type":"Feature","properties":{"class":"alley","highway":"service","sidewalk":"unknown","lanes":0,"name":"","oneway":true},"geometry":{"type":"LineString","coordinates":[[126.79932,37.56382],[126.79834,37.56305]]}},{"type":"Feature","properties":{"class":"alley","highway":"service","sidewalk":"unknown","lanes":2,"name":"","oneway":true},"geometry":{"type":"LineString","coordinates":[[126.79996,37.56337],[126.80007,37.56329],[126.8002,37.56323],[126.8003,37.56318],[126.80055,37.5631],[126.80068,37.56307],[126.8008,37.56305],[126.80092,37.56305],[126.80099,37.56306],[126.80108,37.56308],[126.80116,37.56311],[126.80125,37.56314],[126.8013,37.56318],[126.80135,37.56323],[126.80138,37.56326],[126.80142,37.56332],[126.80144,37.56337],[126.80145,37.56343],[126.80146,37.56351]]}},{"type":"Feature","properties":{"class":"alley","highway":"service","sidewalk":"unknown","lanes":0,"name":"","oneway":true},"geometry":{"type":"LineString","coordinates":[[126.79834,37.56305],[126.79824,37.5629],[126.79822,37.56284],[126.79821,37.56279],[126.79823,37.56274],[126.79825,37.56271],[126.7983,37.56266]]}},{"type":"Feature","properties":{"class":"alley","highway":"service","sidewalk":"unknown","lanes":2,"name":"","oneway":true},"geometry":{"type":"LineString","coordinates":[[126.79981,37.56239],[126.80157,37.56223]]}},{"type":"Feature","properties":{"class":"alley","highway":"pedestrian","sidewalk":"unknown","lanes":0,"name":"","oneway":false},"geometry":{"type":"LineString","coordinates":[[126.79999,37.57823],[126.80023,37.57788],[126.80026,37.5779]]}},{"type":"Feature","properties":{"class":"major","highway":"motorway_link","sidewalk":"likely","lanes":1,"name":"","oneway":true},"geometry":{"type":"LineString","coordinates":[[126.79917,37.57856],[126.79889,37.57895]]}},{"type":"Feature","properties":{"class":"major","highway":"motorway_link","sidewalk":"likely","lanes":1,"name":"","oneway":true},"geometry":{"type":"LineString","coordinates":[[126.79911,37.57854],[126.79936,37.57818]]}},{"type":"Feature","properties":{"class":"major","highway":"motorway_link","sidewalk":"likely","lanes":1,"name":"","oneway":true},"geometry":{"type":"LineString","coordinates":[[126.79889,37.57895],[126.79823,37.57989],[126.79792,37.58036],[126.79756,37.58079],[126.79688,37.58148]]}},{"type":"Feature","properties":{"class":"major","highway":"motorway_link","sidewalk":"likely","lanes":1,"name":"","oneway":true},"geometry":{"type":"LineString","coordinates":[[126.79883,37.57893],[126.79911,37.57854]]}},{"type":"Feature","properties":{"class":"major","highway":"motorway_link","sidewalk":"likely","lanes":1,"name":"","oneway":true},"geometry":{"type":"LineString","coordinates":[[126.79681,37.58146],[126.79746,37.58077],[126.79784,37.58032],[126.79817,37.57988],[126.79883,37.57893]]}},{"type":"Feature","properties":{"class":"alley","highway":"service","sidewalk":"unknown","lanes":0,"name":"","oneway":false},"geometry":{"type":"LineString","coordinates":[[126.78707,37.55429],[126.78709,37.55415],[126.78723,37.55326],[126.78726,37.55318],[126.78729,37.55312],[126.78733,37.55306],[126.78741,37.553],[126.78878,37.55194],[126.78888,37.55187],[126.78897,37.55184],[126.78907,37.55184],[126.78917,37.55185],[126.78924,37.55189],[126.78932,37.55194],[126.78967,37.55221],[126.78972,37.55224],[126.78987,37.55216],[126.78999,37.55209],[126.79008,37.55203],[126.79042,37.55176],[126.79311,37.54959],[126.79323,37.54951],[126.79333,37.54947],[126.79341,37.54946],[126.79351,37.54945],[126.79358,37.54946],[126.79368,37.5495],[126.79376,37.54955],[126.79492,37.55047],[126.79498,37.55051],[126.79506,37.55055],[126.79512,37.55057],[126.79519,37.55058],[126.79525,37.55057],[126.7953,37.55056],[126.79536,37.55052],[126.79543,37.55047],[126.79629,37.54978],[126.79695,37.54926],[126.79784,37.54855],[126.7998,37.54698],[126.80197,37.54526],[126.80216,37.54513],[126.80231,37.54506],[126.80248,37.54498],[126.80268,37.5449],[126.80283,37.54482],[126.80298,37.54472],[126.80323,37.54453],[126.80336,37.54442],[126.80371,37.54414],[126.80438,37.5436],[126.80443,37.54356],[126.80451,37.54351],[126.80465,37.54345],[126.80483,37.5434],[126.80499,37.54338],[126.80524,37.54338],[126.80895,37.54352],[126.80961,37.54355],[126.8098,37.54356],[126.80991,37.54358],[126.81,37.5436],[126.81009,37.54362],[126.81017,37.54366],[126.81027,37.54372],[126.81042,37.54381],[126.8114,37.5446],[126.81155,37.54474],[126.81164,37.54485],[126.81167,37.54496],[126.81169,37.54507],[126.8117,37.54517],[126.81169,37.54528],[126.81166,37.54541],[126.81162,37.54552],[126.81155,37.54563],[126.81144,37.54574],[126.81002,37.54697],[126.80997,37.54702],[126.80993,37.54709],[126.8099,37.54714],[126.80987,37.54732],[126.80986,37.54742],[126.80985,37.54749],[126.80987,37.54758],[126.80988,37.54765],[126.80991,37.54772],[126.80997,37.54778],[126.81055,37.54822],[126.81154,37.54899],[126.81183,37.54921],[126.81187,37.54926],[126.81191,37.54932],[126.81193,37.54936],[126.81192,37.54941],[126.8119,37.54946],[126.81187,37.54951],[126.81173,37.54965],[126.81117,37.5501],[126.80659,37.55373],[126.80566,37.55445],[126.80543,37.55466],[126.80537,37.5547],[126.80526,37.55481],[126.80511,37.55496],[126.80461,37.55547],[126.80429,37.55579],[126.80418,37.5559],[126.80395,37.5561],[126.80359,37.55638],[126.80321,37.55669],[126.80303,37.55683],[126.80266,37.55714],[126.80247,37.55729],[126.80215,37.55755],[126.80205,37.55763],[126.8018,37.55783],[126.80159,37.558],[126.80143,37.55813],[126.80102,37.55845],[126.80087,37.55857],[126.80043,37.55892],[126.80042,37.55893],[126.80036,37.55898],[126.80026,37.55905],[126.80013,37.55916],[126.79998,37.55926],[126.79993,37.55929],[126.79979,37.55937],[126.79971,37.55941],[126.79962,37.55943],[126.79956,37.55944],[126.79948,37.55945],[126.79947,37.55945],[126.79935,37.55946],[126.79927,37.55947],[126.79872,37.55953],[126.79828,37.55958],[126.79783,37.55963],[126.79739,37.55968],[126.79684,37.55974],[126.79666,37.55977],[126.79654,37.55979],[126.79647,37.55981],[126.7964,37.55982],[126.79633,37.55986],[126.79624,37.55992],[126.79609,37.56007],[126.79601,37.56016],[126.79597,37.56021],[126.79593,37.56029],[126.79592,37.56037],[126.79592,37.56058],[126.79593,37.56092],[126.79596,37.56104]]}},{"type":"Feature","properties":{"class":"alley","highway":"service","sidewalk":"unknown","lanes":0,"name":"","oneway":false},"geometry":{"type":"LineString","coordinates":[[126.79331,37.5611],[126.79372,37.5611],[126.79406,37.5611],[126.79429,37.56111],[126.79497,37.56111],[126.79555,37.56109],[126.79588,37.56107],[126.79596,37.56104],[126.79599,37.56103],[126.79611,37.56099],[126.79636,37.5609],[126.79778,37.56036],[126.79783,37.56034],[126.7979,37.56033],[126.79797,37.56032],[126.7981,37.56031],[126.79958,37.56031],[126.80034,37.5603],[126.80041,37.56029],[126.80046,37.56028],[126.80051,37.56027],[126.80055,37.56025],[126.80063,37.5602],[126.80068,37.56016],[126.80197,37.55912],[126.80201,37.55908],[126.80204,37.55903],[126.80206,37.55899],[126.80207,37.55891],[126.80209,37.55867],[126.80211,37.55864],[126.80213,37.55861],[126.80216,37.55857],[126.8024,37.55836],[126.80259,37.55823],[126.80262,37.5582],[126.80268,37.55818],[126.80272,37.55817],[126.80277,37.55816],[126.80304,37.55813],[126.80316,37.55812],[126.80321,37.55811],[126.80326,37.55809],[126.80329,37.55807],[126.80331,37.55805],[126.80337,37.558],[126.80371,37.55774],[126.80447,37.55713],[126.80557,37.55625],[126.80627,37.55569]]}},{"type":"Feature","properties":{"class":"alley","highway":"service","sidewalk":"unknown","lanes":0,"name":"","oneway":false},"geometry":{"type":"LineString","coordinates":[[126.79958,37.56031],[126.79958,37.56014],[126.79958,37.55966],[126.79958,37.55961],[126.79958,37.55958],[126.79959,37.55955],[126.79962,37.55952],[126.79964,37.55949],[126.79966,37.55946],[126.79971,37.55941]]}},{"type":"Feature","properties":{"class":"alley","highway":"service","sidewalk":"unknown","lanes":0,"name":"","oneway":false},"geometry":{"type":"LineString","coordinates":[[126.79712,37.56904],[126.79811,37.56827],[126.79813,37.56825],[126.79908,37.56752]]}},{"type":"Feature","properties":{"class":"alley","highway":"service","sidewalk":"unknown","lanes":0,"name":"","oneway":false},"geometry":{"type":"LineString","coordinates":[[126.79982,37.571],[126.79983,37.57105],[126.79983,37.57108],[126.79984,37.57112],[126.79986,37.57117],[126.79989,37.5712],[126.79992,37.57123],[126.8,37.57128],[126.80006,37.57131],[126.80013,37.57133],[126.80019,37.57134],[126.80024,37.57134],[126.80029,37.57132],[126.80033,37.57128],[126.80125,37.57054],[126.80193,37.56999],[126.80207,37.56988]]}},{"type":"Feature","properties":{"class":"alley","highway":"service","sidewalk":"unknown","lanes":0,"name":"","oneway":false},"geometry":{"type":"LineString","coordinates":[[126.79634,37.56417],[126.79656,37.56434],[126.79705,37.56473],[126.79762,37.56521],[126.79819,37.56567],[126.79848,37.56589],[126.79875,37.56609],[126.79937,37.56557]]}},{"type":"Feature","properties":{"class":"alley","highway":"service","sidewalk":"unknown","lanes":0,"name":"","oneway":false},"geometry":{"type":"LineString","coordinates":[[126.80037,37.56646],[126.7998,37.56692],[126.79942,37.56722],[126.79942,37.56722],[126.79941,37.56723],[126.79906,37.56751]]}},{"type":"Feature","properties":{"class":"alley","highway":"service","sidewalk":"unknown","lanes":0,"name":"","oneway":false},"geometry":{"type":"LineString","coordinates":[[126.79559,37.56476],[126.79606,37.56513],[126.79609,37.56516],[126.79667,37.56562],[126.79703,37.5659],[126.79739,37.56619],[126.79775,37.56647],[126.79812,37.56676],[126.7987,37.56722],[126.79873,37.56724],[126.79906,37.56751],[126.79908,37.56752],[126.79963,37.56796],[126.79998,37.56824],[126.80033,37.56851],[126.80083,37.56891],[126.80084,37.56892],[126.80088,37.56895],[126.80091,37.56897],[126.80113,37.56915],[126.80163,37.56954],[126.80169,37.56959],[126.80207,37.56988]]}},{"type":"Feature","properties":{"class":"alley","highway":"service","sidewalk":"unknown","lanes":0,"name":"","oneway":false},"geometry":{"type":"LineString","coordinates":[[126.80207,37.56988],[126.80246,37.56956],[126.80258,37.56946],[126.80276,37.56931],[126.80308,37.56905],[126.80312,37.56901],[126.80316,37.56894],[126.80319,37.56887],[126.8032,37.56879],[126.80319,37.56872],[126.80318,37.56866],[126.80307,37.56858],[126.80303,37.56854],[126.80302,37.56852],[126.80302,37.5685],[126.80302,37.56848],[126.80303,37.56846],[126.80304,37.56843],[126.80307,37.56842],[126.80312,37.56837],[126.80313,37.56835],[126.80314,37.56833],[126.80315,37.56829],[126.80315,37.56826],[126.80313,37.56824],[126.80312,37.56822],[126.80303,37.56813],[126.80187,37.56721],[126.80171,37.5671],[126.80167,37.56708],[126.80163,37.56706],[126.80158,37.56705],[126.80151,37.56704],[126.80128,37.56706],[126.80124,37.56706],[126.80118,37.56704],[126.80114,37.56702],[126.80109,37.56699],[126.80078,37.56675],[126.80064,37.56666],[126.80049,37.56656],[126.80037,37.56646],[126.80024,37.56636],[126.79989,37.56608],[126.79984,37.56604],[126.79982,37.56601],[126.7998,37.56598],[126.79978,37.56596],[126.79976,37.56594],[126.79944,37.56567],[126.79939,37.56562],[126.79937,37.56557],[126.79935,37.56553],[126.79934,37.5654],[126.79932,37.56528],[126.79931,37.56524],[126.79928,37.5652],[126.79925,37.56516],[126.79915,37.56506],[126.79905,37.56498],[126.79718,37.5635],[126.79634,37.56417],[126.79601,37.56443],[126.79559,37.56476]]}},{"type":"Feature","properties":{"class":"alley","highway":"service","sidewalk":"unknown","lanes":0,"name":"","oneway":false},"geometry":{"type":"LineString","coordinates":[[126.78707,37.55429],[126.78577,37.55537],[126.78512,37.55591],[126.7851,37.55595],[126.78509,37.55599],[126.78509,37.55602],[126.78512,37.55605],[126.78598,37.5567],[126.78618,37.55685],[126.78635,37.55695],[126.78652,37.55705],[126.78661,37.55714],[126.78664,37.55719],[126.78666,37.55723],[126.78666,37.5573],[126.78664,37.55735],[126.78663,37.55739],[126.7866,37.55743],[126.78654,37.55748],[126.7742,37.56733],[126.77186,37.56919],[126.77147,37.5695],[126.77099,37.56986],[126.7709,37.56995],[126.77084,37.57005],[126.77081,37.57014],[126.77081,37.57021],[126.77082,37.57027],[126.77084,37.57032],[126.77088,37.5704],[126.77091,37.57045],[126.77095,37.5705],[126.77104,37.57057],[126.77163,37.57104],[126.77265,37.57186],[126.77375,37.57273],[126.77426,37.57313],[126.77591,37.57444],[126.77639,37.57482],[126.77644,37.57486],[126.7765,37.57489],[126.77657,37.57492],[126.77663,37.57494],[126.7767,37.57495],[126.77677,37.57495],[126.77683,37.57495],[126.7769,37.57494],[126.77696,37.57493],[126.77701,37.57491],[126.77709,37.57488],[126.77714,37.57485],[126.77728,37.57475],[126.77833,37.5739],[126.78133,37.57152],[126.78368,37.56963],[126.78395,37.56942],[126.78403,37.56935],[126.78407,37.56929],[126.7841,37.56923],[126.78412,37.56918],[126.78414,37.56913],[126.78415,37.56909],[126.78417,37.56906],[126.7842,37.56904],[126.78423,37.569],[126.78495,37.56844],[126.78861,37.5655],[126.78874,37.56543],[126.78882,37.56541],[126.78889,37.56538],[126.78897,37.56536],[126.78906,37.56535],[126.78914,37.56534],[126.78923,37.56534],[126.78933,37.56535],[126.78942,37.56538],[126.78949,37.56542],[126.78958,37.56547],[126.78975,37.56561],[126.79044,37.56614],[126.79051,37.56619],[126.79058,37.56622],[126.79065,37.56625],[126.79075,37.56628],[126.79084,37.56629],[126.79093,37.56629],[126.79102,37.56628],[126.7911,37.56626],[126.79118,37.56623],[126.79123,37.56619],[126.79179,37.56573],[126.79187,37.56569],[126.79195,37.56565],[126.79203,37.56563],[126.79211,37.56563],[126.79219,37.56564],[126.79225,37.56566],[126.7923,37.56569],[126.79234,37.56572],[126.79634,37.56887],[126.79948,37.57137],[126.7997,37.57156],[126.80004,37.57182],[126.80043,37.57213],[126.80051,37.57217],[126.80055,37.57218],[126.80062,37.57219],[126.80067,37.57219],[126.80072,37.57219],[126.80078,37.57218],[126.80084,37.57215],[126.80089,37.57212],[126.80126,37.57182],[126.80196,37.57122],[126.80287,37.5705]]}},{"type":"Feature","properties":{"class":"alley","highway":"service","sidewalk":"unknown","lanes":0,"name":"","oneway":false},"geometry":{"type":"LineString","coordinates":[[126.79559,37.56476],[126.7947,37.56547],[126.79464,37.56551],[126.7946,37.56552],[126.79414,37.56569],[126.79406,37.56573],[126.79352,37.56616]]}},{"type":"Feature","properties":{"class":"alley","highway":"service","sidewalk":"unknown","lanes":0,"name":"","oneway":false},"geometry":{"type":"LineString","coordinates":[[126.79718,37.5635],[126.79598,37.56263],[126.79539,37.56219],[126.79516,37.56198],[126.79511,37.56192],[126.79508,37.56181],[126.79506,37.56168],[126.79506,37.56143],[126.79497,37.56111]]}},{"type":"Feature","properties":{"class":"minor","highway":"unclassified","sidewalk":"unknown","lanes":0,"name":"","oneway":false},"geometry":{"type":"LineString","coordinates":[[126.78371,37.578],[126.78377,37.57796]]}},{"type":"Feature","properties":{"class":"minor","highway":"unclassified","sidewalk":"unknown","lanes":0,"name":"","oneway":false},"geometry":{"type":"LineString","coordinates":[[126.78337,37.57819],[126.78371,37.578]]}},{"type":"Feature","properties":{"class":"minor","highway":"residential","sidewalk":"unknown","lanes":0,"name":"벌말로584번길","oneway":false},"geometry":{"type":"LineString","coordinates":[[126.7798,37.5803],[126.78331,37.57823],[126.78337,37.57819]]}},{"type":"Feature","properties":{"class":"minor","highway":"unclassified","sidewalk":"unknown","lanes":0,"name":"개화동로8길","oneway":false},"geometry":{"type":"LineString","coordinates":[[126.79706,37.5782],[126.79582,37.57787],[126.79316,37.57713],[126.79279,37.57703],[126.79169,37.57675],[126.791,37.57665],[126.7902,37.57655],[126.78681,37.57614],[126.7858,37.57602],[126.78528,37.57592],[126.78461,37.57568],[126.78418,37.57547],[126.78405,37.57533],[126.78387,37.57516],[126.78365,37.57482],[126.78349,37.57439],[126.78345,37.57404],[126.78346,37.57373],[126.78352,37.57349],[126.78352,37.57337],[126.78346,37.57329],[126.78336,37.57328],[126.78329,37.57331],[126.78325,37.57338],[126.78321,37.57348],[126.78314,37.57371],[126.7831,37.57391],[126.78308,37.57412],[126.78308,37.5744],[126.78316,37.57473],[126.78323,37.57492],[126.78333,37.57514],[126.78349,37.57538],[126.78363,37.57556],[126.78385,37.57578],[126.78413,37.576],[126.78454,37.57624],[126.78487,37.57638],[126.78555,37.57657],[126.78567,37.57664],[126.78573,37.57671],[126.7858,37.57679],[126.78588,37.57683],[126.78713,37.57717],[126.78722,37.57725],[126.78723,37.57731],[126.78661,37.57875]]}},{"type":"Feature","properties":{"class":"alley","highway":"service","sidewalk":"unknown","lanes":0,"name":"개화동로8길","oneway":true},"geometry":{"type":"LineString","coordinates":[[126.79878,37.57865],[126.79857,37.57858],[126.79776,37.57836],[126.79744,37.57829]]}},{"type":"Feature","properties":{"class":"alley","highway":"service","sidewalk":"unknown","lanes":0,"name":"","oneway":false},"geometry":{"type":"LineString","coordinates":[[126.7792,37.57938],[126.77947,37.57918],[126.7795,37.57915],[126.77995,37.5794],[126.78036,37.57897]]}},{"type":"Feature","properties":{"class":"minor","highway":"unclassified","sidewalk":"unknown","lanes":0,"name":"","oneway":false},"geometry":{"type":"LineString","coordinates":[[126.80106,37.57469],[126.80092,37.57524],[126.80087,37.57557],[126.80077,37.57579],[126.80061,37.57609],[126.79956,37.57754],[126.79945,37.57759],[126.79943,37.5777]]}},{"type":"Feature","properties":{"class":"minor","highway":"unclassified","sidewalk":"unknown","lanes":0,"name":"","oneway":false},"geometry":{"type":"LineString","coordinates":[[126.79878,37.57865],[126.79814,37.57956],[126.7977,37.58019],[126.79718,37.58079],[126.79678,37.5812],[126.79647,37.58149]]}},{"type":"Feature","properties":{"class":"minor","highway":"unclassified","sidewalk":"unknown","lanes":0,"name":"","oneway":false},"geometry":{"type":"LineString","coordinates":[[126.78053,37.57746],[126.78058,37.57743]]}},{"type":"Feature","properties":{"class":"minor","highway":"unclassified","sidewalk":"unknown","lanes":0,"name":"","oneway":false},"geometry":{"type":"LineString","coordinates":[[126.78923,37.57947],[126.78917,37.57951]]}},{"type":"Feature","properties":{"class":"minor","highway":"unclassified","sidewalk":"unknown","lanes":0,"name":"","oneway":false},"geometry":{"type":"LineString","coordinates":[[126.78917,37.57951],[126.78881,37.57973]]}},{"type":"Feature","properties":{"class":"minor","highway":"unclassified","sidewalk":"unknown","lanes":0,"name":"","oneway":false},"geometry":{"type":"LineString","coordinates":[[126.78058,37.57743],[126.78088,37.57724]]}},{"type":"Feature","properties":{"class":"minor","highway":"unclassified","sidewalk":"unknown","lanes":0,"name":"","oneway":false},"geometry":{"type":"LineString","coordinates":[[126.78881,37.57973],[126.78878,37.57975]]}},{"type":"Feature","properties":{"class":"minor","highway":"unclassified","sidewalk":"unknown","lanes":0,"name":"","oneway":false},"geometry":{"type":"LineString","coordinates":[[126.78088,37.57724],[126.78094,37.5772]]}},{"type":"Feature","properties":{"class":"minor","highway":"unclassified","sidewalk":"unknown","lanes":0,"name":"개화동로20길","oneway":false},"geometry":{"type":"LineString","coordinates":[[126.80132,37.57381],[126.80139,37.57368],[126.80146,37.57356],[126.80153,37.57344],[126.80161,37.57332],[126.80129,37.57308],[126.80124,37.573],[126.80063,37.57252],[126.7989,37.57117],[126.79774,37.5702]]}},{"type":"Feature","properties":{"class":"alley","highway":"service","sidewalk":"unknown","lanes":0,"name":"개화동로2길","oneway":false},"geometry":{"type":"LineString","coordinates":[[126.79739,37.58192],[126.79717,37.58228],[126.79708,37.58224],[126.79692,37.5821],[126.79679,37.58202],[126.79661,37.58194],[126.79419,37.58126],[126.79361,37.5811],[126.79141,37.58048],[126.78878,37.57975],[126.78331,37.57823],[126.78053,37.57746],[126.78043,37.57745],[126.78016,37.57735]]}},{"type":"Feature","properties":{"class":"alley","highway":"service","sidewalk":"unknown","lanes":0,"name":"개화동로4길","oneway":false},"geometry":{"type":"LineString","coordinates":[[126.79749,37.58198],[126.79739,37.58192],[126.79683,37.58162],[126.79647,37.58149],[126.79463,37.58098],[126.78923,37.57947],[126.78815,37.57918],[126.78661,37.57875],[126.78484,37.57827],[126.78481,37.57827],[126.78463,37.5782],[126.78444,37.57808],[126.78431,37.57796],[126.78416,37.57791],[126.78395,37.57791],[126.78377,37.57796],[126.78368,37.57796],[126.78094,37.5772],[126.77823,37.57645],[126.77795,37.57637],[126.77757,37.57623],[126.7772,37.57606],[126.77686,37.57584],[126.77669,37.5757],[126.77657,37.57554]]}},{"type":"Feature","properties":{"class":"minor","highway":"unclassified","sidewalk":"unknown","lanes":0,"name":"개화동로8길","oneway":false},"geometry":{"type":"LineString","coordinates":[[126.79582,37.57787],[126.79695,37.57719],[126.80096,37.57475],[126.80106,37.57469],[126.80112,37.57445],[126.80122,37.57413],[126.80124,37.57404],[126.80132,37.57381]]}},{"type":"Feature","properties":{"class":"minor","highway":"residential","sidewalk":"unknown","lanes":0,"name":"벌말로566번길","oneway":false},"geometry":{"type":"LineString","coordinates":[[126.7789,37.57891],[126.77906,37.57883],[126.77922,37.57847],[126.77932,37.57827],[126.77937,37.57819],[126.77943,37.57815],[126.78053,37.57746]]}},{"type":"Feature","properties":{"class":"alley","highway":"service","sidewalk":"unknown","lanes":0,"name":"개화동로20길","oneway":false},"geometry":{"type":"LineString","coordinates":[[126.79049,37.56637],[126.79038,37.56632],[126.78954,37.56566],[126.78946,37.56562],[126.78939,37.5656],[126.7893,37.5656],[126.78922,37.56561],[126.78915,37.56563],[126.78909,37.56567],[126.78731,37.56713],[126.78167,37.57157],[126.77657,37.57554],[126.77648,37.57562]]}},{"type":"Feature","properties":{"class":"minor","highway":"unclassified","sidewalk":"unknown","lanes":0,"name":"개화동로20길","oneway":false},"geometry":{"type":"LineString","coordinates":[[126.79774,37.5702],[126.79718,37.56976],[126.79542,37.56839],[126.7937,37.56703],[126.79226,37.56586],[126.79215,37.56582],[126.79208,37.5658],[126.79202,37.5658],[126.79194,37.56584],[126.79141,37.56629],[126.79124,37.56639],[126.79112,37.56645],[126.791,37.56648],[126.79092,37.56648],[126.79085,37.56647],[126.79049,37.56637]]}},{"type":"Feature","properties":{"class":"alley","highway":"service","sidewalk":"unknown","lanes":0,"name":"","oneway":false},"geometry":{"type":"LineString","coordinates":[[126.79847,37.56135],[126.79847,37.56148],[126.79847,37.56163],[126.79848,37.56177],[126.79848,37.56192],[126.79848,37.56206],[126.79848,37.56221],[126.79848,37.56232],[126.79848,37.56235],[126.79848,37.56236],[126.79848,37.56242],[126.79848,37.56247]]}},{"type":"Feature","properties":{"class":"alley","highway":"service","sidewalk":"unknown","lanes":0,"name":"","oneway":false},"geometry":{"type":"LineString","coordinates":[[126.79942,37.5621],[126.79945,37.56196],[126.79945,37.56191],[126.79945,37.56181],[126.79945,37.56177],[126.79945,37.56166],[126.79945,37.56161],[126.79945,37.56152],[126.79945,37.56147],[126.79944,37.56135],[126.79894,37.56135],[126.79847,37.56135],[126.79756,37.56135],[126.79703,37.56136],[126.79655,37.56135]]}},{"type":"Feature","properties":{"class":"alley","highway":"service","sidewalk":"unknown","lanes":0,"name":"","oneway":true},"geometry":{"type":"LineString","coordinates":[[126.79765,37.56273],[126.79761,37.56262]]}},{"type":"Feature","properties":{"class":"alley","highway":"service","sidewalk":"unknown","lanes":2,"name":"","oneway":true},"geometry":{"type":"LineString","coordinates":[[126.79834,37.56305],[126.79816,37.56294]]}},{"type":"Feature","properties":{"class":"alley","highway":"service","sidewalk":"unknown","lanes":3,"name":"","oneway":true},"geometry":{"type":"LineString","coordinates":[[126.79788,37.56281],[126.79765,37.56273]]}},{"type":"Feature","properties":{"class":"alley","highway":"service","sidewalk":"unknown","lanes":2,"name":"","oneway":true},"geometry":{"type":"LineString","coordinates":[[126.79816,37.56294],[126.79804,37.56287],[126.79788,37.56281]]}},{"type":"Feature","properties":{"class":"alley","highway":"service","sidewalk":"unknown","lanes":5,"name":"","oneway":true},"geometry":{"type":"LineString","coordinates":[[126.79856,37.56265],[126.79873,37.56261],[126.79916,37.56253],[126.79958,37.56244]]}},{"type":"Feature","properties":{"class":"alley","highway":"service","sidewalk":"unknown","lanes":0,"name":"","oneway":true},"geometry":{"type":"LineString","coordinates":[[126.79704,37.56249],[126.79706,37.56251]]}},{"type":"Feature","properties":{"class":"alley","highway":"service","sidewalk":"unknown","lanes":0,"name":"","oneway":false},"geometry":{"type":"LineString","coordinates":[[126.79701,37.56179],[126.79756,37.56178],[126.79848,37.56177],[126.79945,37.56177]]}},{"type":"Feature","properties":{"class":"alley","highway":"service","sidewalk":"unknown","lanes":0,"name":"","oneway":false},"geometry":{"type":"LineString","coordinates":[[126.79702,37.56193],[126.79756,37.56193],[126.79848,37.56192],[126.79931,37.56191],[126.79945,37.56191]]}},{"type":"Feature","properties":{"class":"alley","highway":"service","sidewalk":"unknown","lanes":0,"name":"","oneway":false},"geometry":{"type":"LineString","coordinates":[[126.79945,37.56152],[126.79981,37.56151],[126.8004,37.56151]]}},{"type":"Feature","properties":{"class":"alley","highway":"service","sidewalk":"unknown","lanes":0,"name":"","oneway":false},"geometry":{"type":"LineString","coordinates":[[126.79945,37.56166],[126.7998,37.56166],[126.80019,37.56167]]}},{"type":"Feature","properties":{"class":"alley","highway":"service","sidewalk":"unknown","lanes":0,"name":"","oneway":false},"geometry":{"type":"LineString","coordinates":[[126.79956,37.56194],[126.79981,37.56194]]}},{"type":"Feature","properties":{"class":"alley","highway":"service","sidewalk":"unknown","lanes":0,"name":"","oneway":false},"geometry":{"type":"LineString","coordinates":[[126.79945,37.56181],[126.79981,37.5618],[126.80001,37.5618]]}},{"type":"Feature","properties":{"class":"alley","highway":"service","sidewalk":"unknown","lanes":2,"name":"","oneway":true},"geometry":{"type":"LineString","coordinates":[[126.79765,37.56273],[126.79751,37.56269],[126.79721,37.56262]]}},{"type":"Feature","properties":{"class":"alley","highway":"service","sidewalk":"unknown","lanes":0,"name":"","oneway":false},"geometry":{"type":"LineString","coordinates":[[126.79702,37.56147],[126.79756,37.56149],[126.79847,37.56148],[126.79945,37.56147]]}},{"type":"Feature","properties":{"class":"alley","highway":"service","sidewalk":"unknown","lanes":2,"name":"","oneway":true},"geometry":{"type":"LineString","coordinates":[[126.79816,37.56294],[126.79814,37.56289],[126.79813,37.56285],[126.79812,37.56279],[126.79814,37.56272],[126.79817,37.56267],[126.7983,37.56266],[126.79856,37.56265]]}},{"type":"Feature","properties":{"class":"alley","highway":"service","sidewalk":"unknown","lanes":0,"name":"","oneway":false},"geometry":{"type":"LineString","coordinates":[[126.79702,37.56208],[126.79757,37.56207],[126.79848,37.56206],[126.79931,37.56205]]}},{"type":"Feature","properties":{"class":"alley","highway":"service","sidewalk":"unknown","lanes":0,"name":"","oneway":false},"geometry":{"type":"LineString","coordinates":[[126.79703,37.56222],[126.79757,37.56222],[126.79848,37.56221],[126.79931,37.5622]]}},{"type":"Feature","properties":{"class":"alley","highway":"service","sidewalk":"unknown","lanes":0,"name":"","oneway":true},"geometry":{"type":"LineString","coordinates":[[126.79721,37.56262],[126.79703,37.56257],[126.79691,37.56256],[126.79687,37.56255],[126.79685,37.56254],[126.79683,37.56252],[126.79682,37.5625],[126.79682,37.56243]]}},{"type":"Feature","properties":{"class":"alley","highway":"service","sidewalk":"unknown","lanes":0,"name":"","oneway":false},"geometry":{"type":"LineString","coordinates":[[126.79981,37.5618],[126.7998,37.56166],[126.79981,37.56151],[126.7998,37.56135]]}},{"type":"Feature","properties":{"class":"alley","highway":"service","sidewalk":"unknown","lanes":2,"name":"","oneway":true},"geometry":{"type":"LineString","coordinates":[[126.79706,37.56251],[126.7971,37.56254],[126.79714,37.56255],[126.79717,37.56256],[126.79734,37.56257],[126.79761,37.56262],[126.79788,37.56264],[126.79804,37.56265],[126.79817,37.56267]]}},{"type":"Feature","properties":{"class":"alley","highway":"service","sidewalk":"unknown","lanes":0,"name":"","oneway":false},"geometry":{"type":"LineString","coordinates":[[126.79658,37.56146],[126.79702,37.56147],[126.79702,37.56161]]}},{"type":"Feature","properties":{"class":"alley","highway":"service","sidewalk":"unknown","lanes":0,"name":"","oneway":false},"geometry":{"type":"LineString","coordinates":[[126.79758,37.56251],[126.79757,37.56237],[126.79757,37.56236],[126.79757,37.56222],[126.79757,37.56207],[126.79756,37.56193],[126.79756,37.56178],[126.79756,37.56164],[126.79756,37.56149],[126.79756,37.56135]]}},{"type":"Feature","properties":{"class":"alley","highway":"service","sidewalk":"unknown","lanes":0,"name":"","oneway":false},"geometry":{"type":"LineString","coordinates":[[126.79944,37.56135],[126.7998,37.56135],[126.80011,37.56134],[126.80013,37.56133],[126.80015,37.56133],[126.80017,37.56132],[126.80019,37.5613],[126.8002,37.56129],[126.8002,37.56125],[126.80021,37.56118],[126.80022,37.56103],[126.80023,37.56101],[126.80024,37.561],[126.80026,37.56099],[126.80028,37.56098],[126.80033,37.56099]]}},{"type":"Feature","properties":{"class":"alley","highway":"service","sidewalk":"unknown","lanes":0,"name":"","oneway":false},"geometry":{"type":"LineString","coordinates":[[126.79761,37.56262],[126.79758,37.56251],[126.79785,37.56251],[126.79802,37.5625],[126.79848,37.56247],[126.79887,37.56241],[126.79905,37.56238],[126.7992,37.56237],[126.79938,37.56238],[126.79958,37.56244]]}},{"type":"Feature","properties":{"class":"alley","highway":"service","sidewalk":"unknown","lanes":0,"name":"","oneway":true},"geometry":{"type":"LineString","coordinates":[[126.79702,37.56164],[126.79701,37.56179],[126.79702,37.56193],[126.79702,37.56201],[126.79702,37.56208],[126.79703,37.56222],[126.79703,37.56238],[126.79704,37.56249]]}},{"type":"Feature","properties":{"class":"alley","highway":"service","sidewalk":"unknown","lanes":5,"name":"하늘길","oneway":true},"geometry":{"type":"LineString","coordinates":[[126.8015,37.56246],[126.80113,37.56249],[126.80043,37.56256],[126.8002,37.56258],[126.80001,37.56258],[126.79988,37.56256],[126.79974,37.56253],[126.79969,37.56251],[126.79958,37.56244]]}},{"type":"Feature","properties":{"class":"alley","highway":"service","sidewalk":"unknown","lanes":0,"name":"","oneway":true},"geometry":{"type":"LineString","coordinates":[[126.79961,37.56282],[126.79964,37.56262],[126.79967,37.56247],[126.79969,37.56238],[126.79973,37.56229],[126.79978,37.56221],[126.79985,37.56215]]}},{"type":"Feature","properties":{"class":"alley","highway":"service","sidewalk":"unknown","lanes":0,"name":"","oneway":true},"geometry":{"type":"LineString","coordinates":[[126.79972,37.56412],[126.79958,37.56391],[126.79954,37.56381],[126.79952,37.56372],[126.79952,37.56363],[126.79954,37.56336]]}},{"type":"Feature","properties":{"class":"alley","highway":"service","sidewalk":"unknown","lanes":0,"name":"","oneway":false},"geometry":{"type":"LineString","coordinates":[[126.79687,37.57972],[126.79645,37.5796],[126.7948,37.57915],[126.79473,37.57931],[126.79353,37.57898],[126.79349,37.57908],[126.79347,37.57913],[126.79342,37.57924],[126.7946,37.57956],[126.79438,37.58008]]}},{"type":"Feature","properties":{"class":"alley","highway":"service","sidewalk":"unknown","lanes":0,"name":"","oneway":false},"geometry":{"type":"LineString","coordinates":[[126.79525,37.5781],[126.79517,37.57827],[126.79517,37.57833],[126.79508,37.57853],[126.79504,37.5786],[126.79502,37.57865],[126.795,37.5787],[126.79497,37.57877],[126.79494,37.57882],[126.79492,37.57887],[126.79489,37.57895],[126.79487,37.57899],[126.79485,37.57903],[126.79483,37.57907],[126.7948,37.57915]]}},{"type":"Feature","properties":{"class":"alley","highway":"service","sidewalk":"unknown","lanes":0,"name":"","oneway":false},"geometry":{"type":"LineString","coordinates":[[126.79339,37.58035],[126.79255,37.58012],[126.7923,37.58003],[126.79216,37.57997],[126.79192,37.57986],[126.79166,37.57972],[126.7914,37.57955],[126.79125,37.57945],[126.79112,37.57933],[126.78969,37.57807],[126.78951,37.57792],[126.78934,37.5778],[126.78917,37.5777],[126.78899,37.57761],[126.7888,37.57754],[126.78857,37.57746],[126.78739,37.57714],[126.786,37.57675]]}},{"type":"Feature","properties":{"class":"minor","highway":"unclassified","sidewalk":"unknown","lanes":0,"name":"","oneway":false},"geometry":{"type":"LineString","coordinates":[[126.79951,37.57895],[126.7991,37.57877]]}},{"type":"Feature","properties":{"class":"alley","highway":"service","sidewalk":"unknown","lanes":0,"name":"","oneway":false},"geometry":{"type":"LineString","coordinates":[[126.78756,37.57674],[126.78606,37.57647]]}},{"type":"Feature","properties":{"class":"alley","highway":"service","sidewalk":"unknown","lanes":0,"name":"","oneway":false},"geometry":{"type":"LineString","coordinates":[[126.79517,37.57827],[126.79683,37.57874]]}},{"type":"Feature","properties":{"class":"minor","highway":"unclassified","sidewalk":"unknown","lanes":0,"name":"","oneway":false},"geometry":{"type":"LineString","coordinates":[[126.79982,37.57906],[126.7997,37.57902]]}},{"type":"Feature","properties":{"class":"alley","highway":"service","sidewalk":"unknown","lanes":0,"name":"","oneway":false},"geometry":{"type":"LineString","coordinates":[[126.79645,37.5796],[126.79683,37.57874],[126.79686,37.57867]]}},{"type":"Feature","properties":{"class":"alley","highway":"service","sidewalk":"unknown","lanes":0,"name":"","oneway":false},"geometry":{"type":"LineString","coordinates":[[126.79678,37.5812],[126.79673,37.58118],[126.79653,37.58106],[126.79641,37.58098],[126.79632,37.58092],[126.79644,37.58064],[126.79648,37.58062],[126.79662,37.58031],[126.7968,37.5799],[126.79687,37.57972],[126.79695,37.57953],[126.797,37.57943],[126.79707,37.57927],[126.79719,37.579],[126.7972,37.57895],[126.79721,37.5789],[126.79717,37.57884],[126.7971,37.57879],[126.79686,37.57867],[126.79647,37.57848],[126.79632,37.57841],[126.7961,37.57834],[126.79525,37.5781],[126.79258,37.57735],[126.7925,37.57733],[126.79233,37.57729],[126.79223,37.57726],[126.79207,37.57723],[126.79195,37.57721],[126.79183,37.57721],[126.79068,37.57725],[126.79056,37.57725],[126.79043,37.57723],[126.79033,37.57721],[126.78976,37.57705],[126.78914,37.57688],[126.78835,37.57665],[126.78823,37.57663],[126.78778,37.57658],[126.78771,37.57658],[126.78766,37.57659],[126.78762,37.57662],[126.78756,37.57674]]}},{"type":"Feature","properties":{"class":"alley","highway":"service","sidewalk":"unknown","lanes":0,"name":"","oneway":false},"geometry":{"type":"LineString","coordinates":[[126.79707,37.57927],[126.79761,37.57942],[126.79767,37.57943],[126.79808,37.57954],[126.79814,37.57956]]}},{"type":"Feature","properties":{"class":"alley","highway":"service","sidewalk":"unknown","lanes":0,"name":"","oneway":false},"geometry":{"type":"LineString","coordinates":[[126.79438,37.58008],[126.7943,37.58026],[126.79352,37.58005],[126.79309,37.57993],[126.79337,37.57928],[126.79342,37.57924],[126.7932,37.57918]]}},{"type":"Feature","properties":{"class":"alley","highway":"service","sidewalk":"unknown","lanes":0,"name":"","oneway":false},"geometry":{"type":"LineString","coordinates":[[126.78739,37.57714],[126.78742,37.57706],[126.78744,37.57702],[126.78746,37.57698],[126.78747,37.57694],[126.78752,37.57683],[126.78756,37.57674]]}},{"type":"Feature","properties":{"class":"alley","highway":"service","sidewalk":"unknown","lanes":2,"name":"","oneway":true},"geometry":{"type":"LineString","coordinates":[[126.80004,37.56388],[126.79997,37.56381],[126.79986,37.56373],[126.79968,37.56364],[126.79912,37.56338],[126.79894,37.56329],[126.79877,37.56319],[126.79864,37.5631],[126.79853,37.56302],[126.79847,37.56295],[126.79844,37.56288],[126.79844,37.56283],[126.79845,37.56278],[126.79848,37.56273],[126.79856,37.56265]]}},{"type":"Feature","properties":{"class":"alley","highway":"service","sidewalk":"unknown","lanes":0,"name":"","oneway":false},"geometry":{"type":"LineString","coordinates":[[126.7997,37.57156],[126.79964,37.57145],[126.79956,37.57129],[126.79947,37.57113],[126.79943,37.57104],[126.79943,37.57101],[126.79944,37.57097],[126.79945,37.57094],[126.79948,37.5709],[126.79953,37.57088],[126.79959,37.57087],[126.79964,37.57087],[126.79971,37.57089],[126.79975,37.57091],[126.79978,37.57093],[126.79981,37.57096],[126.79982,37.571]]}},{"type":"Feature","properties":{"class":"minor","highway":"unclassified","sidewalk":"unknown","lanes":0,"name":"","oneway":false},"geometry":{"type":"LineString","coordinates":[[126.79923,37.57799],[126.80013,37.57838]]}},{"type":"Feature","properties":{"class":"major","highway":"motorway_link","sidewalk":"likely","lanes":0,"name":"","oneway":true},"geometry":{"type":"LineString","coordinates":[[126.79955,37.578],[126.79941,37.57821]]}},{"type":"Feature","properties":{"class":"major","highway":"motorway_link","sidewalk":"likely","lanes":1,"name":"","oneway":true},"geometry":{"type":"LineString","coordinates":[[126.79941,37.57821],[126.79917,37.57856]]}},{"type":"Feature","properties":{"class":"major","highway":"motorway_link","sidewalk":"likely","lanes":0,"name":"","oneway":true},"geometry":{"type":"LineString","coordinates":[[126.79936,37.57818],[126.7995,37.57798]]}},{"type":"Feature","properties":{"class":"alley","highway":"service","sidewalk":"unknown","lanes":0,"name":"","oneway":true},"geometry":{"type":"LineString","coordinates":[[126.79985,37.56215],[126.79991,37.5621],[126.79998,37.56204],[126.80032,37.56176],[126.80048,37.56163],[126.80055,37.56158]]}},{"type":"Feature","properties":{"class":"alley","highway":"service","sidewalk":"unknown","lanes":0,"name":"","oneway":true},"geometry":{"type":"LineString","coordinates":[[126.79916,37.56253],[126.79931,37.56243],[126.79938,37.56238],[126.79944,37.56234],[126.79946,37.56232],[126.79953,37.56226],[126.79956,37.56224],[126.79974,37.56211],[126.79984,37.56204],[126.79994,37.56195],[126.80015,37.56179],[126.80023,37.56174],[126.80033,37.56169],[126.80048,37.56163]]}},{"type":"Feature","properties":{"class":"minor","highway":"unclassified","sidewalk":"unknown","lanes":0,"name":"","oneway":false},"geometry":{"type":"LineString","coordinates":[[126.7997,37.57902],[126.79951,37.57895]]}},{"type":"Feature","properties":{"class":"major","highway":"primary","sidewalk":"likely","lanes":0,"name":"개화동로","oneway":true},"geometry":{"type":"LineString","coordinates":[[126.7997,37.57902],[126.80013,37.57838],[126.80121,37.57671],[126.80205,37.57547],[126.80251,37.57479],[126.80253,37.57476],[126.80268,37.57454],[126.80289,37.5742],[126.80315,37.57364],[126.80332,37.5731],[126.80339,37.57289],[126.80346,37.57264]]}},{"type":"Feature","properties":{"class":"major","highway":"primary","sidewalk":"likely","lanes":0,"name":"개화동로","oneway":true},"geometry":{"type":"LineString","coordinates":[[126.79982,37.57906],[126.7996,37.57939],[126.7993,37.57981],[126.79925,37.57989],[126.79878,37.58056],[126.79843,37.58106],[126.79781,37.58202],[126.79752,37.58259]]}},{"type":"Feature","properties":{"class":"alley","highway":"pedestrian","sidewalk":"unknown","lanes":0,"name":"개화동로7길","oneway":false},"geometry":{"type":"LineString","coordinates":[[126.79959,37.57993],[126.80026,37.57886]]}},{"type":"Feature","properties":{"class":"major","highway":"primary","sidewalk":"likely","lanes":0,"name":"개화동로","oneway":true},"geometry":{"type":"LineString","coordinates":[[126.7985,37.58073],[126.79938,37.57948],[126.7997,37.57902]]}},{"type":"Feature","properties":{"class":"alley","highway":"service","sidewalk":"unknown","lanes":0,"name":"","oneway":false},"geometry":{"type":"LineString","coordinates":[[126.79331,37.56284],[126.79314,37.563],[126.79252,37.56348],[126.79248,37.56351],[126.79241,37.56355],[126.79228,37.56361],[126.79226,37.56362],[126.79196,37.56379],[126.79189,37.56384],[126.79139,37.56421],[126.79133,37.56428],[126.79131,37.56433],[126.7913,37.56438],[126.7913,37.56442],[126.79131,37.56444],[126.79134,37.56447],[126.79352,37.56616],[126.79712,37.56904],[126.79948,37.5709]]}},{"type":"Feature","properties":{"class":"alley","highway":"service","sidewalk":"unknown","lanes":0,"name":"","oneway":false},"geometry":{"type":"LineString","coordinates":[[126.77703,37.56982],[126.77743,37.56951],[126.78004,37.56742],[126.78011,37.56737],[126.78015,37.56732],[126.78045,37.56698],[126.78049,37.56693],[126.78143,37.5658],[126.7815,37.56574],[126.78301,37.56453],[126.78304,37.5645],[126.78308,37.56448],[126.78334,37.56435],[126.78361,37.56422],[126.78365,37.5642]]}},{"type":"Feature","properties":{"class":"alley","highway":"service","sidewalk":"unknown","lanes":0,"name":"","oneway":false},"geometry":{"type":"LineString","coordinates":[[126.78365,37.5642],[126.78367,37.56419],[126.78368,37.56418],[126.7837,37.56416],[126.78601,37.56163],[126.78613,37.56152],[126.78894,37.55929],[126.78899,37.55925],[126.78902,37.55922],[126.78915,37.55907],[126.78933,37.55888]]}},{"type":"Feature","properties":{"class":"alley","highway":"service","sidewalk":"unknown","lanes":0,"name":"","oneway":false},"geometry":{"type":"LineString","coordinates":[[126.77701,37.56945],[126.7798,37.56724],[126.77992,37.56715],[126.78002,37.56708],[126.78013,37.56703],[126.78033,37.56695],[126.78042,37.56693],[126.78049,37.56693]]}},{"type":"Feature","properties":{"class":"alley","highway":"service","sidewalk":"unknown","lanes":0,"name":"","oneway":false},"geometry":{"type":"LineString","coordinates":[[126.79588,37.56107],[126.79572,37.56111],[126.79557,37.56114],[126.79544,37.56117],[126.79534,37.5612],[126.79529,37.56122],[126.79522,37.56126],[126.79514,37.56134],[126.79506,37.56143],[126.79482,37.56161],[126.7936,37.56259],[126.79338,37.56276],[126.79335,37.56279],[126.79331,37.56284],[126.79331,37.56287],[126.79331,37.56291],[126.79332,37.56294],[126.79333,37.56296],[126.79338,37.563],[126.79355,37.56314],[126.79399,37.56349],[126.79443,37.56384],[126.79487,37.56419],[126.79532,37.56454],[126.79559,37.56476]]}},{"type":"Feature","properties":{"class":"alley","highway":"service","sidewalk":"unknown","lanes":0,"name":"","oneway":false},"geometry":{"type":"LineString","coordinates":[[126.79981,37.56194],[126.79981,37.5618]]}},{"type":"Feature","properties":{"class":"alley","highway":"service","sidewalk":"unknown","lanes":0,"name":"","oneway":true},"geometry":{"type":"LineString","coordinates":[[126.79702,37.56161],[126.79702,37.56164]]}},{"type":"Feature","properties":{"class":"alley","highway":"service","sidewalk":"unknown","lanes":0,"name":"","oneway":false},"geometry":{"type":"LineString","coordinates":[[126.79702,37.56164],[126.79756,37.56164],[126.79847,37.56163],[126.79945,37.56161]]}},{"type":"Feature","properties":{"class":"alley","highway":"service","sidewalk":"unknown","lanes":0,"name":"","oneway":true},"geometry":{"type":"LineString","coordinates":[[126.79682,37.56243],[126.79681,37.56165],[126.79682,37.56163],[126.79683,37.56162],[126.79685,37.56161],[126.79686,37.56161],[126.79702,37.56161]]}},{"type":"Feature","properties":{"class":"alley","highway":"service","sidewalk":"unknown","lanes":0,"name":"","oneway":false},"geometry":{"type":"LineString","coordinates":[[126.79931,37.56191],[126.79931,37.56205],[126.79931,37.5622],[126.79931,37.56225],[126.79929,37.56227],[126.79928,37.56228],[126.79925,37.56228],[126.79922,37.56229],[126.79903,37.5623],[126.79885,37.56231],[126.79871,37.56232],[126.79864,37.56232],[126.79857,37.56232],[126.79848,37.56232]]}},{"type":"Feature","properties":{"class":"alley","highway":"service","sidewalk":"unknown","lanes":0,"name":"","oneway":false},"geometry":{"type":"LineString","coordinates":[[126.79703,37.56136],[126.79702,37.56147]]}},{"type":"Feature","properties":{"class":"alley","highway":"service","sidewalk":"unknown","lanes":0,"name":"","oneway":false},"geometry":{"type":"LineString","coordinates":[[126.78173,37.56012],[126.78168,37.56026],[126.78183,37.56039],[126.78199,37.56042],[126.78244,37.56042],[126.78288,37.56006],[126.7831,37.55989],[126.78355,37.55953],[126.78359,37.55946],[126.78359,37.5594],[126.78355,37.55931],[126.78343,37.55922],[126.78223,37.55828],[126.78298,37.55767],[126.78334,37.55738],[126.7839,37.55693]]}},{"type":"Feature","properties":{"class":"alley","highway":"service","sidewalk":"unknown","lanes":0,"name":"","oneway":false},"geometry":{"type":"LineString","coordinates":[[126.78288,37.56006],[126.7825,37.55977]]}},{"type":"Feature","properties":{"class":"alley","highway":"service","sidewalk":"unknown","lanes":0,"name":"","oneway":false},"geometry":{"type":"LineString","coordinates":[[126.7998,37.56692],[126.8002,37.56724],[126.80083,37.56773],[126.80139,37.56818],[126.80199,37.56865],[126.80237,37.56898],[126.80276,37.56931]]}},{"type":"Feature","properties":{"class":"alley","highway":"service","sidewalk":"unknown","lanes":0,"name":"","oneway":false},"geometry":{"type":"LineString","coordinates":[[126.79999,37.5708],[126.79993,37.57086],[126.79982,37.571]]}},{"type":"Feature","properties":{"class":"alley","highway":"service","sidewalk":"unknown","lanes":0,"name":"","oneway":false},"geometry":{"type":"LineString","coordinates":[[126.79964,37.57087],[126.79988,37.57082],[126.79999,37.5708]]}},{"type":"Feature","properties":{"class":"alley","highway":"service","sidewalk":"unknown","lanes":0,"name":"","oneway":false},"geometry":{"type":"LineString","coordinates":[[126.79999,37.5708],[126.80022,37.57062],[126.80059,37.57033],[126.8008,37.57018],[126.80086,37.57013],[126.80105,37.56999],[126.80138,37.56974],[126.80163,37.56954],[126.80177,37.56943],[126.80211,37.56917],[126.80237,37.56898],[126.80273,37.5687],[126.80302,37.56848]]}},{"type":"Feature","properties":{"class":"alley","highway":"service","sidewalk":"unknown","lanes":0,"name":"","oneway":true},"geometry":{"type":"LineString","coordinates":[[126.79945,37.57759],[126.79943,37.57754],[126.79931,37.57747],[126.79922,37.57745],[126.79915,37.57744],[126.79857,37.57729],[126.79784,37.5771],[126.79775,37.57708],[126.7977,37.57706],[126.79767,37.57704],[126.79766,37.57701],[126.79765,37.57697],[126.79765,37.57693],[126.79767,37.57688]]}},{"type":"Feature","properties":{"class":"alley","highway":"service","sidewalk":"unknown","lanes":0,"name":"","oneway":true},"geometry":{"type":"LineString","coordinates":[[126.79767,37.57688],[126.79779,37.57681],[126.79812,37.57661],[126.79845,37.57641],[126.79879,37.5762],[126.79909,37.57602],[126.79939,37.57583],[126.79969,37.57565],[126.79992,37.57551]]}},{"type":"Feature","properties":{"class":"alley","highway":"service","sidewalk":"unknown","lanes":0,"name":"","oneway":false},"geometry":{"type":"LineString","coordinates":[[126.79992,37.57551],[126.80015,37.57557],[126.8002,37.5756],[126.80023,37.57565],[126.80024,37.57569],[126.80024,37.57574],[126.80013,37.57591],[126.79999,37.57613],[126.79986,37.57633],[126.79972,37.57654],[126.79961,37.57671],[126.79944,37.57697]]}},{"type":"Feature","properties":{"class":"alley","highway":"service","sidewalk":"unknown","lanes":0,"name":"","oneway":false},"geometry":{"type":"LineString","coordinates":[[126.79944,37.57697],[126.7993,37.5772],[126.79915,37.57744]]}},{"type":"Feature","properties":{"class":"alley","highway":"service","sidewalk":"unknown","lanes":0,"name":"","oneway":false},"geometry":{"type":"LineString","coordinates":[[126.79944,37.57697],[126.79812,37.57661]]}},{"type":"Feature","properties":{"class":"alley","highway":"service","sidewalk":"unknown","lanes":0,"name":"","oneway":true},"geometry":{"type":"LineString","coordinates":[[126.79879,37.5762],[126.79961,37.57641],[126.79965,37.57643],[126.79968,37.57646],[126.7997,37.57649],[126.79972,37.57654]]}},{"type":"Feature","properties":{"class":"alley","highway":"service","sidewalk":"unknown","lanes":0,"name":"","oneway":true},"geometry":{"type":"LineString","coordinates":[[126.79909,37.57602],[126.79973,37.57618],[126.79976,37.5762],[126.79979,37.57622],[126.79981,37.57625],[126.79983,37.57628],[126.79986,37.57633]]}},{"type":"Feature","properties":{"class":"alley","highway":"service","sidewalk":"unknown","lanes":0,"name":"","oneway":true},"geometry":{"type":"LineString","coordinates":[[126.79939,37.57583],[126.79987,37.57596],[126.79991,37.57599],[126.79995,37.57602],[126.79998,37.57606],[126.79999,37.57613]]}},{"type":"Feature","properties":{"class":"alley","highway":"service","sidewalk":"unknown","lanes":0,"name":"","oneway":true},"geometry":{"type":"LineString","coordinates":[[126.79969,37.57565],[126.80005,37.57574],[126.80008,37.57577],[126.8001,37.5758],[126.80011,37.57583],[126.80013,37.57591]]}},{"type":"Feature","properties":{"class":"alley","highway":"service","sidewalk":"unknown","lanes":0,"name":"","oneway":false},"geometry":{"type":"LineString","coordinates":[[126.79845,37.57641],[126.79961,37.57671]]}},{"type":"Feature","properties":{"class":"alley","highway":"service","sidewalk":"unknown","lanes":0,"name":"","oneway":true},"geometry":{"type":"LineString","coordinates":[[126.79857,37.57729],[126.79852,37.57731],[126.79846,37.57737],[126.7984,37.57748],[126.79836,37.57749],[126.79754,37.57729]]}},{"type":"Feature","properties":{"class":"alley","highway":"service","sidewalk":"unknown","lanes":0,"name":"","oneway":true},"geometry":{"type":"LineString","coordinates":[[126.79784,37.5771],[126.79764,37.57724],[126.79754,37.57729],[126.79709,37.57757],[126.79704,37.57762],[126.79702,37.57767],[126.79701,37.57772],[126.79704,37.5778],[126.79709,37.57785],[126.7972,37.57793],[126.7973,37.57796],[126.79743,37.57797],[126.79773,37.57802],[126.79788,37.57807],[126.79827,37.57816],[126.79832,37.57819],[126.79846,37.57836]]}},{"type":"Feature","properties":{"class":"alley","highway":"service","sidewalk":"unknown","lanes":0,"name":"","oneway":true},"geometry":{"type":"LineString","coordinates":[[126.79744,37.57829],[126.79738,37.57826],[126.79728,37.57821],[126.79704,37.5779],[126.79682,37.5776],[126.79673,37.57748]]}},{"type":"Feature","properties":{"class":"alley","highway":"service","sidewalk":"unknown","lanes":0,"name":"","oneway":true},"geometry":{"type":"LineString","coordinates":[[126.79704,37.5779],[126.7966,37.57779],[126.79655,37.57776],[126.79653,37.57774],[126.79651,37.57771],[126.79652,37.57767],[126.79653,37.57763],[126.79655,37.5776],[126.79659,37.57756],[126.79673,37.57748],[126.79744,37.57705],[126.79767,37.57688]]}},{"type":"Feature","properties":{"class":"alley","highway":"service","sidewalk":"unknown","lanes":0,"name":"","oneway":true},"geometry":{"type":"LineString","coordinates":[[126.79744,37.57705],[126.79752,37.57704],[126.79758,37.57705],[126.79762,37.57707],[126.79764,37.57709],[126.79765,37.57712],[126.79766,37.57717],[126.79767,37.5772],[126.79764,37.57724]]}},{"type":"Feature","properties":{"class":"alley","highway":"service","sidewalk":"unknown","lanes":0,"name":"","oneway":true},"geometry":{"type":"LineString","coordinates":[[126.79728,37.57821],[126.79743,37.57797],[126.79769,37.57755],[126.79896,37.57788],[126.79923,37.57799]]}},{"type":"Feature","properties":{"class":"alley","highway":"service","sidewalk":"unknown","lanes":0,"name":"","oneway":true},"geometry":{"type":"LineString","coordinates":[[126.79747,37.57809],[126.79754,37.57808],[126.79763,37.57809],[126.79786,37.57815],[126.79791,37.57816],[126.79828,37.57825],[126.79832,37.57826],[126.79846,37.57836]]}},{"type":"Feature","properties":{"class":"alley","highway":"service","sidewalk":"unknown","lanes":0,"name":"","oneway":true},"geometry":{"type":"LineString","coordinates":[[126.79747,37.57809],[126.79753,37.5781],[126.7976,37.57813],[126.79765,37.57817],[126.7977,37.5782],[126.79775,37.57822],[126.79782,37.57824],[126.79855,37.57843]]}},{"type":"Feature","properties":{"class":"alley","highway":"service","sidewalk":"unknown","lanes":0,"name":"","oneway":false},"geometry":{"type":"LineString","coordinates":[[126.79779,37.57681],[126.7993,37.5772]]}},{"type":"Feature","properties":{"class":"major","highway":"motorway_link","sidewalk":"likely","lanes":1,"name":"","oneway":true},"geometry":{"type":"LineString","coordinates":[[126.7995,37.57798],[126.80048,37.57657]]}},{"type":"Feature","properties":{"class":"minor","highway":"unclassified","sidewalk":"unknown","lanes":0,"name":"개화동로8길","oneway":false},"geometry":{"type":"LineString","coordinates":[[126.79744,37.57829],[126.79706,37.5782]]}},{"type":"Feature","properties":{"class":"alley","highway":"service","sidewalk":"unknown","lanes":0,"name":"","oneway":true},"geometry":{"type":"LineString","coordinates":[[126.79855,37.57843],[126.79869,37.57853],[126.79873,37.57856],[126.79878,37.57865]]}},{"type":"Feature","properties":{"class":"alley","highway":"service","sidewalk":"unknown","lanes":0,"name":"","oneway":false},"geometry":{"type":"LineString","coordinates":[[126.79848,37.56236],[126.79757,37.56237],[126.79703,37.56238]]}},{"type":"Feature","properties":{"class":"alley","highway":"service","sidewalk":"unknown","lanes":0,"name":"","oneway":false},"geometry":{"type":"LineString","coordinates":[[126.78914,37.57688],[126.7891,37.57698],[126.78909,37.57703],[126.78907,37.57707],[126.78906,37.57709]]}},{"type":"Feature","properties":{"class":"alley","highway":"service","sidewalk":"unknown","lanes":0,"name":"","oneway":false},"geometry":{"type":"LineString","coordinates":[[126.78976,37.57705],[126.78971,37.57715],[126.78969,37.5772],[126.78967,37.57724],[126.78966,37.57727]]}},{"type":"Feature","properties":{"class":"alley","highway":"service","sidewalk":"unknown","lanes":0,"name":"","oneway":true},"geometry":{"type":"LineString","coordinates":[[126.79682,37.5776],[126.7969,37.57763],[126.79697,37.57763],[126.79704,37.57762]]}},{"type":"Feature","properties":{"class":"alley","highway":"service","sidewalk":"unknown","lanes":0,"name":"","oneway":false},"geometry":{"type":"LineString","coordinates":[[126.79773,37.57934],[126.79771,37.57929]]}},{"type":"Feature","properties":{"class":"alley","highway":"service","sidewalk":"unknown","lanes":0,"name":"","oneway":false},"geometry":{"type":"LineString","coordinates":[[126.799,37.57757],[126.79915,37.57762],[126.79925,37.57764]]}},{"type":"Feature","properties":{"class":"alley","highway":"service","sidewalk":"unknown","lanes":0,"name":"","oneway":false},"geometry":{"type":"LineString","coordinates":[[126.7978,37.57886],[126.7977,37.57909],[126.79761,37.57909]]}},{"type":"Feature","properties":{"class":"alley","highway":"service","sidewalk":"unknown","lanes":0,"name":"","oneway":false},"geometry":{"type":"LineString","coordinates":[[126.79922,37.57745],[126.79915,37.57762],[126.79909,37.57776]]}},{"type":"Feature","properties":{"class":"alley","highway":"service","sidewalk":"unknown","lanes":0,"name":"","oneway":false},"geometry":{"type":"LineString","coordinates":[[126.79767,37.57943],[126.79773,37.57934],[126.79779,37.57925],[126.79794,37.5789],[126.7978,37.57886],[126.79765,37.57881],[126.79758,37.57897],[126.79761,37.57909],[126.79771,37.57929]]}},{"type":"Feature","properties":{"class":"alley","highway":"service","sidewalk":"unknown","lanes":0,"name":"","oneway":false},"geometry":{"type":"LineString","coordinates":[[126.79892,37.57771],[126.79909,37.57776],[126.79919,37.57779]]}},{"type":"Feature","properties":{"class":"alley","highway":"service","sidewalk":"unknown","lanes":0,"name":"","oneway":true},"geometry":{"type":"LineString","coordinates":[[126.79992,37.57551],[126.80011,37.57541],[126.80046,37.57518]]}},{"type":"Feature","properties":{"class":"minor","highway":"unclassified","sidewalk":"unknown","lanes":2,"name":"","oneway":false},"geometry":{"type":"LineString","coordinates":[[126.79943,37.5777],[126.79923,37.57799],[126.79878,37.57865]]}},{"type":"Feature","properties":{"class":"alley","highway":"pedestrian","sidewalk":"unknown","lanes":0,"name":"개화동로7길","oneway":false},"geometry":{"type":"LineString","coordinates":[[126.79954,37.58001],[126.79959,37.57993]]}},{"type":"Feature","properties":{"class":"alley","highway":"service","sidewalk":"unknown","lanes":0,"name":"","oneway":false},"geometry":{"type":"LineString","coordinates":[[126.78484,37.57827],[126.7849,37.57818],[126.78559,37.57777],[126.78564,37.57773],[126.78563,37.57768],[126.78559,37.57759],[126.78521,37.57719]]}},{"type":"Feature","properties":{"class":"alley","highway":"service","sidewalk":"unknown","lanes":0,"name":"","oneway":false},"geometry":{"type":"LineString","coordinates":[[126.78815,37.57918],[126.78846,37.57849]]}},{"type":"Feature","properties":{"class":"alley","highway":"service","sidewalk":"unknown","lanes":0,"name":"","oneway":false},"geometry":{"type":"LineString","coordinates":[[126.79539,37.56219],[126.79593,37.56166]]}},{"type":"Feature","properties":{"class":"alley","highway":"service","sidewalk":"unknown","lanes":0,"name":"","oneway":false},"geometry":{"type":"LineString","coordinates":[[126.79598,37.56263],[126.79632,37.56261],[126.79656,37.56272],[126.79667,37.56274],[126.79697,37.56278],[126.79757,37.56293],[126.79763,37.56296],[126.79765,37.56299],[126.79766,37.56307],[126.79764,37.56338]]}},{"type":"Feature","properties":{"class":"alley","highway":"service","sidewalk":"unknown","lanes":0,"name":"개화동로8길","oneway":false},"geometry":{"type":"LineString","coordinates":[[126.7991,37.57877],[126.79878,37.57865]]}},{"type":"Feature","properties":{"class":"alley","highway":"service","sidewalk":"unknown","lanes":0,"name":"","oneway":true},"geometry":{"type":"LineString","coordinates":[[126.79738,37.57826],[126.79734,37.57823],[126.79735,37.57819],[126.79738,37.57814],[126.79742,37.5781],[126.79747,37.57809]]}},{"type":"Feature","properties":{"class":"alley","highway":"service","sidewalk":"unknown","lanes":0,"name":"","oneway":true},"geometry":{"type":"LineString","coordinates":[[126.79846,37.57836],[126.79855,37.57843]]}},{"type":"Feature","properties":{"class":"alley","highway":"service","sidewalk":"unknown","lanes":0,"name":"","oneway":false},"geometry":{"type":"LineString","coordinates":[[126.7968,37.5799],[126.79696,37.57994],[126.79715,37.57998],[126.79732,37.58003]]}},{"type":"Feature","properties":{"class":"alley","highway":"service","sidewalk":"unknown","lanes":0,"name":"","oneway":false},"geometry":{"type":"LineString","coordinates":[[126.79662,37.58031],[126.79678,37.58035],[126.79696,37.5804],[126.79712,37.58044],[126.79732,37.58003],[126.79751,37.57959]]}},{"type":"Feature","properties":{"class":"alley","highway":"service","sidewalk":"unknown","lanes":0,"name":"","oneway":false},"geometry":{"type":"LineString","coordinates":[[126.79678,37.58035],[126.79696,37.57994],[126.79717,37.57949]]}},{"type":"Feature","properties":{"class":"alley","highway":"service","sidewalk":"unknown","lanes":0,"name":"","oneway":false},"geometry":{"type":"LineString","coordinates":[[126.79696,37.5804],[126.79715,37.57998],[126.79734,37.57954]]}},{"type":"Feature","properties":{"class":"alley","highway":"service","sidewalk":"unknown","lanes":0,"name":"","oneway":true},"geometry":{"type":"LineString","coordinates":[[126.797,37.57943],[126.79717,37.57949],[126.79734,37.57954],[126.79751,37.57959]]}},{"type":"Feature","properties":{"class":"alley","highway":"service","sidewalk":"unknown","lanes":0,"name":"","oneway":true},"geometry":{"type":"LineString","coordinates":[[126.79958,37.56244],[126.79946,37.56232],[126.79944,37.56229],[126.79942,37.56226],[126.79942,37.56221],[126.79942,37.5621],[126.79947,37.5622],[126.7995,37.56224],[126.79953,37.56226],[126.79972,37.56239],[126.79981,37.56239]]}},{"type":"Feature","properties":{"class":"alley","highway":"service","sidewalk":"unknown","lanes":0,"name":"","oneway":true},"geometry":{"type":"LineString","coordinates":[[126.79945,37.56196],[126.7995,37.56207],[126.79954,37.5621],[126.79958,37.56211],[126.79963,37.56212],[126.79974,37.56211]]}},{"type":"Feature","properties":{"class":"alley","highway":"service","sidewalk":"unknown","lanes":0,"name":"","oneway":true},"geometry":{"type":"LineString","coordinates":[[126.79802,37.5625],[126.798,37.56253],[126.79799,37.56255],[126.798,37.56259],[126.79801,37.56263],[126.79804,37.56265]]}},{"type":"Feature","properties":{"class":"alley","highway":"service","sidewalk":"unknown","lanes":0,"name":"","oneway":true},"geometry":{"type":"LineString","coordinates":[[126.80037,37.56429],[126.79999,37.56408],[126.79942,37.56377],[126.79929,37.5637],[126.79922,37.56362],[126.79905,37.56343],[126.79894,37.56329]]}},{"type":"Feature","properties":{"class":"alley","highway":"service","sidewalk":"unknown","lanes":0,"name":"","oneway":true},"geometry":{"type":"LineString","coordinates":[[126.79994,37.56456],[126.79995,37.56457],[126.80008,37.56467],[126.80022,37.56478],[126.79986,37.56505],[126.79972,37.56494],[126.79959,37.56485],[126.79946,37.56474],[126.79933,37.56464],[126.7992,37.56454],[126.79955,37.56426],[126.79968,37.56437],[126.79981,37.56447],[126.79994,37.56456]]}},{"type":"Feature","properties":{"class":"alley","highway":"service","sidewalk":"unknown","lanes":0,"name":"","oneway":true},"geometry":{"type":"LineString","coordinates":[[126.80077,37.56492],[126.80049,37.56483],[126.80045,37.56481],[126.80035,37.56476],[126.80005,37.5645],[126.80001,37.5645],[126.79994,37.56456]]}},{"type":"Feature","properties":{"class":"alley","highway":"service","sidewalk":"unknown","lanes":0,"name":"","oneway":false},"geometry":{"type":"LineString","coordinates":[[126.80008,37.56467],[126.79972,37.56494]]}},{"type":"Feature","properties":{"class":"alley","highway":"service","sidewalk":"unknown","lanes":0,"name":"","oneway":false},"geometry":{"type":"LineString","coordinates":[[126.79995,37.56457],[126.79959,37.56485]]}},{"type":"Feature","properties":{"class":"alley","highway":"service","sidewalk":"unknown","lanes":0,"name":"","oneway":false},"geometry":{"type":"LineString","coordinates":[[126.79981,37.56447],[126.79946,37.56474]]}},{"type":"Feature","properties":{"class":"alley","highway":"service","sidewalk":"unknown","lanes":0,"name":"","oneway":false},"geometry":{"type":"LineString","coordinates":[[126.79968,37.56437],[126.79933,37.56464]]}},{"type":"Feature","properties":{"class":"alley","highway":"service","sidewalk":"unknown","lanes":0,"name":"","oneway":true},"geometry":{"type":"LineString","coordinates":[[126.80011,37.5644],[126.79972,37.56412],[126.79932,37.56382]]}},{"type":"Feature","properties":{"class":"alley","highway":"service","sidewalk":"unknown","lanes":0,"name":"","oneway":true},"geometry":{"type":"LineString","coordinates":[[126.79954,37.56336],[126.79961,37.56282]]}},{"type":"Feature","properties":{"class":"major","highway":"primary_link","sidewalk":"likely","lanes":1,"name":"","oneway":true},"geometry":{"type":"LineString","coordinates":[[126.79938,37.57948],[126.79944,37.57948],[126.79946,37.57948],[126.79947,37.57947],[126.79955,37.57937],[126.79956,37.57936],[126.79958,37.57936],[126.79959,37.57937],[126.7996,37.57937],[126.7996,37.57938],[126.7996,37.57939]]}}]}