{"type":"FeatureCollection","features":[{"type":"Feature","properties":{"class":"major","highway":"secondary","sidewalk":"likely","lanes":0,"name":"올림픽로","oneway":false},"geometry":{"type":"LineString","coordinates":[[127.13397,37.56468],[127.13329,37.56427],[127.13312,37.56404]]}},{"type":"Feature","properties":{"class":"major","highway":"trunk","sidewalk":"likely","lanes":4,"name":"올림픽대로","oneway":true},"geometry":{"type":"LineString","coordinates":[[127.12942,37.56229],[127.12911,37.56197],[127.12843,37.56111],[127.12763,37.56009]]}},{"type":"Feature","properties":{"class":"major","highway":"tertiary","sidewalk":"likely","lanes":0,"name":"토평강변로","oneway":true},"geometry":{"type":"LineString","coordinates":[[127.11947,37.56937],[127.11958,37.56934],[127.1198,37.56939],[127.12057,37.5697],[127.12093,37.56985],[127.12258,37.57056],[127.12333,37.57086],[127.12365,37.57099]]}},{"type":"Feature","properties":{"class":"major","highway":"secondary","sidewalk":"likely","lanes":2,"name":"사가정로","oneway":true},"geometry":{"type":"LineString","coordinates":[[127.12337,37.5768],[127.12235,37.57717],[127.12132,37.57744],[127.11952,37.57778],[127.11329,37.57869],[127.10443,37.58001],[127.10113,37.58029],[127.09794,37.5805],[127.0949,37.58051],[127.09339,37.58055]]}},{"type":"Feature","properties":{"class":"major","highway":"trunk","sidewalk":"likely","lanes":3,"name":"강변북로","oneway":true},"geometry":{"type":"LineString","coordinates":[[127.12281,37.56916],[127.1221,37.5686],[127.12143,37.56803],[127.12088,37.56749],[127.12049,37.56711],[127.12015,37.56678],[127.11978,37.56638],[127.11919,37.56571]]}},{"type":"Feature","properties":{"class":"major","highway":"tertiary","sidewalk":"yes","lanes":2,"name":"아치울길","oneway":false},"geometry":{"type":"LineString","coordinates":[[127.12214,37.57358],[127.12202,37.57361],[127.12191,37.57364],[127.12184,37.57365],[127.12137,37.57375],[127.12061,37.57408],[127.12016,37.57426],[127.11978,37.57442],[127.11972,37.57445],[127.11913,37.5747],[127.11882,37.57482],[127.11842,37.57499],[127.11833,37.57502],[127.11787,37.57515],[127.11725,37.57515],[127.11674,37.57526],[127.11647,37.57549],[127.11633,37.5758],[127.1162,37.57593],[127.11565,37.57618]]}},{"type":"Feature","properties":{"class":"major","highway":"primary_link","sidewalk":"likely","lanes":0,"name":"","oneway":true},"geometry":{"type":"LineString","coordinates":[[127.12072,37.56985],[127.1205,37.5698],[127.12047,37.5698],[127.12028,37.56978],[127.12018,37.56982],[127.12011,37.56989],[127.12009,37.57004]]}},{"type":"Feature","properties":{"class":"major","highway":"primary","sidewalk":"yes","lanes":3,"name":"아차산로","oneway":true},"geometry":{"type":"LineString","coordinates":[[127.13019,37.58757],[127.13016,37.58697],[127.13014,37.58682],[127.13009,37.58614],[127.13005,37.58596],[127.13001,37.58582],[127.12996,37.5856],[127.12988,37.58525],[127.12972,37.58468],[127.12957,37.58413],[127.12947,37.5836],[127.12918,37.58222],[127.12911,37.58195],[127.12892,37.5814],[127.1289,37.58127],[127.12863,37.5806],[127.12834,37.58004],[127.1277,37.57916],[127.12744,37.5789],[127.12727,37.57874],[127.12702,37.57849],[127.12665,37.57816],[127.12615,37.57777],[127.12539,37.57725],[127.12467,37.57678],[127.12439,37.57656],[127.12389,37.57615]]}},{"type":"Feature","properties":{"class":"alley","highway":"service","sidewalk":"unknown","lanes":0,"name":"","oneway":false},"geometry":{"type":"LineString","coordinates":[[127.11849,37.56847],[127.11912,37.5682],[127.11969,37.56815],[127.11992,37.56808],[127.12044,37.56756],[127.12062,37.56754],[127.12147,37.56827]]}},{"type":"Feature","properties":{"class":"major","highway":"secondary","sidewalk":"likely","lanes":3,"name":"사가정로","oneway":true},"geometry":{"type":"LineString","coordinates":[[127.12604,37.5749],[127.12625,37.57474],[127.12681,37.57431],[127.12759,37.5737],[127.12779,37.57352],[127.12812,37.57322]]}},{"type":"Feature","properties":{"class":"major","highway":"trunk","sidewalk":"likely","lanes":4,"name":"올림픽대로","oneway":true},"geometry":{"type":"LineString","coordinates":[[127.13647,37.56639],[127.13711,37.56658],[127.13803,37.5668],[127.13907,37.56689],[127.13951,37.5669],[127.13973,37.56688],[127.14012,37.56686],[127.14163,37.56677],[127.14319,37.56665],[127.14638,37.56634],[127.1466,37.56632],[127.1467,37.56632],[127.14732,37.5663],[127.1476,37.5663],[127.14785,37.5663],[127.14822,37.56632],[127.1488,37.56638],[127.1494,37.56646],[127.15002,37.56659],[127.15074,37.56681],[127.15141,37.56707],[127.15153,37.56712],[127.15253,37.56756],[127.15705,37.56957],[127.15768,37.56986],[127.15822,37.5701]]}},{"type":"Feature","properties":{"class":"major","highway":"primary","sidewalk":"likely","lanes":0,"name":"양재대로","oneway":true},"geometry":{"type":"LineString","coordinates":[[127.13552,37.56488],[127.13657,37.56387],[127.1372,37.5633],[127.1374,37.56313],[127.13819,37.56253],[127.13907,37.56193],[127.14065,37.56104],[127.14078,37.56103]]}},{"type":"Feature","properties":{"class":"minor","highway":"residential","sidewalk":"unknown","lanes":0,"name":"아리수로25나길","oneway":false},"geometry":{"type":"LineString","coordinates":[[127.13736,37.56052],[127.13776,37.56029],[127.13701,37.55936]]}},{"type":"Feature","properties":{"class":"minor","highway":"residential","sidewalk":"unknown","lanes":0,"name":"아리수로25나길","oneway":false},"geometry":{"type":"LineString","coordinates":[[127.13736,37.56052],[127.13662,37.55955]]}},{"type":"Feature","properties":{"class":"minor","highway":"residential","sidewalk":"unknown","lanes":0,"name":"아리수로25길","oneway":false},"geometry":{"type":"LineString","coordinates":[[127.13654,37.56061],[127.1363,37.56076],[127.13569,37.56017]]}},{"type":"Feature","properties":{"class":"minor","highway":"residential","sidewalk":"unknown","lanes":0,"name":"아리수로25길","oneway":false},"geometry":{"type":"LineString","coordinates":[[127.13503,37.56071],[127.13516,37.56031],[127.13569,37.56017],[127.13583,37.56013],[127.13591,37.56008],[127.13604,37.5599],[127.13612,37.55982],[127.13651,37.55961],[127.13662,37.55955],[127.13701,37.55936],[127.13722,37.55925],[127.13724,37.55891],[127.13651,37.55891]]}},{"type":"Feature","properties":{"class":"minor","highway":"residential","sidewalk":"unknown","lanes":0,"name":"아리수로25길","oneway":false},"geometry":{"type":"LineString","coordinates":[[127.13252,37.5586],[127.13246,37.55905],[127.1325,37.55909],[127.13279,37.55936],[127.13312,37.55973],[127.13314,37.55975],[127.13328,37.55982],[127.13341,37.55985],[127.13368,37.55989],[127.13397,37.55988],[127.13442,37.56001],[127.13477,37.56014],[127.13516,37.56031]]}},{"type":"Feature","properties":{"class":"major","highway":"primary_link","sidewalk":"likely","lanes":0,"name":"","oneway":true},"geometry":{"type":"LineString","coordinates":[[127.12674,37.57467],[127.12669,37.57478],[127.12668,37.57484],[127.12655,37.57499],[127.12643,37.5751]]}},{"type":"Feature","properties":{"class":"major","highway":"trunk_link","sidewalk":"likely","lanes":0,"name":"","oneway":true},"geometry":{"type":"LineString","coordinates":[[127.13108,37.57428],[127.13063,37.57422],[127.13032,37.57415],[127.13009,37.57406],[127.12991,37.57395],[127.12963,37.57377],[127.12926,37.57363],[127.12889,37.57345],[127.12874,37.57338],[127.12812,37.57306],[127.1279,37.57296],[127.12768,37.57288],[127.12745,37.57282],[127.12724,37.57282],[127.12713,37.57283],[127.127,37.57287],[127.12689,37.57294],[127.12681,37.57304],[127.12677,37.57315],[127.12676,37.57325],[127.12678,37.57335],[127.12683,37.57346],[127.12694,37.57356],[127.12706,37.57362],[127.12717,37.57366],[127.12727,37.57367],[127.12744,37.57366],[127.12756,37.57362],[127.12779,37.57352]]}},{"type":"Feature","properties":{"class":"major","highway":"trunk_link","sidewalk":"likely","lanes":0,"name":"","oneway":true},"geometry":{"type":"LineString","coordinates":[[127.12668,37.57405],[127.12673,37.57392],[127.12675,37.5738],[127.12676,37.57369],[127.12674,37.57358],[127.12671,37.57342],[127.12657,37.57322]]}},{"type":"Feature","properties":{"class":"major","highway":"trunk_link","sidewalk":"likely","lanes":0,"name":"","oneway":true},"geometry":{"type":"LineString","coordinates":[[127.12823,37.57327],[127.12803,37.57356],[127.12795,37.57377],[127.12795,37.57393],[127.12801,37.57408],[127.12809,37.57418],[127.12818,37.57423],[127.12827,37.57427],[127.12841,37.57429],[127.12851,37.57429],[127.1286,37.57429],[127.1287,37.57426],[127.12883,37.57419],[127.12888,37.57414],[127.12894,37.57407],[127.12898,37.574],[127.129,37.5739],[127.12899,37.57381],[127.12898,37.57378],[127.12896,37.57372],[127.12886,37.57359],[127.12874,37.57349],[127.12865,37.57342],[127.12838,37.57328],[127.12799,37.57309],[127.12759,37.5729]]}},{"type":"Feature","properties":{"class":"major","highway":"trunk_link","sidewalk":"likely","lanes":0,"name":"","oneway":true},"geometry":{"type":"LineString","coordinates":[[127.12981,37.57183],[127.12967,37.57212],[127.1296,37.5723],[127.12957,37.57245],[127.12957,37.57261],[127.12958,37.57272],[127.1296,37.57283],[127.12965,37.57296],[127.12971,37.57308],[127.1298,37.5732],[127.12993,37.57334],[127.13004,37.57344],[127.13016,37.57351],[127.13057,37.57377]]}},{"type":"Feature","properties":{"class":"major","highway":"trunk_link","sidewalk":"likely","lanes":0,"name":"","oneway":true},"geometry":{"type":"LineString","coordinates":[[127.12672,37.57249],[127.12595,37.57209]]}},{"type":"Feature","properties":{"class":"major","highway":"primary_link","sidewalk":"likely","lanes":0,"name":"","oneway":true},"geometry":{"type":"LineString","coordinates":[[127.12389,37.57615],[127.1239,37.57607],[127.12393,37.57601]]}},{"type":"Feature","properties":{"class":"major","highway":"trunk_link","sidewalk":"likely","lanes":0,"name":"","oneway":true},"geometry":{"type":"LineString","coordinates":[[127.12509,37.57069],[127.12594,37.57116]]}},{"type":"Feature","properties":{"class":"major","highway":"trunk_link","sidewalk":"likely","lanes":0,"name":"","oneway":true},"geometry":{"type":"LineString","coordinates":[[127.12365,37.57099],[127.12449,37.57135],[127.12473,37.57145],[127.12494,37.57149],[127.12506,37.57148],[127.12516,37.57142],[127.12521,37.57132],[127.12519,37.57122],[127.12504,37.57104]]}},{"type":"Feature","properties":{"class":"major","highway":"trunk_link","sidewalk":"likely","lanes":1,"name":"","oneway":true},"geometry":{"type":"LineString","coordinates":[[127.13213,37.56456],[127.13189,37.56436],[127.13114,37.56376],[127.13073,37.56348],[127.13015,37.56306],[127.12984,37.56264]]}},{"type":"Feature","properties":{"class":"major","highway":"trunk_link","sidewalk":"likely","lanes":1,"name":"","oneway":true},"geometry":{"type":"LineString","coordinates":[[127.13697,37.56694],[127.13688,37.56692],[127.13668,37.56687],[127.13647,37.56681],[127.13611,37.56669],[127.13587,37.56662],[127.1356,37.56654],[127.13537,37.5665],[127.13521,37.5665],[127.13505,37.56651],[127.13495,37.56653],[127.13481,37.56659],[127.13465,37.56666],[127.13446,37.56676],[127.13411,37.56703],[127.13363,37.56742],[127.13312,37.56783]]}},{"type":"Feature","properties":{"class":"major","highway":"trunk_link","sidewalk":"likely","lanes":0,"name":"","oneway":true},"geometry":{"type":"LineString","coordinates":[[127.13401,37.56559],[127.1339,37.56557],[127.13378,37.56555],[127.13363,37.56556],[127.1335,37.56559],[127.13339,37.56565],[127.13331,37.5657],[127.13324,37.56577],[127.1332,37.56586],[127.13318,37.56596],[127.13319,37.56605],[127.13325,37.56618],[127.13336,37.56628],[127.13348,37.56635],[127.13365,37.56639],[127.1338,37.56639],[127.13399,37.56634],[127.13414,37.56626],[127.13428,37.56615],[127.13431,37.56614],[127.13456,37.56596],[127.13491,37.56562]]}},{"type":"Feature","properties":{"class":"major","highway":"trunk_link","sidewalk":"likely","lanes":0,"name":"","oneway":true},"geometry":{"type":"LineString","coordinates":[[127.13473,37.5652],[127.13487,37.56527],[127.1353,37.56555],[127.13554,37.56572],[127.1357,37.56582],[127.13584,37.56588],[127.13598,37.5659],[127.13609,37.5659],[127.13619,37.56588],[127.1363,37.56583],[127.13642,37.56576],[127.13648,37.56571],[127.13653,37.56563],[127.13655,37.56556],[127.13656,37.56548],[127.13655,37.56538],[127.13652,37.56529],[127.13647,37.56523],[127.1364,37.56516],[127.13631,37.56511],[127.13621,37.56506],[127.13611,37.56504],[127.13599,37.56504],[127.13584,37.56506],[127.13576,37.56507]]}},{"type":"Feature","properties":{"class":"major","highway":"trunk_link","sidewalk":"likely","lanes":1,"name":"","oneway":true},"geometry":{"type":"LineString","coordinates":[[127.13338,37.56658],[127.13314,37.56619],[127.13304,37.56603],[127.13299,37.56593],[127.13301,37.56569],[127.13303,37.56558],[127.13309,37.56546],[127.13315,37.56536],[127.13324,37.56527],[127.13334,37.5652],[127.13344,37.56514],[127.13358,37.56509],[127.13372,37.56505],[127.13386,37.56505],[127.13402,37.56505],[127.13418,37.56508]]}},{"type":"Feature","properties":{"class":"major","highway":"trunk_link","sidewalk":"likely","lanes":0,"name":"","oneway":true},"geometry":{"type":"LineString","coordinates":[[127.13299,37.56593],[127.13289,37.56568],[127.13288,37.56559],[127.13288,37.56523],[127.13288,37.56513],[127.13283,37.56499],[127.13276,37.56488],[127.13265,37.56476],[127.13247,37.56462],[127.13215,37.56441]]}},{"type":"Feature","properties":{"class":"major","highway":"trunk_link","sidewalk":"likely","lanes":1,"name":"","oneway":true},"geometry":{"type":"LineString","coordinates":[[127.13706,37.56355],[127.13654,37.56415],[127.13648,37.56429],[127.13645,37.56436],[127.13643,37.56446],[127.13643,37.56454],[127.13645,37.56467],[127.1365,37.56485],[127.13664,37.5653],[127.13681,37.5659],[127.13687,37.56606],[127.13693,37.56617],[127.13703,37.56628],[127.13718,37.5664],[127.13743,37.56653],[127.13769,37.56661],[127.13811,37.56666],[127.13907,37.56689]]}},{"type":"Feature","properties":{"class":"major","highway":"trunk_link","sidewalk":"likely","lanes":0,"name":"","oneway":true},"geometry":{"type":"LineString","coordinates":[[127.13145,37.56353],[127.13186,37.56369],[127.13227,37.56397],[127.13302,37.56443],[127.13348,37.56466],[127.13375,37.56476],[127.13398,37.56483],[127.13448,37.56494],[127.1348,37.56495],[127.13515,37.56486],[127.13554,37.56461],[127.13591,37.56436],[127.13624,37.56403],[127.1372,37.5633]]}},{"type":"Feature","properties":{"class":"major","highway":"trunk_link","sidewalk":"likely","lanes":1,"name":"","oneway":true},"geometry":{"type":"LineString","coordinates":[[127.13418,37.56508],[127.13453,37.56524],[127.13485,37.56544],[127.13529,37.56569],[127.13561,37.56587],[127.13604,37.5661],[127.13647,37.56639]]}},{"type":"Feature","properties":{"class":"major","highway":"trunk_link","sidewalk":"likely","lanes":0,"name":"","oneway":true},"geometry":{"type":"LineString","coordinates":[[127.13314,37.5676],[127.13335,37.56726],[127.13337,37.56722],[127.13341,37.56709],[127.13345,37.56695],[127.13345,37.56678],[127.13343,37.56669],[127.13338,37.56658]]}},{"type":"Feature","properties":{"class":"minor","highway":"residential","sidewalk":"unknown","lanes":0,"name":"올림픽로112길","oneway":false},"geometry":{"type":"LineString","coordinates":[[127.13397,37.56468],[127.13409,37.56461],[127.1341,37.5646],[127.13423,37.56452],[127.1346,37.5643],[127.13444,37.56409],[127.13426,37.56386],[127.13412,37.5636],[127.13408,37.56352],[127.13382,37.563],[127.13374,37.56285],[127.13365,37.5622],[127.13374,37.56164],[127.13373,37.56157],[127.13371,37.56148],[127.13356,37.56128],[127.13321,37.56094],[127.13315,37.56076],[127.13312,37.55973]]}},{"type":"Feature","properties":{"class":"alley","highway":"service","sidewalk":"unknown","lanes":0,"name":"","oneway":false},"geometry":{"type":"LineString","coordinates":[[127.12901,37.58121],[127.12907,37.58116],[127.12914,37.58111],[127.12946,37.58092],[127.12962,37.5808],[127.12981,37.58062],[127.12991,37.5805],[127.13042,37.58012],[127.13051,37.58002],[127.13056,37.57987],[127.1306,37.57953],[127.13072,37.57936],[127.13089,37.57918],[127.1309,37.57916],[127.13104,37.57902]]}},{"type":"Feature","properties":{"class":"minor","highway":"residential","sidewalk":"unknown","lanes":0,"name":"한다리길","oneway":false},"geometry":{"type":"LineString","coordinates":[[127.12744,37.5789],[127.12754,37.57923],[127.1276,37.57949],[127.12765,37.5797],[127.12773,37.58002],[127.12779,37.58044],[127.12801,37.58088],[127.1283,37.58121],[127.12866,37.58154],[127.12911,37.58195]]}},{"type":"Feature","properties":{"class":"minor","highway":"residential","sidewalk":"unknown","lanes":0,"name":"올림픽로112길","oneway":true},"geometry":{"type":"LineString","coordinates":[[127.13412,37.5636],[127.13367,37.56374]]}},{"type":"Feature","properties":{"class":"minor","highway":"residential","sidewalk":"unknown","lanes":0,"name":"올림픽로112길","oneway":false},"geometry":{"type":"LineString","coordinates":[[127.13423,37.56452],[127.13386,37.56412],[127.13367,37.56374]]}},{"type":"Feature","properties":{"class":"minor","highway":"residential","sidewalk":"unknown","lanes":0,"name":"올림픽로112길","oneway":false},"geometry":{"type":"LineString","coordinates":[[127.13367,37.56374],[127.13336,37.56315],[127.13382,37.563]]}},{"type":"Feature","properties":{"class":"minor","highway":"residential","sidewalk":"unknown","lanes":0,"name":"올림픽로112길","oneway":false},"geometry":{"type":"LineString","coordinates":[[127.13412,37.5636],[127.13459,37.56344]]}},{"type":"Feature","properties":{"class":"minor","highway":"residential","sidewalk":"unknown","lanes":0,"name":"올림픽로112길","oneway":false},"geometry":{"type":"LineString","coordinates":[[127.13382,37.563],[127.13429,37.56284],[127.13459,37.56344]]}},{"type":"Feature","properties":{"class":"minor","highway":"residential","sidewalk":"unknown","lanes":0,"name":"올림픽로112길","oneway":false},"geometry":{"type":"LineString","coordinates":[[127.13459,37.56344],[127.13474,37.56377],[127.13457,37.56383],[127.13466,37.56399],[127.13444,37.56409]]}},{"type":"Feature","properties":{"class":"major","highway":"motorway_link","sidewalk":"likely","lanes":0,"name":"","oneway":true},"geometry":{"type":"LineString","coordinates":[[127.13691,37.57852],[127.13835,37.57816],[127.13872,37.57803],[127.13906,37.57787],[127.13933,37.57769],[127.13953,37.57754]]}},{"type":"Feature","properties":{"class":"major","highway":"motorway","sidewalk":"likely","lanes":2,"name":"세종포천고속도로","oneway":true},"geometry":{"type":"LineString","coordinates":[[127.13999,37.57775],[127.13975,37.57785],[127.13955,37.57793],[127.13915,37.57808],[127.1389,37.57815],[127.13867,37.57822],[127.13817,37.57836],[127.13771,37.57848],[127.13707,37.57861]]}},{"type":"Feature","properties":{"class":"major","highway":"motorway_link","sidewalk":"likely","lanes":0,"name":"","oneway":true},"geometry":{"type":"LineString","coordinates":[[127.13545,37.57579],[127.1364,37.57593]]}},{"type":"Feature","properties":{"class":"major","highway":"motorway_link","sidewalk":"likely","lanes":0,"name":"","oneway":true},"geometry":{"type":"LineString","coordinates":[[127.1327,37.57863],[127.13295,37.57862],[127.13358,37.57865],[127.13408,37.57864],[127.13445,37.57863],[127.13473,37.57861],[127.13527,37.57856],[127.13573,37.57851],[127.13591,37.57849],[127.13606,37.57847],[127.13616,37.57845],[127.13628,37.57843],[127.13641,37.57838],[127.13654,37.57833],[127.13665,37.57827],[127.13677,37.57819],[127.13687,37.57811],[127.137,37.57798],[127.13708,37.57787],[127.13714,37.57777],[127.13718,37.57767],[127.13722,37.57755],[127.13724,37.57743],[127.13724,37.57732],[127.13724,37.57727]]}},{"type":"Feature","properties":{"class":"major","highway":"motorway_link","sidewalk":"likely","lanes":0,"name":"","oneway":true},"geometry":{"type":"LineString","coordinates":[[127.13953,37.57754],[127.14006,37.57713],[127.14031,37.57692],[127.14055,37.57677],[127.14093,37.57659]]}},{"type":"Feature","properties":{"class":"major","highway":"motorway_link","sidewalk":"likely","lanes":0,"name":"","oneway":true},"geometry":{"type":"LineString","coordinates":[[127.13859,37.57869],[127.13852,37.57873],[127.13842,37.57878],[127.13832,37.57883],[127.1382,37.57887],[127.13806,37.57891],[127.13795,37.57894],[127.13778,37.57897],[127.13766,37.57898],[127.13754,37.57899],[127.13739,37.57899],[127.13727,37.57898],[127.13704,37.57897],[127.13674,37.57894],[127.13645,37.57893],[127.13615,37.57892],[127.13579,37.57892],[127.13514,37.57893],[127.13457,37.57893],[127.13395,37.57891],[127.13332,37.57886],[127.13271,37.57879]]}},{"type":"Feature","properties":{"class":"major","highway":"motorway_link","sidewalk":"likely","lanes":0,"name":"","oneway":true},"geometry":{"type":"LineString","coordinates":[[127.1364,37.57593],[127.13753,37.57604],[127.13804,37.57612],[127.13848,37.5763],[127.13873,37.57645],[127.13894,37.57661],[127.13908,37.57681],[127.13919,37.57699],[127.13927,37.57718],[127.13932,37.5774],[127.13929,37.57773],[127.13925,37.57791],[127.1392,37.57804],[127.13912,37.57817],[127.13905,37.57827],[127.13896,37.57838],[127.13887,37.57847],[127.13875,37.57858],[127.13867,37.57864],[127.13859,37.57869]]}},{"type":"Feature","properties":{"class":"major","highway":"motorway","sidewalk":"likely","lanes":3,"name":"세종포천고속도로","oneway":true},"geometry":{"type":"LineString","coordinates":[[127.12966,37.57873],[127.12845,37.57886],[127.12731,37.57897],[127.12625,37.5792],[127.12508,37.5795],[127.12394,37.57991],[127.12176,37.58084],[127.11978,37.58216],[127.11801,37.58387],[127.11698,37.58517],[127.11616,37.58664],[127.11538,37.58884],[127.11512,37.59037],[127.1151,37.59262],[127.11514,37.59701],[127.11508,37.60041],[127.11502,37.6027],[127.11506,37.6037],[127.11507,37.60475]]}},{"type":"Feature","properties":{"class":"major","highway":"motorway","sidewalk":"likely","lanes":3,"name":"세종포천고속도로","oneway":true},"geometry":{"type":"LineString","coordinates":[[127.11468,37.60353],[127.11466,37.60194],[127.11473,37.5903],[127.1149,37.58912],[127.11556,37.58678],[127.11655,37.58511],[127.11798,37.58334],[127.11934,37.58207],[127.11997,37.58157],[127.12135,37.5807],[127.12329,37.57974],[127.12519,37.57907],[127.12759,37.57859],[127.12969,37.57844]]}},{"type":"Feature","properties":{"class":"major","highway":"motorway","sidewalk":"likely","lanes":3,"name":"세종포천고속도로","oneway":true},"geometry":{"type":"LineString","coordinates":[[127.12969,37.57844],[127.13041,37.57843],[127.1308,37.57846],[127.1327,37.57863],[127.13363,37.57871],[127.13406,37.57873],[127.13457,37.57874],[127.135,37.57873],[127.13554,37.57869],[127.1362,37.57865],[127.13666,37.57859],[127.13691,37.57852]]}},{"type":"Feature","properties":{"class":"major","highway":"secondary","sidewalk":"likely","lanes":0,"name":"","oneway":true},"geometry":{"type":"LineString","coordinates":[[127.12823,37.57327],[127.12767,37.57377],[127.12683,37.57444],[127.12642,37.57482],[127.12623,37.575]]}},{"type":"Feature","properties":{"class":"major","highway":"secondary","sidewalk":"likely","lanes":0,"name":"","oneway":true},"geometry":{"type":"LineString","coordinates":[[127.1233,37.57659],[127.12375,37.57636]]}},{"type":"Feature","properties":{"class":"major","highway":"primary_link","sidewalk":"likely","lanes":0,"name":"","oneway":true},"geometry":{"type":"LineString","coordinates":[[127.12683,37.57444],[127.1268,37.57451],[127.12677,37.57458],[127.12674,37.57467]]}},{"type":"Feature","properties":{"class":"major","highway":"primary_link","sidewalk":"likely","lanes":0,"name":"","oneway":true},"geometry":{"type":"LineString","coordinates":[[127.12617,37.57446],[127.12624,37.57443],[127.1263,37.57441],[127.12637,37.5744],[127.12645,37.5744],[127.12655,37.57439],[127.12667,37.57436],[127.12681,37.57431]]}},{"type":"Feature","properties":{"class":"major","highway":"trunk_link","sidewalk":"likely","lanes":0,"name":"","oneway":true},"geometry":{"type":"LineString","coordinates":[[127.12603,37.57263],[127.12583,37.5724],[127.12581,37.57238],[127.12565,37.57221],[127.12545,37.57204],[127.12509,37.57182],[127.12475,37.57161],[127.12442,37.57144],[127.12408,37.57127],[127.12379,37.57113]]}},{"type":"Feature","properties":{"class":"minor","highway":"residential","sidewalk":"unknown","lanes":0,"name":"","oneway":false},"geometry":{"type":"LineString","coordinates":[[127.13261,37.57838],[127.13262,37.57827],[127.13264,37.57795],[127.13265,37.57768],[127.1327,37.57681],[127.13272,37.57661],[127.13273,37.57649],[127.13276,37.57637],[127.13279,37.57629],[127.13283,37.57617],[127.13289,37.57605],[127.13304,37.57581],[127.1332,37.57554],[127.1333,37.5754],[127.13334,37.57535]]}},{"type":"Feature","properties":{"class":"alley","highway":"service","sidewalk":"unknown","lanes":0,"name":"","oneway":false},"geometry":{"type":"LineString","coordinates":[[127.13362,37.57492],[127.13373,37.57473]]}},{"type":"Feature","properties":{"class":"major","highway":"trunk_link","sidewalk":"likely","lanes":0,"name":"","oneway":true},"geometry":{"type":"LineString","coordinates":[[127.12657,37.57322],[127.12648,37.57307],[127.12641,37.57299],[127.12632,37.57289],[127.12622,37.57274],[127.1262,37.57266],[127.12617,37.57255],[127.12617,37.57243],[127.12619,37.5724]]}},{"type":"Feature","properties":{"class":"major","highway":"trunk_link","sidewalk":"likely","lanes":0,"name":"","oneway":true},"geometry":{"type":"LineString","coordinates":[[127.13057,37.57377],[127.13102,37.574],[127.13121,37.5741]]}},{"type":"Feature","properties":{"class":"major","highway":"trunk_link","sidewalk":"likely","lanes":0,"name":"","oneway":true},"geometry":{"type":"LineString","coordinates":[[127.12718,37.57197],[127.12753,37.57223],[127.12773,37.57235],[127.12802,37.57253],[127.12838,37.57275],[127.12884,37.57298],[127.12913,37.57311],[127.12953,37.57325],[127.12982,37.57336],[127.12992,37.57342],[127.13,37.57348],[127.13012,37.57362],[127.13019,37.57375],[127.13021,37.57388],[127.1302,37.57399],[127.13018,37.57408],[127.13011,37.57419],[127.13003,37.57428],[127.12992,37.57436]]}},{"type":"Feature","properties":{"class":"minor","highway":"unclassified","sidewalk":"unknown","lanes":0,"name":"코스모스길","oneway":true},"geometry":{"type":"LineString","coordinates":[[127.12754,37.57884],[127.12763,37.57878],[127.12769,37.57875],[127.12776,37.57872],[127.12791,37.57867],[127.12792,37.57867],[127.12806,37.57865],[127.12811,37.57864],[127.12844,37.57861],[127.12859,37.57858],[127.12867,37.57854]]}},{"type":"Feature","properties":{"class":"alley","highway":"service","sidewalk":"unknown","lanes":0,"name":"","oneway":false},"geometry":{"type":"LineString","coordinates":[[127.12214,37.57358],[127.12221,37.57356],[127.12228,37.57354],[127.12242,37.57351],[127.12259,37.57348],[127.12286,37.57347],[127.12309,37.57346],[127.12324,37.57342],[127.12339,37.57334],[127.1235,37.57322],[127.12364,37.57311],[127.12368,37.5731]]}},{"type":"Feature","properties":{"class":"minor","highway":"residential","sidewalk":"unknown","lanes":0,"name":"아치울길3번길","oneway":false},"geometry":{"type":"LineString","coordinates":[[127.12137,37.57375],[127.12126,37.57364],[127.12104,37.57355],[127.12094,37.5735],[127.12063,37.57329],[127.12035,37.57313],[127.12029,37.57309],[127.12011,37.57307],[127.11993,37.57305],[127.11972,37.57316],[127.1195,37.57327],[127.11933,37.57341],[127.11916,37.57361],[127.11896,37.57389],[127.11883,37.574],[127.11842,37.57427]]}},{"type":"Feature","properties":{"class":"minor","highway":"unclassified","sidewalk":"unknown","lanes":0,"name":"","oneway":false},"geometry":{"type":"LineString","coordinates":[[127.121,37.57176],[127.12087,37.5718],[127.12086,37.57188],[127.1209,37.57229],[127.12083,37.57231],[127.1207,37.57228],[127.12019,37.5721],[127.12002,37.57204],[127.11994,37.57198],[127.11975,37.57182],[127.1197,37.57181],[127.11962,37.57181]]}},{"type":"Feature","properties":{"class":"major","highway":"trunk_link","sidewalk":"likely","lanes":0,"name":"","oneway":true},"geometry":{"type":"LineString","coordinates":[[127.12672,37.57249],[127.12627,37.57211],[127.12592,37.57175],[127.1256,37.57143],[127.12523,37.57115],[127.12504,37.57104],[127.12386,37.56993]]}},{"type":"Feature","properties":{"class":"major","highway":"trunk_link","sidewalk":"likely","lanes":0,"name":"","oneway":true},"geometry":{"type":"LineString","coordinates":[[127.12759,37.5729],[127.12717,37.57272]]}},{"type":"Feature","properties":{"class":"major","highway":"trunk_link","sidewalk":"likely","lanes":0,"name":"","oneway":true},"geometry":{"type":"LineString","coordinates":[[127.13181,37.57464],[127.13135,37.57457],[127.13112,37.57453],[127.13089,37.57451],[127.13053,37.57452],[127.13003,37.57455],[127.1297,37.57456],[127.12928,37.57454],[127.12902,37.57446]]}},{"type":"Feature","properties":{"class":"alley","highway":"service","sidewalk":"unknown","lanes":0,"name":"","oneway":true},"geometry":{"type":"LineString","coordinates":[[127.12384,37.56975],[127.12447,37.57008],[127.12482,37.57027],[127.12544,37.57067],[127.12656,37.57146],[127.12681,37.57164],[127.12736,37.572],[127.12835,37.57253],[127.12958,37.57322],[127.13023,37.57346],[127.1315,37.57396],[127.13207,37.57418],[127.13222,37.57429],[127.13246,37.57446],[127.13266,37.57455],[127.13309,37.57471],[127.13362,37.57492]]}},{"type":"Feature","properties":{"class":"major","highway":"trunk","sidewalk":"likely","lanes":3,"name":"강변북로","oneway":true},"geometry":{"type":"LineString","coordinates":[[127.13108,37.57428],[127.1301,37.5739],[127.12984,37.57378],[127.12899,37.57341],[127.12819,37.57303],[127.12761,37.57268]]}},{"type":"Feature","properties":{"class":"major","highway":"trunk_link","sidewalk":"likely","lanes":0,"name":"","oneway":true},"geometry":{"type":"LineString","coordinates":[[127.12763,37.57438],[127.12734,37.57446],[127.1272,37.57451],[127.12707,37.57457],[127.12697,37.57462],[127.12684,37.57472],[127.12674,37.57479],[127.12668,37.57484]]}},{"type":"Feature","properties":{"class":"major","highway":"primary_link","sidewalk":"likely","lanes":0,"name":"","oneway":true},"geometry":{"type":"LineString","coordinates":[[127.12363,37.57571],[127.12386,37.57581],[127.12397,37.57584],[127.12399,37.57584],[127.12407,37.57583],[127.12415,37.57582],[127.12426,37.57578]]}},{"type":"Feature","properties":{"class":"alley","highway":"service","sidewalk":"unknown","lanes":0,"name":"","oneway":false},"geometry":{"type":"LineString","coordinates":[[127.12496,37.57614],[127.12456,37.57637],[127.12444,37.57645]]}},{"type":"Feature","properties":{"class":"major","highway":"secondary","sidewalk":"likely","lanes":0,"name":"","oneway":true},"geometry":{"type":"LineString","coordinates":[[127.12389,37.57652],[127.12352,37.57673],[127.12337,37.5768]]}},{"type":"Feature","properties":{"class":"major","highway":"secondary","sidewalk":"likely","lanes":0,"name":"","oneway":true},"geometry":{"type":"LineString","coordinates":[[127.12459,37.5761],[127.12389,37.57652]]}},{"type":"Feature","properties":{"class":"major","highway":"secondary","sidewalk":"likely","lanes":0,"name":"","oneway":true},"geometry":{"type":"LineString","coordinates":[[127.12446,37.57597],[127.12469,37.57585],[127.12503,37.57563]]}},{"type":"Feature","properties":{"class":"major","highway":"secondary","sidewalk":"likely","lanes":0,"name":"","oneway":true},"geometry":{"type":"LineString","coordinates":[[127.12375,37.57636],[127.12446,37.57597]]}},{"type":"Feature","properties":{"class":"major","highway":"trunk_link","sidewalk":"likely","lanes":1,"name":"","oneway":true},"geometry":{"type":"LineString","coordinates":[[127.12718,37.57197],[127.12764,37.57218],[127.12783,37.57223],[127.12803,37.57226],[127.12821,37.57226],[127.12835,37.57225],[127.12849,37.57222],[127.12865,37.57217],[127.12881,37.57211],[127.12904,37.57198],[127.12928,37.57182],[127.12951,37.57164]]}},{"type":"Feature","properties":{"class":"major","highway":"trunk_link","sidewalk":"likely","lanes":0,"name":"","oneway":true},"geometry":{"type":"LineString","coordinates":[[127.12902,37.57446],[127.12875,37.5744],[127.12849,37.57437],[127.12832,37.57435],[127.12818,37.57434],[127.12796,37.57434],[127.12792,37.57434],[127.12763,37.57438]]}},{"type":"Feature","properties":{"class":"major","highway":"trunk_link","sidewalk":"likely","lanes":0,"name":"","oneway":true},"geometry":{"type":"LineString","coordinates":[[127.12619,37.5724],[127.12621,37.57236],[127.12623,37.57231],[127.12631,37.57221],[127.1264,37.57213],[127.12652,37.57206],[127.12668,37.57201],[127.12681,37.57199],[127.12699,37.57201],[127.12716,37.57206],[127.12735,37.57218],[127.12762,37.57235],[127.12807,37.57263],[127.12841,37.57283],[127.12871,37.573]]}},{"type":"Feature","properties":{"class":"major","highway":"trunk_link","sidewalk":"likely","lanes":0,"name":"","oneway":true},"geometry":{"type":"LineString","coordinates":[[127.12871,37.573],[127.12886,37.57308],[127.12907,37.57319],[127.12961,37.57343],[127.13063,37.57387],[127.13121,37.5741]]}},{"type":"Feature","properties":{"class":"major","highway":"trunk_link","sidewalk":"likely","lanes":0,"name":"","oneway":true},"geometry":{"type":"LineString","coordinates":[[127.12595,37.57209],[127.12578,37.572],[127.12573,37.57197]]}},{"type":"Feature","properties":{"class":"major","highway":"tertiary_link","sidewalk":"likely","lanes":0,"name":"","oneway":true},"geometry":{"type":"LineString","coordinates":[[127.12573,37.57197],[127.12555,37.57188],[127.12535,37.57179],[127.12501,37.57163],[127.12451,37.57143],[127.12379,37.57113]]}},{"type":"Feature","properties":{"class":"major","highway":"primary","sidewalk":"likely","lanes":0,"name":"양재대로","oneway":true},"geometry":{"type":"LineString","coordinates":[[127.12812,37.57322],[127.12908,37.57227],[127.12952,37.5718],[127.13013,37.57112],[127.1311,37.56998],[127.13206,37.56886],[127.13314,37.5676],[127.13345,37.5673]]}},{"type":"Feature","properties":{"class":"alley","highway":"service","sidewalk":"unknown","lanes":0,"name":"","oneway":false},"geometry":{"type":"LineString","coordinates":[[127.13358,37.57498],[127.13362,37.57492]]}},{"type":"Feature","properties":{"class":"alley","highway":"service","sidewalk":"unknown","lanes":0,"name":"","oneway":false},"geometry":{"type":"LineString","coordinates":[[127.13334,37.57535],[127.13358,37.57498]]}},{"type":"Feature","properties":{"class":"minor","highway":"residential","sidewalk":"unknown","lanes":0,"name":"토막나루길","oneway":false},"geometry":{"type":"LineString","coordinates":[[127.1333,37.5754],[127.13163,37.57472],[127.13142,37.57466],[127.1312,37.57463],[127.13093,37.57464],[127.13063,37.57468],[127.13015,37.57474],[127.12997,37.57476],[127.12987,37.57477],[127.12971,37.5748],[127.12943,37.57479],[127.12842,37.57464],[127.12819,37.57461],[127.12794,37.57462],[127.1276,37.57468],[127.12729,37.5748],[127.12712,37.57491],[127.12695,37.57505],[127.1268,37.57521],[127.12669,37.57534],[127.12658,37.57536],[127.12639,37.57538],[127.12626,37.57539],[127.1262,37.57539],[127.12609,37.57533],[127.12559,37.57504],[127.12546,37.57492],[127.12544,37.57482],[127.12543,37.57473],[127.12544,37.57466],[127.12554,37.57453],[127.12619,37.57409],[127.1263,37.57399],[127.12639,37.57387],[127.12643,37.57375],[127.12643,37.57363],[127.12641,37.5735],[127.12637,37.57339],[127.12591,37.57292],[127.12584,37.57286],[127.12574,37.57275],[127.1257,37.5727],[127.12538,37.57228],[127.12526,37.57215],[127.12494,37.5719],[127.12466,37.5717],[127.12443,37.57166],[127.1242,37.57139],[127.12394,37.57127],[127.12379,37.57113]]}},{"type":"Feature","properties":{"class":"major","highway":"primary_link","sidewalk":"likely","lanes":0,"name":"","oneway":true},"geometry":{"type":"LineString","coordinates":[[127.12473,37.57548],[127.12576,37.57476]]}},{"type":"Feature","properties":{"class":"major","highway":"primary_link","sidewalk":"likely","lanes":0,"name":"","oneway":true},"geometry":{"type":"LineString","coordinates":[[127.12576,37.57476],[127.12617,37.57446],[127.12626,37.57437],[127.12644,37.57424],[127.12655,37.57416],[127.12668,37.57405]]}},{"type":"Feature","properties":{"class":"major","highway":"secondary","sidewalk":"likely","lanes":0,"name":"","oneway":true},"geometry":{"type":"LineString","coordinates":[[127.12623,37.575],[127.12577,37.57536],[127.12524,37.57573]]}},{"type":"Feature","properties":{"class":"major","highway":"secondary","sidewalk":"likely","lanes":0,"name":"","oneway":true},"geometry":{"type":"LineString","coordinates":[[127.12503,37.57563],[127.12557,37.57523],[127.12604,37.5749]]}},{"type":"Feature","properties":{"class":"major","highway":"secondary","sidewalk":"likely","lanes":0,"name":"","oneway":true},"geometry":{"type":"LineString","coordinates":[[127.12524,37.57573],[127.1249,37.57593],[127.12459,37.5761]]}},{"type":"Feature","properties":{"class":"major","highway":"primary_link","sidewalk":"likely","lanes":0,"name":"","oneway":true},"geometry":{"type":"LineString","coordinates":[[127.12545,37.57588],[127.12523,37.57606],[127.12502,37.57625],[127.12491,37.57635],[127.12486,37.57644],[127.12484,37.57649],[127.12484,37.57652],[127.12484,37.57654],[127.12484,37.57659],[127.12486,37.57664],[127.125,37.57685]]}},{"type":"Feature","properties":{"class":"major","highway":"primary_link","sidewalk":"likely","lanes":0,"name":"","oneway":true},"geometry":{"type":"LineString","coordinates":[[127.12643,37.5751],[127.12545,37.57588]]}},{"type":"Feature","properties":{"class":"major","highway":"motorway","sidewalk":"likely","lanes":2,"name":"세종포천고속도로","oneway":true},"geometry":{"type":"LineString","coordinates":[[127.13707,37.57861],[127.13631,37.57873],[127.13557,37.5788],[127.13488,37.57884],[127.13271,37.57879]]}},{"type":"Feature","properties":{"class":"major","highway":"motorway","sidewalk":"likely","lanes":2,"name":"세종포천고속도로","oneway":true},"geometry":{"type":"LineString","coordinates":[[127.13691,37.57852],[127.13766,37.5784],[127.13796,37.57833],[127.13815,37.57828],[127.13853,37.57816],[127.13898,37.57803],[127.13928,37.57793],[127.13959,37.5778],[127.13998,37.57765]]}},{"type":"Feature","properties":{"class":"major","highway":"motorway_link","sidewalk":"likely","lanes":0,"name":"","oneway":true},"geometry":{"type":"LineString","coordinates":[[127.13724,37.57727],[127.13723,37.57722],[127.13722,37.57714],[127.13721,37.5771]]}},{"type":"Feature","properties":{"class":"major","highway":"motorway_link","sidewalk":"likely","lanes":0,"name":"","oneway":true},"geometry":{"type":"LineString","coordinates":[[127.13721,37.5771],[127.13718,37.57703],[127.13714,37.57693],[127.1371,37.57685],[127.13704,37.57677],[127.13696,37.57667],[127.13688,37.57659],[127.13678,37.57651],[127.13666,37.57643],[127.13653,37.57636],[127.13637,37.57629],[127.13599,37.57612]]}},{"type":"Feature","properties":{"class":"major","highway":"trunk_link","sidewalk":"likely","lanes":0,"name":"","oneway":true},"geometry":{"type":"LineString","coordinates":[[127.13984,37.5768],[127.13965,37.57686],[127.13953,37.5769],[127.13942,37.57695],[127.13921,37.57706]]}},{"type":"Feature","properties":{"class":"minor","highway":"unclassified","sidewalk":"unknown","lanes":0,"name":"","oneway":true},"geometry":{"type":"LineString","coordinates":[[127.13815,37.57708],[127.13819,37.57711],[127.13822,37.57715],[127.13823,37.5772],[127.13822,37.57724],[127.13821,37.57728],[127.13818,37.57731],[127.13814,37.57734],[127.1381,37.57736],[127.13805,37.57737],[127.138,37.57737],[127.13795,37.57736],[127.1379,37.57733],[127.13786,37.5773],[127.13783,37.57726],[127.13782,37.57721],[127.13782,37.57716],[127.13785,37.57712],[127.13788,37.57708],[127.13793,37.57706],[127.13799,37.57704],[127.13805,37.57704],[127.1381,37.57705],[127.13815,37.57708]]}},{"type":"Feature","properties":{"class":"major","highway":"motorway_link","sidewalk":"likely","lanes":0,"name":"","oneway":true},"geometry":{"type":"LineString","coordinates":[[127.1406,37.57763],[127.13995,37.57789],[127.13961,37.57801],[127.13886,37.57823],[127.13853,37.57832],[127.13787,37.5785],[127.13707,37.57861]]}},{"type":"Feature","properties":{"class":"major","highway":"trunk_link","sidewalk":"likely","lanes":0,"name":"","oneway":true},"geometry":{"type":"LineString","coordinates":[[127.13921,37.57706],[127.13927,37.57697],[127.13926,37.5769],[127.13922,37.57682],[127.13913,37.57677],[127.139,37.57673]]}},{"type":"Feature","properties":{"class":"minor","highway":"unclassified","sidewalk":"unknown","lanes":0,"name":"코스모스길14번길","oneway":false},"geometry":{"type":"LineString","coordinates":[[127.13782,37.57721],[127.13758,37.57721],[127.1374,37.5772],[127.13706,37.57711],[127.13701,37.57709],[127.13692,37.57703],[127.13681,37.57697],[127.13674,37.57693],[127.13661,37.57682],[127.13647,37.57664],[127.13629,37.57649],[127.13616,37.57641],[127.13603,37.57636],[127.13582,37.57628],[127.13349,37.57551],[127.1333,37.5754]]}},{"type":"Feature","properties":{"class":"major","highway":"trunk_link","sidewalk":"likely","lanes":0,"name":"","oneway":false},"geometry":{"type":"LineString","coordinates":[[127.13921,37.57706],[127.13907,37.57712],[127.13887,37.5772],[127.13869,37.57723],[127.13851,37.57722],[127.13823,37.5772]]}},{"type":"Feature","properties":{"class":"alley","highway":"service","sidewalk":"unknown","lanes":0,"name":"","oneway":false},"geometry":{"type":"LineString","coordinates":[[127.13115,37.5783],[127.13082,37.57792],[127.13075,37.57788],[127.13065,37.57785],[127.12941,37.5772],[127.12927,37.57709],[127.12925,37.57708],[127.12914,37.57704],[127.12863,37.57677],[127.12857,37.57674],[127.12632,37.5755],[127.1262,37.57539]]}},{"type":"Feature","properties":{"class":"alley","highway":"service","sidewalk":"unknown","lanes":0,"name":"","oneway":false},"geometry":{"type":"LineString","coordinates":[[127.12546,37.57492],[127.12509,37.57481],[127.12466,37.5743],[127.12404,37.57296]]}},{"type":"Feature","properties":{"class":"minor","highway":"unclassified","sidewalk":"unknown","lanes":0,"name":"코스모스길96번길","oneway":false},"geometry":{"type":"LineString","coordinates":[[127.14092,37.57781],[127.14059,37.57799],[127.13995,37.57822],[127.13944,37.57837],[127.1392,37.57847],[127.13909,37.57861],[127.13903,37.57882],[127.13894,37.57896],[127.1388,37.57906],[127.1386,37.57915],[127.13842,37.57953]]}},{"type":"Feature","properties":{"class":"alley","highway":"service","sidewalk":"unknown","lanes":0,"name":"","oneway":false},"geometry":{"type":"LineString","coordinates":[[127.13304,37.57581],[127.13291,37.57573],[127.13287,37.57574],[127.13275,37.57572],[127.13225,37.57552],[127.13215,37.57548],[127.13205,37.57541],[127.13191,37.57534],[127.13164,37.57522],[127.13129,37.57508],[127.13113,37.57504],[127.13092,37.57499],[127.13059,37.57492],[127.13044,37.57488],[127.13027,37.57484],[127.1301,37.57478],[127.1301,37.57478],[127.12997,37.57476]]}},{"type":"Feature","properties":{"class":"alley","highway":"service","sidewalk":"unknown","lanes":0,"name":"","oneway":false},"geometry":{"type":"LineString","coordinates":[[127.1301,37.57478],[127.12997,37.57494],[127.12976,37.57526],[127.12962,37.57551],[127.1294,37.57583],[127.1293,37.57596],[127.12914,37.57613],[127.12898,37.57631],[127.12884,37.57642],[127.12873,37.57651],[127.12867,37.5766],[127.12864,37.5767],[127.12863,37.57677]]}},{"type":"Feature","properties":{"class":"major","highway":"trunk","sidewalk":"likely","lanes":3,"name":"강변북로","oneway":true},"geometry":{"type":"LineString","coordinates":[[127.12509,37.57069],[127.1272,37.57223],[127.12771,37.57258],[127.12825,37.5729],[127.1288,37.57318],[127.12965,37.57355]]}},{"type":"Feature","properties":{"class":"alley","highway":"service","sidewalk":"unknown","lanes":0,"name":"","oneway":true},"geometry":{"type":"LineString","coordinates":[[127.13373,37.57473],[127.13388,37.57479],[127.1339,37.5748],[127.13424,37.57494],[127.13465,37.57511],[127.13482,37.57521],[127.1351,37.57532],[127.13585,37.57556],[127.13647,37.57569],[127.13712,37.57581],[127.13734,37.57585],[127.1376,37.57589],[127.13759,37.57595],[127.13765,37.57599],[127.13805,37.57622],[127.13841,37.5764],[127.13869,37.57655]]}},{"type":"Feature","properties":{"class":"minor","highway":"unclassified","sidewalk":"unknown","lanes":0,"name":"","oneway":false},"geometry":{"type":"LineString","coordinates":[[127.12921,37.57829],[127.12929,37.57825],[127.12941,37.5782],[127.12958,37.57816],[127.1297,37.57815],[127.12982,37.57815],[127.13039,37.57821],[127.13115,37.5783],[127.1318,37.57836],[127.13214,37.57837],[127.13244,37.57837],[127.13261,37.57838],[127.13271,37.5784],[127.13305,37.57846],[127.13367,37.57854],[127.13408,37.57849],[127.13447,37.57845],[127.13497,37.57839],[127.13595,37.57827],[127.13638,37.57814],[127.13665,37.57798],[127.13682,37.57781],[127.13693,37.57758],[127.13696,37.57728],[127.13696,37.57719],[127.13701,37.57709]]}},{"type":"Feature","properties":{"class":"minor","highway":"unclassified","sidewalk":"unknown","lanes":0,"name":"코스모스길","oneway":true},"geometry":{"type":"LineString","coordinates":[[127.12885,37.57877],[127.12878,37.57876],[127.12872,37.57873],[127.12869,37.5787],[127.12868,37.57868],[127.12865,37.57863],[127.12865,37.57857],[127.12867,37.57854],[127.12868,37.57851],[127.12872,37.57847],[127.12879,37.57843],[127.12881,37.57843],[127.12886,37.57842],[127.12893,37.57843],[127.129,37.57845],[127.12905,37.57849],[127.12907,37.57852],[127.12909,37.57854],[127.12909,37.57856],[127.1291,37.5786],[127.12908,37.57866],[127.12905,37.57871],[127.12899,37.57875],[127.12892,37.57877],[127.12885,37.57877]]}},{"type":"Feature","properties":{"class":"minor","highway":"unclassified","sidewalk":"unknown","lanes":0,"name":"코스모스길","oneway":false},"geometry":{"type":"LineString","coordinates":[[127.1294,37.5788],[127.1295,37.57885],[127.12967,37.57892],[127.12981,37.57895],[127.12992,37.57897],[127.13007,37.57898],[127.13022,37.57898],[127.13051,37.57898],[127.13104,37.57902],[127.13262,37.57916],[127.13297,37.57919],[127.13323,37.57921],[127.13442,37.5793],[127.1351,37.57936],[127.13623,37.57945],[127.13673,37.5795],[127.13823,37.57962],[127.1385,37.57965],[127.13994,37.57978],[127.14059,37.57981],[127.14116,37.57982],[127.14187,37.57981],[127.14207,37.57981],[127.14243,37.57977],[127.14338,37.57962],[127.1441,37.57952],[127.14476,37.57945],[127.14525,37.57939],[127.14528,37.57939],[127.14551,37.57935],[127.14568,37.57934],[127.14594,37.57929],[127.14649,37.57922],[127.14696,37.57916],[127.14787,37.57906],[127.15079,37.57865],[127.15104,37.57862],[127.1514,37.57858],[127.15159,37.57854],[127.15221,37.57849],[127.15231,37.57847],[127.15328,37.57836]]}},{"type":"Feature","properties":{"class":"alley","highway":"service","sidewalk":"unknown","lanes":0,"name":"","oneway":false},"geometry":{"type":"LineString","coordinates":[[127.12368,37.5731],[127.12402,37.57297]]}},{"type":"Feature","properties":{"class":"alley","highway":"service","sidewalk":"unknown","lanes":0,"name":"","oneway":false},"geometry":{"type":"LineString","coordinates":[[127.12402,37.57297],[127.12404,37.57296],[127.12425,37.57294],[127.12444,37.57296],[127.12461,37.573],[127.12487,37.57301],[127.1251,37.573],[127.12536,37.5729],[127.1257,37.5727]]}},{"type":"Feature","properties":{"class":"minor","highway":"residential","sidewalk":"unknown","lanes":0,"name":"","oneway":false},"geometry":{"type":"LineString","coordinates":[[127.13459,37.56344],[127.1348,37.56337]]}},{"type":"Feature","properties":{"class":"minor","highway":"residential","sidewalk":"unknown","lanes":0,"name":"","oneway":true},"geometry":{"type":"LineString","coordinates":[[127.13367,37.56374],[127.13318,37.56391],[127.13316,37.56391]]}},{"type":"Feature","properties":{"class":"minor","highway":"residential","sidewalk":"unknown","lanes":0,"name":"","oneway":false},"geometry":{"type":"LineString","coordinates":[[127.13721,37.5606],[127.13736,37.56052]]}},{"type":"Feature","properties":{"class":"major","highway":"primary","sidewalk":"yes","lanes":3,"name":"아차산로","oneway":true},"geometry":{"type":"LineString","coordinates":[[127.11474,37.561],[127.11476,37.5612],[127.1149,37.56203],[127.11497,37.56243],[127.11503,37.56282],[127.1152,37.56384],[127.11527,37.56415],[127.11532,37.5643],[127.11536,37.56439],[127.11547,37.5646],[127.11553,37.56472],[127.11571,37.56506],[127.11607,37.5656],[127.11667,37.56652],[127.11684,37.56677],[127.11703,37.56701],[127.11732,37.56737],[127.1177,37.56775],[127.11828,37.56828],[127.11849,37.56847],[127.11873,37.56869],[127.11912,37.56904],[127.11933,37.56923],[127.11947,37.56937],[127.1196,37.56947],[127.11981,37.5697],[127.12,37.56992],[127.12009,37.57004],[127.12022,37.57022],[127.12055,37.57072],[127.1209,37.57133],[127.12135,37.57213],[127.12182,37.57302],[127.122,37.57334],[127.12204,37.5734],[127.12214,37.57358],[127.12222,37.57371],[127.12245,37.57417],[127.12279,37.57472],[127.12315,37.57519],[127.12363,37.57571],[127.1238,37.57588],[127.12393,37.57601]]}},{"type":"Feature","properties":{"class":"major","highway":"tertiary","sidewalk":"likely","lanes":0,"name":"토평강변로","oneway":true},"geometry":{"type":"LineString","coordinates":[[127.12379,37.57113],[127.12342,37.57098],[127.12072,37.56985],[127.12052,37.56977],[127.12004,37.56957],[127.11968,37.56943],[127.11958,37.56938],[127.11947,37.56937]]}},{"type":"Feature","properties":{"class":"minor","highway":"unclassified","sidewalk":"unknown","lanes":0,"name":"코스모스길","oneway":true},"geometry":{"type":"LineString","coordinates":[[127.12869,37.5787],[127.1286,37.57868],[127.12837,37.57867],[127.12824,37.57868],[127.12808,37.57869],[127.12789,37.57872],[127.12776,37.57876],[127.12765,37.5788],[127.12754,37.57884]]}},{"type":"Feature","properties":{"class":"major","highway":"primary_link","sidewalk":"likely","lanes":0,"name":"","oneway":true},"geometry":{"type":"LineString","coordinates":[[127.12824,37.57868],[127.12799,37.57875],[127.12792,37.57877],[127.12783,37.57886],[127.12782,37.57889],[127.1278,37.57894],[127.12781,37.57913]]}},{"type":"Feature","properties":{"class":"major","highway":"primary_link","sidewalk":"likely","lanes":0,"name":"","oneway":true},"geometry":{"type":"LineString","coordinates":[[127.12727,37.57857],[127.12754,37.57869],[127.12761,37.57869],[127.12771,37.57869],[127.12791,37.57867]]}},{"type":"Feature","properties":{"class":"minor","highway":"residential","sidewalk":"unknown","lanes":0,"name":"","oneway":false},"geometry":{"type":"LineString","coordinates":[[127.12806,37.57865],[127.12804,37.57845],[127.12806,37.57832],[127.12838,37.57828],[127.12853,37.57824],[127.12867,37.57811],[127.1288,37.57787],[127.12887,37.57765],[127.12894,37.57747],[127.12905,37.57733]]}},{"type":"Feature","properties":{"class":"minor","highway":"residential","sidewalk":"unknown","lanes":0,"name":"","oneway":false},"geometry":{"type":"LineString","coordinates":[[127.12905,37.57733],[127.12924,37.57712]]}},{"type":"Feature","properties":{"class":"minor","highway":"residential","sidewalk":"unknown","lanes":0,"name":"","oneway":false},"geometry":{"type":"LineString","coordinates":[[127.12924,37.57712],[127.12927,37.57709]]}},{"type":"Feature","properties":{"class":"minor","highway":"residential","sidewalk":"unknown","lanes":0,"name":"","oneway":false},"geometry":{"type":"LineString","coordinates":[[127.13442,37.5793],[127.13447,37.57899]]}},{"type":"Feature","properties":{"class":"minor","highway":"residential","sidewalk":"unknown","lanes":0,"name":"","oneway":false},"geometry":{"type":"LineString","coordinates":[[127.13447,37.57899],[127.13449,37.57857]]}},{"type":"Feature","properties":{"class":"minor","highway":"residential","sidewalk":"unknown","lanes":0,"name":"","oneway":false},"geometry":{"type":"LineString","coordinates":[[127.13449,37.57857],[127.13447,37.57845]]}},{"type":"Feature","properties":{"class":"minor","highway":"residential","sidewalk":"unknown","lanes":0,"name":"","oneway":false},"geometry":{"type":"LineString","coordinates":[[127.12744,37.5789],[127.12754,37.57884]]}},{"type":"Feature","properties":{"class":"minor","highway":"unclassified","sidewalk":"unknown","lanes":0,"name":"","oneway":true},"geometry":{"type":"LineString","coordinates":[[127.12921,37.57829],[127.12915,37.57839],[127.12907,37.57852]]}},{"type":"Feature","properties":{"class":"minor","highway":"unclassified","sidewalk":"unknown","lanes":0,"name":"","oneway":true},"geometry":{"type":"LineString","coordinates":[[127.12881,37.57843],[127.12901,37.57838],[127.12921,37.57829]]}},{"type":"Feature","properties":{"class":"minor","highway":"unclassified","sidewalk":"unknown","lanes":0,"name":"","oneway":true},"geometry":{"type":"LineString","coordinates":[[127.1294,37.5788],[127.12923,37.57876],[127.12899,37.57875]]}},{"type":"Feature","properties":{"class":"minor","highway":"unclassified","sidewalk":"unknown","lanes":0,"name":"","oneway":true},"geometry":{"type":"LineString","coordinates":[[127.12909,37.57856],[127.12925,37.57868],[127.1294,37.5788]]}},{"type":"Feature","properties":{"class":"major","highway":"trunk_link","sidewalk":"likely","lanes":0,"name":"","oneway":true},"geometry":{"type":"LineString","coordinates":[[127.13576,37.56507],[127.13563,37.56514],[127.13537,37.56535]]}},{"type":"Feature","properties":{"class":"major","highway":"trunk_link","sidewalk":"likely","lanes":0,"name":"","oneway":true},"geometry":{"type":"LineString","coordinates":[[127.13664,37.5653],[127.13663,37.56558],[127.13661,37.56568]]}},{"type":"Feature","properties":{"class":"major","highway":"trunk_link","sidewalk":"likely","lanes":0,"name":"","oneway":true},"geometry":{"type":"LineString","coordinates":[[127.13612,37.56628],[127.13599,37.56634],[127.13582,37.5664],[127.13567,37.56642],[127.13556,37.56643],[127.13534,37.56641]]}},{"type":"Feature","properties":{"class":"major","highway":"trunk_link","sidewalk":"likely","lanes":0,"name":"","oneway":true},"geometry":{"type":"LineString","coordinates":[[127.13661,37.56568],[127.13654,37.5659],[127.13644,37.56602],[127.1363,37.56617],[127.13612,37.56628]]}},{"type":"Feature","properties":{"class":"major","highway":"motorway_link","sidewalk":"likely","lanes":1,"name":"","oneway":true},"geometry":{"type":"LineString","coordinates":[[127.13948,37.57735],[127.13957,37.57722],[127.13967,37.57696],[127.13983,37.5767],[127.14006,37.5765],[127.1403,37.57635],[127.14053,37.57626],[127.14081,37.57621],[127.14116,37.57617],[127.14152,37.57612],[127.14185,37.57606]]}},{"type":"Feature","properties":{"class":"major","highway":"trunk_link","sidewalk":"likely","lanes":0,"name":"","oneway":true},"geometry":{"type":"LineString","coordinates":[[127.13186,37.56369],[127.13206,37.56377],[127.13233,37.56391],[127.13257,37.56403],[127.13264,37.56404],[127.13272,37.56403],[127.1328,37.56399],[127.13285,37.56395]]}},{"type":"Feature","properties":{"class":"major","highway":"secondary","sidewalk":"likely","lanes":0,"name":"","oneway":true},"geometry":{"type":"LineString","coordinates":[[127.13316,37.56398],[127.13314,37.56402],[127.13312,37.56404],[127.13309,37.56406],[127.13306,37.56407],[127.13301,37.56408],[127.13296,37.56407],[127.13291,37.56406],[127.13288,37.56403],[127.13285,37.56399],[127.13285,37.56395],[127.13285,37.56391],[127.13288,37.56388],[127.13291,37.56385],[127.13296,37.56383],[127.13301,37.56383],[127.13306,37.56383],[127.1331,37.56385],[127.13314,37.56388],[127.13316,37.56391],[127.13317,37.56395],[127.13316,37.56398]]}},{"type":"Feature","properties":{"class":"major","highway":"trunk_link","sidewalk":"likely","lanes":1,"name":"","oneway":true},"geometry":{"type":"LineString","coordinates":[[127.13215,37.56441],[127.13114,37.56376]]}},{"type":"Feature","properties":{"class":"major","highway":"trunk_link","sidewalk":"likely","lanes":1,"name":"","oneway":true},"geometry":{"type":"LineString","coordinates":[[127.13885,37.56706],[127.13843,37.5671],[127.13802,37.56709],[127.13764,37.56704],[127.13726,37.567],[127.13697,37.56694]]}},{"type":"Feature","properties":{"class":"major","highway":"trunk_link","sidewalk":"likely","lanes":0,"name":"","oneway":true},"geometry":{"type":"LineString","coordinates":[[127.13592,37.56641],[127.13499,37.56608],[127.13436,37.56573],[127.13401,37.56559]]}},{"type":"Feature","properties":{"class":"major","highway":"trunk_link","sidewalk":"likely","lanes":0,"name":"","oneway":true},"geometry":{"type":"LineString","coordinates":[[127.13534,37.56641],[127.13519,37.56638],[127.13503,37.56634],[127.13488,37.56629],[127.13421,37.56597],[127.13391,37.56584],[127.13335,37.56558],[127.13316,37.56546],[127.13273,37.56513],[127.13258,37.56499],[127.13213,37.56456]]}},{"type":"Feature","properties":{"class":"major","highway":"motorway_link","sidewalk":"likely","lanes":0,"name":"","oneway":true},"geometry":{"type":"LineString","coordinates":[[127.1397,37.57665],[127.14017,37.5766],[127.14036,37.57659],[127.14061,37.57656]]}},{"type":"Feature","properties":{"class":"alley","highway":"service","sidewalk":"unknown","lanes":0,"name":"","oneway":false},"geometry":{"type":"LineString","coordinates":[[127.13373,37.57473],[127.13375,37.57466],[127.13373,37.57463],[127.13367,37.5746],[127.13306,37.57439],[127.1331,37.57433],[127.13312,37.5743]]}},{"type":"Feature","properties":{"class":"alley","highway":"service","sidewalk":"unknown","lanes":0,"name":"","oneway":false},"geometry":{"type":"LineString","coordinates":[[127.13312,37.5743],[127.13324,37.57406],[127.1334,37.57375],[127.13355,37.57345],[127.13373,37.57352],[127.1339,37.57358],[127.13406,37.57364],[127.13424,37.5737],[127.13408,37.57397],[127.13391,37.57428],[127.13375,37.57456],[127.1331,37.57433]]}},{"type":"Feature","properties":{"class":"alley","highway":"service","sidewalk":"unknown","lanes":0,"name":"","oneway":false},"geometry":{"type":"LineString","coordinates":[[127.13324,37.57406],[127.13341,37.57412],[127.13358,37.57418],[127.13375,37.57423],[127.13391,37.57428]]}},{"type":"Feature","properties":{"class":"alley","highway":"service","sidewalk":"unknown","lanes":0,"name":"","oneway":false},"geometry":{"type":"LineString","coordinates":[[127.1334,37.57375],[127.13357,37.5738],[127.13375,37.57386],[127.13392,37.57392],[127.13408,37.57397]]}},{"type":"Feature","properties":{"class":"alley","highway":"service","sidewalk":"unknown","lanes":0,"name":"","oneway":false},"geometry":{"type":"LineString","coordinates":[[127.1333,37.57432],[127.13341,37.57412],[127.13357,37.5738],[127.13373,37.57352]]}},{"type":"Feature","properties":{"class":"alley","highway":"service","sidewalk":"unknown","lanes":0,"name":"","oneway":false},"geometry":{"type":"LineString","coordinates":[[127.13348,37.57438],[127.13358,37.57418],[127.13375,37.57386],[127.1339,37.57358]]}},{"type":"Feature","properties":{"class":"alley","highway":"service","sidewalk":"unknown","lanes":0,"name":"","oneway":false},"geometry":{"type":"LineString","coordinates":[[127.13364,37.57443],[127.13375,37.57423],[127.13392,37.57392],[127.13406,37.57364]]}},{"type":"Feature","properties":{"class":"alley","highway":"pedestrian","sidewalk":"unknown","lanes":0,"name":"","oneway":false},"geometry":{"type":"LineString","coordinates":[[127.13397,37.57436],[127.13386,37.57457],[127.13388,37.57461],[127.13391,37.57468],[127.13416,37.57477],[127.13425,37.57469],[127.1343,37.57463],[127.13433,37.57459],[127.13438,37.57447],[127.13401,37.57437],[127.13397,37.57436]]}},{"type":"Feature","properties":{"class":"alley","highway":"pedestrian","sidewalk":"unknown","lanes":0,"name":"","oneway":false},"geometry":{"type":"LineString","coordinates":[[127.13751,37.57471],[127.13755,37.57472],[127.13747,37.57492],[127.13754,37.57493],[127.13771,37.57497],[127.13772,37.57494],[127.13761,37.57492],[127.13767,37.57475],[127.13778,37.57478],[127.13779,37.57475],[127.13752,37.57469],[127.13751,37.57471]]}},{"type":"Feature","properties":{"class":"alley","highway":"pedestrian","sidewalk":"unknown","lanes":0,"name":"","oneway":false},"geometry":{"type":"LineString","coordinates":[[127.13861,37.57478],[127.13858,37.57478],[127.13853,37.57477],[127.13852,37.57482],[127.13856,37.57482],[127.1386,37.57482],[127.13861,37.57478]]}},{"type":"Feature","properties":{"class":"major","highway":"primary","sidewalk":"likely","lanes":0,"name":"양재대로","oneway":false},"geometry":{"type":"LineString","coordinates":[[127.13345,37.5673],[127.13447,37.56616],[127.13491,37.56562],[127.13552,37.56488]]}},{"type":"Feature","properties":{"class":"major","highway":"secondary","sidewalk":"likely","lanes":2,"name":"사가정로","oneway":true},"geometry":{"type":"LineString","coordinates":[[127.09294,37.5805],[127.09344,37.5805],[127.09447,37.58047],[127.09587,37.58044],[127.09805,37.58043],[127.09892,37.58037],[127.10154,37.5802],[127.10235,37.58013],[127.10291,37.58008],[127.10446,37.57994],[127.10524,37.57982],[127.10725,37.57951],[127.10973,37.57915],[127.11211,37.57878],[127.11301,37.57865],[127.11446,37.57844],[127.11625,37.57817],[127.11743,37.57799],[127.11886,37.57777],[127.11954,37.57767],[127.12032,37.57752],[127.12122,37.57732],[127.12212,37.57704],[127.1233,37.57659]]}},{"type":"Feature","properties":{"class":"alley","highway":"service","sidewalk":"unknown","lanes":0,"name":"","oneway":false},"geometry":{"type":"LineString","coordinates":[[127.14204,37.56539],[127.14219,37.56489],[127.14201,37.56481],[127.14175,37.56487],[127.14095,37.56468],[127.14061,37.56492],[127.13982,37.56546],[127.13855,37.56634]]}},{"type":"Feature","properties":{"class":"alley","highway":"service","sidewalk":"unknown","lanes":0,"name":"","oneway":false},"geometry":{"type":"LineString","coordinates":[[127.1395,37.56625],[127.13935,37.56626],[127.13901,37.56632],[127.1386,37.56646],[127.13837,37.56647],[127.13826,37.56654],[127.13811,37.56666]]}},{"type":"Feature","properties":{"class":"alley","highway":"service","sidewalk":"unknown","lanes":0,"name":"","oneway":false},"geometry":{"type":"LineString","coordinates":[[127.13982,37.56546],[127.13929,37.56497],[127.13894,37.56465],[127.13758,37.5634]]}},{"type":"Feature","properties":{"class":"alley","highway":"service","sidewalk":"unknown","lanes":0,"name":"","oneway":false},"geometry":{"type":"LineString","coordinates":[[127.14348,37.56031],[127.14332,37.56013],[127.13966,37.56211],[127.13907,37.56227],[127.13892,37.56241],[127.13881,37.56256],[127.13879,37.56259],[127.13758,37.5634],[127.13758,37.56351],[127.13715,37.56381],[127.13699,37.56391],[127.13686,37.56403],[127.13675,37.56419],[127.1367,37.5643],[127.13668,37.5644],[127.13667,37.56449],[127.13672,37.56472],[127.13676,37.56496],[127.13681,37.56515],[127.13787,37.56611],[127.13798,37.56616],[127.13819,37.56619]]}},{"type":"Feature","properties":{"class":"alley","highway":"service","sidewalk":"unknown","lanes":0,"name":"","oneway":false},"geometry":{"type":"LineString","coordinates":[[127.13787,37.56611],[127.1383,37.56581],[127.13874,37.56551],[127.13886,37.56527],[127.13929,37.56497]]}},{"type":"Feature","properties":{"class":"alley","highway":"service","sidewalk":"unknown","lanes":0,"name":"","oneway":false},"geometry":{"type":"LineString","coordinates":[[127.13874,37.56551],[127.13749,37.56436],[127.13705,37.56467],[127.13721,37.56482],[127.13681,37.56515]]}},{"type":"Feature","properties":{"class":"alley","highway":"service","sidewalk":"unknown","lanes":0,"name":"","oneway":false},"geometry":{"type":"LineString","coordinates":[[127.13721,37.56482],[127.1383,37.56581]]}},{"type":"Feature","properties":{"class":"alley","highway":"service","sidewalk":"unknown","lanes":0,"name":"","oneway":false},"geometry":{"type":"LineString","coordinates":[[127.13966,37.56211],[127.14123,37.56389],[127.14187,37.56461],[127.14197,37.56472],[127.14201,37.56481]]}},{"type":"Feature","properties":{"class":"alley","highway":"service","sidewalk":"unknown","lanes":0,"name":"","oneway":false},"geometry":{"type":"LineString","coordinates":[[127.14061,37.56492],[127.13986,37.56425]]}},{"type":"Feature","properties":{"class":"alley","highway":"service","sidewalk":"unknown","lanes":0,"name":"","oneway":false},"geometry":{"type":"LineString","coordinates":[[127.14095,37.56468],[127.14097,37.56457],[127.14015,37.56381],[127.13881,37.56256]]}},{"type":"Feature","properties":{"class":"alley","highway":"service","sidewalk":"unknown","lanes":0,"name":"","oneway":false},"geometry":{"type":"LineString","coordinates":[[127.14015,37.56381],[127.13894,37.56465]]}},{"type":"Feature","properties":{"class":"major","highway":"trunk","sidewalk":"likely","lanes":5,"name":"강변북로","oneway":true},"geometry":{"type":"LineString","coordinates":[[127.13599,37.57612],[127.13472,37.57574],[127.13335,37.57527],[127.13181,37.57464]]}},{"type":"Feature","properties":{"class":"major","highway":"secondary","sidewalk":"likely","lanes":0,"name":"올림픽로","oneway":false},"geometry":{"type":"LineString","coordinates":[[127.13301,37.56383],[127.133,37.56373],[127.13297,37.56348],[127.13285,37.56252],[127.13276,37.56219],[127.13234,37.56132],[127.13205,37.56095],[127.13168,37.56047],[127.13142,37.56012],[127.13111,37.55967]]}},{"type":"Feature","properties":{"class":"major","highway":"motorway","sidewalk":"likely","lanes":3,"name":"세종포천고속도로","oneway":true},"geometry":{"type":"LineString","coordinates":[[127.13271,37.57879],[127.13079,37.57872],[127.13041,37.57871],[127.12966,37.57873]]}},{"type":"Feature","properties":{"class":"major","highway":"tertiary_link","sidewalk":"likely","lanes":0,"name":"","oneway":true},"geometry":{"type":"LineString","coordinates":[[127.12365,37.57099],[127.12379,37.57113]]}},{"type":"Feature","properties":{"class":"major","highway":"trunk_link","sidewalk":"likely","lanes":0,"name":"","oneway":true},"geometry":{"type":"LineString","coordinates":[[127.12603,37.57263],[127.12594,37.57236],[127.12586,37.5721],[127.12575,37.57181],[127.12556,37.57154],[127.12523,37.57115]]}},{"type":"Feature","properties":{"class":"major","highway":"trunk_link","sidewalk":"likely","lanes":0,"name":"","oneway":true},"geometry":{"type":"LineString","coordinates":[[127.12657,37.57322],[127.12625,37.57291],[127.12603,37.57263]]}},{"type":"Feature","properties":{"class":"major","highway":"trunk_link","sidewalk":"likely","lanes":0,"name":"","oneway":true},"geometry":{"type":"LineString","coordinates":[[127.12717,37.57272],[127.12696,37.57261],[127.12696,37.57261],[127.12672,37.57249]]}},{"type":"Feature","properties":{"class":"major","highway":"trunk_link","sidewalk":"likely","lanes":0,"name":"","oneway":true},"geometry":{"type":"LineString","coordinates":[[127.12992,37.57436],[127.12974,37.57443],[127.12959,37.57447],[127.12945,37.57448],[127.12915,37.57448],[127.12902,37.57446]]}},{"type":"Feature","properties":{"class":"major","highway":"trunk_link","sidewalk":"likely","lanes":0,"name":"","oneway":true},"geometry":{"type":"LineString","coordinates":[[127.12594,37.57116],[127.12653,37.57155],[127.12718,37.57197]]}},{"type":"Feature","properties":{"class":"minor","highway":"residential","sidewalk":"unknown","lanes":0,"name":"아치울길22번길","oneway":false},"geometry":{"type":"LineString","coordinates":[[127.11972,37.57445],[127.11969,37.57453],[127.11946,37.57486],[127.1196,37.57494],[127.11964,37.57517],[127.11975,37.57536],[127.12005,37.57553],[127.1201,37.57562],[127.12072,37.5761],[127.12091,37.57633],[127.12102,37.57635],[127.12122,37.57618],[127.12129,37.57608],[127.1214,37.57602],[127.1215,37.57602],[127.12154,37.57608],[127.12151,37.57613],[127.12139,37.57629],[127.12135,37.57643],[127.12146,37.57672],[127.12126,37.57683]]}},{"type":"Feature","properties":{"class":"major","highway":"trunk_link","sidewalk":"likely","lanes":0,"name":"","oneway":true},"geometry":{"type":"LineString","coordinates":[[127.12625,37.57474],[127.12639,37.57448],[127.12645,37.5744],[127.12647,37.57437],[127.1266,37.5742],[127.12668,37.57405]]}},{"type":"Feature","properties":{"class":"major","highway":"trunk_link","sidewalk":"likely","lanes":0,"name":"","oneway":true},"geometry":{"type":"LineString","coordinates":[[127.13121,37.5741],[127.13236,37.57462],[127.13305,37.57497]]}},{"type":"Feature","properties":{"class":"major","highway":"trunk_link","sidewalk":"likely","lanes":0,"name":"","oneway":true},"geometry":{"type":"LineString","coordinates":[[127.12763,37.57438],[127.12729,37.57443],[127.12715,37.57447],[127.12703,37.57451],[127.12688,37.57459],[127.12674,37.57467],[127.12668,37.57469],[127.12642,37.57482]]}},{"type":"Feature","properties":{"class":"major","highway":"motorway_link","sidewalk":"likely","lanes":1,"name":"","oneway":true},"geometry":{"type":"LineString","coordinates":[[127.13869,37.57723],[127.13845,37.57733],[127.13836,37.57738],[127.13834,37.57742],[127.13834,37.57745],[127.13834,37.57748],[127.13834,37.57753],[127.13837,37.57758],[127.13845,37.57763],[127.13856,37.57766],[127.13871,37.57768],[127.13884,37.57767],[127.13899,37.57763],[127.13915,37.57757],[127.13931,37.57749],[127.13948,37.57735]]}},{"type":"Feature","properties":{"class":"minor","highway":"unclassified","sidewalk":"unknown","lanes":0,"name":"코스모스길96번길","oneway":false},"geometry":{"type":"LineString","coordinates":[[127.13795,37.57736],[127.13783,37.57758],[127.1378,37.57768],[127.13783,37.57781],[127.13794,37.57794],[127.13813,37.578],[127.1383,37.57801],[127.1385,37.57796],[127.13877,37.57787],[127.13894,37.5778],[127.13952,37.57743],[127.1397,37.57729],[127.13985,37.57723],[127.13993,37.57721],[127.14013,37.57723],[127.14037,37.57731],[127.14064,37.57738],[127.14077,37.5775],[127.14083,37.57756],[127.14087,37.57762],[127.14089,37.5777],[127.14092,37.57781]]}},{"type":"Feature","properties":{"class":"major","highway":"trunk","sidewalk":"likely","lanes":4,"name":"올림픽대로","oneway":true},"geometry":{"type":"LineString","coordinates":[[127.15809,37.5702],[127.155,37.56886],[127.15244,37.56768],[127.1513,37.56718],[127.15062,37.56693],[127.14992,37.56673],[127.14915,37.56656],[127.14878,37.56651],[127.14834,37.56649],[127.14752,37.56644],[127.14676,37.56647],[127.14565,37.5666],[127.13984,37.56704],[127.13924,37.56706],[127.13885,37.56706]]}},{"type":"Feature","properties":{"class":"major","highway":"trunk","sidewalk":"likely","lanes":4,"name":"올림픽대로","oneway":true},"geometry":{"type":"LineString","coordinates":[[127.13885,37.56706],[127.1383,37.56701],[127.13786,37.56694],[127.13737,37.56685],[127.13692,37.56675],[127.13633,37.56656],[127.13592,37.56641],[127.13525,37.56609],[127.13461,37.56572],[127.13332,37.56502],[127.13244,37.56446],[127.13163,37.5639],[127.13059,37.56321],[127.13,37.56277],[127.12984,37.56264],[127.12942,37.56229]]}},{"type":"Feature","properties":{"class":"alley","highway":"service","sidewalk":"unknown","lanes":0,"name":"","oneway":false},"geometry":{"type":"LineString","coordinates":[[127.13079,37.57872],[127.1308,37.57846]]}},{"type":"Feature","properties":{"class":"major","highway":"motorway","sidewalk":"likely","lanes":2,"name":"세종포천고속도로","oneway":true},"geometry":{"type":"LineString","coordinates":[[127.13998,37.57765],[127.14034,37.5775]]}},{"type":"Feature","properties":{"class":"major","highway":"motorway","sidewalk":"likely","lanes":2,"name":"세종포천고속도로","oneway":true},"geometry":{"type":"LineString","coordinates":[[127.14039,37.57757],[127.13999,37.57775]]}},{"type":"Feature","properties":{"class":"major","highway":"trunk","sidewalk":"likely","lanes":4,"name":"강변북로","oneway":true},"geometry":{"type":"LineString","coordinates":[[127.14115,37.57688],[127.14051,37.57685],[127.13984,37.5768]]}},{"type":"Feature","properties":{"class":"major","highway":"trunk","sidewalk":"likely","lanes":3,"name":"강변북로","oneway":true},"geometry":{"type":"LineString","coordinates":[[127.13984,37.5768],[127.13938,37.57676],[127.139,37.57673]]}},{"type":"Feature","properties":{"class":"major","highway":"trunk","sidewalk":"likely","lanes":4,"name":"강변북로","oneway":true},"geometry":{"type":"LineString","coordinates":[[127.139,37.57673],[127.13838,37.57664],[127.13786,37.57654],[127.13729,37.57641]]}},{"type":"Feature","properties":{"class":"major","highway":"trunk","sidewalk":"likely","lanes":3,"name":"강변북로","oneway":true},"geometry":{"type":"LineString","coordinates":[[127.13729,37.57641],[127.13659,37.57625],[127.13599,37.57612]]}},{"type":"Feature","properties":{"class":"major","highway":"trunk","sidewalk":"likely","lanes":4,"name":"강변북로","oneway":true},"geometry":{"type":"LineString","coordinates":[[127.13181,37.57464],[127.13108,37.57428]]}},{"type":"Feature","properties":{"class":"major","highway":"trunk","sidewalk":"likely","lanes":3,"name":"강변북로","oneway":true},"geometry":{"type":"LineString","coordinates":[[127.12761,37.57268],[127.12704,37.5723],[127.12516,37.57088],[127.12386,37.56993]]}},{"type":"Feature","properties":{"class":"major","highway":"trunk","sidewalk":"likely","lanes":4,"name":"강변북로","oneway":true},"geometry":{"type":"LineString","coordinates":[[127.12386,37.56993],[127.12281,37.56916]]}},{"type":"Feature","properties":{"class":"major","highway":"trunk","sidewalk":"likely","lanes":3,"name":"강변북로","oneway":true},"geometry":{"type":"LineString","coordinates":[[127.11935,37.56568],[127.11986,37.56624],[127.12059,37.56701],[127.12098,37.5674],[127.12138,37.56777],[127.1218,37.56814],[127.12222,37.56851],[127.12268,37.56888],[127.12305,37.56917]]}},{"type":"Feature","properties":{"class":"major","highway":"trunk","sidewalk":"likely","lanes":4,"name":"강변북로","oneway":true},"geometry":{"type":"LineString","coordinates":[[127.12305,37.56917],[127.12384,37.56975]]}},{"type":"Feature","properties":{"class":"major","highway":"trunk","sidewalk":"likely","lanes":3,"name":"강변북로","oneway":true},"geometry":{"type":"LineString","coordinates":[[127.12384,37.56975],[127.12449,37.57024]]}},{"type":"Feature","properties":{"class":"major","highway":"trunk","sidewalk":"likely","lanes":4,"name":"강변북로","oneway":true},"geometry":{"type":"LineString","coordinates":[[127.12449,37.57024],[127.12509,37.57069]]}},{"type":"Feature","properties":{"class":"major","highway":"trunk","sidewalk":"likely","lanes":3,"name":"강변북로","oneway":true},"geometry":{"type":"LineString","coordinates":[[127.12965,37.57355],[127.13094,37.5741],[127.13231,37.57469],[127.13305,37.57497]]}},{"type":"Feature","properties":{"class":"major","highway":"trunk","sidewalk":"likely","lanes":4,"name":"강변북로","oneway":true},"geometry":{"type":"LineString","coordinates":[[127.13305,37.57497],[127.13315,37.57501],[127.13384,37.57526],[127.13445,37.57547]]}},{"type":"Feature","properties":{"class":"major","highway":"trunk","sidewalk":"likely","lanes":5,"name":"강변북로","oneway":true},"geometry":{"type":"LineString","coordinates":[[127.13445,37.57547],[127.13545,37.57579]]}},{"type":"Feature","properties":{"class":"major","highway":"trunk","sidewalk":"likely","lanes":3,"name":"강변북로","oneway":true},"geometry":{"type":"LineString","coordinates":[[127.13545,37.57579],[127.13573,37.57589],[127.13602,37.57597],[127.13633,37.57606],[127.13699,37.57622]]}},{"type":"Feature","properties":{"class":"major","highway":"trunk","sidewalk":"likely","lanes":4,"name":"강변북로","oneway":true},"geometry":{"type":"LineString","coordinates":[[127.13699,37.57622],[127.13741,37.57632],[127.13782,37.5764],[127.1383,37.5765],[127.13869,37.57655]]}},{"type":"Feature","properties":{"class":"major","highway":"trunk","sidewalk":"likely","lanes":5,"name":"강변북로","oneway":true},"geometry":{"type":"LineString","coordinates":[[127.13869,37.57655],[127.1397,37.57665]]}},{"type":"Feature","properties":{"class":"major","highway":"trunk","sidewalk":"likely","lanes":4,"name":"강변북로","oneway":true},"geometry":{"type":"LineString","coordinates":[[127.1397,37.57665],[127.14037,37.57671],[127.14075,37.57674]]}},{"type":"Feature","properties":{"class":"alley","highway":"service","sidewalk":"unknown","lanes":0,"name":"","oneway":false},"geometry":{"type":"LineString","coordinates":[[127.12016,37.57426],[127.12023,37.57433],[127.1205,37.57455],[127.1205,37.57459]]}},{"type":"Feature","properties":{"class":"minor","highway":"unclassified","sidewalk":"unknown","lanes":0,"name":"코스모스길96번길","oneway":false},"geometry":{"type":"LineString","coordinates":[[127.13823,37.57962],[127.13842,37.57953],[127.1385,37.57965]]}},{"type":"Feature","properties":{"class":"alley","highway":"service","sidewalk":"unknown","lanes":0,"name":"","oneway":false},"geometry":{"type":"LineString","coordinates":[[127.13461,37.57986],[127.13477,37.57986],[127.135,37.57991]]}},{"type":"Feature","properties":{"class":"major","highway":"trunk","sidewalk":"likely","lanes":4,"name":"올림픽대로","oneway":true},"geometry":{"type":"LineString","coordinates":[[127.12777,37.56],[127.12796,37.56023],[127.1286,37.56103],[127.1292,37.56164],[127.13029,37.56261],[127.13106,37.56323],[127.13145,37.56353],[127.13184,37.56382],[127.13253,37.5643],[127.13336,37.56483],[127.13454,37.56547],[127.13566,37.56604],[127.136,37.5662],[127.13647,37.56639]]}},{"type":"Feature","properties":{"class":"major","highway":"trunk","sidewalk":"likely","lanes":4,"name":"올림픽대로","oneway":true},"geometry":{"type":"LineString","coordinates":[[127.12763,37.56009],[127.12731,37.55969]]}},{"type":"Feature","properties":{"class":"major","highway":"primary","sidewalk":"likely","lanes":0,"name":"양재대로","oneway":true},"geometry":{"type":"LineString","coordinates":[[127.14078,37.56103],[127.14073,37.56112],[127.13957,37.56176],[127.13913,37.56201],[127.1387,37.5623],[127.13818,37.56266],[127.13745,37.56321],[127.13706,37.56355],[127.13686,37.56372],[127.13646,37.56408],[127.1356,37.56493]]}},{"type":"Feature","properties":{"class":"major","highway":"primary","sidewalk":"likely","lanes":0,"name":"양재대로","oneway":true},"geometry":{"type":"LineString","coordinates":[[127.1356,37.56493],[127.13503,37.56565],[127.13352,37.56738],[127.13312,37.56783],[127.13213,37.56896],[127.13015,37.57126],[127.12999,37.57146],[127.12908,37.57245],[127.12871,37.57281],[127.12823,37.57327]]}},{"type":"Feature","properties":{"class":"major","highway":"trunk","sidewalk":"likely","lanes":4,"name":"올림픽대로","oneway":true},"geometry":{"type":"LineString","coordinates":[[127.12745,37.55961],[127.12777,37.56]]}},{"type":"Feature","properties":{"class":"major","highway":"primary","sidewalk":"yes","lanes":3,"name":"아차산로","oneway":true},"geometry":{"type":"LineString","coordinates":[[127.12389,37.57615],[127.12364,37.57593],[127.1234,37.57569],[127.12299,37.57522],[127.12268,37.57479],[127.12236,37.57427],[127.1221,37.57375],[127.12202,37.57361],[127.12193,37.57343],[127.12189,37.57338],[127.121,37.57176],[127.1208,37.57137],[127.12005,37.57022],[127.1199,37.57],[127.11949,37.56953],[127.11937,37.56942],[127.11931,37.56937],[127.11838,37.56849],[127.11813,37.56829],[127.1177,37.56791],[127.11754,37.56776]]}},{"type":"Feature","properties":{"class":"major","highway":"primary_link","sidewalk":"likely","lanes":0,"name":"","oneway":true},"geometry":{"type":"LineString","coordinates":[[127.12393,37.57601],[127.12403,37.57594],[127.12404,37.57593],[127.12426,37.57578],[127.12473,37.57548]]}},{"type":"Feature","properties":{"class":"major","highway":"primary","sidewalk":"yes","lanes":3,"name":"아차산로","oneway":true},"geometry":{"type":"LineString","coordinates":[[127.12393,37.57601],[127.12404,37.57611],[127.12444,37.57645],[127.12453,37.57651],[127.125,37.57685],[127.12553,37.57719],[127.12621,37.57766],[127.12684,37.57816],[127.12709,37.57838],[127.12727,37.57857],[127.12754,37.57884],[127.12773,37.57904],[127.12781,37.57913],[127.12807,37.57945],[127.12838,37.57989],[127.12861,37.58028],[127.12894,37.58102],[127.12901,37.58121],[127.12906,37.58136],[127.12919,37.58179],[127.12934,37.5825],[127.12956,37.58352],[127.12957,37.5836],[127.12971,37.58423],[127.12988,37.58494],[127.13008,37.58558],[127.13018,37.58601],[127.13019,37.58609],[127.13021,37.5862],[127.13026,37.58657],[127.13029,37.58689],[127.1303,37.58699],[127.1303,37.58706]]}},{"type":"Feature","properties":{"class":"major","highway":"trunk_link","sidewalk":"likely","lanes":1,"name":"","oneway":true},"geometry":{"type":"LineString","coordinates":[[127.12951,37.57164],[127.13013,37.57112]]}},{"type":"Feature","properties":{"class":"major","highway":"trunk_link","sidewalk":"likely","lanes":0,"name":"","oneway":true},"geometry":{"type":"LineString","coordinates":[[127.12999,37.57146],[127.12983,37.57178],[127.12981,37.57183]]}},{"type":"Feature","properties":{"class":"major","highway":"trunk_link","sidewalk":"likely","lanes":0,"name":"","oneway":true},"geometry":{"type":"LineString","coordinates":[[127.13537,37.56535],[127.13503,37.56565]]}},{"type":"Feature","properties":{"class":"major","highway":"trunk_link","sidewalk":"likely","lanes":0,"name":"","oneway":true},"geometry":{"type":"LineString","coordinates":[[127.13375,37.56476],[127.134,37.56487],[127.1343,37.565],[127.13443,37.56505]]}},{"type":"Feature","properties":{"class":"major","highway":"trunk_link","sidewalk":"likely","lanes":0,"name":"","oneway":true},"geometry":{"type":"LineString","coordinates":[[127.13443,37.56505],[127.13473,37.5652]]}}]}