{"type":"FeatureCollection","features":[{"type":"Feature","properties":{"class":"major","highway":"tertiary","sidewalk":"likely","lanes":0,"name":"강서로62길","oneway":false},"geometry":{"type":"LineString","coordinates":[[126.84671,37.56126],[126.84655,37.56131],[126.84631,37.56139],[126.84499,37.56194],[126.84464,37.56209],[126.84331,37.56251],[126.84227,37.56272],[126.84075,37.56302],[126.84004,37.56316],[126.84001,37.56317],[126.83984,37.5632],[126.83975,37.56322]]}},{"type":"Feature","properties":{"class":"alley","highway":"service","sidewalk":"unknown","lanes":0,"name":"양천로28길","oneway":false},"geometry":{"type":"LineString","coordinates":[[126.82117,37.57095],[126.82071,37.57176],[126.82057,37.57199],[126.82047,37.5722]]}},{"type":"Feature","properties":{"class":"major","highway":"primary","sidewalk":"likely","lanes":4,"name":"공항대로","oneway":true},"geometry":{"type":"LineString","coordinates":[[126.81659,37.56068],[126.81703,37.56061],[126.81791,37.56053],[126.81982,37.56033],[126.82051,37.56027]]}},{"type":"Feature","properties":{"class":"minor","highway":"residential","sidewalk":"unknown","lanes":0,"name":"마곡서로","oneway":false},"geometry":{"type":"LineString","coordinates":[[126.82573,37.57248],[126.82376,37.57262],[126.82329,37.57265]]}},{"type":"Feature","properties":{"class":"minor","highway":"residential","sidewalk":"unknown","lanes":0,"name":"양천로47나길","oneway":false},"geometry":{"type":"LineString","coordinates":[[126.83996,37.57267],[126.83996,37.57265],[126.84001,37.57257],[126.84014,37.57234],[126.84028,37.57195],[126.8404,37.57187],[126.84055,37.57172],[126.84053,37.57142],[126.84047,37.57124]]}},{"type":"Feature","properties":{"class":"minor","highway":"residential","sidewalk":"unknown","lanes":0,"name":"강서로56가길","oneway":false},"geometry":{"type":"LineString","coordinates":[[126.84237,37.56723],[126.84231,37.56718],[126.8421,37.56712],[126.84205,37.56708],[126.84181,37.56635],[126.84159,37.56564],[126.84075,37.56302],[126.84064,37.5627],[126.84034,37.56178],[126.84003,37.56085],[126.83993,37.56058]]}},{"type":"Feature","properties":{"class":"minor","highway":"residential","sidewalk":"unknown","lanes":0,"name":"양천로47가길","oneway":false},"geometry":{"type":"LineString","coordinates":[[126.83935,37.57088],[126.83937,37.57093],[126.83892,37.5716]]}},{"type":"Feature","properties":{"class":"minor","highway":"residential","sidewalk":"unknown","lanes":0,"name":"양천로47나길","oneway":false},"geometry":{"type":"LineString","coordinates":[[126.8379,37.57124],[126.83876,37.57143],[126.83888,37.57153],[126.83892,37.5716]]}},{"type":"Feature","properties":{"class":"minor","highway":"residential","sidewalk":"unknown","lanes":0,"name":"양천로47가길","oneway":false},"geometry":{"type":"LineString","coordinates":[[126.83776,37.57065],[126.83782,37.57065],[126.83914,37.57073],[126.83935,37.57088],[126.84015,37.57129],[126.84024,37.57145]]}},{"type":"Feature","properties":{"class":"major","highway":"tertiary","sidewalk":"likely","lanes":0,"name":"강서로","oneway":false},"geometry":{"type":"LineString","coordinates":[[126.83896,37.56078],[126.83903,37.56077],[126.83919,37.56074],[126.83993,37.56058]]}},{"type":"Feature","properties":{"class":"minor","highway":"residential","sidewalk":"unknown","lanes":0,"name":"양천로47길","oneway":false},"geometry":{"type":"LineString","coordinates":[[126.83785,37.57644],[126.83752,37.57639],[126.83743,37.57638],[126.83725,37.57628],[126.83677,37.57581]]}},{"type":"Feature","properties":{"class":"major","highway":"tertiary","sidewalk":"likely","lanes":0,"name":"마곡중앙5로","oneway":false},"geometry":{"type":"LineString","coordinates":[[126.82789,37.56669],[126.82766,37.56671],[126.82617,37.56682]]}},{"type":"Feature","properties":{"class":"major","highway":"tertiary","sidewalk":"likely","lanes":0,"name":"마곡서1로","oneway":false},"geometry":{"type":"LineString","coordinates":[[126.82053,37.56039],[126.82058,37.56084]]}},{"type":"Feature","properties":{"class":"major","highway":"tertiary","sidewalk":"likely","lanes":0,"name":"마곡서로","oneway":false},"geometry":{"type":"LineString","coordinates":[[126.82374,37.5601],[126.8238,37.56062],[126.82394,37.56111],[126.82413,37.56216]]}},{"type":"Feature","properties":{"class":"minor","highway":"residential","sidewalk":"unknown","lanes":0,"name":"마곡서로","oneway":false},"geometry":{"type":"LineString","coordinates":[[126.82487,37.56693],[126.82489,37.56708],[126.8251,37.56836],[126.82511,37.56842]]}},{"type":"Feature","properties":{"class":"alley","highway":"service","sidewalk":"unknown","lanes":0,"name":"양천로47길","oneway":false},"geometry":{"type":"LineString","coordinates":[[126.83754,37.5719],[126.83812,37.57194],[126.83844,37.57197]]}},{"type":"Feature","properties":{"class":"minor","highway":"residential","sidewalk":"unknown","lanes":0,"name":"양천로49길","oneway":false},"geometry":{"type":"LineString","coordinates":[[126.83723,37.57249],[126.83815,37.57258],[126.83836,37.57258],[126.83859,37.57253],[126.8389,37.57236],[126.83901,37.57234],[126.83925,37.57232],[126.83936,37.57227],[126.83949,37.57221],[126.83958,37.57212],[126.84024,37.57145],[126.84039,37.57133],[126.84047,37.57124],[126.8406,37.57053],[126.84064,37.57042],[126.84073,37.56994],[126.84089,37.56937],[126.84098,37.56877],[126.84101,37.56861]]}},{"type":"Feature","properties":{"class":"minor","highway":"residential","sidewalk":"unknown","lanes":0,"name":"양천로47나길","oneway":false},"geometry":{"type":"LineString","coordinates":[[126.84037,37.5733],[126.84042,37.57302],[126.84028,37.57277],[126.83996,37.57265]]}},{"type":"Feature","properties":{"class":"alley","highway":"service","sidewalk":"unknown","lanes":0,"name":"","oneway":false},"geometry":{"type":"LineString","coordinates":[[126.82101,37.56465],[126.82107,37.56456],[126.82109,37.56449],[126.82108,37.56435],[126.82039,37.56399]]}},{"type":"Feature","properties":{"class":"alley","highway":"service","sidewalk":"unknown","lanes":0,"name":"","oneway":false},"geometry":{"type":"LineString","coordinates":[[126.81991,37.56689],[126.82015,37.56687],[126.8201,37.56638],[126.81912,37.56643]]}},{"type":"Feature","properties":{"class":"minor","highway":"residential","sidewalk":"unknown","lanes":0,"name":"방화대로34길","oneway":false},"geometry":{"type":"LineString","coordinates":[[126.81677,37.56904],[126.81694,37.56906],[126.81819,37.56961],[126.81939,37.57017],[126.81975,37.57032],[126.82068,37.57073],[126.82117,37.57095]]}},{"type":"Feature","properties":{"class":"minor","highway":"residential","sidewalk":"unknown","lanes":0,"name":"양천로30길","oneway":false},"geometry":{"type":"LineString","coordinates":[[126.82259,37.56849],[126.82311,37.56851],[126.82327,37.56852],[126.8235,37.56851],[126.82388,37.56849]]}},{"type":"Feature","properties":{"class":"minor","highway":"residential","sidewalk":"unknown","lanes":0,"name":"마곡중앙로","oneway":false},"geometry":{"type":"LineString","coordinates":[[126.82812,37.56821],[126.82795,37.56822],[126.82791,37.56822],[126.82645,37.56832],[126.82638,37.56832]]}},{"type":"Feature","properties":{"class":"major","highway":"tertiary","sidewalk":"yes","lanes":0,"name":"마곡중앙6로","oneway":false},"geometry":{"type":"LineString","coordinates":[[126.82704,37.56088],[126.82722,37.56086],[126.82724,37.56086],[126.82731,37.56085],[126.82999,37.56056],[126.83009,37.56055],[126.83026,37.56054],[126.83111,37.56049],[126.83328,37.56035],[126.83336,37.56035],[126.83345,37.56034],[126.83357,37.56033],[126.83369,37.56032],[126.83544,37.56016],[126.83561,37.56014],[126.83577,37.56012],[126.83671,37.56001],[126.83678,37.56],[126.83777,37.55982],[126.83786,37.55981]]}},{"type":"Feature","properties":{"class":"major","highway":"tertiary","sidewalk":"likely","lanes":3,"name":"마곡중앙8로","oneway":false},"geometry":{"type":"LineString","coordinates":[[126.8353,37.56109],[126.83574,37.56105],[126.83663,37.56098],[126.83683,37.56096],[126.83728,37.56092],[126.83822,37.56084],[126.83879,37.56079],[126.83886,37.56079],[126.83896,37.56078]]}},{"type":"Feature","properties":{"class":"major","highway":"tertiary","sidewalk":"likely","lanes":0,"name":"마곡중앙10로","oneway":false},"geometry":{"type":"LineString","coordinates":[[126.8361,37.56358],[126.83697,37.56351],[126.83762,37.56345],[126.83899,37.56332],[126.83955,37.56325],[126.83964,37.56324],[126.83975,37.56322]]}},{"type":"Feature","properties":{"class":"major","highway":"secondary","sidewalk":"yes","lanes":5,"name":"마곡동로","oneway":false},"geometry":{"type":"LineString","coordinates":[[126.83326,37.55901],[126.83328,37.55916],[126.8333,37.55924],[126.83336,37.55963],[126.83337,37.55973],[126.83344,37.56023],[126.83345,37.56034],[126.83347,37.56045],[126.83355,37.56086],[126.83359,37.56109],[126.83362,37.56126]]}},{"type":"Feature","properties":{"class":"major","highway":"tertiary","sidewalk":"likely","lanes":3,"name":"마곡중앙3로","oneway":false},"geometry":{"type":"LineString","coordinates":[[126.82543,37.56206],[126.82688,37.5619],[126.82698,37.5619],[126.82719,37.56188]]}},{"type":"Feature","properties":{"class":"major","highway":"tertiary","sidewalk":"likely","lanes":0,"name":"마곡중앙6로","oneway":false},"geometry":{"type":"LineString","coordinates":[[126.83009,37.56055],[126.83007,37.56046],[126.83004,37.56008],[126.82994,37.55947]]}},{"type":"Feature","properties":{"class":"major","highway":"tertiary","sidewalk":"likely","lanes":2,"name":"마곡중앙6로","oneway":false},"geometry":{"type":"LineString","coordinates":[[126.83561,37.56014],[126.83558,37.56001],[126.83548,37.55953]]}},{"type":"Feature","properties":{"class":"minor","highway":"residential","sidewalk":"unknown","lanes":0,"name":"양천로","oneway":false},"geometry":{"type":"LineString","coordinates":[[126.8396,37.56938],[126.83971,37.56943],[126.84005,37.5696],[126.84073,37.56994]]}},{"type":"Feature","properties":{"class":"major","highway":"tertiary","sidewalk":"likely","lanes":0,"name":"공항대로","oneway":false},"geometry":{"type":"LineString","coordinates":[[126.83769,37.55932],[126.83783,37.55974],[126.83786,37.55981],[126.8379,37.55989],[126.8381,37.56041],[126.83822,37.56084]]}},{"type":"Feature","properties":{"class":"major","highway":"tertiary","sidewalk":"likely","lanes":0,"name":"마곡동로10길","oneway":false},"geometry":{"type":"LineString","coordinates":[[126.83671,37.56973],[126.83683,37.56966],[126.8386,37.56868],[126.83943,37.56825],[126.84034,37.56779],[126.84001,37.56662]]}},{"type":"Feature","properties":{"class":"major","highway":"tertiary","sidewalk":"likely","lanes":0,"name":"마곡동로8길","oneway":false},"geometry":{"type":"LineString","coordinates":[[126.83545,37.56859],[126.83565,37.56849],[126.8375,37.56747],[126.83833,37.56702],[126.83886,37.56675],[126.84001,37.56662],[126.84048,37.56657],[126.84065,37.56655],[126.84084,37.5666]]}},{"type":"Feature","properties":{"class":"minor","highway":"residential","sidewalk":"unknown","lanes":2,"name":"마곡중앙8로3길","oneway":false},"geometry":{"type":"LineString","coordinates":[[126.83663,37.56098],[126.83669,37.56146],[126.83679,37.56221],[126.83697,37.56351],[126.83723,37.56524],[126.83726,37.56548],[126.83734,37.56577],[126.83753,37.56601],[126.83833,37.56702],[126.83943,37.56825]]}},{"type":"Feature","properties":{"class":"minor","highway":"residential","sidewalk":"unknown","lanes":0,"name":"마곡중앙8로5길","oneway":false},"geometry":{"type":"LineString","coordinates":[[126.83728,37.56092],[126.83744,37.56215],[126.83762,37.56345],[126.83785,37.56517],[126.83787,37.56534],[126.83794,37.56555],[126.83809,37.56578],[126.83886,37.56675]]}},{"type":"Feature","properties":{"class":"alley","highway":"service","sidewalk":"unknown","lanes":0,"name":"방화대로40길","oneway":false},"geometry":{"type":"LineString","coordinates":[[126.82071,37.57176],[126.81861,37.57088]]}},{"type":"Feature","properties":{"class":"minor","highway":"residential","sidewalk":"unknown","lanes":0,"name":"마곡서로","oneway":false},"geometry":{"type":"LineString","coordinates":[[126.82546,37.57078],[126.82538,37.57079],[126.8245,37.57084],[126.82396,37.5717],[126.82371,37.57208],[126.82376,37.57262],[126.82379,37.57298],[126.8238,37.57308]]}},{"type":"Feature","properties":{"class":"alley","highway":"service","sidewalk":"unknown","lanes":0,"name":"양천로30길","oneway":false},"geometry":{"type":"LineString","coordinates":[[126.82268,37.56999],[126.82355,37.5704]]}},{"type":"Feature","properties":{"class":"alley","highway":"service","sidewalk":"unknown","lanes":0,"name":"양천로30가길","oneway":false},"geometry":{"type":"LineString","coordinates":[[126.82267,37.57066],[126.82302,37.57066],[126.82334,37.57054],[126.82351,37.57046],[126.82355,37.5704]]}},{"type":"Feature","properties":{"class":"minor","highway":"residential","sidewalk":"unknown","lanes":0,"name":"마곡서1로","oneway":false},"geometry":{"type":"LineString","coordinates":[[126.8194,37.56899],[126.81995,37.56897],[126.8202,37.56893],[126.82079,37.56871],[126.82112,37.56858],[126.82143,37.56853],[126.82187,37.5685]]}},{"type":"Feature","properties":{"class":"alley","highway":"service","sidewalk":"unknown","lanes":0,"name":"양천로26길","oneway":false},"geometry":{"type":"LineString","coordinates":[[126.82175,37.57261],[126.82203,37.57136]]}},{"type":"Feature","properties":{"class":"minor","highway":"residential","sidewalk":"unknown","lanes":0,"name":"마곡중앙로","oneway":false},"geometry":{"type":"LineString","coordinates":[[126.82828,37.56929],[126.82811,37.5693],[126.82661,37.56943],[126.82655,37.56944]]}},{"type":"Feature","properties":{"class":"minor","highway":"residential","sidewalk":"unknown","lanes":0,"name":"마곡중앙로","oneway":false},"geometry":{"type":"LineString","coordinates":[[126.82868,37.57188],[126.82848,37.5719],[126.82702,37.57202],[126.82693,37.57202],[126.82685,37.57203],[126.82577,37.57211],[126.82568,37.57212]]}},{"type":"Feature","properties":{"class":"minor","highway":"residential","sidewalk":"unknown","lanes":0,"name":"마곡중앙5로1길","oneway":false},"geometry":{"type":"LineString","coordinates":[[126.82617,37.56682],[126.82618,37.56697],[126.82637,37.56827],[126.82638,37.56832]]}},{"type":"Feature","properties":{"class":"minor","highway":"residential","sidewalk":"unknown","lanes":0,"name":"마곡서로","oneway":false},"geometry":{"type":"LineString","coordinates":[[126.82273,37.57279],[126.82274,37.57313],[126.82274,37.5732]]}},{"type":"Feature","properties":{"class":"minor","highway":"residential","sidewalk":"unknown","lanes":0,"name":"양천로27길","oneway":false},"geometry":{"type":"LineString","coordinates":[[126.82048,37.57331],[126.82048,37.57341],[126.82048,37.57389],[126.82049,37.57483],[126.82045,37.57504],[126.82022,37.57543],[126.81999,37.5759]]}},{"type":"Feature","properties":{"class":"minor","highway":"residential","sidewalk":"unknown","lanes":0,"name":"강서로56가길","oneway":false},"geometry":{"type":"LineString","coordinates":[[126.84003,37.56085],[126.83972,37.56092],[126.83968,37.56095],[126.83967,37.56096],[126.83968,37.561],[126.83986,37.56148],[126.84,37.56186],[126.84028,37.56276],[126.84029,37.56278],[126.84032,37.56278],[126.84064,37.5627]]}},{"type":"Feature","properties":{"class":"minor","highway":"residential","sidewalk":"unknown","lanes":0,"name":"강서로","oneway":false},"geometry":{"type":"LineString","coordinates":[[126.83936,37.562],[126.83944,37.56198],[126.83945,37.56198],[126.84,37.56186],[126.84034,37.56178]]}},{"type":"Feature","properties":{"class":"minor","highway":"residential","sidewalk":"unknown","lanes":0,"name":"양천로47나길","oneway":false},"geometry":{"type":"LineString","coordinates":[[126.83892,37.5716],[126.83892,37.57165],[126.83908,37.57175],[126.83958,37.57212],[126.84001,37.57257]]}},{"type":"Feature","properties":{"class":"minor","highway":"residential","sidewalk":"unknown","lanes":0,"name":"양천로47길","oneway":false},"geometry":{"type":"LineString","coordinates":[[126.83723,37.57396],[126.83783,37.57414],[126.83824,37.57414]]}},{"type":"Feature","properties":{"class":"major","highway":"tertiary","sidewalk":"likely","lanes":0,"name":"마곡서1로","oneway":false},"geometry":{"type":"LineString","coordinates":[[126.82051,37.56027],[126.82044,37.55971]]}},{"type":"Feature","properties":{"class":"major","highway":"tertiary","sidewalk":"likely","lanes":0,"name":"마곡서1로","oneway":false},"geometry":{"type":"LineString","coordinates":[[126.82051,37.56027],[126.82053,37.56039]]}},{"type":"Feature","properties":{"class":"major","highway":"primary_link","sidewalk":"likely","lanes":1,"name":"","oneway":true},"geometry":{"type":"LineString","coordinates":[[126.82694,37.56027],[126.8268,37.56007],[126.82673,37.55999],[126.82669,37.55995],[126.82661,37.55992],[126.82645,37.55987],[126.82634,37.55985]]}},{"type":"Feature","properties":{"class":"major","highway":"primary_link","sidewalk":"likely","lanes":1,"name":"","oneway":true},"geometry":{"type":"LineString","coordinates":[[126.82745,37.55976],[126.82729,37.55983],[126.82713,37.5599],[126.82713,37.55991],[126.82708,37.55997],[126.82704,37.56003],[126.82699,37.56014],[126.82694,37.56027]]}},{"type":"Feature","properties":{"class":"major","highway":"primary","sidewalk":"likely","lanes":4,"name":"공항대로","oneway":true},"geometry":{"type":"LineString","coordinates":[[126.82051,37.56027],[126.82093,37.56018],[126.82251,37.56002],[126.82377,37.55991],[126.82522,37.55974],[126.82625,37.55964]]}},{"type":"Feature","properties":{"class":"major","highway":"primary","sidewalk":"likely","lanes":4,"name":"공항대로","oneway":true},"geometry":{"type":"LineString","coordinates":[[126.82053,37.56039],[126.82011,37.56048],[126.81781,37.56075],[126.81707,37.56084]]}},{"type":"Feature","properties":{"class":"alley","highway":"service","sidewalk":"unknown","lanes":0,"name":"강서로","oneway":false},"geometry":{"type":"LineString","coordinates":[[126.83986,37.56148],[126.83931,37.56159],[126.83923,37.56161]]}},{"type":"Feature","properties":{"class":"major","highway":"primary_link","sidewalk":"likely","lanes":0,"name":"","oneway":true},"geometry":{"type":"LineString","coordinates":[[126.82044,37.55971],[126.82054,37.55998],[126.82059,37.56004],[126.82066,37.56009],[126.82076,37.56013],[126.82093,37.56018]]}},{"type":"Feature","properties":{"class":"major","highway":"primary_link","sidewalk":"likely","lanes":0,"name":"","oneway":true},"geometry":{"type":"LineString","coordinates":[[126.81982,37.56033],[126.82012,37.56023],[126.82024,37.56017],[126.82031,37.56012],[126.82036,37.56005],[126.82039,37.55998],[126.82044,37.55971]]}},{"type":"Feature","properties":{"class":"major","highway":"primary_link","sidewalk":"likely","lanes":0,"name":"","oneway":true},"geometry":{"type":"LineString","coordinates":[[126.82114,37.56034],[126.82079,37.56048],[126.82072,37.56053],[126.82066,37.56062],[126.82058,37.56084]]}},{"type":"Feature","properties":{"class":"major","highway":"primary_link","sidewalk":"likely","lanes":0,"name":"","oneway":true},"geometry":{"type":"LineString","coordinates":[[126.82058,37.56084],[126.82052,37.56069],[126.82048,37.56065],[126.82045,37.5606],[126.8204,37.56057],[126.82029,37.56052],[126.82011,37.56048]]}},{"type":"Feature","properties":{"class":"major","highway":"tertiary","sidewalk":"likely","lanes":0,"name":"마곡동로6길","oneway":false},"geometry":{"type":"LineString","coordinates":[[126.83429,37.56554],[126.83441,37.56553],[126.83639,37.56532],[126.83723,37.56524],[126.83785,37.56517],[126.83951,37.565]]}},{"type":"Feature","properties":{"class":"alley","highway":"service","sidewalk":"unknown","lanes":0,"name":"양천로30가길","oneway":false},"geometry":{"type":"LineString","coordinates":[[126.82355,37.5704],[126.82375,37.57036],[126.82407,37.57035]]}},{"type":"Feature","properties":{"class":"minor","highway":"residential","sidewalk":"unknown","lanes":0,"name":"마곡서로","oneway":false},"geometry":{"type":"LineString","coordinates":[[126.82329,37.57265],[126.82299,37.57277],[126.82273,37.57279]]}},{"type":"Feature","properties":{"class":"minor","highway":"residential","sidewalk":"unknown","lanes":0,"name":"양천로30길","oneway":false},"geometry":{"type":"LineString","coordinates":[[126.82259,37.56849],[126.82187,37.5685]]}},{"type":"Feature","properties":{"class":"minor","highway":"residential","sidewalk":"unknown","lanes":0,"name":"마곡중앙14로","oneway":false},"geometry":{"type":"LineString","coordinates":[[126.82812,37.56821],[126.82827,37.5682],[126.8283,37.5682],[126.82971,37.56812],[126.83058,37.56805]]}},{"type":"Feature","properties":{"class":"minor","highway":"residential","sidewalk":"unknown","lanes":0,"name":"마곡중앙14로","oneway":false},"geometry":{"type":"LineString","coordinates":[[126.83026,37.57177],[126.83117,37.57173]]}},{"type":"Feature","properties":{"class":"minor","highway":"residential","sidewalk":"unknown","lanes":0,"name":"마곡중앙14로","oneway":false},"geometry":{"type":"LineString","coordinates":[[126.82971,37.56812],[126.83026,37.57177]]}},{"type":"Feature","properties":{"class":"minor","highway":"residential","sidewalk":"unknown","lanes":0,"name":"마곡중앙12로","oneway":false},"geometry":{"type":"LineString","coordinates":[[126.83058,37.56805],[126.83117,37.57173],[126.83127,37.5725],[126.83129,37.57263]]}},{"type":"Feature","properties":{"class":"minor","highway":"residential","sidewalk":"unknown","lanes":0,"name":"마곡중앙12로","oneway":false},"geometry":{"type":"LineString","coordinates":[[126.828,37.56743],[126.82815,37.56742],[126.82817,37.56742],[126.82992,37.56729],[126.83002,37.56729],[126.83009,37.56732],[126.8303,37.56743],[126.83048,37.56756],[126.83051,37.56762],[126.83053,37.56769],[126.83055,37.56783],[126.83058,37.56805]]}},{"type":"Feature","properties":{"class":"minor","highway":"residential","sidewalk":"unknown","lanes":0,"name":"마곡중앙14로","oneway":false},"geometry":{"type":"LineString","coordinates":[[126.83026,37.57177],[126.82887,37.57187],[126.82883,37.57187],[126.82868,37.57188]]}},{"type":"Feature","properties":{"class":"alley","highway":"service","sidewalk":"unknown","lanes":0,"name":"마곡중앙5로","oneway":false},"geometry":{"type":"LineString","coordinates":[[126.82287,37.56709],[126.82293,37.56748]]}},{"type":"Feature","properties":{"class":"alley","highway":"service","sidewalk":"unknown","lanes":0,"name":"마곡중앙5로","oneway":false},"geometry":{"type":"LineString","coordinates":[[126.82399,37.567],[126.82405,37.5674]]}},{"type":"Feature","properties":{"class":"alley","highway":"service","sidewalk":"unknown","lanes":0,"name":"마곡중앙5로","oneway":false},"geometry":{"type":"LineString","coordinates":[[126.82293,37.56748],[126.82203,37.56756]]}},{"type":"Feature","properties":{"class":"alley","highway":"service","sidewalk":"unknown","lanes":0,"name":"마곡중앙5로","oneway":false},"geometry":{"type":"LineString","coordinates":[[126.82293,37.56748],[126.82296,37.56773]]}},{"type":"Feature","properties":{"class":"alley","highway":"service","sidewalk":"unknown","lanes":0,"name":"마곡중앙5로","oneway":false},"geometry":{"type":"LineString","coordinates":[[126.82293,37.56748],[126.82365,37.56741]]}},{"type":"Feature","properties":{"class":"major","highway":"tertiary","sidewalk":"likely","lanes":0,"name":"마곡중앙8로7길","oneway":false},"geometry":{"type":"LineString","coordinates":[[126.83822,37.56084],[126.8386,37.56204],[126.83899,37.56332],[126.83951,37.565],[126.84001,37.56662]]}},{"type":"Feature","properties":{"class":"major","highway":"tertiary","sidewalk":"likely","lanes":0,"name":"마곡동로3길","oneway":false},"geometry":{"type":"LineString","coordinates":[[126.83337,37.55973],[126.83326,37.55974],[126.83004,37.56008]]}},{"type":"Feature","properties":{"class":"major","highway":"tertiary","sidewalk":"likely","lanes":3,"name":"마곡중앙6로","oneway":false},"geometry":{"type":"LineString","coordinates":[[126.83009,37.56055],[126.83011,37.56064],[126.83023,37.56141],[126.83024,37.56146],[126.83025,37.56153],[126.83026,37.56158]]}},{"type":"Feature","properties":{"class":"major","highway":"tertiary","sidewalk":"likely","lanes":3,"name":"마곡중앙8로1길","oneway":false},"geometry":{"type":"LineString","coordinates":[[126.83574,37.56105],[126.83592,37.56229],[126.8361,37.56358],[126.83639,37.56532],[126.83647,37.56585],[126.83656,37.56617],[126.83668,37.56642],[126.83686,37.56671],[126.8375,37.56747],[126.8386,37.56868],[126.83923,37.56938],[126.83935,37.56952]]}},{"type":"Feature","properties":{"class":"major","highway":"tertiary","sidewalk":"yes","lanes":2,"name":"마곡중앙6로","oneway":false},"geometry":{"type":"LineString","coordinates":[[126.83561,37.56014],[126.83562,37.56023],[126.83574,37.56105]]}},{"type":"Feature","properties":{"class":"alley","highway":"service","sidewalk":"unknown","lanes":0,"name":"양천로30길","oneway":false},"geometry":{"type":"LineString","coordinates":[[126.82273,37.57279],[126.8227,37.57179],[126.82261,37.57163]]}},{"type":"Feature","properties":{"class":"minor","highway":"residential","sidewalk":"unknown","lanes":0,"name":"양천로26길","oneway":false},"geometry":{"type":"LineString","coordinates":[[126.82273,37.57279],[126.82232,37.57277],[126.82218,37.57276],[126.82189,37.57266],[126.82175,37.57261],[126.82108,37.5724],[126.82047,37.5722]]}},{"type":"Feature","properties":{"class":"major","highway":"tertiary","sidewalk":"likely","lanes":0,"name":"마곡중앙로","oneway":false},"geometry":{"type":"LineString","coordinates":[[126.82738,37.56313],[126.82723,37.56314],[126.82717,37.56315],[126.8271,37.56316],[126.82435,37.56342]]}},{"type":"Feature","properties":{"class":"alley","highway":"service","sidewalk":"unknown","lanes":0,"name":"양천로30길","oneway":false},"geometry":{"type":"LineString","coordinates":[[126.8229,37.56798],[126.82304,37.56806],[126.8232,37.56826],[126.82311,37.56851]]}},{"type":"Feature","properties":{"class":"alley","highway":"service","sidewalk":"unknown","lanes":0,"name":"양천로30가길","oneway":false},"geometry":{"type":"LineString","coordinates":[[126.82351,37.57046],[126.82354,37.57056],[126.82347,37.57062],[126.82331,37.57069]]}},{"type":"Feature","properties":{"class":"alley","highway":"service","sidewalk":"unknown","lanes":0,"name":"양천로28길","oneway":false},"geometry":{"type":"LineString","coordinates":[[126.81945,37.57271],[126.81974,37.57265],[126.82006,37.57259],[126.82027,37.57256],[126.82047,37.57257],[126.82092,37.57262],[126.82128,37.57268],[126.82168,37.57273],[126.82193,37.57276]]}},{"type":"Feature","properties":{"class":"alley","highway":"service","sidewalk":"unknown","lanes":0,"name":"방화대로34길","oneway":false},"geometry":{"type":"LineString","coordinates":[[126.82117,37.57095],[126.82135,37.57063]]}},{"type":"Feature","properties":{"class":"alley","highway":"service","sidewalk":"unknown","lanes":0,"name":"방화대로34길","oneway":false},"geometry":{"type":"LineString","coordinates":[[126.82068,37.57073],[126.82093,37.57044]]}},{"type":"Feature","properties":{"class":"alley","highway":"service","sidewalk":"unknown","lanes":0,"name":"","oneway":false},"geometry":{"type":"LineString","coordinates":[[126.8235,37.56851],[126.82353,37.56842],[126.8239,37.56828],[126.82379,37.5679],[126.82362,37.56793],[126.82355,37.5677],[126.82353,37.56763]]}},{"type":"Feature","properties":{"class":"alley","highway":"service","sidewalk":"unknown","lanes":0,"name":"","oneway":false},"geometry":{"type":"LineString","coordinates":[[126.82355,37.5677],[126.82404,37.56761],[126.82402,37.56755],[126.82426,37.56751],[126.82442,37.56748],[126.82461,37.56742]]}},{"type":"Feature","properties":{"class":"alley","highway":"service","sidewalk":"unknown","lanes":0,"name":"","oneway":false},"geometry":{"type":"LineString","coordinates":[[126.82442,37.56748],[126.82454,37.56774]]}},{"type":"Feature","properties":{"class":"alley","highway":"service","sidewalk":"unknown","lanes":0,"name":"","oneway":false},"geometry":{"type":"LineString","coordinates":[[126.82426,37.56751],[126.82435,37.56783],[126.82439,37.56786],[126.82442,37.56795]]}},{"type":"Feature","properties":{"class":"alley","highway":"service","sidewalk":"unknown","lanes":0,"name":"","oneway":false},"geometry":{"type":"LineString","coordinates":[[126.82435,37.56783],[126.8242,37.56786],[126.82428,37.56813],[126.82412,37.56824],[126.8239,37.56828]]}},{"type":"Feature","properties":{"class":"alley","highway":"service","sidewalk":"unknown","lanes":0,"name":"","oneway":false},"geometry":{"type":"LineString","coordinates":[[126.82428,37.56813],[126.82432,37.56812],[126.82436,37.56811],[126.82439,37.5681],[126.82441,37.56808],[126.82442,37.56806],[126.82443,37.56804],[126.82443,37.56802],[126.82443,37.56801]]}},{"type":"Feature","properties":{"class":"alley","highway":"service","sidewalk":"unknown","lanes":0,"name":"","oneway":false},"geometry":{"type":"LineString","coordinates":[[126.8235,37.56851],[126.82339,37.56862],[126.8232,37.56867],[126.8232,37.56875],[126.82314,37.56877],[126.8232,37.56896],[126.82322,37.56898],[126.82323,37.56899],[126.82327,37.569],[126.82339,37.56897]]}},{"type":"Feature","properties":{"class":"alley","highway":"service","sidewalk":"unknown","lanes":0,"name":"","oneway":false},"geometry":{"type":"LineString","coordinates":[[126.82339,37.56862],[126.82369,37.56855],[126.82375,37.5687],[126.82375,37.56871],[126.82374,37.56874],[126.82362,37.56891]]}},{"type":"Feature","properties":{"class":"alley","highway":"service","sidewalk":"unknown","lanes":0,"name":"","oneway":false},"geometry":{"type":"LineString","coordinates":[[126.82375,37.56871],[126.8236,37.56875]]}},{"type":"Feature","properties":{"class":"alley","highway":"service","sidewalk":"unknown","lanes":0,"name":"양천로30길","oneway":false},"geometry":{"type":"LineString","coordinates":[[126.82296,37.56773],[126.82353,37.56763]]}},{"type":"Feature","properties":{"class":"alley","highway":"service","sidewalk":"unknown","lanes":0,"name":"","oneway":false},"geometry":{"type":"LineString","coordinates":[[126.82222,37.57145],[126.82231,37.57134],[126.82232,37.57118]]}},{"type":"Feature","properties":{"class":"alley","highway":"service","sidewalk":"unknown","lanes":0,"name":"","oneway":false},"geometry":{"type":"LineString","coordinates":[[126.82203,37.57136],[126.82207,37.57125],[126.82208,37.57112],[126.82203,37.57103],[126.82182,37.57102]]}},{"type":"Feature","properties":{"class":"major","highway":"secondary","sidewalk":"likely","lanes":7,"name":"강서로","oneway":false},"geometry":{"type":"LineString","coordinates":[[126.83861,37.55967],[126.83896,37.56078]]}},{"type":"Feature","properties":{"class":"major","highway":"secondary","sidewalk":"likely","lanes":7,"name":"강서로","oneway":false},"geometry":{"type":"LineString","coordinates":[[126.83896,37.56078],[126.83923,37.56161],[126.83932,37.56188],[126.83936,37.562],[126.83968,37.56299],[126.83975,37.56322]]}},{"type":"Feature","properties":{"class":"minor","highway":"residential","sidewalk":"unknown","lanes":0,"name":"강서로","oneway":false},"geometry":{"type":"LineString","coordinates":[[126.83993,37.56058],[126.84148,37.56023]]}},{"type":"Feature","properties":{"class":"major","highway":"tertiary","sidewalk":"likely","lanes":0,"name":"강서로56가길","oneway":false},"geometry":{"type":"LineString","coordinates":[[126.83993,37.56058],[126.8396,37.55955]]}},{"type":"Feature","properties":{"class":"major","highway":"secondary","sidewalk":"likely","lanes":0,"name":"마곡중앙로","oneway":false},"geometry":{"type":"LineString","coordinates":[[126.82802,37.56753],[126.82811,37.56813],[126.82812,37.56821],[126.82813,37.5683],[126.82828,37.56929],[126.8283,37.56941],[126.82849,37.57066],[126.82868,37.57188],[126.8288,37.57266],[126.82881,37.57277]]}},{"type":"Feature","properties":{"class":"major","highway":"tertiary","sidewalk":"likely","lanes":0,"name":"마곡중앙5로","oneway":false},"geometry":{"type":"LineString","coordinates":[[126.82617,37.56682],[126.82503,37.56692],[126.82487,37.56693]]}},{"type":"Feature","properties":{"class":"major","highway":"tertiary","sidewalk":"likely","lanes":0,"name":"마곡중앙5로","oneway":false},"geometry":{"type":"LineString","coordinates":[[126.82487,37.56693],[126.82471,37.56694],[126.82433,37.56697],[126.82399,37.567],[126.82287,37.56709],[126.82259,37.56711],[126.822,37.56716],[126.82126,37.56721],[126.8194,37.56735],[126.81919,37.56736]]}},{"type":"Feature","properties":{"class":"major","highway":"tertiary","sidewalk":"likely","lanes":0,"name":"마곡서로","oneway":false},"geometry":{"type":"LineString","coordinates":[[126.82468,37.56572],[126.82486,37.56678],[126.82487,37.56693]]}},{"type":"Feature","properties":{"class":"major","highway":"tertiary","sidewalk":"likely","lanes":0,"name":"마곡중앙3로","oneway":false},"geometry":{"type":"LineString","coordinates":[[126.82413,37.56216],[126.82245,37.56234],[126.82223,37.56236],[126.821,37.56249],[126.82083,37.56251]]}},{"type":"Feature","properties":{"class":"major","highway":"tertiary","sidewalk":"likely","lanes":0,"name":"마곡중앙3로","oneway":false},"geometry":{"type":"LineString","coordinates":[[126.82083,37.56251],[126.82068,37.56253],[126.81883,37.56276],[126.81863,37.56279],[126.81794,37.56288],[126.81683,37.56307],[126.81665,37.56309]]}},{"type":"Feature","properties":{"class":"major","highway":"tertiary","sidewalk":"likely","lanes":0,"name":"마곡서1로","oneway":false},"geometry":{"type":"LineString","coordinates":[[126.82083,37.56251],[126.82084,37.56257],[126.82085,37.56261],[126.82088,37.56281],[126.82092,37.56304],[126.82088,37.56328],[126.82084,37.5634],[126.82076,37.56352],[126.82058,37.56376],[126.82039,37.56399],[126.81944,37.56505],[126.81935,37.56518],[126.81926,37.56535],[126.81914,37.56559],[126.81908,37.56585],[126.81909,37.56611],[126.81912,37.56643],[126.81916,37.56687],[126.81919,37.56736]]}},{"type":"Feature","properties":{"class":"minor","highway":"residential","sidewalk":"unknown","lanes":0,"name":"양천로47길","oneway":false},"geometry":{"type":"LineString","coordinates":[[126.83677,37.57581],[126.8367,37.57572],[126.83667,37.57546],[126.83683,37.57506],[126.83691,37.57484],[126.83697,37.57451],[126.837,37.57439],[126.83719,37.57414],[126.83723,37.57396],[126.8372,37.57261],[126.83723,37.57249],[126.83734,37.57225],[126.83754,37.5719],[126.83786,37.57134],[126.8379,37.57124],[126.83794,37.5711],[126.83784,37.57073],[126.83776,37.57065],[126.83767,37.57058],[126.83765,37.57057],[126.83751,37.57047]]}},{"type":"Feature","properties":{"class":"major","highway":"secondary","sidewalk":"likely","lanes":0,"name":"양천로","oneway":false},"geometry":{"type":"LineString","coordinates":[[126.83751,37.57047],[126.83771,37.57036],[126.83935,37.56952],[126.8396,37.56938],[126.84021,37.56904],[126.84053,37.56886],[126.84101,37.56861],[126.84107,37.56858],[126.84127,37.56849]]}},{"type":"Feature","properties":{"class":"major","highway":"secondary","sidewalk":"likely","lanes":0,"name":"양천로","oneway":false},"geometry":{"type":"LineString","coordinates":[[126.817,37.57339],[126.8172,37.5734],[126.81764,37.57339],[126.81807,37.57339],[126.81947,37.57332],[126.82048,37.57331],[126.8205,37.57331],[126.8218,37.57328],[126.82274,37.5732],[126.82362,37.57311],[126.8238,37.57308],[126.8258,37.57296],[126.82631,37.57293],[126.82865,37.57278],[126.82881,37.57277],[126.82897,37.57276],[126.83129,37.57263],[126.83248,37.57257],[126.83278,37.57255],[126.8337,37.57246],[126.83406,37.57239],[126.83423,37.57233],[126.8346,37.57217],[126.83498,37.57193],[126.83694,37.57078],[126.8374,37.57052],[126.83751,37.57047]]}},{"type":"Feature","properties":{"class":"minor","highway":"residential","sidewalk":"unknown","lanes":0,"name":"양천로26길","oneway":false},"geometry":{"type":"LineString","coordinates":[[126.82047,37.5722],[126.82018,37.57213],[126.81994,37.57209],[126.81971,37.57212],[126.81943,37.57221]]}},{"type":"Feature","properties":{"class":"alley","highway":"service","sidewalk":"unknown","lanes":0,"name":"양천로28길","oneway":false},"geometry":{"type":"LineString","coordinates":[[126.82047,37.5722],[126.82047,37.57257],[126.82047,37.5728]]}},{"type":"Feature","properties":{"class":"alley","highway":"service","sidewalk":"unknown","lanes":0,"name":"방화대로34길","oneway":false},"geometry":{"type":"LineString","coordinates":[[126.82117,37.57095],[126.8214,37.57104],[126.82203,37.57136],[126.82222,37.57145],[126.82251,37.57159]]}},{"type":"Feature","properties":{"class":"alley","highway":"service","sidewalk":"unknown","lanes":0,"name":"양천로30길","oneway":false},"geometry":{"type":"LineString","coordinates":[[126.82251,37.57159],[126.82254,37.57119],[126.82265,37.57081],[126.82267,37.57066],[126.82268,37.57058],[126.82268,37.56999],[126.8228,37.56951],[126.82257,37.56884],[126.82257,37.56865],[126.82259,37.56849]]}},{"type":"Feature","properties":{"class":"alley","highway":"service","sidewalk":"unknown","lanes":0,"name":"방화대로34길","oneway":false},"geometry":{"type":"LineString","coordinates":[[126.82251,37.57159],[126.82261,37.57163],[126.82371,37.57208]]}},{"type":"Feature","properties":{"class":"alley","highway":"service","sidewalk":"unknown","lanes":0,"name":"양천로30길","oneway":false},"geometry":{"type":"LineString","coordinates":[[126.82259,37.56849],[126.82266,37.56837],[126.82281,37.56814],[126.8229,37.56798],[126.82296,37.56773]]}},{"type":"Feature","properties":{"class":"major","highway":"secondary","sidewalk":"likely","lanes":7,"name":"마곡중앙로","oneway":false},"geometry":{"type":"LineString","coordinates":[[126.82729,37.5625],[126.82738,37.56313],[126.8275,37.56386]]}},{"type":"Feature","properties":{"class":"major","highway":"secondary","sidewalk":"likely","lanes":7,"name":"마곡중앙로","oneway":false},"geometry":{"type":"LineString","coordinates":[[126.82701,37.56071],[126.82704,37.56088],[126.8271,37.5613]]}},{"type":"Feature","properties":{"class":"major","highway":"primary","sidewalk":"likely","lanes":4,"name":"공항대로","oneway":true},"geometry":{"type":"LineString","coordinates":[[126.82634,37.55985],[126.82417,37.56003],[126.82374,37.5601],[126.82316,37.56016],[126.82267,37.56021],[126.82216,37.56024],[126.82114,37.56034]]}},{"type":"Feature","properties":{"class":"major","highway":"primary","sidewalk":"likely","lanes":4,"name":"공항대로","oneway":true},"geometry":{"type":"LineString","coordinates":[[126.82114,37.56034],[126.82053,37.56039]]}},{"type":"Feature","properties":{"class":"major","highway":"tertiary","sidewalk":"likely","lanes":0,"name":"마곡서1로","oneway":false},"geometry":{"type":"LineString","coordinates":[[126.82058,37.56084],[126.82061,37.56104],[126.8207,37.56158],[126.82081,37.56237],[126.82083,37.56251]]}},{"type":"Feature","properties":{"class":"major","highway":"secondary","sidewalk":"likely","lanes":8,"name":"마곡중앙로","oneway":false},"geometry":{"type":"LineString","coordinates":[[126.82685,37.55961],[126.82686,37.55978],[126.82689,37.55991],[126.82691,37.56001],[126.82694,37.56027]]}},{"type":"Feature","properties":{"class":"major","highway":"secondary","sidewalk":"likely","lanes":7,"name":"강서로","oneway":false},"geometry":{"type":"LineString","coordinates":[[126.83975,37.56322],[126.83982,37.5634],[126.83986,37.56354],[126.8403,37.56491],[126.84037,37.56512],[126.8406,37.56584],[126.84072,37.56624],[126.84073,37.56627],[126.84084,37.5666],[126.8412,37.56803],[126.84123,37.56822],[126.84127,37.56849]]}},{"type":"Feature","properties":{"class":"alley","highway":"service","sidewalk":"unknown","lanes":0,"name":"양천로30가길","oneway":false},"geometry":{"type":"LineString","coordinates":[[126.82355,37.5704],[126.824,37.5701]]}},{"type":"Feature","properties":{"class":"minor","highway":"residential","sidewalk":"unknown","lanes":0,"name":"마곡중앙로","oneway":false},"geometry":{"type":"LineString","coordinates":[[126.82511,37.56842],[126.82501,37.56842],[126.82388,37.56849]]}},{"type":"Feature","properties":{"class":"minor","highway":"residential","sidewalk":"unknown","lanes":0,"name":"마곡서로","oneway":false},"geometry":{"type":"LineString","coordinates":[[126.82511,37.56842],[126.82512,37.5685],[126.82528,37.5695],[126.82529,37.56954],[126.8253,37.56959],[126.82545,37.57071],[126.82546,37.57078],[126.82548,37.57085],[126.82559,37.5715],[126.8256,37.57158],[126.82567,37.57207],[126.82568,37.57212],[126.82569,37.57218],[126.82573,37.57248],[126.82577,37.5728],[126.8258,37.57296]]}},{"type":"Feature","properties":{"class":"minor","highway":"residential","sidewalk":"unknown","lanes":0,"name":"마곡중앙5로1길","oneway":false},"geometry":{"type":"LineString","coordinates":[[126.82638,37.56832],[126.8264,37.56841],[126.82654,37.56939],[126.82655,37.56944]]}},{"type":"Feature","properties":{"class":"minor","highway":"residential","sidewalk":"unknown","lanes":0,"name":"마곡중앙로","oneway":false},"geometry":{"type":"LineString","coordinates":[[126.82638,37.56832],[126.82631,37.56833],[126.8252,37.56841],[126.82511,37.56842]]}},{"type":"Feature","properties":{"class":"minor","highway":"residential","sidewalk":"unknown","lanes":0,"name":"마곡중앙로","oneway":false},"geometry":{"type":"LineString","coordinates":[[126.82655,37.56944],[126.8265,37.56944],[126.82536,37.56954],[126.82529,37.56954]]}},{"type":"Feature","properties":{"class":"minor","highway":"residential","sidewalk":"unknown","lanes":0,"name":"마곡중앙5로1길","oneway":false},"geometry":{"type":"LineString","coordinates":[[126.82655,37.56944],[126.82656,37.56949],[126.82675,37.57079],[126.82692,37.57197],[126.82693,37.57202]]}},{"type":"Feature","properties":{"class":"alley","highway":"service","sidewalk":"unknown","lanes":0,"name":"양천로28길","oneway":false},"geometry":{"type":"LineString","coordinates":[[126.82047,37.5728],[126.82193,37.57276],[126.82218,37.57276]]}},{"type":"Feature","properties":{"class":"alley","highway":"service","sidewalk":"unknown","lanes":0,"name":"양천로28길","oneway":false},"geometry":{"type":"LineString","coordinates":[[126.82047,37.5728],[126.82048,37.57322],[126.82048,37.57331]]}},{"type":"Feature","properties":{"class":"alley","highway":"service","sidewalk":"unknown","lanes":0,"name":"양천로28길","oneway":false},"geometry":{"type":"LineString","coordinates":[[126.81945,37.57282],[126.82047,37.5728]]}},{"type":"Feature","properties":{"class":"alley","highway":"pedestrian","sidewalk":"unknown","lanes":0,"name":"","oneway":false},"geometry":{"type":"LineString","coordinates":[[126.82811,37.56002],[126.82785,37.56006],[126.82764,37.56007],[126.82753,37.56007],[126.82743,37.56005],[126.82733,37.56002],[126.82719,37.55994],[126.82717,37.55993]]}},{"type":"Feature","properties":{"class":"alley","highway":"pedestrian","sidewalk":"unknown","lanes":0,"name":"","oneway":false},"geometry":{"type":"LineString","coordinates":[[126.82986,37.56032],[126.82967,37.56023],[126.82946,37.56022],[126.82915,37.56018],[126.82868,37.5602],[126.8285,37.56013],[126.82811,37.56002]]}},{"type":"Feature","properties":{"class":"alley","highway":"pedestrian","sidewalk":"unknown","lanes":0,"name":"","oneway":false},"geometry":{"type":"LineString","coordinates":[[126.83069,37.56388],[126.83069,37.56386],[126.83057,37.56316],[126.83052,37.56282],[126.83037,37.56191],[126.83037,37.56187],[126.83035,37.56169]]}},{"type":"Feature","properties":{"class":"alley","highway":"pedestrian","sidewalk":"unknown","lanes":0,"name":"","oneway":false},"geometry":{"type":"LineString","coordinates":[[126.83068,37.56167],[126.83084,37.56279],[126.831,37.56391]]}},{"type":"Feature","properties":{"class":"alley","highway":"pedestrian","sidewalk":"unknown","lanes":0,"name":"","oneway":false},"geometry":{"type":"LineString","coordinates":[[126.8353,37.56337],[126.83525,37.56306],[126.83522,37.5629],[126.83512,37.56236],[126.8352,37.56236],[126.83507,37.56143]]}},{"type":"Feature","properties":{"class":"alley","highway":"pedestrian","sidewalk":"unknown","lanes":0,"name":"","oneway":false},"geometry":{"type":"LineString","coordinates":[[126.83357,37.56252],[126.83084,37.56279],[126.83052,37.56282],[126.83007,37.56287],[126.8298,37.5629],[126.82937,37.56294],[126.8288,37.563],[126.82758,37.56311]]}},{"type":"Feature","properties":{"class":"alley","highway":"service","sidewalk":"unknown","lanes":0,"name":"서울식물원 주차장 입구","oneway":false},"geometry":{"type":"LineString","coordinates":[[126.83644,37.56949],[126.8364,37.56952],[126.83599,37.56981],[126.8352,37.5704],[126.83509,37.57048]]}},{"type":"Feature","properties":{"class":"alley","highway":"pedestrian","sidewalk":"unknown","lanes":0,"name":"","oneway":false},"geometry":{"type":"LineString","coordinates":[[126.83395,37.56248],[126.83512,37.56236],[126.8352,37.56236],[126.83581,37.5623]]}},{"type":"Feature","properties":{"class":"alley","highway":"pedestrian","sidewalk":"unknown","lanes":0,"name":"","oneway":false},"geometry":{"type":"LineString","coordinates":[[126.83114,37.56056],[126.83122,37.56058],[126.83124,37.56057],[126.83158,37.56064],[126.83195,37.56072],[126.83217,37.56076],[126.83239,37.5608],[126.83272,37.56083],[126.83326,37.56086],[126.83345,37.56086],[126.83355,37.56086],[126.83366,37.56085],[126.83373,37.56084],[126.83397,37.56082],[126.83428,37.56076],[126.83466,37.56067],[126.83504,37.56055],[126.83535,37.56043],[126.83553,37.56035],[126.83558,37.56031],[126.83562,37.56023]]}},{"type":"Feature","properties":{"class":"major","highway":"trunk_link","sidewalk":"likely","lanes":0,"name":"","oneway":true},"geometry":{"type":"LineString","coordinates":[[126.82801,37.58086],[126.82881,37.58043],[126.82905,37.58031],[126.8292,37.58017],[126.82934,37.57995],[126.82943,37.5797]]}},{"type":"Feature","properties":{"class":"minor","highway":"residential","sidewalk":"unknown","lanes":0,"name":"","oneway":false},"geometry":{"type":"LineString","coordinates":[[126.82943,37.5797],[126.83003,37.57951],[126.83037,37.57943]]}},{"type":"Feature","properties":{"class":"alley","highway":"service","sidewalk":"unknown","lanes":0,"name":"","oneway":false},"geometry":{"type":"LineString","coordinates":[[126.82906,37.57884],[126.82943,37.5797]]}},{"type":"Feature","properties":{"class":"alley","highway":"service","sidewalk":"unknown","lanes":0,"name":"","oneway":false},"geometry":{"type":"LineString","coordinates":[[126.83205,37.57892],[126.83037,37.57943]]}},{"type":"Feature","properties":{"class":"alley","highway":"service","sidewalk":"unknown","lanes":0,"name":"","oneway":false},"geometry":{"type":"LineString","coordinates":[[126.83205,37.57892],[126.8339,37.57838],[126.83406,37.5782],[126.83408,37.57806],[126.83371,37.57723],[126.83316,37.57607],[126.83311,37.57592],[126.8329,37.57545],[126.83282,37.57533],[126.83278,37.5752],[126.83255,37.57476],[126.83164,37.57496],[126.8316,37.57499],[126.83041,37.57536]]}},{"type":"Feature","properties":{"class":"alley","highway":"service","sidewalk":"unknown","lanes":0,"name":"","oneway":false},"geometry":{"type":"LineString","coordinates":[[126.83156,37.57786],[126.83371,37.57723]]}},{"type":"Feature","properties":{"class":"alley","highway":"service","sidewalk":"unknown","lanes":0,"name":"","oneway":false},"geometry":{"type":"LineString","coordinates":[[126.83205,37.57892],[126.83191,37.57862],[126.83187,37.5785],[126.83167,37.57811],[126.83156,37.57786],[126.83136,37.5774],[126.83111,37.57692],[126.83103,37.57669],[126.83068,37.57596],[126.83041,37.57536],[126.83023,37.57499],[126.82964,37.57369],[126.82938,37.57309]]}},{"type":"Feature","properties":{"class":"alley","highway":"service","sidewalk":"unknown","lanes":0,"name":"","oneway":false},"geometry":{"type":"LineString","coordinates":[[126.83156,37.57786],[126.82896,37.57861]]}},{"type":"Feature","properties":{"class":"alley","highway":"service","sidewalk":"unknown","lanes":0,"name":"","oneway":false},"geometry":{"type":"LineString","coordinates":[[126.82853,37.57768],[126.83111,37.57692]]}},{"type":"Feature","properties":{"class":"alley","highway":"service","sidewalk":"unknown","lanes":0,"name":"","oneway":false},"geometry":{"type":"LineString","coordinates":[[126.82906,37.57884],[126.82896,37.57861],[126.82853,37.57768],[126.82808,37.57671],[126.82774,37.57602],[126.82764,37.57576],[126.8272,37.57481],[126.82676,37.57384],[126.82655,37.57341],[126.82636,37.57303],[126.82631,37.57293]]}},{"type":"Feature","properties":{"class":"alley","highway":"service","sidewalk":"unknown","lanes":0,"name":"","oneway":false},"geometry":{"type":"LineString","coordinates":[[126.82594,37.5736],[126.82617,37.57354]]}},{"type":"Feature","properties":{"class":"alley","highway":"service","sidewalk":"unknown","lanes":0,"name":"","oneway":false},"geometry":{"type":"LineString","coordinates":[[126.82655,37.57341],[126.82617,37.57354]]}},{"type":"Feature","properties":{"class":"alley","highway":"service","sidewalk":"unknown","lanes":0,"name":"","oneway":false},"geometry":{"type":"LineString","coordinates":[[126.82594,37.5736],[126.82579,37.57364],[126.82507,37.57387],[126.82469,37.57398],[126.82415,37.57414],[126.82409,37.57415],[126.82369,37.57428],[126.82314,37.57444]]}},{"type":"Feature","properties":{"class":"alley","highway":"service","sidewalk":"unknown","lanes":0,"name":"","oneway":false},"geometry":{"type":"LineString","coordinates":[[126.82409,37.57415],[126.8239,37.57377],[126.82365,37.57319],[126.82362,37.57311]]}},{"type":"Feature","properties":{"class":"alley","highway":"service","sidewalk":"unknown","lanes":0,"name":"","oneway":false},"geometry":{"type":"LineString","coordinates":[[126.82529,37.57534],[126.82504,37.57475],[126.82469,37.57398]]}},{"type":"Feature","properties":{"class":"alley","highway":"service","sidewalk":"unknown","lanes":0,"name":"","oneway":false},"geometry":{"type":"LineString","coordinates":[[126.82594,37.5736],[126.82612,37.57404],[126.82535,37.57425],[126.82525,37.57424],[126.82507,37.57387]]}},{"type":"Feature","properties":{"class":"alley","highway":"service","sidewalk":"unknown","lanes":0,"name":"","oneway":false},"geometry":{"type":"LineString","coordinates":[[126.82656,37.57497],[126.8263,37.57438],[126.82628,37.57434],[126.82619,37.57415],[126.82612,37.57404]]}},{"type":"Feature","properties":{"class":"alley","highway":"service","sidewalk":"unknown","lanes":0,"name":"","oneway":false},"geometry":{"type":"LineString","coordinates":[[126.82504,37.57475],[126.8263,37.57438]]}},{"type":"Feature","properties":{"class":"alley","highway":"service","sidewalk":"unknown","lanes":0,"name":"","oneway":false},"geometry":{"type":"LineString","coordinates":[[126.82529,37.57534],[126.82617,37.57508]]}},{"type":"Feature","properties":{"class":"alley","highway":"service","sidewalk":"unknown","lanes":0,"name":"","oneway":false},"geometry":{"type":"LineString","coordinates":[[126.82617,37.57508],[126.82656,37.57497],[126.8272,37.57481]]}},{"type":"Feature","properties":{"class":"alley","highway":"service","sidewalk":"unknown","lanes":0,"name":"","oneway":false},"geometry":{"type":"LineString","coordinates":[[126.82529,37.57534],[126.82409,37.57569],[126.82294,37.576],[126.82241,37.57618],[126.82179,37.57635]]}},{"type":"Feature","properties":{"class":"alley","highway":"service","sidewalk":"unknown","lanes":0,"name":"","oneway":false},"geometry":{"type":"LineString","coordinates":[[126.82269,37.5775],[126.82394,37.57713],[126.8251,37.5768],[126.82617,37.57649]]}},{"type":"Feature","properties":{"class":"alley","highway":"service","sidewalk":"unknown","lanes":0,"name":"","oneway":false},"geometry":{"type":"LineString","coordinates":[[126.82269,37.5775],[126.82225,37.57763]]}},{"type":"Feature","properties":{"class":"alley","highway":"service","sidewalk":"unknown","lanes":0,"name":"","oneway":false},"geometry":{"type":"LineString","coordinates":[[126.82269,37.5775],[126.82299,37.57815],[126.82335,37.57897],[126.82339,37.57907],[126.82356,37.57942]]}},{"type":"Feature","properties":{"class":"alley","highway":"service","sidewalk":"unknown","lanes":0,"name":"","oneway":false},"geometry":{"type":"LineString","coordinates":[[126.82356,37.57942],[126.82397,37.58027]]}},{"type":"Feature","properties":{"class":"alley","highway":"service","sidewalk":"unknown","lanes":0,"name":"","oneway":false},"geometry":{"type":"LineString","coordinates":[[126.82617,37.57967],[126.82555,37.57984],[126.82532,37.57991],[126.82397,37.58027]]}},{"type":"Feature","properties":{"class":"alley","highway":"service","sidewalk":"unknown","lanes":0,"name":"","oneway":false},"geometry":{"type":"LineString","coordinates":[[126.82711,37.57939],[126.82648,37.57958],[126.82617,37.57967]]}},{"type":"Feature","properties":{"class":"alley","highway":"service","sidewalk":"unknown","lanes":0,"name":"","oneway":false},"geometry":{"type":"LineString","coordinates":[[126.82394,37.57713],[126.82498,37.57944],[126.82535,37.57971],[126.82555,37.57984]]}},{"type":"Feature","properties":{"class":"alley","highway":"service","sidewalk":"unknown","lanes":0,"name":"","oneway":false},"geometry":{"type":"LineString","coordinates":[[126.82771,37.57921],[126.82655,37.57672],[126.82642,37.57641]]}},{"type":"Feature","properties":{"class":"alley","highway":"service","sidewalk":"unknown","lanes":0,"name":"","oneway":false},"geometry":{"type":"LineString","coordinates":[[126.82642,37.57641],[126.82719,37.57617],[126.82774,37.57602]]}},{"type":"Feature","properties":{"class":"minor","highway":"residential","sidewalk":"unknown","lanes":0,"name":"","oneway":false},"geometry":{"type":"LineString","coordinates":[[126.82642,37.57641],[126.82617,37.57649]]}},{"type":"Feature","properties":{"class":"alley","highway":"service","sidewalk":"unknown","lanes":0,"name":"","oneway":false},"geometry":{"type":"LineString","coordinates":[[126.82906,37.57884],[126.82782,37.57918],[126.82771,37.57921],[126.82711,37.57939]]}},{"type":"Feature","properties":{"class":"alley","highway":"service","sidewalk":"unknown","lanes":0,"name":"","oneway":false},"geometry":{"type":"LineString","coordinates":[[126.83103,37.57669],[126.83264,37.57623]]}},{"type":"Feature","properties":{"class":"alley","highway":"service","sidewalk":"unknown","lanes":0,"name":"","oneway":false},"geometry":{"type":"LineString","coordinates":[[126.82808,37.57671],[126.83068,37.57596],[126.83165,37.57567],[126.83176,37.57565]]}},{"type":"Feature","properties":{"class":"alley","highway":"service","sidewalk":"unknown","lanes":0,"name":"","oneway":false},"geometry":{"type":"LineString","coordinates":[[126.83023,37.57499],[126.82897,37.57535],[126.82764,37.57576]]}},{"type":"Feature","properties":{"class":"minor","highway":"residential","sidewalk":"unknown","lanes":0,"name":"","oneway":false},"geometry":{"type":"LineString","coordinates":[[126.83164,37.57496],[126.83163,37.57479],[126.83176,37.57461],[126.83273,37.57364],[126.83278,37.57354]]}},{"type":"Feature","properties":{"class":"alley","highway":"service","sidewalk":"unknown","lanes":0,"name":"","oneway":false},"geometry":{"type":"LineString","coordinates":[[126.82676,37.57384],[126.8286,37.57332],[126.82938,37.57309]]}},{"type":"Feature","properties":{"class":"alley","highway":"service","sidewalk":"unknown","lanes":0,"name":"","oneway":false},"geometry":{"type":"LineString","coordinates":[[126.82039,37.56399],[126.82001,37.56379]]}},{"type":"Feature","properties":{"class":"alley","highway":"service","sidewalk":"unknown","lanes":0,"name":"","oneway":false},"geometry":{"type":"LineString","coordinates":[[126.82001,37.56379],[126.81986,37.5638],[126.8198,37.56383]]}},{"type":"Feature","properties":{"class":"alley","highway":"service","sidewalk":"unknown","lanes":0,"name":"","oneway":false},"geometry":{"type":"LineString","coordinates":[[126.82001,37.56379],[126.82002,37.56378],[126.82011,37.56364],[126.82017,37.56355],[126.82017,37.56351],[126.82016,37.56348],[126.82013,37.56343]]}},{"type":"Feature","properties":{"class":"alley","highway":"service","sidewalk":"unknown","lanes":0,"name":"","oneway":false},"geometry":{"type":"LineString","coordinates":[[126.82013,37.56343],[126.82,37.56327]]}},{"type":"Feature","properties":{"class":"alley","highway":"service","sidewalk":"unknown","lanes":0,"name":"","oneway":false},"geometry":{"type":"LineString","coordinates":[[126.82011,37.56364],[126.82025,37.56369],[126.8203,37.56359]]}},{"type":"Feature","properties":{"class":"alley","highway":"pedestrian","sidewalk":"unknown","lanes":0,"name":"","oneway":false},"geometry":{"type":"LineString","coordinates":[[126.83581,37.5623],[126.83592,37.56229],[126.83679,37.56221],[126.83744,37.56215],[126.8386,37.56204],[126.83923,37.5619],[126.83932,37.56188]]}},{"type":"Feature","properties":{"class":"alley","highway":"service","sidewalk":"unknown","lanes":0,"name":"","oneway":false},"geometry":{"type":"LineString","coordinates":[[126.8207,37.56158],[126.82136,37.56152]]}},{"type":"Feature","properties":{"class":"alley","highway":"service","sidewalk":"unknown","lanes":0,"name":"","oneway":false},"geometry":{"type":"LineString","coordinates":[[126.82091,37.5614],[126.82108,37.56139],[126.82182,37.56132]]}},{"type":"Feature","properties":{"class":"alley","highway":"service","sidewalk":"unknown","lanes":0,"name":"","oneway":false},"geometry":{"type":"LineString","coordinates":[[126.82061,37.56104],[126.82085,37.56101],[126.82091,37.5614]]}},{"type":"Feature","properties":{"class":"alley","highway":"service","sidewalk":"unknown","lanes":0,"name":"","oneway":false},"geometry":{"type":"LineString","coordinates":[[126.82079,37.56871],[126.82094,37.56898]]}},{"type":"Feature","properties":{"class":"alley","highway":"service","sidewalk":"unknown","lanes":0,"name":"","oneway":false},"geometry":{"type":"LineString","coordinates":[[126.82094,37.56898],[126.82099,37.56907],[126.82109,37.5691],[126.82125,37.56905]]}},{"type":"Feature","properties":{"class":"major","highway":"secondary","sidewalk":"likely","lanes":8,"name":"마곡중앙로","oneway":false},"geometry":{"type":"LineString","coordinates":[[126.82789,37.56669],[126.82792,37.56687],[126.828,37.56743],[126.82802,37.56753]]}},{"type":"Feature","properties":{"class":"major","highway":"tertiary","sidewalk":"yes","lanes":3,"name":"마곡중앙10로","oneway":false},"geometry":{"type":"LineString","coordinates":[[126.83516,37.56369],[126.8361,37.56358]]}},{"type":"Feature","properties":{"class":"major","highway":"secondary","sidewalk":"likely","lanes":9,"name":"마곡중앙로","oneway":false},"geometry":{"type":"LineString","coordinates":[[126.82694,37.56027],[126.82701,37.56071]]}},{"type":"Feature","properties":{"class":"major","highway":"secondary","sidewalk":"likely","lanes":8,"name":"마곡중앙로","oneway":false},"geometry":{"type":"LineString","coordinates":[[126.8271,37.5613],[126.82717,37.56173],[126.82719,37.56188]]}},{"type":"Feature","properties":{"class":"major","highway":"secondary","sidewalk":"likely","lanes":7,"name":"마곡중앙로","oneway":false},"geometry":{"type":"LineString","coordinates":[[126.8275,37.56386],[126.82755,37.56418],[126.82757,37.56431],[126.82758,37.56438]]}},{"type":"Feature","properties":{"class":"major","highway":"secondary","sidewalk":"likely","lanes":8,"name":"마곡중앙로","oneway":false},"geometry":{"type":"LineString","coordinates":[[126.82779,37.56599],[126.82787,37.56653],[126.82789,37.56669]]}},{"type":"Feature","properties":{"class":"major","highway":"secondary","sidewalk":"likely","lanes":8,"name":"마곡중앙로","oneway":false},"geometry":{"type":"LineString","coordinates":[[126.82719,37.56188],[126.82722,37.56204],[126.82729,37.5625]]}},{"type":"Feature","properties":{"class":"major","highway":"secondary","sidewalk":"likely","lanes":7,"name":"마곡중앙로","oneway":false},"geometry":{"type":"LineString","coordinates":[[126.82758,37.56438],[126.82759,37.56449],[126.82779,37.56599]]}},{"type":"Feature","properties":{"class":"major","highway":"tertiary","sidewalk":"yes","lanes":3,"name":"마곡중앙10로","oneway":false},"geometry":{"type":"LineString","coordinates":[[126.83198,37.56396],[126.83298,37.56387]]}},{"type":"Feature","properties":{"class":"major","highway":"tertiary","sidewalk":"yes","lanes":3,"name":"마곡중앙10로","oneway":false},"geometry":{"type":"LineString","coordinates":[[126.83401,37.56377],[126.83419,37.56376],[126.83423,37.56376],[126.83516,37.56369]]}},{"type":"Feature","properties":{"class":"major","highway":"secondary","sidewalk":"yes","lanes":5,"name":"마곡동로","oneway":false},"geometry":{"type":"LineString","coordinates":[[126.83408,37.56415],[126.83429,37.56554]]}},{"type":"Feature","properties":{"class":"major","highway":"secondary","sidewalk":"yes","lanes":5,"name":"마곡동로","oneway":false},"geometry":{"type":"LineString","coordinates":[[126.8339,37.56316],[126.83393,37.5634],[126.83399,37.56365],[126.83401,37.56377]]}},{"type":"Feature","properties":{"class":"major","highway":"secondary","sidewalk":"yes","lanes":5,"name":"마곡동로","oneway":false},"geometry":{"type":"LineString","coordinates":[[126.83401,37.56377],[126.83404,37.56392],[126.83408,37.56415]]}},{"type":"Feature","properties":{"class":"major","highway":"secondary","sidewalk":"likely","lanes":0,"name":"마곡동로","oneway":false},"geometry":{"type":"LineString","coordinates":[[126.83429,37.56554],[126.83441,37.56683],[126.83459,37.56737],[126.83468,37.56762],[126.83507,37.56816],[126.83545,37.56859],[126.8359,37.569],[126.83591,37.56901],[126.83639,37.56944],[126.83644,37.56949],[126.83671,37.56973],[126.83741,37.57037],[126.83751,37.57047]]}},{"type":"Feature","properties":{"class":"major","highway":"tertiary","sidewalk":"yes","lanes":4,"name":"마곡중앙10로","oneway":false},"geometry":{"type":"LineString","coordinates":[[126.83298,37.56387],[126.83345,37.56381]]}},{"type":"Feature","properties":{"class":"major","highway":"tertiary","sidewalk":"yes","lanes":3,"name":"마곡중앙10로","oneway":false},"geometry":{"type":"LineString","coordinates":[[126.83345,37.56381],[126.83381,37.56379],[126.83387,37.56378],[126.83401,37.56377]]}},{"type":"Feature","properties":{"class":"major","highway":"secondary_link","sidewalk":"yes","lanes":1,"name":"","oneway":true},"geometry":{"type":"LineString","coordinates":[[126.83345,37.56381],[126.83363,37.56373],[126.83372,37.56368],[126.83378,37.56362],[126.83379,37.56362],[126.83385,37.56354],[126.83393,37.5634]]}},{"type":"Feature","properties":{"class":"major","highway":"tertiary","sidewalk":"yes","lanes":3,"name":"마곡중앙10로","oneway":false},"geometry":{"type":"LineString","coordinates":[[126.83165,37.56399],[126.83198,37.56396]]}},{"type":"Feature","properties":{"class":"major","highway":"tertiary","sidewalk":"yes","lanes":4,"name":"마곡중앙10로","oneway":false},"geometry":{"type":"LineString","coordinates":[[126.83097,37.56406],[126.83165,37.56399]]}},{"type":"Feature","properties":{"class":"alley","highway":"service","sidewalk":"unknown","lanes":1,"name":"","oneway":false},"geometry":{"type":"LineString","coordinates":[[126.83165,37.56399],[126.83175,37.5639],[126.83181,37.56384],[126.83182,37.56383],[126.83276,37.56374],[126.83277,37.56375],[126.83283,37.56378],[126.83298,37.56387]]}},{"type":"Feature","properties":{"class":"major","highway":"tertiary","sidewalk":"yes","lanes":4,"name":"마곡중앙10로","oneway":false},"geometry":{"type":"LineString","coordinates":[[126.8302,37.56413],[126.8306,37.56409]]}},{"type":"Feature","properties":{"class":"major","highway":"tertiary","sidewalk":"yes","lanes":3,"name":"마곡중앙10로","oneway":false},"geometry":{"type":"LineString","coordinates":[[126.8306,37.56409],[126.83082,37.56407],[126.83097,37.56406]]}},{"type":"Feature","properties":{"class":"major","highway":"tertiary","sidewalk":"yes","lanes":3,"name":"마곡중앙10로","oneway":false},"geometry":{"type":"LineString","coordinates":[[126.82874,37.56427],[126.82902,37.56424],[126.8302,37.56413]]}},{"type":"Feature","properties":{"class":"major","highway":"tertiary","sidewalk":"yes","lanes":4,"name":"마곡중앙10로","oneway":false},"geometry":{"type":"LineString","coordinates":[[126.82758,37.56438],[126.82777,37.56436],[126.82787,37.56435],[126.82874,37.56427]]}},{"type":"Feature","properties":{"class":"alley","highway":"service","sidewalk":"unknown","lanes":1,"name":"","oneway":true},"geometry":{"type":"LineString","coordinates":[[126.82874,37.56427],[126.82877,37.56422],[126.82881,37.56416],[126.82889,37.5641],[126.82896,37.56407],[126.82994,37.56398],[126.82999,37.56397],[126.83007,37.56395]]}},{"type":"Feature","properties":{"class":"major","highway":"secondary","sidewalk":"yes","lanes":5,"name":"마곡동로","oneway":false},"geometry":{"type":"LineString","coordinates":[[126.83362,37.56126],[126.83364,37.56142],[126.8338,37.56249],[126.8339,37.56316]]}},{"type":"Feature","properties":{"class":"major","highway":"tertiary","sidewalk":"likely","lanes":3,"name":"마곡중앙8로","oneway":false},"geometry":{"type":"LineString","coordinates":[[126.83362,37.56126],[126.83373,37.56124],[126.83385,37.56123],[126.8353,37.56109]]}},{"type":"Feature","properties":{"class":"major","highway":"tertiary","sidewalk":"likely","lanes":3,"name":"마곡중앙8로","oneway":false},"geometry":{"type":"LineString","coordinates":[[126.83135,37.56148],[126.83265,37.56135]]}},{"type":"Feature","properties":{"class":"major","highway":"tertiary","sidewalk":"likely","lanes":4,"name":"마곡중앙8로","oneway":false},"geometry":{"type":"LineString","coordinates":[[126.83265,37.56135],[126.83338,37.56128],[126.83349,37.56127],[126.83362,37.56126]]}},{"type":"Feature","properties":{"class":"major","highway":"tertiary","sidewalk":"likely","lanes":3,"name":"마곡중앙8로","oneway":false},"geometry":{"type":"LineString","coordinates":[[126.83026,37.56158],[126.83039,37.56157],[126.83041,37.56157],[126.83074,37.56154]]}},{"type":"Feature","properties":{"class":"alley","highway":"service","sidewalk":"unknown","lanes":1,"name":"","oneway":false},"geometry":{"type":"LineString","coordinates":[[126.82917,37.56182],[126.82864,37.56186],[126.82848,37.56175]]}},{"type":"Feature","properties":{"class":"alley","highway":"service","sidewalk":"unknown","lanes":1,"name":"","oneway":true},"geometry":{"type":"LineString","coordinates":[[126.83243,37.56162],[126.83255,37.56247]]}},{"type":"Feature","properties":{"class":"alley","highway":"service","sidewalk":"unknown","lanes":1,"name":"","oneway":false},"geometry":{"type":"LineString","coordinates":[[126.83265,37.56135],[126.83256,37.56146],[126.83243,37.56162],[126.83186,37.56167]]}},{"type":"Feature","properties":{"class":"alley","highway":"service","sidewalk":"unknown","lanes":1,"name":"","oneway":false},"geometry":{"type":"LineString","coordinates":[[126.83203,37.56154],[126.83153,37.56159],[126.83151,37.56158],[126.83135,37.56148]]}},{"type":"Feature","properties":{"class":"major","highway":"tertiary","sidewalk":"likely","lanes":4,"name":"마곡중앙8로","oneway":false},"geometry":{"type":"LineString","coordinates":[[126.83074,37.56154],[126.83135,37.56148]]}},{"type":"Feature","properties":{"class":"major","highway":"tertiary","sidewalk":"likely","lanes":4,"name":"마곡중앙8로","oneway":false},"geometry":{"type":"LineString","coordinates":[[126.82959,37.56165],[126.83009,37.5616],[126.83014,37.56159],[126.83026,37.56158]]}},{"type":"Feature","properties":{"class":"major","highway":"tertiary","sidewalk":"likely","lanes":3,"name":"마곡중앙8로","oneway":false},"geometry":{"type":"LineString","coordinates":[[126.82848,37.56175],[126.82959,37.56165]]}},{"type":"Feature","properties":{"class":"alley","highway":"service","sidewalk":"unknown","lanes":1,"name":"","oneway":false},"geometry":{"type":"LineString","coordinates":[[126.82959,37.56165],[126.82952,37.56179],[126.82946,37.56189],[126.82888,37.56194]]}},{"type":"Feature","properties":{"class":"major","highway":"tertiary","sidewalk":"likely","lanes":4,"name":"마곡중앙8로","oneway":false},"geometry":{"type":"LineString","coordinates":[[126.82806,37.56179],[126.82848,37.56175]]}},{"type":"Feature","properties":{"class":"major","highway":"tertiary","sidewalk":"likely","lanes":3,"name":"마곡중앙8로","oneway":false},"geometry":{"type":"LineString","coordinates":[[126.82719,37.56188],[126.82738,37.56186],[126.82745,37.56185],[126.82765,37.56183],[126.82806,37.56179]]}},{"type":"Feature","properties":{"class":"major","highway":"tertiary","sidewalk":"likely","lanes":3,"name":"마곡중앙3로","oneway":false},"geometry":{"type":"LineString","coordinates":[[126.82413,37.56216],[126.82543,37.56206]]}},{"type":"Feature","properties":{"class":"alley","highway":"pedestrian","sidewalk":"unknown","lanes":0,"name":"","oneway":false},"geometry":{"type":"LineString","coordinates":[[126.83007,37.56287],[126.83005,37.56283],[126.83003,37.56266],[126.82985,37.56267],[126.82973,37.56193],[126.82971,37.56177]]}},{"type":"Feature","properties":{"class":"alley","highway":"pedestrian","sidewalk":"unknown","lanes":0,"name":"","oneway":false},"geometry":{"type":"LineString","coordinates":[[126.83007,37.56287],[126.83011,37.56314],[126.82989,37.56316],[126.83001,37.56392],[126.83003,37.56393]]}},{"type":"Feature","properties":{"class":"alley","highway":"pedestrian","sidewalk":"unknown","lanes":0,"name":"","oneway":false},"geometry":{"type":"LineString","coordinates":[[126.82989,37.56316],[126.82982,37.56307],[126.8298,37.5629]]}},{"type":"Feature","properties":{"class":"alley","highway":"pedestrian","sidewalk":"unknown","lanes":0,"name":"","oneway":false},"geometry":{"type":"LineString","coordinates":[[126.82937,37.56294],[126.82944,37.56333]]}},{"type":"Feature","properties":{"class":"alley","highway":"pedestrian","sidewalk":"unknown","lanes":0,"name":"","oneway":false},"geometry":{"type":"LineString","coordinates":[[126.82937,37.56294],[126.82934,37.56272]]}},{"type":"Feature","properties":{"class":"alley","highway":"pedestrian","sidewalk":"unknown","lanes":0,"name":"","oneway":false},"geometry":{"type":"LineString","coordinates":[[126.82865,37.56204],[126.82973,37.56193]]}},{"type":"Feature","properties":{"class":"alley","highway":"pedestrian","sidewalk":"unknown","lanes":0,"name":"","oneway":false},"geometry":{"type":"LineString","coordinates":[[126.82981,37.56192],[126.83029,37.56188]]}},{"type":"Feature","properties":{"class":"alley","highway":"pedestrian","sidewalk":"unknown","lanes":0,"name":"","oneway":false},"geometry":{"type":"LineString","coordinates":[[126.8286,37.56188],[126.82862,37.56198],[126.82865,37.56204],[126.8288,37.563],[126.82895,37.56402],[126.82896,37.56407],[126.82896,37.56407]]}},{"type":"Feature","properties":{"class":"alley","highway":"pedestrian","sidewalk":"unknown","lanes":0,"name":"","oneway":false},"geometry":{"type":"LineString","coordinates":[[126.82895,37.56402],[126.83001,37.56392],[126.83069,37.56386]]}},{"type":"Feature","properties":{"class":"alley","highway":"service","sidewalk":"unknown","lanes":0,"name":"","oneway":false},"geometry":{"type":"LineString","coordinates":[[126.83248,37.57257],[126.83249,37.57267],[126.83252,37.57297],[126.83255,37.57334],[126.83261,37.57363],[126.83255,37.57371],[126.83124,37.57408],[126.83121,37.57415],[126.83085,37.57429]]}},{"type":"Feature","properties":{"class":"alley","highway":"service","sidewalk":"unknown","lanes":0,"name":"","oneway":false},"geometry":{"type":"LineString","coordinates":[[126.82883,37.57981],[126.82753,37.58017],[126.82715,37.58025],[126.82702,37.58022],[126.8267,37.58033],[126.82607,37.58069],[126.82316,37.58153],[126.82176,37.58175],[126.82156,37.58172],[126.82079,37.58125],[126.82061,37.58134],[126.8196,37.58223],[126.81952,37.58223]]}},{"type":"Feature","properties":{"class":"alley","highway":"service","sidewalk":"unknown","lanes":0,"name":"","oneway":false},"geometry":{"type":"LineString","coordinates":[[126.8251,37.5768],[126.82518,37.57684],[126.82524,37.57695],[126.82648,37.57958],[126.82659,37.57987],[126.82657,37.58003],[126.8267,37.58033],[126.82683,37.58061]]}},{"type":"Feature","properties":{"class":"major","highway":"tertiary","sidewalk":"likely","lanes":3,"name":"마곡서로","oneway":false},"geometry":{"type":"LineString","coordinates":[[126.82413,37.56216],[126.82435,37.56342],[126.82436,37.56354],[126.82451,37.56462]]}},{"type":"Feature","properties":{"class":"major","highway":"tertiary","sidewalk":"likely","lanes":0,"name":"마곡서로","oneway":false},"geometry":{"type":"LineString","coordinates":[[126.82451,37.56462],[126.82468,37.56572]]}},{"type":"Feature","properties":{"class":"alley","highway":"pedestrian","sidewalk":"unknown","lanes":0,"name":"","oneway":false},"geometry":{"type":"LineString","coordinates":[[126.82973,37.56193],[126.82981,37.56192]]}},{"type":"Feature","properties":{"class":"alley","highway":"pedestrian","sidewalk":"unknown","lanes":0,"name":"","oneway":false},"geometry":{"type":"LineString","coordinates":[[126.83029,37.56188],[126.83037,37.56187]]}},{"type":"Feature","properties":{"class":"alley","highway":"service","sidewalk":"unknown","lanes":0,"name":"","oneway":false},"geometry":{"type":"LineString","coordinates":[[126.83575,37.56986],[126.83585,37.56981],[126.83588,37.5698],[126.83591,37.5698],[126.83599,37.56981]]}},{"type":"Feature","properties":{"class":"alley","highway":"service","sidewalk":"unknown","lanes":0,"name":"","oneway":false},"geometry":{"type":"LineString","coordinates":[[126.83526,37.57072],[126.83543,37.57059]]}},{"type":"Feature","properties":{"class":"alley","highway":"service","sidewalk":"unknown","lanes":0,"name":"","oneway":false},"geometry":{"type":"LineString","coordinates":[[126.83526,37.57072],[126.83511,37.5706]]}},{"type":"Feature","properties":{"class":"alley","highway":"service","sidewalk":"unknown","lanes":0,"name":"","oneway":false},"geometry":{"type":"LineString","coordinates":[[126.8352,37.5704],[126.83543,37.57059],[126.83589,37.57097],[126.83589,37.57098],[126.83589,37.571],[126.83569,37.57113]]}},{"type":"Feature","properties":{"class":"alley","highway":"pedestrian","sidewalk":"unknown","lanes":0,"name":"","oneway":false},"geometry":{"type":"LineString","coordinates":[[126.83386,37.56357],[126.83382,37.56362],[126.83381,37.56364],[126.83379,37.56366],[126.83378,37.56367],[126.83374,37.5637],[126.83365,37.56374],[126.8338,37.56373],[126.83385,37.56372],[126.83387,37.56372],[126.83387,37.56367],[126.83386,37.56357]]}}]}