{"type":"FeatureCollection","features":[{"type":"Feature","properties":{"class":"major","highway":"motorway","sidewalk":"likely","lanes":4,"name":"수도권제1순환고속도로","oneway":true},"geometry":{"type":"LineString","coordinates":[[127.15837,37.58125],[127.15978,37.57952],[127.16144,37.57752],[127.16254,37.57612]]}},{"type":"Feature","properties":{"class":"major","highway":"motorway","sidewalk":"likely","lanes":3,"name":"수도권제1순환고속도로","oneway":true},"geometry":{"type":"LineString","coordinates":[[127.16574,37.57296],[127.16427,37.57476],[127.16316,37.57605],[127.16166,37.57786],[127.15997,37.5799],[127.15871,37.58143]]}},{"type":"Feature","properties":{"class":"major","highway":"trunk","sidewalk":"likely","lanes":4,"name":"올림픽대로","oneway":true},"geometry":{"type":"LineString","coordinates":[[127.15877,37.57035],[127.15999,37.5709],[127.161,37.57135],[127.1618,37.57166],[127.16249,37.57192],[127.1638,37.57238],[127.16456,37.57266],[127.16536,37.57301],[127.1664,37.57356],[127.16779,37.57447],[127.16872,37.57502]]}},{"type":"Feature","properties":{"class":"major","highway":"trunk_link","sidewalk":"likely","lanes":0,"name":"","oneway":true},"geometry":{"type":"LineString","coordinates":[[127.15615,37.57903],[127.15627,37.57908],[127.15638,37.57915],[127.15681,37.57944],[127.15738,37.57983]]}},{"type":"Feature","properties":{"class":"major","highway":"trunk_link","sidewalk":"likely","lanes":0,"name":"","oneway":true},"geometry":{"type":"LineString","coordinates":[[127.15568,37.57923],[127.15571,37.57915],[127.15578,37.57908],[127.15586,37.57904],[127.15594,37.57903],[127.15603,37.57902],[127.15615,37.57903]]}},{"type":"Feature","properties":{"class":"major","highway":"motorway","sidewalk":"likely","lanes":2,"name":"수도권제1순환고속도로","oneway":true},"geometry":{"type":"LineString","coordinates":[[127.16559,37.57288],[127.16416,37.57463],[127.1623,37.57686],[127.16066,37.57884],[127.15986,37.57981],[127.15857,37.58135]]}},{"type":"Feature","properties":{"class":"major","highway":"trunk","sidewalk":"likely","lanes":4,"name":"올림픽대로","oneway":true},"geometry":{"type":"LineString","coordinates":[[127.15862,37.57047],[127.15809,37.5702]]}},{"type":"Feature","properties":{"class":"major","highway":"trunk","sidewalk":"likely","lanes":4,"name":"올림픽대로","oneway":true},"geometry":{"type":"LineString","coordinates":[[127.15822,37.5701],[127.15877,37.57035]]}},{"type":"Feature","properties":{"class":"major","highway":"tertiary","sidewalk":"likely","lanes":0,"name":"벌말로","oneway":false},"geometry":{"type":"LineString","coordinates":[[127.14553,37.57735],[127.14557,37.5775]]}},{"type":"Feature","properties":{"class":"major","highway":"trunk","sidewalk":"likely","lanes":4,"name":"올림픽대로","oneway":true},"geometry":{"type":"LineString","coordinates":[[127.13647,37.56639],[127.13711,37.56658],[127.13803,37.5668],[127.13907,37.56689],[127.13951,37.5669],[127.13973,37.56688],[127.14012,37.56686],[127.14163,37.56677],[127.14319,37.56665],[127.14638,37.56634],[127.1466,37.56632],[127.1467,37.56632],[127.14732,37.5663],[127.1476,37.5663],[127.14785,37.5663],[127.14822,37.56632],[127.1488,37.56638],[127.1494,37.56646],[127.15002,37.56659],[127.15074,37.56681],[127.15141,37.56707],[127.15153,37.56712],[127.15253,37.56756],[127.15705,37.56957],[127.15768,37.56986],[127.15822,37.5701]]}},{"type":"Feature","properties":{"class":"major","highway":"primary","sidewalk":"likely","lanes":0,"name":"양재대로","oneway":true},"geometry":{"type":"LineString","coordinates":[[127.13552,37.56488],[127.13657,37.56387],[127.1372,37.5633],[127.1374,37.56313],[127.13819,37.56253],[127.13907,37.56193],[127.14065,37.56104],[127.14078,37.56103]]}},{"type":"Feature","properties":{"class":"minor","highway":"residential","sidewalk":"unknown","lanes":0,"name":"아리수로72길","oneway":false},"geometry":{"type":"LineString","coordinates":[[127.15988,37.56306],[127.15987,37.56289],[127.15987,37.56286],[127.15985,37.56251],[127.16044,37.56247],[127.16086,37.56244],[127.16126,37.56241],[127.16165,37.56238],[127.16207,37.56234],[127.16256,37.56231],[127.1629,37.56228],[127.1633,37.56225],[127.16376,37.56222],[127.16426,37.56218]]}},{"type":"Feature","properties":{"class":"minor","highway":"residential","sidewalk":"unknown","lanes":0,"name":"아리수로50길","oneway":false},"geometry":{"type":"LineString","coordinates":[[127.14679,37.56071],[127.14682,37.56065],[127.14683,37.56064],[127.14705,37.56022],[127.1472,37.56],[127.14754,37.55963],[127.14811,37.55918],[127.14854,37.55893],[127.14871,37.55886],[127.14881,37.55883],[127.14898,37.55878],[127.149,37.55878],[127.14932,37.55874],[127.14983,37.55874],[127.15033,37.55875],[127.15132,37.55875],[127.15154,37.55875]]}},{"type":"Feature","properties":{"class":"minor","highway":"residential","sidewalk":"unknown","lanes":0,"name":"아리수로68길","oneway":false},"geometry":{"type":"LineString","coordinates":[[127.15653,37.56052],[127.15654,37.56062],[127.15655,37.56095],[127.15658,37.56138],[127.15657,37.56247],[127.15647,37.56281],[127.15646,37.56283],[127.15643,37.56295]]}},{"type":"Feature","properties":{"class":"minor","highway":"residential","sidewalk":"unknown","lanes":0,"name":"동남로87길","oneway":false},"geometry":{"type":"LineString","coordinates":[[127.15107,37.5614],[127.15118,37.56142],[127.15163,37.56148],[127.15206,37.56154],[127.15213,37.56155],[127.15361,37.56175],[127.15402,37.5618],[127.15419,37.56183],[127.15443,37.56187],[127.15479,37.56194],[127.15491,37.56197],[127.15531,37.5621],[127.15545,37.56214],[127.15573,37.56222],[127.15616,37.56236],[127.15657,37.56247]]}},{"type":"Feature","properties":{"class":"minor","highway":"residential","sidewalk":"unknown","lanes":0,"name":"동남로85길","oneway":false},"geometry":{"type":"LineString","coordinates":[[127.15137,37.56032],[127.15145,37.56033],[127.15193,37.5604],[127.15244,37.56046],[127.15267,37.56049],[127.15317,37.56055],[127.15352,37.56058],[127.15388,37.5606],[127.15424,37.56069],[127.15463,37.56086],[127.15469,37.56089],[127.155,37.56107],[127.15509,37.56112],[127.15528,37.5612],[127.15542,37.56125],[127.15572,37.56135],[127.15615,37.56137],[127.15658,37.56138]]}},{"type":"Feature","properties":{"class":"minor","highway":"residential","sidewalk":"unknown","lanes":0,"name":"동남로82길","oneway":false},"geometry":{"type":"LineString","coordinates":[[127.15736,37.56051],[127.15736,37.56058],[127.15737,37.56117],[127.15741,37.56124],[127.15749,37.56126],[127.15769,37.56124],[127.15775,37.56122],[127.15775,37.56117],[127.15775,37.56091],[127.15774,37.56056],[127.15774,37.5605]]}},{"type":"Feature","properties":{"class":"minor","highway":"residential","sidewalk":"unknown","lanes":0,"name":"동남로82길","oneway":false},"geometry":{"type":"LineString","coordinates":[[127.15775,37.56091],[127.1586,37.56087],[127.15864,37.56086],[127.15864,37.56083],[127.15864,37.56055],[127.15864,37.56049]]}},{"type":"Feature","properties":{"class":"minor","highway":"residential","sidewalk":"unknown","lanes":0,"name":"아리수로62길","oneway":false},"geometry":{"type":"LineString","coordinates":[[127.15197,37.56209],[127.15201,37.56193],[127.15202,37.56191],[127.15213,37.56155],[127.15223,37.5612],[127.15234,37.56083],[127.15244,37.56046],[127.1525,37.5601]]}},{"type":"Feature","properties":{"class":"minor","highway":"residential","sidewalk":"unknown","lanes":0,"name":"동남로85길","oneway":false},"geometry":{"type":"LineString","coordinates":[[127.15163,37.56148],[127.15186,37.56068],[127.15193,37.5604]]}},{"type":"Feature","properties":{"class":"minor","highway":"residential","sidewalk":"unknown","lanes":0,"name":"아리수로64길","oneway":false},"geometry":{"type":"LineString","coordinates":[[127.15447,37.55981],[127.15443,37.55987],[127.15441,37.55991],[127.15421,37.56018],[127.15406,37.56038],[127.15388,37.5606]]}},{"type":"Feature","properties":{"class":"minor","highway":"residential","sidewalk":"unknown","lanes":0,"name":"아리수로64길","oneway":false},"geometry":{"type":"LineString","coordinates":[[127.15388,37.5606],[127.15364,37.56102],[127.15361,37.56112],[127.1536,37.56138],[127.15361,37.56175],[127.15362,37.56212],[127.15362,37.56215],[127.15362,37.56231]]}},{"type":"Feature","properties":{"class":"minor","highway":"residential","sidewalk":"unknown","lanes":0,"name":"아리수로64길","oneway":false},"geometry":{"type":"LineString","coordinates":[[127.15223,37.5612],[127.15284,37.56127],[127.1536,37.56138]]}},{"type":"Feature","properties":{"class":"minor","highway":"residential","sidewalk":"unknown","lanes":0,"name":"아리수로64길","oneway":false},"geometry":{"type":"LineString","coordinates":[[127.15234,37.56083],[127.15298,37.56091],[127.15364,37.56102]]}},{"type":"Feature","properties":{"class":"minor","highway":"residential","sidewalk":"unknown","lanes":0,"name":"아리수로66길","oneway":false},"geometry":{"type":"LineString","coordinates":[[127.15558,37.56035],[127.15553,37.56041],[127.15529,37.56074],[127.155,37.56107],[127.15492,37.56124],[127.15489,37.56136],[127.15491,37.56197],[127.1549,37.56233],[127.1549,37.56235],[127.1549,37.56246]]}},{"type":"Feature","properties":{"class":"minor","highway":"residential","sidewalk":"unknown","lanes":0,"name":"동남로85길","oneway":false},"geometry":{"type":"LineString","coordinates":[[127.15402,37.5618],[127.15401,37.56136],[127.15405,37.56112],[127.15407,37.56108],[127.15424,37.56069]]}},{"type":"Feature","properties":{"class":"minor","highway":"residential","sidewalk":"unknown","lanes":0,"name":"동남로85길","oneway":false},"geometry":{"type":"LineString","coordinates":[[127.15443,37.56187],[127.15439,37.56136],[127.15441,37.56119],[127.1545,37.56105],[127.15463,37.56086]]}},{"type":"Feature","properties":{"class":"minor","highway":"residential","sidewalk":"unknown","lanes":0,"name":"동남로83길","oneway":false},"geometry":{"type":"LineString","coordinates":[[127.1515,37.55923],[127.15159,37.55923],[127.15199,37.55919],[127.15209,37.55918],[127.15221,37.5592],[127.15242,37.5593],[127.15308,37.55962],[127.15369,37.55992],[127.15421,37.56018],[127.15482,37.56048],[127.15529,37.56074],[127.15551,37.56085],[127.15578,37.56094],[127.15599,37.56095],[127.15655,37.56095]]}},{"type":"Feature","properties":{"class":"minor","highway":"residential","sidewalk":"unknown","lanes":0,"name":"동남로83길","oneway":false},"geometry":{"type":"LineString","coordinates":[[127.15369,37.55992],[127.15357,37.56019],[127.15352,37.56025],[127.15339,37.56025],[127.1528,37.56015],[127.1525,37.5601],[127.15194,37.56003],[127.15152,37.55998],[127.15143,37.55997]]}},{"type":"Feature","properties":{"class":"minor","highway":"residential","sidewalk":"unknown","lanes":0,"name":"동남로83길","oneway":false},"geometry":{"type":"LineString","coordinates":[[127.15194,37.56003],[127.15195,37.55958],[127.15199,37.55919]]}},{"type":"Feature","properties":{"class":"minor","highway":"residential","sidewalk":"unknown","lanes":0,"name":"동남로83길","oneway":false},"geometry":{"type":"LineString","coordinates":[[127.1528,37.56015],[127.15291,37.55998],[127.15295,37.55983],[127.15308,37.55962]]}},{"type":"Feature","properties":{"class":"minor","highway":"residential","sidewalk":"unknown","lanes":0,"name":"동남로85길","oneway":false},"geometry":{"type":"LineString","coordinates":[[127.15528,37.5612],[127.15529,37.56176],[127.15531,37.5621]]}},{"type":"Feature","properties":{"class":"minor","highway":"residential","sidewalk":"unknown","lanes":0,"name":"동남로85길","oneway":false},"geometry":{"type":"LineString","coordinates":[[127.15573,37.56222],[127.15572,37.56135]]}},{"type":"Feature","properties":{"class":"minor","highway":"residential","sidewalk":"unknown","lanes":0,"name":"동남로85길","oneway":false},"geometry":{"type":"LineString","coordinates":[[127.15616,37.56236],[127.15614,37.56197],[127.15615,37.56137]]}},{"type":"Feature","properties":{"class":"minor","highway":"residential","sidewalk":"unknown","lanes":0,"name":"아리수로61길","oneway":false},"geometry":{"type":"LineString","coordinates":[[127.15095,37.56196],[127.15097,37.56205],[127.15092,37.56209],[127.15077,37.56222],[127.15063,37.5623],[127.15043,37.56241],[127.15029,37.56256],[127.15018,37.5628],[127.15014,37.56313],[127.15002,37.56319],[127.14984,37.56325],[127.14976,37.56326],[127.14971,37.56327],[127.14953,37.56326],[127.14927,37.56323],[127.14922,37.5632],[127.14921,37.56316],[127.14924,37.5631],[127.14929,37.56298],[127.14932,37.5628],[127.14933,37.56276],[127.14933,37.56262],[127.14933,37.5625],[127.1493,37.56238]]}},{"type":"Feature","properties":{"class":"minor","highway":"residential","sidewalk":"unknown","lanes":0,"name":"아리수로61길","oneway":false},"geometry":{"type":"LineString","coordinates":[[127.14976,37.56326],[127.14967,37.56339],[127.14958,37.56346],[127.14946,37.56353],[127.14935,37.56357]]}},{"type":"Feature","properties":{"class":"minor","highway":"unclassified","sidewalk":"unknown","lanes":0,"name":"아리수로87가길","oneway":false},"geometry":{"type":"LineString","coordinates":[[127.15768,37.56986],[127.15821,37.5699],[127.15827,37.5699],[127.15833,37.56988],[127.15839,37.56985],[127.15876,37.56959],[127.15878,37.56957],[127.159,37.56945],[127.15928,37.56926],[127.16042,37.56844],[127.16092,37.56804],[127.16102,37.56793],[127.1611,37.56781],[127.16138,37.5676],[127.16152,37.5675],[127.16165,37.56741],[127.16197,37.56719],[127.16214,37.56711],[127.16232,37.56707],[127.16281,37.56682],[127.16314,37.56666],[127.16355,37.56651],[127.1645,37.56616],[127.16528,37.56589],[127.16611,37.56562],[127.16638,37.56553],[127.1665,37.5655],[127.16733,37.56517],[127.16785,37.565],[127.16883,37.56473],[127.16983,37.56448],[127.17073,37.56427],[127.17121,37.56412],[127.17152,37.56401],[127.1718,37.56385],[127.17215,37.5636]]}},{"type":"Feature","properties":{"class":"minor","highway":"unclassified","sidewalk":"unknown","lanes":0,"name":"아리수로87길","oneway":false},"geometry":{"type":"LineString","coordinates":[[127.17184,37.56435],[127.17181,37.56443],[127.17096,37.56468],[127.16994,37.56491],[127.16912,37.56514],[127.16833,37.56537],[127.16796,37.5655],[127.16694,37.56589],[127.16651,37.56607],[127.16595,37.56625],[127.16535,37.56647],[127.16459,37.56672],[127.16413,37.56688],[127.16362,37.56705],[127.16342,37.56712],[127.16314,37.56728],[127.16297,37.56743],[127.1627,37.56771],[127.16236,37.56798],[127.16205,37.56815],[127.16173,37.56826],[127.16163,37.56833],[127.16117,37.56864],[127.16071,37.56897],[127.16027,37.5693],[127.1598,37.56965]]}},{"type":"Feature","properties":{"class":"minor","highway":"unclassified","sidewalk":"unknown","lanes":0,"name":"","oneway":false},"geometry":{"type":"LineString","coordinates":[[127.1598,37.56965],[127.15961,37.56977],[127.1594,37.56995],[127.15915,37.57014],[127.15906,37.57021],[127.15902,37.57025],[127.15903,37.5703],[127.15908,37.57033],[127.15947,37.57051],[127.15954,37.57054],[127.15971,37.5706],[127.16,37.5707],[127.16037,37.57085],[127.16071,37.571],[127.16102,37.57113]]}},{"type":"Feature","properties":{"class":"major","highway":"trunk_link","sidewalk":"likely","lanes":0,"name":"","oneway":true},"geometry":{"type":"LineString","coordinates":[[127.1569,37.57974],[127.15665,37.57972],[127.15647,37.57968],[127.15616,37.57963],[127.15593,37.57959],[127.15583,37.57956],[127.15576,37.57952],[127.1557,37.57944],[127.15566,37.57937],[127.15566,37.57931],[127.15568,37.57923]]}},{"type":"Feature","properties":{"class":"major","highway":"trunk_link","sidewalk":"likely","lanes":0,"name":"","oneway":true},"geometry":{"type":"LineString","coordinates":[[127.15414,37.57834],[127.15378,37.57834],[127.15353,37.57835],[127.15328,37.57836]]}},{"type":"Feature","properties":{"class":"major","highway":"trunk_link","sidewalk":"likely","lanes":0,"name":"","oneway":true},"geometry":{"type":"LineString","coordinates":[[127.15343,37.57829],[127.15346,37.57821],[127.15347,37.57817],[127.15348,37.57811],[127.1535,37.57802]]}},{"type":"Feature","properties":{"class":"minor","highway":"residential","sidewalk":"unknown","lanes":0,"name":"동남로81길","oneway":false},"geometry":{"type":"LineString","coordinates":[[127.15154,37.55875],[127.15165,37.55876],[127.15177,37.55876],[127.15212,37.55877],[127.15224,37.55878],[127.15238,37.55881],[127.15252,37.55886],[127.15331,37.55924],[127.15338,37.55927],[127.15447,37.55981],[127.15452,37.55984],[127.15558,37.56035],[127.15579,37.56045],[127.15602,37.56051],[127.15604,37.56052],[127.1563,37.56053],[127.15653,37.56052],[127.15664,37.56053],[127.15688,37.56054]]}},{"type":"Feature","properties":{"class":"minor","highway":"residential","sidewalk":"unknown","lanes":0,"name":"동남로82길","oneway":false},"geometry":{"type":"LineString","coordinates":[[127.15688,37.56054],[127.15702,37.56054],[127.15736,37.56051],[127.15774,37.5605],[127.15855,37.56049],[127.15864,37.56049],[127.15877,37.5605],[127.15885,37.5605],[127.15901,37.56051],[127.15922,37.56057],[127.15943,37.56064],[127.15952,37.56066],[127.15964,37.56069],[127.1598,37.5607],[127.15988,37.5607],[127.16054,37.56071],[127.1608,37.56071],[127.16093,37.56071],[127.16129,37.56067],[127.16166,37.56059],[127.16225,37.56041],[127.16235,37.56038],[127.16254,37.56034],[127.1628,37.5603],[127.16312,37.56028],[127.16335,37.56026],[127.16356,37.56024],[127.16374,37.56023],[127.16412,37.5602],[127.16494,37.56012],[127.16519,37.56011],[127.16589,37.56006],[127.16601,37.56005]]}},{"type":"Feature","properties":{"class":"minor","highway":"unclassified","sidewalk":"unknown","lanes":0,"name":"","oneway":false},"geometry":{"type":"LineString","coordinates":[[127.14207,37.57981],[127.14248,37.57999],[127.14277,37.58011],[127.14291,37.58018],[127.14312,37.5803],[127.14332,37.58042],[127.14354,37.58058],[127.14368,37.58071],[127.14385,37.58089],[127.14402,37.58108],[127.14406,37.58112],[127.14414,37.58117],[127.14431,37.58129],[127.1445,37.58137],[127.14477,37.58151],[127.14519,37.58172],[127.14536,37.58178],[127.14559,37.58191],[127.14574,37.58199],[127.14586,37.58209],[127.14597,37.5822],[127.14607,37.58232],[127.14614,37.58243],[127.14621,37.58253],[127.14629,37.58264],[127.14638,37.58273],[127.14651,37.58283],[127.14666,37.58291]]}},{"type":"Feature","properties":{"class":"major","highway":"tertiary_link","sidewalk":"likely","lanes":0,"name":"","oneway":true},"geometry":{"type":"LineString","coordinates":[[127.14592,37.57687],[127.1458,37.57694],[127.14572,37.57698],[127.14563,37.57706],[127.14559,37.57713],[127.14553,37.57735]]}},{"type":"Feature","properties":{"class":"major","highway":"tertiary_link","sidewalk":"likely","lanes":0,"name":"","oneway":true},"geometry":{"type":"LineString","coordinates":[[127.14553,37.57735],[127.14538,37.57715],[127.14535,37.57707],[127.1453,37.57701],[127.14523,37.57697],[127.14515,37.57694],[127.14493,37.57689]]}},{"type":"Feature","properties":{"class":"major","highway":"tertiary","sidewalk":"likely","lanes":0,"name":"벌말로","oneway":false},"geometry":{"type":"LineString","coordinates":[[127.14553,37.57735],[127.14544,37.57687]]}},{"type":"Feature","properties":{"class":"minor","highway":"unclassified","sidewalk":"unknown","lanes":0,"name":"벌말로80번길","oneway":false},"geometry":{"type":"LineString","coordinates":[[127.14907,37.5827],[127.14908,37.58269],[127.14912,37.58265],[127.14941,37.58235],[127.14948,37.58228],[127.14963,37.58211],[127.14977,37.58194],[127.15007,37.58152],[127.15021,37.58131],[127.15036,37.58119],[127.15057,37.58105],[127.15078,37.58089],[127.15093,37.58075],[127.15106,37.58069],[127.15108,37.58068],[127.15115,37.58066],[127.15136,37.58061],[127.15165,37.58054],[127.15172,37.58051],[127.1518,37.58049],[127.15191,37.58047],[127.1521,37.58043],[127.15219,37.58041],[127.15228,37.58038],[127.15234,37.58036],[127.15243,37.58031],[127.15248,37.58029],[127.15252,37.58026],[127.15255,37.58024],[127.15267,37.58013],[127.15277,37.58004],[127.15283,37.57999],[127.15307,37.57978],[127.15312,37.57975],[127.15317,37.57975],[127.15356,37.5798]]}},{"type":"Feature","properties":{"class":"minor","highway":"residential","sidewalk":"unknown","lanes":0,"name":"코스모스길215번길","oneway":false},"geometry":{"type":"LineString","coordinates":[[127.15343,37.57898],[127.15371,37.57894],[127.15388,37.57892],[127.15406,37.57892],[127.1544,37.57893],[127.15467,37.57894],[127.15476,37.57895],[127.15482,37.57895],[127.15491,37.57897],[127.15486,37.5791],[127.15484,37.57913],[127.15482,37.57916],[127.15479,37.57919],[127.15476,37.57921],[127.15463,37.5793],[127.15454,37.57933],[127.15448,37.57935],[127.15445,37.57937],[127.15444,37.57939],[127.15441,37.57953],[127.15439,37.57957],[127.15436,37.57961],[127.15432,37.57965],[127.15427,37.57969],[127.15403,37.57993],[127.15392,37.58003]]}},{"type":"Feature","properties":{"class":"minor","highway":"unclassified","sidewalk":"unknown","lanes":0,"name":"","oneway":true},"geometry":{"type":"LineString","coordinates":[[127.15221,37.57849],[127.15211,37.57854],[127.15184,37.5786],[127.15176,37.57864],[127.15168,37.57863],[127.15152,37.57862],[127.1514,37.57858]]}},{"type":"Feature","properties":{"class":"major","highway":"trunk","sidewalk":"likely","lanes":5,"name":"강변북로","oneway":true},"geometry":{"type":"LineString","coordinates":[[127.14303,37.57676],[127.14529,37.57673],[127.14543,37.57672]]}},{"type":"Feature","properties":{"class":"major","highway":"secondary","sidewalk":"likely","lanes":0,"name":"동남로","oneway":false},"geometry":{"type":"LineString","coordinates":[[127.15688,37.56054],[127.15687,37.56042],[127.15679,37.55867],[127.1567,37.55754],[127.15669,37.55744],[127.15661,37.5556],[127.1566,37.5554]]}},{"type":"Feature","properties":{"class":"major","highway":"motorway_link","sidewalk":"likely","lanes":0,"name":"","oneway":true},"geometry":{"type":"LineString","coordinates":[[127.14337,37.57691],[127.14268,37.57703],[127.14208,37.57715],[127.14168,37.57725],[127.14121,37.5774],[127.14101,37.57747]]}},{"type":"Feature","properties":{"class":"major","highway":"motorway_link","sidewalk":"likely","lanes":0,"name":"","oneway":true},"geometry":{"type":"LineString","coordinates":[[127.14093,37.57659],[127.1412,37.57649],[127.1414,37.57646],[127.14166,37.57643],[127.14193,37.57644],[127.14219,37.57646],[127.14254,37.57652],[127.14287,37.57658],[127.14306,37.57661],[127.14336,37.57663]]}},{"type":"Feature","properties":{"class":"major","highway":"motorway_link","sidewalk":"likely","lanes":0,"name":"","oneway":true},"geometry":{"type":"LineString","coordinates":[[127.13953,37.57754],[127.14006,37.57713],[127.14031,37.57692],[127.14055,37.57677],[127.14093,37.57659]]}},{"type":"Feature","properties":{"class":"minor","highway":"unclassified","sidewalk":"unknown","lanes":0,"name":"가래여울길","oneway":false},"geometry":{"type":"LineString","coordinates":[[127.16446,37.57479],[127.16381,37.57394],[127.16363,37.57376],[127.1636,37.57368],[127.16359,37.57312],[127.16292,37.57303],[127.16169,37.57285],[127.15854,37.57149],[127.15805,37.57139],[127.15796,37.57135],[127.1579,37.57131],[127.15788,37.57124],[127.15788,37.57118],[127.15826,37.57049]]}},{"type":"Feature","properties":{"class":"minor","highway":"residential","sidewalk":"unknown","lanes":0,"name":"고덕로61길","oneway":false},"geometry":{"type":"LineString","coordinates":[[127.15154,37.55875],[127.15153,37.55891],[127.1515,37.55923],[127.15145,37.55973],[127.15143,37.55997],[127.15139,37.56021],[127.15137,37.56032],[127.15136,37.56037],[127.15117,37.56102],[127.15107,37.5614],[127.15101,37.5616],[127.15097,37.56177],[127.15095,37.56196]]}},{"type":"Feature","properties":{"class":"major","highway":"secondary","sidewalk":"likely","lanes":0,"name":"아리수로","oneway":false},"geometry":{"type":"LineString","coordinates":[[127.15095,37.56196],[127.15121,37.56199],[127.15197,37.56209],[127.15362,37.56231],[127.15435,37.56239]]}},{"type":"Feature","properties":{"class":"major","highway":"secondary","sidewalk":"likely","lanes":0,"name":"아리수로","oneway":false},"geometry":{"type":"LineString","coordinates":[[127.14402,37.55887],[127.14422,37.55897],[127.14452,37.55918],[127.14489,37.55943],[127.14492,37.55948],[127.14532,37.55982],[127.14611,37.56047],[127.14679,37.56071],[127.14744,37.56094]]}},{"type":"Feature","properties":{"class":"major","highway":"secondary","sidewalk":"likely","lanes":0,"name":"아리수로","oneway":false},"geometry":{"type":"LineString","coordinates":[[127.14744,37.56094],[127.14895,37.5615],[127.14998,37.56183],[127.15079,37.56193],[127.15095,37.56196]]}},{"type":"Feature","properties":{"class":"minor","highway":"residential","sidewalk":"unknown","lanes":0,"name":"코스모스길215번길","oneway":false},"geometry":{"type":"LineString","coordinates":[[127.15459,37.58006],[127.15479,37.58007],[127.15484,37.58007],[127.15504,37.58007],[127.15509,37.58006],[127.15513,37.58004],[127.15521,37.58],[127.15526,37.57994],[127.15529,37.57988],[127.1553,37.57981],[127.15532,37.57971],[127.15533,37.57967],[127.15537,37.57946]]}},{"type":"Feature","properties":{"class":"minor","highway":"unclassified","sidewalk":"unknown","lanes":0,"name":"코스모스길","oneway":false},"geometry":{"type":"LineString","coordinates":[[127.14187,37.57981],[127.14172,37.57964],[127.14165,37.57954],[127.14161,37.57948],[127.14152,37.57938],[127.14146,37.57927],[127.14144,37.57917],[127.14143,37.57899],[127.14143,37.57881],[127.14141,37.57863],[127.14141,37.57862],[127.1414,37.57851],[127.14132,37.57834],[127.14123,37.5782],[127.14096,37.57797],[127.14089,37.57785],[127.14092,37.57781]]}},{"type":"Feature","properties":{"class":"alley","highway":"service","sidewalk":"unknown","lanes":0,"name":"","oneway":false},"geometry":{"type":"LineString","coordinates":[[127.14141,37.57863],[127.14092,37.57848],[127.14015,37.57828]]}},{"type":"Feature","properties":{"class":"alley","highway":"service","sidewalk":"unknown","lanes":0,"name":"","oneway":false},"geometry":{"type":"LineString","coordinates":[[127.14528,37.57939],[127.14503,37.57954],[127.14476,37.57945],[127.14486,37.57936],[127.14498,37.57928],[127.14507,37.57921],[127.14517,37.57925],[127.14533,37.57928],[127.14551,37.57935]]}},{"type":"Feature","properties":{"class":"alley","highway":"service","sidewalk":"unknown","lanes":0,"name":"","oneway":false},"geometry":{"type":"LineString","coordinates":[[127.14507,37.57921],[127.1449,37.57877],[127.14484,37.5786],[127.14473,37.5783],[127.14468,37.57814],[127.14458,37.57763],[127.14453,37.57736],[127.14445,37.57727]]}},{"type":"Feature","properties":{"class":"major","highway":"motorway_link","sidewalk":"likely","lanes":0,"name":"","oneway":true},"geometry":{"type":"LineString","coordinates":[[127.1406,37.57763],[127.13995,37.57789],[127.13961,37.57801],[127.13886,37.57823],[127.13853,37.57832],[127.13787,37.5785],[127.13707,37.57861]]}},{"type":"Feature","properties":{"class":"major","highway":"motorway_link","sidewalk":"likely","lanes":0,"name":"","oneway":true},"geometry":{"type":"LineString","coordinates":[[127.14101,37.57747],[127.1406,37.57763]]}},{"type":"Feature","properties":{"class":"alley","highway":"service","sidewalk":"unknown","lanes":0,"name":"","oneway":false},"geometry":{"type":"LineString","coordinates":[[127.14071,37.57659],[127.14067,37.57699]]}},{"type":"Feature","properties":{"class":"minor","highway":"unclassified","sidewalk":"unknown","lanes":0,"name":"코스모스길96번길","oneway":false},"geometry":{"type":"LineString","coordinates":[[127.14092,37.57781],[127.14059,37.57799],[127.13995,37.57822],[127.13944,37.57837],[127.1392,37.57847],[127.13909,37.57861],[127.13903,37.57882],[127.13894,37.57896],[127.1388,37.57906],[127.1386,37.57915],[127.13842,37.57953]]}},{"type":"Feature","properties":{"class":"major","highway":"motorway_link","sidewalk":"likely","lanes":0,"name":"","oneway":true},"geometry":{"type":"LineString","coordinates":[[127.14336,37.57663],[127.14557,37.57664],[127.14586,37.5767]]}},{"type":"Feature","properties":{"class":"minor","highway":"unclassified","sidewalk":"unknown","lanes":0,"name":"코스모스길","oneway":false},"geometry":{"type":"LineString","coordinates":[[127.1294,37.5788],[127.1295,37.57885],[127.12967,37.57892],[127.12981,37.57895],[127.12992,37.57897],[127.13007,37.57898],[127.13022,37.57898],[127.13051,37.57898],[127.13104,37.57902],[127.13262,37.57916],[127.13297,37.57919],[127.13323,37.57921],[127.13442,37.5793],[127.1351,37.57936],[127.13623,37.57945],[127.13673,37.5795],[127.13823,37.57962],[127.1385,37.57965],[127.13994,37.57978],[127.14059,37.57981],[127.14116,37.57982],[127.14187,37.57981],[127.14207,37.57981],[127.14243,37.57977],[127.14338,37.57962],[127.1441,37.57952],[127.14476,37.57945],[127.14525,37.57939],[127.14528,37.57939],[127.14551,37.57935],[127.14568,37.57934],[127.14594,37.57929],[127.14649,37.57922],[127.14696,37.57916],[127.14787,37.57906],[127.15079,37.57865],[127.15104,37.57862],[127.1514,37.57858],[127.15159,37.57854],[127.15221,37.57849],[127.15231,37.57847],[127.15328,37.57836]]}},{"type":"Feature","properties":{"class":"major","highway":"motorway","sidewalk":"likely","lanes":3,"name":"세종포천고속도로","oneway":true},"geometry":{"type":"LineString","coordinates":[[127.15591,37.56479],[127.15614,37.56426],[127.15638,37.56372],[127.1564,37.56365],[127.15664,37.56294],[127.15684,37.56202],[127.15699,37.56077],[127.15693,37.5589],[127.15687,37.55728],[127.15622,37.54638],[127.1562,37.54608]]}},{"type":"Feature","properties":{"class":"major","highway":"motorway","sidewalk":"likely","lanes":3,"name":"세종포천고속도로","oneway":true},"geometry":{"type":"LineString","coordinates":[[127.15635,37.54605],[127.15635,37.54642],[127.15689,37.55523],[127.15708,37.55734],[127.15719,37.56073],[127.15705,37.56203],[127.1569,37.56281],[127.15671,37.56349],[127.15659,37.56388],[127.1565,37.56413],[127.15619,37.5648]]}},{"type":"Feature","properties":{"class":"alley","highway":"service","sidewalk":"unknown","lanes":0,"name":"아리수로61길","oneway":false},"geometry":{"type":"LineString","coordinates":[[127.148,37.56512],[127.14803,37.56526],[127.14798,37.56539],[127.14795,37.56565],[127.14795,37.56568],[127.14796,37.56593],[127.14795,37.56602],[127.14792,37.56607],[127.14787,37.56611],[127.14779,37.56611],[127.1477,37.5661],[127.14764,37.56607]]}},{"type":"Feature","properties":{"class":"alley","highway":"service","sidewalk":"unknown","lanes":0,"name":"","oneway":false},"geometry":{"type":"LineString","coordinates":[[127.14492,37.55948],[127.14477,37.55961],[127.14473,37.55963],[127.14471,37.55965],[127.14463,37.55967],[127.14455,37.55966],[127.14445,37.55964],[127.14433,37.55962],[127.14421,37.55959],[127.14408,37.55959],[127.14392,37.55961],[127.14376,37.55966],[127.14366,37.55972],[127.14361,37.55976],[127.14358,37.55978],[127.14352,37.55989],[127.1435,37.56],[127.14352,37.56016],[127.1435,37.56024],[127.14348,37.56031],[127.14484,37.56191],[127.14304,37.5629],[127.14123,37.56389]]}},{"type":"Feature","properties":{"class":"major","highway":"trunk","sidewalk":"likely","lanes":4,"name":"강변북로","oneway":true},"geometry":{"type":"LineString","coordinates":[[127.1553,37.57892],[127.15414,37.57834]]}},{"type":"Feature","properties":{"class":"alley","highway":"service","sidewalk":"unknown","lanes":0,"name":"","oneway":false},"geometry":{"type":"LineString","coordinates":[[127.14067,37.57699],[127.14064,37.57738]]}},{"type":"Feature","properties":{"class":"alley","highway":"service","sidewalk":"unknown","lanes":0,"name":"","oneway":false},"geometry":{"type":"LineString","coordinates":[[127.14072,37.57641],[127.14071,37.57659]]}},{"type":"Feature","properties":{"class":"minor","highway":"unclassified","sidewalk":"unknown","lanes":0,"name":"","oneway":true},"geometry":{"type":"LineString","coordinates":[[127.15328,37.57836],[127.15343,37.57829],[127.15348,37.57826],[127.1535,37.57824],[127.15353,37.57822],[127.15355,37.57819],[127.15358,37.57815],[127.15364,37.57808]]}},{"type":"Feature","properties":{"class":"major","highway":"motorway_link","sidewalk":"likely","lanes":1,"name":"","oneway":true},"geometry":{"type":"LineString","coordinates":[[127.14061,37.57656],[127.14078,37.57652],[127.14106,37.57644],[127.14146,37.57625],[127.14185,37.57606],[127.14225,37.57589],[127.14252,37.57577],[127.14318,37.57547],[127.14373,37.57512],[127.14423,37.57482],[127.14475,37.57446]]}},{"type":"Feature","properties":{"class":"major","highway":"motorway_link","sidewalk":"likely","lanes":1,"name":"","oneway":true},"geometry":{"type":"LineString","coordinates":[[127.14517,37.57476],[127.14506,37.57491],[127.14497,37.57507],[127.14493,37.57527],[127.14493,37.57546],[127.14496,37.57566],[127.14504,37.57585],[127.14516,37.57604],[127.14536,37.57624],[127.14562,37.57641],[127.14598,37.57653],[127.1465,37.57659],[127.14714,37.57666]]}},{"type":"Feature","properties":{"class":"major","highway":"motorway_link","sidewalk":"likely","lanes":0,"name":"","oneway":true},"geometry":{"type":"LineString","coordinates":[[127.14822,37.56632],[127.14873,37.56627],[127.14901,37.56625],[127.14938,37.56618],[127.14963,37.5661],[127.14984,37.566],[127.14994,37.56593],[127.15029,37.56569],[127.15052,37.56553],[127.15079,37.56535],[127.15102,37.56524],[127.15123,37.56515],[127.15143,37.56508],[127.15154,37.56505],[127.15169,37.56502],[127.15196,37.56501],[127.15227,37.56503],[127.15254,37.56508],[127.15272,37.56513],[127.15297,37.56519],[127.15331,37.56531],[127.15362,37.56544],[127.15392,37.56557],[127.15414,37.56564],[127.15436,37.56569],[127.15455,37.56569],[127.15473,37.56568],[127.15482,37.56567],[127.15498,37.56563],[127.15512,37.56557],[127.15528,37.56549],[127.15537,37.56543],[127.15547,37.56535],[127.15557,37.56525],[127.15571,37.56507],[127.15591,37.56479]]}},{"type":"Feature","properties":{"class":"major","highway":"motorway_link","sidewalk":"likely","lanes":0,"name":"","oneway":true},"geometry":{"type":"LineString","coordinates":[[127.15385,37.56694],[127.15391,37.56674],[127.15386,37.56647],[127.15378,37.56628],[127.15371,37.5661],[127.15362,37.56594],[127.15334,37.56564],[127.15328,37.56558],[127.15295,37.56534],[127.15273,37.56524],[127.15243,37.56514],[127.15217,37.5651],[127.15186,37.5651],[127.15156,37.56514],[127.15143,37.56516],[127.15107,37.56532],[127.15075,37.5655],[127.15024,37.56589],[127.14997,37.56611]]}},{"type":"Feature","properties":{"class":"major","highway":"motorway_link","sidewalk":"likely","lanes":0,"name":"","oneway":true},"geometry":{"type":"LineString","coordinates":[[127.15196,37.56501],[127.1525,37.56499],[127.15318,37.56502],[127.15374,37.56502],[127.15383,37.56502],[127.15404,37.56501],[127.15426,37.56497],[127.15444,37.56494],[127.15465,37.56486],[127.1549,37.5648],[127.15517,37.56477],[127.1554,37.56481],[127.15556,37.56488],[127.1557,37.56497]]}},{"type":"Feature","properties":{"class":"major","highway":"motorway_link","sidewalk":"likely","lanes":0,"name":"","oneway":true},"geometry":{"type":"LineString","coordinates":[[127.15487,37.56654],[127.15471,37.5665],[127.15455,37.56644],[127.15433,37.56631],[127.15398,37.56605],[127.15372,37.56585],[127.15349,37.56565],[127.15327,37.5655],[127.15295,37.56534]]}},{"type":"Feature","properties":{"class":"major","highway":"motorway_link","sidewalk":"likely","lanes":0,"name":"","oneway":true},"geometry":{"type":"LineString","coordinates":[[127.15052,37.56576],[127.15089,37.56614],[127.1511,37.56631],[127.15127,37.56643],[127.1515,37.56656],[127.15169,37.56668],[127.1519,37.56679],[127.15257,37.56703],[127.15273,37.56709],[127.15338,37.56737],[127.1542,37.56775]]}},{"type":"Feature","properties":{"class":"major","highway":"motorway_link","sidewalk":"likely","lanes":0,"name":"","oneway":true},"geometry":{"type":"LineString","coordinates":[[127.15416,37.56779],[127.15335,37.56742],[127.15298,37.56728],[127.15264,37.56718],[127.15208,37.56698],[127.15176,37.56682],[127.15125,37.5665],[127.15106,37.56635],[127.15084,37.56617],[127.15046,37.56581]]}},{"type":"Feature","properties":{"class":"major","highway":"motorway_link","sidewalk":"likely","lanes":0,"name":"","oneway":true},"geometry":{"type":"LineString","coordinates":[[127.15176,37.56682],[127.15152,37.56672],[127.15106,37.56648],[127.15061,37.56625],[127.15046,37.56621],[127.15033,37.56619],[127.15018,37.56619],[127.15004,37.56621]]}},{"type":"Feature","properties":{"class":"major","highway":"motorway_link","sidewalk":"likely","lanes":0,"name":"","oneway":true},"geometry":{"type":"LineString","coordinates":[[127.15156,37.56514],[127.15125,37.56534],[127.1511,37.56551],[127.15098,37.5657],[127.15096,37.56589],[127.15102,37.56608],[127.15113,37.56624],[127.1513,37.5664],[127.1515,37.56656]]}},{"type":"Feature","properties":{"class":"major","highway":"motorway_link","sidewalk":"likely","lanes":0,"name":"","oneway":true},"geometry":{"type":"LineString","coordinates":[[127.15555,37.56852],[127.15526,37.56844],[127.15456,37.56809],[127.15425,37.56793],[127.15369,37.56763],[127.15316,37.56741],[127.15264,37.56718]]}},{"type":"Feature","properties":{"class":"major","highway":"motorway_link","sidewalk":"likely","lanes":0,"name":"","oneway":true},"geometry":{"type":"LineString","coordinates":[[127.15273,37.56709],[127.15318,37.56724],[127.15385,37.5675],[127.15427,37.56768],[127.15433,37.56769],[127.15439,37.56769],[127.15442,37.56769],[127.15448,37.56767],[127.15482,37.56755],[127.15464,37.56777],[127.15463,37.56781],[127.15464,37.56786],[127.15467,37.5679],[127.15473,37.56795],[127.15533,37.56827],[127.1557,37.56848]]}},{"type":"Feature","properties":{"class":"major","highway":"motorway_link","sidewalk":"likely","lanes":0,"name":"","oneway":true},"geometry":{"type":"LineString","coordinates":[[127.15692,37.56984],[127.15654,37.56968],[127.15638,37.56958],[127.15629,37.56947],[127.15621,37.56927],[127.15615,37.56903],[127.15611,37.56894],[127.15604,37.56883],[127.15588,37.5687]]}},{"type":"Feature","properties":{"class":"major","highway":"motorway_link","sidewalk":"likely","lanes":0,"name":"","oneway":true},"geometry":{"type":"LineString","coordinates":[[127.15456,37.56794],[127.1553,37.56832],[127.1557,37.56848],[127.15606,37.56869],[127.15622,37.56881],[127.15638,37.56899],[127.15646,37.56911],[127.15661,37.56926],[127.15705,37.56957]]}},{"type":"Feature","properties":{"class":"major","highway":"motorway_link","sidewalk":"likely","lanes":0,"name":"","oneway":true},"geometry":{"type":"LineString","coordinates":[[127.15453,37.56798],[127.15424,37.56783],[127.15416,37.56779]]}},{"type":"Feature","properties":{"class":"major","highway":"motorway_link","sidewalk":"likely","lanes":0,"name":"","oneway":true},"geometry":{"type":"LineString","coordinates":[[127.1542,37.56775],[127.15424,37.56777],[127.15456,37.56794]]}},{"type":"Feature","properties":{"class":"major","highway":"motorway_link","sidewalk":"likely","lanes":0,"name":"","oneway":true},"geometry":{"type":"LineString","coordinates":[[127.14785,37.5663],[127.14819,37.56615],[127.14829,37.5661],[127.14836,37.56605],[127.14843,37.56598],[127.1485,37.56589],[127.14851,37.56587],[127.14865,37.56547],[127.14869,37.56542],[127.14875,37.56535],[127.14889,37.56523],[127.14907,37.56515],[127.14926,37.56512],[127.14946,37.56511],[127.14966,37.56514],[127.14982,37.56518],[127.14992,37.56522],[127.15,37.56527],[127.15023,37.56548]]}},{"type":"Feature","properties":{"class":"major","highway":"motorway_link","sidewalk":"likely","lanes":0,"name":"강고덕IC 4교","oneway":true},"geometry":{"type":"LineString","coordinates":[[127.15023,37.56548],[127.15052,37.56576]]}},{"type":"Feature","properties":{"class":"major","highway":"motorway_link","sidewalk":"likely","lanes":0,"name":"","oneway":true},"geometry":{"type":"LineString","coordinates":[[127.15017,37.56552],[127.14999,37.56536],[127.14987,37.56527],[127.14975,37.56522],[127.1496,37.56518],[127.14945,37.56517],[127.1493,37.56518],[127.14926,37.56518],[127.14915,37.56521],[127.149,37.56525],[127.14888,37.56533],[127.14881,37.56543],[127.14877,37.56555],[127.14876,37.5657],[127.14882,37.56585],[127.14893,37.56597],[127.14905,37.56603],[127.14918,37.56608],[127.14933,37.56609],[127.14953,37.56606],[127.14969,37.56601],[127.14979,37.56598],[127.14994,37.56593]]}},{"type":"Feature","properties":{"class":"major","highway":"motorway_link","sidewalk":"likely","lanes":0,"name":"강고덕IC 4교","oneway":true},"geometry":{"type":"LineString","coordinates":[[127.15046,37.56581],[127.15017,37.56552]]}},{"type":"Feature","properties":{"class":"major","highway":"secondary","sidewalk":"likely","lanes":0,"name":"동남로","oneway":false},"geometry":{"type":"LineString","coordinates":[[127.15694,37.56305],[127.15694,37.56318],[127.15694,37.56323],[127.15697,37.56432],[127.15697,37.56438],[127.15697,37.56448],[127.15696,37.5646],[127.15696,37.56463],[127.15687,37.56508],[127.15677,37.56539],[127.1567,37.56553],[127.15663,37.56563],[127.15632,37.56605],[127.15597,37.56651],[127.15584,37.56666],[127.15568,37.56683],[127.15551,37.56698],[127.15509,37.56732],[127.15482,37.56755],[127.15425,37.56793]]}},{"type":"Feature","properties":{"class":"major","highway":"tertiary","sidewalk":"likely","lanes":0,"name":"고덕비즈밸리로","oneway":false},"geometry":{"type":"LineString","coordinates":[[127.16092,37.56299],[127.16092,37.56311],[127.16092,37.56312],[127.16093,37.56339],[127.16092,37.56355],[127.16087,37.56372],[127.16081,37.56388],[127.16068,37.56412],[127.1604,37.56448],[127.16032,37.56459],[127.16026,37.56467],[127.16009,37.5649],[127.15964,37.56551],[127.15909,37.56626],[127.159,37.56638],[127.15894,37.56646],[127.15889,37.56654],[127.15845,37.56715],[127.15803,37.56774],[127.15795,37.56785]]}},{"type":"Feature","properties":{"class":"minor","highway":"residential","sidewalk":"unknown","lanes":0,"name":"고덕비즈밸리로4길","oneway":false},"geometry":{"type":"LineString","coordinates":[[127.159,37.56638],[127.1591,37.56643],[127.15917,37.56646],[127.15992,37.56678],[127.16005,37.56684],[127.16019,37.5669],[127.16123,37.56737],[127.16133,37.56742],[127.1614,37.56745]]}},{"type":"Feature","properties":{"class":"minor","highway":"residential","sidewalk":"unknown","lanes":0,"name":"고덕비즈밸리로6길","oneway":false},"geometry":{"type":"LineString","coordinates":[[127.15795,37.56785],[127.15814,37.56794],[127.15899,37.56833],[127.15972,37.56866],[127.15985,37.56856],[127.16123,37.56757],[127.1614,37.56745],[127.16154,37.56734],[127.16178,37.56715],[127.16252,37.56674],[127.1626,37.56668],[127.16437,37.56603],[127.16446,37.56598],[127.16587,37.56548],[127.16711,37.56505],[127.16795,37.56478],[127.16847,37.56463],[127.16914,37.56443],[127.16958,37.56427],[127.16983,37.56408],[127.16996,37.56392],[127.17007,37.56371],[127.17015,37.56344],[127.17015,37.56343],[127.17018,37.5633],[127.17021,37.56319],[127.17041,37.56241],[127.17045,37.56225]]}},{"type":"Feature","properties":{"class":"minor","highway":"residential","sidewalk":"unknown","lanes":0,"name":"고덕비즈밸리로2가길","oneway":false},"geometry":{"type":"LineString","coordinates":[[127.15899,37.56833],[127.15903,37.56828],[127.15905,37.56825],[127.15945,37.56767],[127.15951,37.56758],[127.15958,37.56749],[127.15996,37.56695],[127.16005,37.56684],[127.16014,37.56671],[127.16018,37.56667],[127.16028,37.56656],[127.16073,37.56618],[127.16088,37.56606],[127.16097,37.56601],[127.16153,37.56572],[127.16164,37.56568]]}},{"type":"Feature","properties":{"class":"minor","highway":"residential","sidewalk":"unknown","lanes":0,"name":"","oneway":false},"geometry":{"type":"LineString","coordinates":[[127.15845,37.56715],[127.15858,37.5672],[127.15863,37.56722],[127.15942,37.56754],[127.15951,37.56758]]}},{"type":"Feature","properties":{"class":"minor","highway":"residential","sidewalk":"unknown","lanes":0,"name":"","oneway":false},"geometry":{"type":"LineString","coordinates":[[127.16088,37.56606],[127.16081,37.56603],[127.15978,37.56557],[127.15973,37.56555],[127.15964,37.56551]]}},{"type":"Feature","properties":{"class":"minor","highway":"residential","sidewalk":"unknown","lanes":0,"name":"고덕비즈밸리로1가길","oneway":false},"geometry":{"type":"LineString","coordinates":[[127.15819,37.56449],[127.15819,37.56439],[127.15817,37.56355]]}},{"type":"Feature","properties":{"class":"major","highway":"motorway_link","sidewalk":"likely","lanes":0,"name":"","oneway":true},"geometry":{"type":"LineString","coordinates":[[127.15141,37.57778],[127.15137,37.57791],[127.15129,37.57804],[127.15119,37.57815],[127.15104,37.57828],[127.15089,37.57837],[127.15073,37.57842],[127.15052,37.57845],[127.15025,37.57842],[127.15008,37.57836],[127.14992,37.57827],[127.14973,37.57809],[127.14959,37.57789],[127.14948,37.57771],[127.14938,37.57757],[127.14924,37.57743],[127.14909,37.57731],[127.14889,37.57721]]}},{"type":"Feature","properties":{"class":"major","highway":"motorway_link","sidewalk":"likely","lanes":1,"name":"","oneway":true},"geometry":{"type":"LineString","coordinates":[[127.13948,37.57735],[127.13957,37.57722],[127.13967,37.57696],[127.13983,37.5767],[127.14006,37.5765],[127.1403,37.57635],[127.14053,37.57626],[127.14081,37.57621],[127.14116,37.57617],[127.14152,37.57612],[127.14185,37.57606]]}},{"type":"Feature","properties":{"class":"major","highway":"motorway","sidewalk":"likely","lanes":3,"name":"세종포천고속도로","oneway":true},"geometry":{"type":"LineString","coordinates":[[127.14614,37.57354],[127.14822,37.57211],[127.14949,37.57117],[127.15056,37.57034],[127.15149,37.56964],[127.15296,37.5685]]}},{"type":"Feature","properties":{"class":"major","highway":"motorway","sidewalk":"likely","lanes":3,"name":"세종포천고속도로","oneway":true},"geometry":{"type":"LineString","coordinates":[[127.15329,37.56847],[127.15294,37.56877],[127.15246,37.56914],[127.15155,37.56981],[127.15097,37.57023],[127.14825,37.57225],[127.14724,37.573],[127.14666,37.57342],[127.14626,37.5737]]}},{"type":"Feature","properties":{"class":"major","highway":"motorway_link","sidewalk":"likely","lanes":0,"name":"","oneway":true},"geometry":{"type":"LineString","coordinates":[[127.1397,37.57665],[127.14017,37.5766],[127.14036,37.57659],[127.14061,37.57656]]}},{"type":"Feature","properties":{"class":"major","highway":"motorway_link","sidewalk":"likely","lanes":0,"name":"","oneway":true},"geometry":{"type":"LineString","coordinates":[[127.14795,37.57675],[127.14824,37.57682],[127.14853,37.57689]]}},{"type":"Feature","properties":{"class":"major","highway":"motorway_link","sidewalk":"likely","lanes":1,"name":"","oneway":true},"geometry":{"type":"LineString","coordinates":[[127.15598,37.56547],[127.15598,37.56564],[127.15595,37.56575],[127.1559,37.56586],[127.15565,37.56621],[127.15545,37.56646],[127.15513,37.56676],[127.15502,37.56687],[127.15479,37.56706]]}},{"type":"Feature","properties":{"class":"major","highway":"motorway_link","sidewalk":"likely","lanes":0,"name":"","oneway":true},"geometry":{"type":"LineString","coordinates":[[127.1557,37.56497],[127.15585,37.56512],[127.15591,37.56525],[127.15598,37.56547]]}},{"type":"Feature","properties":{"class":"major","highway":"motorway","sidewalk":"likely","lanes":3,"name":"세종포천고속도로","oneway":true},"geometry":{"type":"LineString","coordinates":[[127.15457,37.56695],[127.15487,37.56667],[127.15503,37.56649],[127.15514,37.56634],[127.15537,37.56591],[127.15569,37.56529],[127.15591,37.56479]]}},{"type":"Feature","properties":{"class":"major","highway":"motorway","sidewalk":"likely","lanes":0,"name":"세종포천고속도로","oneway":true},"geometry":{"type":"LineString","coordinates":[[127.15619,37.5648],[127.15603,37.56509],[127.1556,37.56582],[127.15539,37.56619],[127.15523,37.56646],[127.15515,37.56656],[127.15499,37.56675],[127.1547,37.56701]]}},{"type":"Feature","properties":{"class":"minor","highway":"unclassified","sidewalk":"unknown","lanes":0,"name":"","oneway":false},"geometry":{"type":"LineString","coordinates":[[127.143,37.57715],[127.14279,37.57718],[127.14256,37.57724],[127.14216,37.57732],[127.14199,37.57737],[127.14182,37.57744],[127.14138,37.57768],[127.14116,37.57777],[127.14092,37.57781]]}},{"type":"Feature","properties":{"class":"minor","highway":"unclassified","sidewalk":"unknown","lanes":0,"name":"","oneway":false},"geometry":{"type":"LineString","coordinates":[[127.15891,37.57002],[127.15961,37.56977]]}},{"type":"Feature","properties":{"class":"alley","highway":"service","sidewalk":"unknown","lanes":0,"name":"","oneway":true},"geometry":{"type":"LineString","coordinates":[[127.15503,37.56251],[127.15494,37.56261],[127.15493,37.56269]]}},{"type":"Feature","properties":{"class":"alley","highway":"service","sidewalk":"unknown","lanes":0,"name":"","oneway":false},"geometry":{"type":"LineString","coordinates":[[127.15541,37.56285],[127.15599,37.56315],[127.15595,37.56351],[127.15571,37.56392]]}},{"type":"Feature","properties":{"class":"alley","highway":"service","sidewalk":"unknown","lanes":0,"name":"","oneway":false},"geometry":{"type":"LineString","coordinates":[[127.14204,37.56539],[127.14219,37.56489],[127.14201,37.56481],[127.14175,37.56487],[127.14095,37.56468],[127.14061,37.56492],[127.13982,37.56546],[127.13855,37.56634]]}},{"type":"Feature","properties":{"class":"alley","highway":"service","sidewalk":"unknown","lanes":0,"name":"","oneway":false},"geometry":{"type":"LineString","coordinates":[[127.14163,37.56677],[127.14171,37.56651]]}},{"type":"Feature","properties":{"class":"alley","highway":"service","sidewalk":"unknown","lanes":0,"name":"","oneway":false},"geometry":{"type":"LineString","coordinates":[[127.14348,37.56031],[127.14332,37.56013],[127.13966,37.56211],[127.13907,37.56227],[127.13892,37.56241],[127.13881,37.56256],[127.13879,37.56259],[127.13758,37.5634],[127.13758,37.56351],[127.13715,37.56381],[127.13699,37.56391],[127.13686,37.56403],[127.13675,37.56419],[127.1367,37.5643],[127.13668,37.5644],[127.13667,37.56449],[127.13672,37.56472],[127.13676,37.56496],[127.13681,37.56515],[127.13787,37.56611],[127.13798,37.56616],[127.13819,37.56619]]}},{"type":"Feature","properties":{"class":"alley","highway":"service","sidewalk":"unknown","lanes":0,"name":"","oneway":false},"geometry":{"type":"LineString","coordinates":[[127.13966,37.56211],[127.14123,37.56389],[127.14187,37.56461],[127.14197,37.56472],[127.14201,37.56481]]}},{"type":"Feature","properties":{"class":"alley","highway":"service","sidewalk":"unknown","lanes":0,"name":"","oneway":false},"geometry":{"type":"LineString","coordinates":[[127.14187,37.56461],[127.14195,37.56442],[127.14216,37.56428],[127.14528,37.56253],[127.14532,37.56248],[127.14531,37.56244],[127.14484,37.56191]]}},{"type":"Feature","properties":{"class":"alley","highway":"service","sidewalk":"unknown","lanes":0,"name":"","oneway":false},"geometry":{"type":"LineString","coordinates":[[127.14166,37.56129],[127.14304,37.5629]]}},{"type":"Feature","properties":{"class":"alley","highway":"service","sidewalk":"unknown","lanes":0,"name":"","oneway":false},"geometry":{"type":"LineString","coordinates":[[127.14061,37.56492],[127.13986,37.56425]]}},{"type":"Feature","properties":{"class":"alley","highway":"service","sidewalk":"unknown","lanes":0,"name":"","oneway":false},"geometry":{"type":"LineString","coordinates":[[127.14095,37.56468],[127.14097,37.56457],[127.14015,37.56381],[127.13881,37.56256]]}},{"type":"Feature","properties":{"class":"alley","highway":"service","sidewalk":"unknown","lanes":0,"name":"","oneway":false},"geometry":{"type":"LineString","coordinates":[[127.14015,37.56381],[127.13894,37.56465]]}},{"type":"Feature","properties":{"class":"major","highway":"tertiary","sidewalk":"likely","lanes":0,"name":"벌말로","oneway":false},"geometry":{"type":"LineString","coordinates":[[127.14544,37.57687],[127.14543,37.57672]]}},{"type":"Feature","properties":{"class":"major","highway":"trunk","sidewalk":"likely","lanes":4,"name":"","oneway":true},"geometry":{"type":"LineString","coordinates":[[127.1509,37.57715],[127.15148,37.57725],[127.15207,37.57736],[127.15245,37.57747]]}},{"type":"Feature","properties":{"class":"major","highway":"trunk","sidewalk":"likely","lanes":3,"name":"강변북로","oneway":true},"geometry":{"type":"LineString","coordinates":[[127.15212,37.57751],[127.15178,37.57743],[127.15141,37.57735],[127.15065,37.57724],[127.14989,37.57716],[127.14908,37.57708],[127.14827,37.577]]}},{"type":"Feature","properties":{"class":"minor","highway":"unclassified","sidewalk":"unknown","lanes":0,"name":"","oneway":true},"geometry":{"type":"LineString","coordinates":[[127.15364,37.57808],[127.15372,37.57799]]}},{"type":"Feature","properties":{"class":"major","highway":"trunk","sidewalk":"likely","lanes":3,"name":"","oneway":true},"geometry":{"type":"LineString","coordinates":[[127.15372,37.57799],[127.1539,37.57808],[127.15467,37.57846],[127.15506,37.57866],[127.15598,37.57912],[127.15708,37.57967],[127.15738,37.57983]]}},{"type":"Feature","properties":{"class":"minor","highway":"residential","sidewalk":"unknown","lanes":0,"name":"고덕비즈밸리로1길","oneway":false},"geometry":{"type":"LineString","coordinates":[[127.16032,37.56459],[127.16013,37.56453],[127.16011,37.56452],[127.15998,37.56449],[127.15982,37.56449],[127.15829,37.56449],[127.15819,37.56449],[127.15805,37.56449],[127.15717,37.56448],[127.15697,37.56448]]}},{"type":"Feature","properties":{"class":"minor","highway":"residential","sidewalk":"unknown","lanes":0,"name":"고덕비즈밸리로3길","oneway":false},"geometry":{"type":"LineString","coordinates":[[127.15677,37.56539],[127.15696,37.56548],[127.15885,37.56632],[127.159,37.56638]]}},{"type":"Feature","properties":{"class":"alley","highway":"service","sidewalk":"unknown","lanes":0,"name":"","oneway":true},"geometry":{"type":"LineString","coordinates":[[127.15493,37.56269],[127.1547,37.56256],[127.15435,37.56239]]}},{"type":"Feature","properties":{"class":"alley","highway":"service","sidewalk":"unknown","lanes":0,"name":"","oneway":false},"geometry":{"type":"LineString","coordinates":[[127.15493,37.56269],[127.15499,37.56271],[127.15501,37.56272],[127.15541,37.56285]]}},{"type":"Feature","properties":{"class":"major","highway":"secondary","sidewalk":"likely","lanes":0,"name":"아리수로","oneway":false},"geometry":{"type":"LineString","coordinates":[[127.15503,37.56251],[127.156,37.56281],[127.15643,37.56295],[127.15668,37.56302],[127.15694,37.56305],[127.15718,37.56307],[127.15729,37.56308],[127.15745,37.56309],[127.15829,37.56311],[127.15847,37.5631],[127.1595,37.56307],[127.15988,37.56306],[127.16092,37.56299],[127.16161,37.56292],[127.16227,37.56284],[127.16241,37.56283],[127.16259,37.56281],[127.16431,37.56268],[127.16602,37.56256],[127.16629,37.56254],[127.16755,37.56245]]}},{"type":"Feature","properties":{"class":"major","highway":"secondary","sidewalk":"likely","lanes":0,"name":"아리수로","oneway":false},"geometry":{"type":"LineString","coordinates":[[127.1549,37.56246],[127.15503,37.56251]]}},{"type":"Feature","properties":{"class":"major","highway":"secondary","sidewalk":"likely","lanes":0,"name":"아리수로","oneway":false},"geometry":{"type":"LineString","coordinates":[[127.15435,37.56239],[127.15463,37.56243],[127.15474,37.56244],[127.1549,37.56246]]}},{"type":"Feature","properties":{"class":"major","highway":"motorway_link","sidewalk":"likely","lanes":0,"name":"","oneway":true},"geometry":{"type":"LineString","coordinates":[[127.15627,37.56486],[127.15613,37.56537],[127.15613,37.56579],[127.15603,37.56606],[127.1559,37.56626],[127.15578,37.56639],[127.15564,37.56648],[127.15553,37.56653]]}},{"type":"Feature","properties":{"class":"major","highway":"motorway_link","sidewalk":"likely","lanes":0,"name":"","oneway":true},"geometry":{"type":"LineString","coordinates":[[127.15553,37.56653],[127.15535,37.56657],[127.15519,37.56658],[127.15503,37.56658],[127.15487,37.56654]]}},{"type":"Feature","properties":{"class":"alley","highway":"service","sidewalk":"unknown","lanes":0,"name":"","oneway":true},"geometry":{"type":"LineString","coordinates":[[127.14557,37.5775],[127.14606,37.57746],[127.14615,37.57775],[127.14567,37.57802]]}},{"type":"Feature","properties":{"class":"major","highway":"tertiary","sidewalk":"likely","lanes":0,"name":"벌말로","oneway":false},"geometry":{"type":"LineString","coordinates":[[127.14557,37.5775],[127.14567,37.57802]]}},{"type":"Feature","properties":{"class":"major","highway":"tertiary","sidewalk":"likely","lanes":0,"name":"벌말로","oneway":false},"geometry":{"type":"LineString","coordinates":[[127.14567,37.57802],[127.14594,37.57929],[127.14615,37.58032],[127.14659,37.58262],[127.14666,37.58291],[127.1469,37.584],[127.14694,37.58417],[127.14701,37.58449],[127.14719,37.58482],[127.14741,37.58527],[127.14782,37.58611],[127.14793,37.58636]]}},{"type":"Feature","properties":{"class":"major","highway":"tertiary","sidewalk":"likely","lanes":0,"name":"코스모스길213번길","oneway":false},"geometry":{"type":"LineString","coordinates":[[127.15343,37.57898],[127.15353,37.57951],[127.15356,37.5798],[127.15359,37.58002]]}},{"type":"Feature","properties":{"class":"alley","highway":"service","sidewalk":"unknown","lanes":0,"name":"","oneway":false},"geometry":{"type":"LineString","coordinates":[[127.14171,37.56651],[127.14204,37.56539]]}},{"type":"Feature","properties":{"class":"major","highway":"motorway_link","sidewalk":"likely","lanes":0,"name":"","oneway":true},"geometry":{"type":"LineString","coordinates":[[127.14854,37.56666],[127.14792,37.56661],[127.14775,37.56661],[127.14711,37.5666],[127.14565,37.5666]]}},{"type":"Feature","properties":{"class":"major","highway":"motorway_link","sidewalk":"likely","lanes":0,"name":"","oneway":true},"geometry":{"type":"LineString","coordinates":[[127.14997,37.56611],[127.14959,37.56643],[127.14944,37.56652],[127.14935,37.56657],[127.14917,37.56663],[127.14897,37.56667],[127.14878,37.56668],[127.14854,37.56666]]}},{"type":"Feature","properties":{"class":"major","highway":"motorway_link","sidewalk":"likely","lanes":0,"name":"","oneway":true},"geometry":{"type":"LineString","coordinates":[[127.15004,37.56621],[127.14998,37.56623],[127.14959,37.56643]]}},{"type":"Feature","properties":{"class":"major","highway":"motorway_link","sidewalk":"likely","lanes":0,"name":"","oneway":true},"geometry":{"type":"LineString","coordinates":[[127.15296,37.5685],[127.15352,37.56776],[127.15365,37.56753],[127.15375,37.56727],[127.15385,37.56694]]}},{"type":"Feature","properties":{"class":"major","highway":"motorway","sidewalk":"likely","lanes":3,"name":"세종포천고속도로","oneway":true},"geometry":{"type":"LineString","coordinates":[[127.15296,37.5685],[127.15308,37.5684],[127.15333,37.56818],[127.15359,37.56794],[127.15389,37.56764],[127.15457,37.56695]]}},{"type":"Feature","properties":{"class":"major","highway":"motorway","sidewalk":"likely","lanes":0,"name":"세종포천고속도로","oneway":true},"geometry":{"type":"LineString","coordinates":[[127.1547,37.56701],[127.15431,37.56743],[127.15392,37.56788],[127.15366,37.56815],[127.15329,37.56847]]}},{"type":"Feature","properties":{"class":"major","highway":"motorway_link","sidewalk":"likely","lanes":1,"name":"","oneway":true},"geometry":{"type":"LineString","coordinates":[[127.15479,37.56706],[127.15431,37.56743]]}},{"type":"Feature","properties":{"class":"major","highway":"motorway_link","sidewalk":"likely","lanes":0,"name":"","oneway":true},"geometry":{"type":"LineString","coordinates":[[127.15588,37.5687],[127.15555,37.56852],[127.15529,37.56837],[127.15453,37.56798]]}},{"type":"Feature","properties":{"class":"major","highway":"motorway_link","sidewalk":"likely","lanes":0,"name":"","oneway":true},"geometry":{"type":"LineString","coordinates":[[127.15799,37.57028],[127.15692,37.56984]]}},{"type":"Feature","properties":{"class":"major","highway":"motorway_link","sidewalk":"likely","lanes":0,"name":"","oneway":true},"geometry":{"type":"LineString","coordinates":[[127.15862,37.57047],[127.15799,37.57028]]}},{"type":"Feature","properties":{"class":"minor","highway":"unclassified","sidewalk":"unknown","lanes":0,"name":"코스모스길96번길","oneway":false},"geometry":{"type":"LineString","coordinates":[[127.13795,37.57736],[127.13783,37.57758],[127.1378,37.57768],[127.13783,37.57781],[127.13794,37.57794],[127.13813,37.578],[127.1383,37.57801],[127.1385,37.57796],[127.13877,37.57787],[127.13894,37.5778],[127.13952,37.57743],[127.1397,37.57729],[127.13985,37.57723],[127.13993,37.57721],[127.14013,37.57723],[127.14037,37.57731],[127.14064,37.57738],[127.14077,37.5775],[127.14083,37.57756],[127.14087,37.57762],[127.14089,37.5777],[127.14092,37.57781]]}},{"type":"Feature","properties":{"class":"major","highway":"motorway_link","sidewalk":"likely","lanes":0,"name":"","oneway":true},"geometry":{"type":"LineString","coordinates":[[127.14795,37.57675],[127.14851,37.57677],[127.14911,37.57681],[127.15054,37.57692]]}},{"type":"Feature","properties":{"class":"major","highway":"motorway_link","sidewalk":"likely","lanes":0,"name":"","oneway":true},"geometry":{"type":"LineString","coordinates":[[127.15054,37.57692],[127.15078,37.57697],[127.15096,37.57703],[127.15109,37.5771],[127.15119,37.57718],[127.15127,37.57727],[127.15135,37.57738],[127.15139,37.57751],[127.15141,37.57763],[127.15141,37.57778]]}},{"type":"Feature","properties":{"class":"major","highway":"motorway_link","sidewalk":"likely","lanes":0,"name":"","oneway":true},"geometry":{"type":"LineString","coordinates":[[127.14889,37.57721],[127.1487,37.57714],[127.14827,37.577]]}},{"type":"Feature","properties":{"class":"minor","highway":"residential","sidewalk":"unknown","lanes":0,"name":"고덕비즈밸리로5길","oneway":false},"geometry":{"type":"LineString","coordinates":[[127.15705,37.56745],[127.15778,37.56778],[127.15795,37.56785]]}},{"type":"Feature","properties":{"class":"major","highway":"secondary","sidewalk":"likely","lanes":0,"name":"동남로","oneway":false},"geometry":{"type":"LineString","coordinates":[[127.15694,37.56305],[127.15693,37.56296],[127.15693,37.56289],[127.15688,37.56069],[127.15688,37.56054]]}},{"type":"Feature","properties":{"class":"major","highway":"trunk_link","sidewalk":"likely","lanes":0,"name":"","oneway":true},"geometry":{"type":"LineString","coordinates":[[127.15657,37.56972],[127.15653,37.56977],[127.15649,37.56978],[127.15643,37.56977],[127.1564,37.56975],[127.15581,37.56936],[127.155,37.56886]]}},{"type":"Feature","properties":{"class":"minor","highway":"unclassified","sidewalk":"unknown","lanes":0,"name":"","oneway":false},"geometry":{"type":"LineString","coordinates":[[127.15687,37.56931],[127.15686,37.56925],[127.15667,37.56911],[127.15724,37.5686],[127.15791,37.56796],[127.15793,37.56793],[127.15795,37.56785]]}},{"type":"Feature","properties":{"class":"major","highway":"trunk_link","sidewalk":"likely","lanes":0,"name":"","oneway":true},"geometry":{"type":"LineString","coordinates":[[127.15687,37.56931],[127.15671,37.56952]]}},{"type":"Feature","properties":{"class":"major","highway":"trunk_link","sidewalk":"likely","lanes":0,"name":"","oneway":true},"geometry":{"type":"LineString","coordinates":[[127.15671,37.56952],[127.15657,37.56972]]}},{"type":"Feature","properties":{"class":"major","highway":"trunk","sidewalk":"likely","lanes":4,"name":"올림픽대로","oneway":true},"geometry":{"type":"LineString","coordinates":[[127.16337,37.57254],[127.16237,37.57212],[127.16121,37.57165],[127.16059,37.57138],[127.15862,37.57047]]}},{"type":"Feature","properties":{"class":"major","highway":"trunk","sidewalk":"likely","lanes":4,"name":"올림픽대로","oneway":true},"geometry":{"type":"LineString","coordinates":[[127.15809,37.5702],[127.155,37.56886],[127.15244,37.56768],[127.1513,37.56718],[127.15062,37.56693],[127.14992,37.56673],[127.14915,37.56656],[127.14878,37.56651],[127.14834,37.56649],[127.14752,37.56644],[127.14676,37.56647],[127.14565,37.5666],[127.13984,37.56704],[127.13924,37.56706],[127.13885,37.56706]]}},{"type":"Feature","properties":{"class":"major","highway":"motorway","sidewalk":"likely","lanes":2,"name":"세종포천고속도로","oneway":true},"geometry":{"type":"LineString","coordinates":[[127.14034,37.5775],[127.14081,37.57726],[127.14126,37.57701],[127.14226,37.5764],[127.14299,37.57585],[127.14402,37.57508],[127.14459,37.57463],[127.14481,37.57446]]}},{"type":"Feature","properties":{"class":"major","highway":"motorway","sidewalk":"likely","lanes":2,"name":"세종포천고속도로","oneway":true},"geometry":{"type":"LineString","coordinates":[[127.1446,37.57484],[127.14425,37.57511],[127.14375,37.57548],[127.14354,37.57562],[127.14309,37.57594],[127.1425,37.57637],[127.14168,37.57688],[127.1412,37.57717],[127.14086,37.57735],[127.14039,37.57757]]}},{"type":"Feature","properties":{"class":"minor","highway":"residential","sidewalk":"unknown","lanes":0,"name":"","oneway":false},"geometry":{"type":"LineString","coordinates":[[127.15724,37.5686],[127.1573,37.5686],[127.1574,37.56863],[127.15753,37.56866],[127.15762,37.56871],[127.15773,37.5688],[127.15781,37.5689],[127.15789,37.569],[127.15794,37.56907],[127.15799,37.56914],[127.15809,37.56921],[127.15812,37.56924],[127.15813,37.56928],[127.15813,37.56933],[127.15815,37.56937],[127.15816,37.5694],[127.15819,37.56942],[127.15824,37.56944],[127.15831,37.56946],[127.15839,37.56946],[127.15846,37.56947],[127.15855,37.56949],[127.15862,37.56951],[127.15869,37.56954],[127.15876,37.56959]]}},{"type":"Feature","properties":{"class":"minor","highway":"residential","sidewalk":"unknown","lanes":0,"name":"","oneway":false},"geometry":{"type":"LineString","coordinates":[[127.15813,37.56928],[127.15819,37.5693],[127.15825,37.56932],[127.15828,37.56933],[127.15832,37.56936],[127.15834,37.56939],[127.15837,37.56943],[127.15839,37.56946]]}},{"type":"Feature","properties":{"class":"alley","highway":"service","sidewalk":"unknown","lanes":0,"name":"코스모스길215번길","oneway":true},"geometry":{"type":"LineString","coordinates":[[127.1544,37.57893],[127.15446,37.57868],[127.15446,37.57866],[127.15444,37.57864],[127.15442,37.57863],[127.1541,37.57847],[127.15406,37.57846],[127.15402,37.57845],[127.15389,37.57842],[127.15387,37.57842],[127.15385,37.5784],[127.15378,37.57834]]}},{"type":"Feature","properties":{"class":"alley","highway":"service","sidewalk":"unknown","lanes":0,"name":"","oneway":false},"geometry":{"type":"LineString","coordinates":[[127.15388,37.57892],[127.15388,37.57884],[127.15388,37.57882],[127.15389,37.57881],[127.15391,37.57881],[127.15416,37.57882]]}},{"type":"Feature","properties":{"class":"alley","highway":"service","sidewalk":"unknown","lanes":0,"name":"코스모스길215번길","oneway":false},"geometry":{"type":"LineString","coordinates":[[127.15406,37.57892],[127.15406,37.57903],[127.15407,37.57906],[127.15412,37.57924],[127.15413,37.57926],[127.15415,37.57927],[127.15418,37.57928],[127.15424,37.57929],[127.15428,37.57929],[127.15454,37.57933]]}},{"type":"Feature","properties":{"class":"alley","highway":"service","sidewalk":"unknown","lanes":0,"name":"코스모스길215번길","oneway":false},"geometry":{"type":"LineString","coordinates":[[127.15454,37.57933],[127.15504,37.57944],[127.15506,37.57944],[127.15507,37.57943],[127.15508,37.57942],[127.15508,37.5794],[127.15509,37.57939],[127.15517,37.57909],[127.15517,37.57906],[127.15517,37.57904],[127.15515,37.57902],[127.15514,37.57901],[127.15512,37.579],[127.15491,37.57897]]}},{"type":"Feature","properties":{"class":"alley","highway":"service","sidewalk":"unknown","lanes":0,"name":"코스모스길215번길","oneway":false},"geometry":{"type":"LineString","coordinates":[[127.15509,37.57939],[127.15534,37.57942],[127.15535,37.57943],[127.15536,37.57944],[127.15537,37.57946]]}},{"type":"Feature","properties":{"class":"alley","highway":"service","sidewalk":"unknown","lanes":0,"name":"","oneway":false},"geometry":{"type":"LineString","coordinates":[[127.15297,37.57888],[127.15292,37.57912]]}},{"type":"Feature","properties":{"class":"alley","highway":"service","sidewalk":"unknown","lanes":0,"name":"코스모스길213번길","oneway":false},"geometry":{"type":"LineString","coordinates":[[127.15353,37.57951],[127.15367,37.57948],[127.15409,37.57955]]}},{"type":"Feature","properties":{"class":"alley","highway":"service","sidewalk":"unknown","lanes":0,"name":"코스모스길213번길","oneway":false},"geometry":{"type":"LineString","coordinates":[[127.15367,37.57948],[127.15372,37.57939],[127.15374,37.57937],[127.15375,37.57935],[127.15377,37.57935],[127.15379,37.57934],[127.15403,37.57936]]}},{"type":"Feature","properties":{"class":"minor","highway":"residential","sidewalk":"unknown","lanes":0,"name":"코스모스길213번길","oneway":false},"geometry":{"type":"LineString","coordinates":[[127.15356,37.5798],[127.15382,37.57983],[127.1539,37.57985],[127.15394,37.57987],[127.15396,37.57988],[127.15403,37.57993]]}},{"type":"Feature","properties":{"class":"alley","highway":"service","sidewalk":"unknown","lanes":0,"name":"","oneway":false},"geometry":{"type":"LineString","coordinates":[[127.15403,37.57993],[127.15426,37.57996]]}},{"type":"Feature","properties":{"class":"minor","highway":"residential","sidewalk":"unknown","lanes":0,"name":"코스모스길215번길","oneway":false},"geometry":{"type":"LineString","coordinates":[[127.15441,37.57953],[127.15448,37.57959],[127.1545,37.5796],[127.15451,37.57962],[127.15452,37.57964],[127.15455,37.57987],[127.15456,37.5799],[127.15456,37.57995],[127.15457,37.57999],[127.15458,37.58001],[127.15459,37.58006]]}},{"type":"Feature","properties":{"class":"alley","highway":"service","sidewalk":"unknown","lanes":0,"name":"","oneway":false},"geometry":{"type":"LineString","coordinates":[[127.155,37.57968],[127.15532,37.57971]]}},{"type":"Feature","properties":{"class":"alley","highway":"service","sidewalk":"unknown","lanes":0,"name":"","oneway":false},"geometry":{"type":"LineString","coordinates":[[127.15484,37.58007],[127.15489,37.57985]]}},{"type":"Feature","properties":{"class":"alley","highway":"service","sidewalk":"unknown","lanes":0,"name":"벌말로80번길","oneway":false},"geometry":{"type":"LineString","coordinates":[[127.15227,37.57975],[127.15277,37.58004]]}},{"type":"Feature","properties":{"class":"alley","highway":"service","sidewalk":"unknown","lanes":0,"name":"벌말로80번길","oneway":false},"geometry":{"type":"LineString","coordinates":[[127.15253,37.57942],[127.15296,37.57965],[127.15297,37.57966],[127.15298,37.57967],[127.15307,37.57978]]}},{"type":"Feature","properties":{"class":"minor","highway":"unclassified","sidewalk":"unknown","lanes":0,"name":"코스모스길215번길","oneway":false},"geometry":{"type":"LineString","coordinates":[[127.15176,37.57864],[127.15186,37.57872],[127.15201,37.57876],[127.15241,37.57884],[127.15263,37.57887],[127.15278,37.57889],[127.15297,37.57888],[127.15304,37.57889],[127.15323,37.57891],[127.15343,37.57898]]}},{"type":"Feature","properties":{"class":"minor","highway":"unclassified","sidewalk":"unknown","lanes":0,"name":"코스모스길","oneway":false},"geometry":{"type":"LineString","coordinates":[[127.15201,37.57876],[127.15197,37.57884],[127.15195,37.57886],[127.15193,37.57888],[127.15163,37.57916],[127.15145,37.57936],[127.15127,37.57953],[127.15114,37.57961],[127.15105,37.57965],[127.15092,37.57967],[127.15064,37.5797],[127.15057,37.57969],[127.1505,37.57968],[127.15041,37.57964],[127.15035,37.57962],[127.15031,37.5796],[127.14995,37.5795],[127.1499,37.57948],[127.14983,37.57945],[127.14952,37.57926],[127.14949,37.57924],[127.14945,37.57923],[127.14941,37.57924],[127.14919,37.57935],[127.14914,37.57936],[127.14908,37.57936],[127.14902,37.57935],[127.14896,37.57933],[127.14878,37.57925],[127.14872,37.57922],[127.14864,37.5792],[127.1486,37.57919],[127.14828,37.57918],[127.14823,37.57917],[127.1481,37.57915],[127.14804,37.57913],[127.14798,37.57911],[127.14787,37.57906]]}},{"type":"Feature","properties":{"class":"minor","highway":"unclassified","sidewalk":"unknown","lanes":0,"name":"코스모스길","oneway":false},"geometry":{"type":"LineString","coordinates":[[127.14787,37.57906],[127.14783,37.579],[127.14779,37.57898],[127.14774,37.57896],[127.14759,37.57893],[127.14753,37.57893],[127.14748,37.57894],[127.14696,37.57916]]}},{"type":"Feature","properties":{"class":"minor","highway":"unclassified","sidewalk":"unknown","lanes":0,"name":"코스모스길","oneway":false},"geometry":{"type":"LineString","coordinates":[[127.14787,37.57906],[127.14779,37.57917],[127.14777,37.57918],[127.14764,37.57922],[127.1476,37.57923],[127.14756,37.57923],[127.14696,37.57925],[127.1469,37.57926],[127.14684,37.57926],[127.1468,37.57927],[127.14676,37.57927],[127.14649,37.57922]]}},{"type":"Feature","properties":{"class":"alley","highway":"service","sidewalk":"unknown","lanes":0,"name":"코스모스길","oneway":false},"geometry":{"type":"LineString","coordinates":[[127.14866,37.57964],[127.14868,37.57958],[127.14868,37.57957],[127.14868,37.57955],[127.14867,37.57953],[127.14859,37.57946],[127.14828,37.57918]]}},{"type":"Feature","properties":{"class":"major","highway":"motorway","sidewalk":"likely","lanes":2,"name":"세종포천고속도로","oneway":true},"geometry":{"type":"LineString","coordinates":[[127.14626,37.5737],[127.14534,37.57429],[127.14482,37.57467],[127.1446,37.57484]]}},{"type":"Feature","properties":{"class":"major","highway":"motorway","sidewalk":"likely","lanes":2,"name":"세종포천고속도로","oneway":true},"geometry":{"type":"LineString","coordinates":[[127.14481,37.57446],[127.14614,37.57354]]}},{"type":"Feature","properties":{"class":"major","highway":"motorway_link","sidewalk":"likely","lanes":1,"name":"","oneway":true},"geometry":{"type":"LineString","coordinates":[[127.14475,37.57446],[127.14614,37.57354]]}},{"type":"Feature","properties":{"class":"major","highway":"motorway_link","sidewalk":"likely","lanes":1,"name":"","oneway":true},"geometry":{"type":"LineString","coordinates":[[127.14626,37.5737],[127.14535,37.57455],[127.14518,37.57474],[127.14517,37.57476]]}},{"type":"Feature","properties":{"class":"major","highway":"motorway","sidewalk":"likely","lanes":2,"name":"세종포천고속도로","oneway":true},"geometry":{"type":"LineString","coordinates":[[127.13998,37.57765],[127.14034,37.5775]]}},{"type":"Feature","properties":{"class":"major","highway":"motorway","sidewalk":"likely","lanes":2,"name":"세종포천고속도로","oneway":true},"geometry":{"type":"LineString","coordinates":[[127.14039,37.57757],[127.13999,37.57775]]}},{"type":"Feature","properties":{"class":"alley","highway":"service","sidewalk":"unknown","lanes":0,"name":"","oneway":false},"geometry":{"type":"LineString","coordinates":[[127.14646,37.57642],[127.14596,37.57639],[127.14457,37.57648],[127.14269,37.57645],[127.14199,37.57659],[127.14118,37.57666],[127.14075,37.57674]]}},{"type":"Feature","properties":{"class":"alley","highway":"service","sidewalk":"unknown","lanes":0,"name":"","oneway":true},"geometry":{"type":"LineString","coordinates":[[127.14819,37.57664],[127.14854,37.5767],[127.14911,37.57681]]}},{"type":"Feature","properties":{"class":"alley","highway":"service","sidewalk":"unknown","lanes":0,"name":"","oneway":true},"geometry":{"type":"LineString","coordinates":[[127.14819,37.57664],[127.14865,37.57664],[127.1503,37.57678],[127.15046,37.57681],[127.15059,37.57685],[127.15071,37.57694],[127.15079,37.57703],[127.1509,37.57715]]}},{"type":"Feature","properties":{"class":"alley","highway":"service","sidewalk":"unknown","lanes":0,"name":"","oneway":false},"geometry":{"type":"LineString","coordinates":[[127.14819,37.57664],[127.14763,37.57661],[127.14646,37.57642]]}},{"type":"Feature","properties":{"class":"major","highway":"motorway_link","sidewalk":"likely","lanes":0,"name":"","oneway":true},"geometry":{"type":"LineString","coordinates":[[127.1565,37.56413],[127.15627,37.56486]]}},{"type":"Feature","properties":{"class":"alley","highway":"service","sidewalk":"unknown","lanes":0,"name":"","oneway":false},"geometry":{"type":"LineString","coordinates":[[127.15509,37.56732],[127.1549,37.5673],[127.15488,37.56729],[127.15409,37.5672],[127.15376,37.56714],[127.15363,37.56704],[127.15355,37.56685],[127.15342,37.56678]]}},{"type":"Feature","properties":{"class":"alley","highway":"service","sidewalk":"unknown","lanes":0,"name":"","oneway":true},"geometry":{"type":"LineString","coordinates":[[127.14999,37.56536],[127.14986,37.5653],[127.14972,37.56529],[127.14956,37.5654],[127.14955,37.56537],[127.14955,37.5653],[127.14951,37.56525],[127.14943,37.5652],[127.14926,37.56518]]}},{"type":"Feature","properties":{"class":"alley","highway":"service","sidewalk":"unknown","lanes":0,"name":"","oneway":false},"geometry":{"type":"LineString","coordinates":[[127.14956,37.5654],[127.14943,37.56562]]}},{"type":"Feature","properties":{"class":"alley","highway":"service","sidewalk":"unknown","lanes":0,"name":"","oneway":false},"geometry":{"type":"LineString","coordinates":[[127.14698,37.56553],[127.14714,37.56575],[127.14728,37.56582],[127.14748,37.5658],[127.14761,37.56569],[127.14782,37.56565],[127.14789,37.56566],[127.14795,37.56568],[127.14808,37.56568],[127.1484,37.56561]]}},{"type":"Feature","properties":{"class":"major","highway":"motorway_link","sidewalk":"likely","lanes":0,"name":"","oneway":true},"geometry":{"type":"LineString","coordinates":[[127.1485,37.56589],[127.14852,37.56575],[127.14851,37.56568],[127.14848,37.56565],[127.1484,37.56561]]}},{"type":"Feature","properties":{"class":"alley","highway":"service","sidewalk":"unknown","lanes":0,"name":"","oneway":true},"geometry":{"type":"LineString","coordinates":[[127.15029,37.56569],[127.15038,37.56548],[127.15038,37.56542],[127.15034,37.56536],[127.15023,37.56527],[127.15007,37.56519],[127.14991,37.56513],[127.14975,37.56507],[127.14956,37.56504],[127.14938,37.56504],[127.14921,37.56504],[127.14904,37.56507],[127.14889,37.5651],[127.14878,37.56514],[127.1487,37.56519],[127.1486,37.5653],[127.1485,37.56544],[127.1484,37.56561]]}},{"type":"Feature","properties":{"class":"major","highway":"motorway_link","sidewalk":"likely","lanes":0,"name":"","oneway":true},"geometry":{"type":"LineString","coordinates":[[127.1484,37.56561],[127.14854,37.56552],[127.14869,37.56542]]}},{"type":"Feature","properties":{"class":"alley","highway":"service","sidewalk":"unknown","lanes":0,"name":"","oneway":false},"geometry":{"type":"LineString","coordinates":[[127.15383,37.56502],[127.15382,37.56519]]}},{"type":"Feature","properties":{"class":"major","highway":"trunk","sidewalk":"likely","lanes":4,"name":"강변북로","oneway":true},"geometry":{"type":"LineString","coordinates":[[127.15792,37.58023],[127.1569,37.57974]]}},{"type":"Feature","properties":{"class":"major","highway":"trunk","sidewalk":"likely","lanes":4,"name":"","oneway":true},"geometry":{"type":"LineString","coordinates":[[127.15738,37.57983],[127.15806,37.58017],[127.15905,37.58065]]}},{"type":"Feature","properties":{"class":"major","highway":"trunk","sidewalk":"likely","lanes":3,"name":"강변북로","oneway":true},"geometry":{"type":"LineString","coordinates":[[127.1569,37.57974],[127.15589,37.57921],[127.1553,37.57892]]}},{"type":"Feature","properties":{"class":"major","highway":"trunk","sidewalk":"likely","lanes":3,"name":"강변북로","oneway":true},"geometry":{"type":"LineString","coordinates":[[127.15414,37.57834],[127.15381,37.57817],[127.15373,37.57813],[127.15364,37.57808]]}},{"type":"Feature","properties":{"class":"major","highway":"trunk","sidewalk":"likely","lanes":3,"name":"강변북로","oneway":true},"geometry":{"type":"LineString","coordinates":[[127.15364,37.57808],[127.1535,37.57802],[127.15345,37.578],[127.153,37.57781],[127.1527,37.57769]]}},{"type":"Feature","properties":{"class":"major","highway":"trunk","sidewalk":"likely","lanes":3,"name":"강변북로","oneway":true},"geometry":{"type":"LineString","coordinates":[[127.1527,37.57769],[127.15242,37.5776],[127.15212,37.57751]]}},{"type":"Feature","properties":{"class":"major","highway":"trunk","sidewalk":"likely","lanes":4,"name":"강변북로","oneway":true},"geometry":{"type":"LineString","coordinates":[[127.14827,37.577],[127.14761,37.57694],[127.14685,37.57688],[127.14592,37.57687]]}},{"type":"Feature","properties":{"class":"major","highway":"trunk","sidewalk":"likely","lanes":3,"name":"강변북로","oneway":true},"geometry":{"type":"LineString","coordinates":[[127.14592,37.57687],[127.14561,37.57687],[127.14544,37.57687]]}},{"type":"Feature","properties":{"class":"major","highway":"trunk","sidewalk":"likely","lanes":3,"name":"강변북로","oneway":true},"geometry":{"type":"LineString","coordinates":[[127.14544,37.57687],[127.14493,37.57689]]}},{"type":"Feature","properties":{"class":"major","highway":"trunk","sidewalk":"likely","lanes":3,"name":"","oneway":true},"geometry":{"type":"LineString","coordinates":[[127.14543,37.57672],[127.14586,37.5767]]}},{"type":"Feature","properties":{"class":"major","highway":"trunk","sidewalk":"likely","lanes":4,"name":"","oneway":true},"geometry":{"type":"LineString","coordinates":[[127.14586,37.5767],[127.14654,37.57673],[127.14693,37.57676]]}},{"type":"Feature","properties":{"class":"major","highway":"motorway_link","sidewalk":"likely","lanes":1,"name":"","oneway":true},"geometry":{"type":"LineString","coordinates":[[127.14714,37.57666],[127.14795,37.57675]]}},{"type":"Feature","properties":{"class":"major","highway":"trunk","sidewalk":"likely","lanes":3,"name":"","oneway":true},"geometry":{"type":"LineString","coordinates":[[127.14693,37.57676],[127.1474,37.5768],[127.14825,37.57687],[127.14853,37.57689]]}},{"type":"Feature","properties":{"class":"major","highway":"trunk","sidewalk":"likely","lanes":4,"name":"","oneway":true},"geometry":{"type":"LineString","coordinates":[[127.14853,37.57689],[127.14982,37.57704]]}},{"type":"Feature","properties":{"class":"major","highway":"trunk","sidewalk":"likely","lanes":3,"name":"","oneway":true},"geometry":{"type":"LineString","coordinates":[[127.14982,37.57704],[127.1509,37.57715]]}},{"type":"Feature","properties":{"class":"major","highway":"trunk","sidewalk":"likely","lanes":3,"name":"","oneway":true},"geometry":{"type":"LineString","coordinates":[[127.15304,37.57769],[127.15347,37.57788],[127.15353,37.57791],[127.15372,37.57799]]}},{"type":"Feature","properties":{"class":"major","highway":"trunk","sidewalk":"likely","lanes":4,"name":"","oneway":true},"geometry":{"type":"LineString","coordinates":[[127.15245,37.57747],[127.15304,37.57769]]}},{"type":"Feature","properties":{"class":"alley","highway":"service","sidewalk":"unknown","lanes":0,"name":"","oneway":false},"geometry":{"type":"LineString","coordinates":[[127.15506,37.57866],[127.15546,37.57869],[127.15624,37.57895],[127.15721,37.57947],[127.15809,37.57979]]}},{"type":"Feature","properties":{"class":"alley","highway":"service","sidewalk":"unknown","lanes":0,"name":"","oneway":false},"geometry":{"type":"LineString","coordinates":[[127.15055,37.5778],[127.1507,37.57767],[127.15107,37.5776],[127.15131,37.5776],[127.15151,37.57764],[127.15166,37.57769],[127.15173,37.57776],[127.15176,37.57786],[127.15175,37.57795],[127.15165,37.57815],[127.15151,37.57828],[127.15124,37.57847],[127.15104,37.57862]]}},{"type":"Feature","properties":{"class":"alley","highway":"service","sidewalk":"unknown","lanes":0,"name":"","oneway":false},"geometry":{"type":"LineString","coordinates":[[127.15124,37.57847],[127.1514,37.57858]]}},{"type":"Feature","properties":{"class":"major","highway":"trunk","sidewalk":"likely","lanes":4,"name":"강변북로","oneway":true},"geometry":{"type":"LineString","coordinates":[[127.14493,37.57689],[127.14337,37.57691]]}},{"type":"Feature","properties":{"class":"major","highway":"trunk","sidewalk":"likely","lanes":0,"name":"강변북로","oneway":true},"geometry":{"type":"LineString","coordinates":[[127.14337,37.57691],[127.14159,37.57688],[127.14115,37.57688]]}},{"type":"Feature","properties":{"class":"major","highway":"trunk","sidewalk":"likely","lanes":4,"name":"강변북로","oneway":true},"geometry":{"type":"LineString","coordinates":[[127.14115,37.57688],[127.14051,37.57685],[127.13984,37.5768]]}},{"type":"Feature","properties":{"class":"major","highway":"trunk","sidewalk":"likely","lanes":4,"name":"강변북로","oneway":true},"geometry":{"type":"LineString","coordinates":[[127.1397,37.57665],[127.14037,37.57671],[127.14075,37.57674]]}},{"type":"Feature","properties":{"class":"major","highway":"trunk","sidewalk":"likely","lanes":3,"name":"강변북로","oneway":true},"geometry":{"type":"LineString","coordinates":[[127.14075,37.57674],[127.141,37.57676],[127.14148,37.57677],[127.14221,37.57676],[127.14303,37.57676]]}},{"type":"Feature","properties":{"class":"major","highway":"trunk_link","sidewalk":"likely","lanes":0,"name":"","oneway":true},"geometry":{"type":"LineString","coordinates":[[127.14732,37.5663],[127.14751,37.56617],[127.14764,37.56607]]}},{"type":"Feature","properties":{"class":"major","highway":"primary","sidewalk":"likely","lanes":0,"name":"양재대로","oneway":true},"geometry":{"type":"LineString","coordinates":[[127.14078,37.56103],[127.14073,37.56112],[127.13957,37.56176],[127.13913,37.56201],[127.1387,37.5623],[127.13818,37.56266],[127.13745,37.56321],[127.13706,37.56355],[127.13686,37.56372],[127.13646,37.56408],[127.1356,37.56493]]}},{"type":"Feature","properties":{"class":"major","highway":"primary","sidewalk":"likely","lanes":0,"name":"양재대로","oneway":false},"geometry":{"type":"LineString","coordinates":[[127.14078,37.56103],[127.14249,37.56011],[127.1428,37.55994],[127.14298,37.55982],[127.14321,37.55967],[127.14346,37.55947],[127.14371,37.55923],[127.14376,37.55917],[127.14391,37.55899],[127.14402,37.55887]]}},{"type":"Feature","properties":{"class":"major","highway":"motorway_link","sidewalk":"likely","lanes":0,"name":"","oneway":true},"geometry":{"type":"LineString","coordinates":[[127.15385,37.56694],[127.15377,37.56653],[127.15368,37.56634],[127.15357,37.56611],[127.15334,37.56564]]}},{"type":"Feature","properties":{"class":"major","highway":"trunk_link","sidewalk":"likely","lanes":0,"name":"","oneway":true},"geometry":{"type":"LineString","coordinates":[[127.15002,37.56659],[127.15048,37.56662],[127.1507,37.56666],[127.15087,37.56671],[127.15098,37.56676],[127.15115,37.56683],[127.15153,37.56712]]}},{"type":"Feature","properties":{"class":"minor","highway":"unclassified","sidewalk":"unknown","lanes":0,"name":"","oneway":false},"geometry":{"type":"LineString","coordinates":[[127.1514,37.56638],[127.15149,37.56633],[127.15158,37.56634],[127.15166,37.56638],[127.15193,37.56662],[127.15205,37.56669],[127.15227,37.56679],[127.15255,37.56688],[127.15257,37.56703]]}},{"type":"Feature","properties":{"class":"major","highway":"motorway_link","sidewalk":"likely","lanes":0,"name":"","oneway":true},"geometry":{"type":"LineString","coordinates":[[127.15154,37.56505],[127.15179,37.56496],[127.1519,37.56494],[127.15209,37.56492],[127.1528,37.56493],[127.15352,37.56495],[127.15383,37.56502]]}},{"type":"Feature","properties":{"class":"alley","highway":"service","sidewalk":"unknown","lanes":0,"name":"","oneway":false},"geometry":{"type":"LineString","coordinates":[[127.15627,37.56688],[127.15705,37.56725],[127.15708,37.56737]]}},{"type":"Feature","properties":{"class":"alley","highway":"service","sidewalk":"unknown","lanes":0,"name":"","oneway":true},"geometry":{"type":"LineString","coordinates":[[127.15664,37.56733],[127.15606,37.56707],[127.15602,37.56702],[127.15602,37.56697],[127.15604,37.5669],[127.15616,37.56683],[127.15622,37.56685],[127.15627,37.56688]]}},{"type":"Feature","properties":{"class":"alley","highway":"service","sidewalk":"unknown","lanes":0,"name":"","oneway":true},"geometry":{"type":"LineString","coordinates":[[127.15705,37.56745],[127.15694,37.56744],[127.15664,37.56733]]}},{"type":"Feature","properties":{"class":"minor","highway":"residential","sidewalk":"unknown","lanes":0,"name":"고덕비즈밸리로5길","oneway":false},"geometry":{"type":"LineString","coordinates":[[127.15663,37.56726],[127.15705,37.56745]]}},{"type":"Feature","properties":{"class":"alley","highway":"service","sidewalk":"unknown","lanes":0,"name":"","oneway":false},"geometry":{"type":"LineString","coordinates":[[127.15708,37.56737],[127.15705,37.56745]]}},{"type":"Feature","properties":{"class":"minor","highway":"unclassified","sidewalk":"unknown","lanes":0,"name":"","oneway":false},"geometry":{"type":"LineString","coordinates":[[127.15114,37.56662],[127.1514,37.56638]]}},{"type":"Feature","properties":{"class":"minor","highway":"unclassified","sidewalk":"unknown","lanes":0,"name":"","oneway":false},"geometry":{"type":"LineString","coordinates":[[127.15098,37.56676],[127.15114,37.56662]]}},{"type":"Feature","properties":{"class":"alley","highway":"service","sidewalk":"unknown","lanes":0,"name":"","oneway":false},"geometry":{"type":"LineString","coordinates":[[127.14435,37.57633],[127.14433,37.57623],[127.14433,37.5761],[127.14433,37.57605],[127.14433,37.57595],[127.14434,37.57579],[127.14434,37.57564],[127.14434,37.57549],[127.14434,37.57541],[127.1445,37.57529],[127.14486,37.57529],[127.14504,37.57529],[127.14505,37.57549],[127.14505,37.57579],[127.14522,37.57579],[127.14522,37.57523]]}},{"type":"Feature","properties":{"class":"alley","highway":"service","sidewalk":"unknown","lanes":0,"name":"","oneway":false},"geometry":{"type":"LineString","coordinates":[[127.14488,37.5761],[127.14433,37.5761],[127.14355,37.5761],[127.14355,37.57598],[127.1436,37.57594],[127.14381,37.57579],[127.14401,37.57565],[127.14434,37.57541]]}},{"type":"Feature","properties":{"class":"alley","highway":"service","sidewalk":"unknown","lanes":0,"name":"","oneway":false},"geometry":{"type":"LineString","coordinates":[[127.1436,37.57594],[127.14433,37.57595],[127.14487,37.57595]]}},{"type":"Feature","properties":{"class":"alley","highway":"service","sidewalk":"unknown","lanes":0,"name":"","oneway":false},"geometry":{"type":"LineString","coordinates":[[127.14381,37.57579],[127.14434,37.57579],[127.14487,37.57579]]}},{"type":"Feature","properties":{"class":"alley","highway":"service","sidewalk":"unknown","lanes":0,"name":"","oneway":false},"geometry":{"type":"LineString","coordinates":[[127.14488,37.5761],[127.14487,37.57595],[127.14487,37.57579],[127.14487,37.57564],[127.14486,37.57549],[127.14486,37.57529]]}},{"type":"Feature","properties":{"class":"alley","highway":"service","sidewalk":"unknown","lanes":0,"name":"","oneway":false},"geometry":{"type":"LineString","coordinates":[[127.14401,37.57565],[127.14434,37.57564],[127.14487,37.57564]]}},{"type":"Feature","properties":{"class":"alley","highway":"service","sidewalk":"unknown","lanes":0,"name":"","oneway":false},"geometry":{"type":"LineString","coordinates":[[127.14434,37.57549],[127.14486,37.57549],[127.14505,37.57549]]}},{"type":"Feature","properties":{"class":"alley","highway":"service","sidewalk":"unknown","lanes":0,"name":"아리수로61길","oneway":true},"geometry":{"type":"LineString","coordinates":[[127.14764,37.56607],[127.14764,37.56601],[127.14763,37.56596],[127.1476,37.5659],[127.14748,37.5658]]}}]}