{"type":"FeatureCollection","features":[{"type":"Feature","properties":{"class":"major","highway":"motorway","sidewalk":"likely","lanes":3,"name":"인천국제공항고속도로","oneway":true},"geometry":{"type":"LineString","coordinates":[[126.77654,37.58076],[126.77184,37.57974],[126.77122,37.5796],[126.77076,37.5795],[126.77029,37.57938],[126.76991,37.57927],[126.76944,37.57912],[126.76892,37.57894],[126.7685,37.57878],[126.76801,37.57857],[126.76759,37.57838],[126.76712,37.57814],[126.76697,37.57805]]}},{"type":"Feature","properties":{"class":"minor","highway":"unclassified","sidewalk":"unknown","lanes":0,"name":"","oneway":false},"geometry":{"type":"LineString","coordinates":[[126.76495,37.57152],[126.76436,37.5719],[126.76408,37.57209],[126.76332,37.57253],[126.76275,37.57282],[126.76199,37.57314],[126.76123,37.57344],[126.76056,37.57363],[126.76034,37.57404]]}},{"type":"Feature","properties":{"class":"minor","highway":"unclassified","sidewalk":"unknown","lanes":2,"name":"당산길","oneway":false},"geometry":{"type":"LineString","coordinates":[[126.76461,37.57038],[126.76492,37.57144]]}},{"type":"Feature","properties":{"class":"minor","highway":"residential","sidewalk":"unknown","lanes":0,"name":"당미길","oneway":false},"geometry":{"type":"LineString","coordinates":[[126.7625,37.56289],[126.76238,37.5629],[126.76032,37.56281],[126.75959,37.56278],[126.75906,37.56275],[126.75888,37.56272],[126.75876,37.56265],[126.75815,37.56224]]}},{"type":"Feature","properties":{"class":"minor","highway":"unclassified","sidewalk":"unknown","lanes":1,"name":"","oneway":false},"geometry":{"type":"LineString","coordinates":[[126.76792,37.56789],[126.76819,37.56727],[126.7684,37.56678],[126.76842,37.56669],[126.76857,37.56608],[126.76872,37.56544]]}},{"type":"Feature","properties":{"class":"minor","highway":"unclassified","sidewalk":"unknown","lanes":1,"name":"","oneway":false},"geometry":{"type":"LineString","coordinates":[[126.76783,37.56811],[126.76792,37.56789]]}},{"type":"Feature","properties":{"class":"minor","highway":"unclassified","sidewalk":"unknown","lanes":1,"name":"","oneway":false},"geometry":{"type":"LineString","coordinates":[[126.76495,37.57152],[126.76508,37.5714],[126.7659,37.57072],[126.76593,37.5707],[126.76613,37.57047],[126.76619,37.57041],[126.76685,37.56967],[126.76692,37.56959],[126.76745,37.56872],[126.76774,37.56823],[126.76775,37.56821],[126.76783,37.56811]]}},{"type":"Feature","properties":{"class":"minor","highway":"unclassified","sidewalk":"unknown","lanes":1,"name":"","oneway":false},"geometry":{"type":"LineString","coordinates":[[126.76651,37.55724],[126.76659,37.55734],[126.76665,37.55744],[126.76684,37.55919],[126.76705,37.56112],[126.76726,37.56309],[126.76734,37.5638],[126.76746,37.5647],[126.76745,37.56499],[126.76743,37.56521],[126.76727,37.5661],[126.76698,37.56701]]}},{"type":"Feature","properties":{"class":"minor","highway":"unclassified","sidewalk":"unknown","lanes":0,"name":"","oneway":false},"geometry":{"type":"LineString","coordinates":[[126.76872,37.56544],[126.76872,37.56522],[126.7687,37.56469],[126.7687,37.56456],[126.76867,37.56439],[126.76849,37.56346],[126.7684,37.56246],[126.76821,37.56043],[126.76801,37.55833],[126.76783,37.55704],[126.76789,37.55694],[126.76799,37.55683]]}},{"type":"Feature","properties":{"class":"minor","highway":"unclassified","sidewalk":"unknown","lanes":2,"name":"당산길","oneway":false},"geometry":{"type":"LineString","coordinates":[[126.76492,37.57144],[126.76494,37.57149],[126.76495,37.57152]]}},{"type":"Feature","properties":{"class":"alley","highway":"service","sidewalk":"unknown","lanes":2,"name":"당산길","oneway":false},"geometry":{"type":"LineString","coordinates":[[126.76459,37.5703],[126.76461,37.57038]]}},{"type":"Feature","properties":{"class":"major","highway":"tertiary","sidewalk":"likely","lanes":2,"name":"정서진로","oneway":false},"geometry":{"type":"LineString","coordinates":[[126.7796,37.58823],[126.77946,37.58816],[126.77903,37.58778],[126.77857,37.5874],[126.77812,37.58705],[126.77757,37.58662],[126.77739,37.58647],[126.77721,37.58634],[126.77702,37.58622],[126.77685,37.58611],[126.77651,37.5859],[126.7762,37.5857],[126.77589,37.58547],[126.77572,37.58534],[126.77562,37.58526],[126.7756,37.58523],[126.77548,37.58513],[126.7753,37.58493],[126.7749,37.58454],[126.77482,37.58445],[126.77474,37.58438],[126.77461,37.58426],[126.77446,37.58415],[126.77419,37.58395],[126.77267,37.5828],[126.76992,37.58076],[126.76956,37.58054],[126.76888,37.58014],[126.76829,37.57971],[126.76731,37.57884],[126.76464,37.57687],[126.76331,37.57583],[126.76205,37.57495],[126.76106,37.57443],[126.76046,37.57416],[126.75999,37.574]]}},{"type":"Feature","properties":{"class":"major","highway":"motorway","sidewalk":"likely","lanes":3,"name":"인천국제공항고속도로","oneway":true},"geometry":{"type":"LineString","coordinates":[[126.76187,37.57348],[126.76256,37.57418],[126.76377,37.57545],[126.76427,37.57594],[126.76479,37.57643],[126.76539,37.57692],[126.766,37.57732],[126.76663,37.5777]]}},{"type":"Feature","properties":{"class":"alley","highway":"service","sidewalk":"unknown","lanes":0,"name":"","oneway":false},"geometry":{"type":"LineString","coordinates":[[126.78707,37.55429],[126.78577,37.55537],[126.78512,37.55591],[126.7851,37.55595],[126.78509,37.55599],[126.78509,37.55602],[126.78512,37.55605],[126.78598,37.5567],[126.78618,37.55685],[126.78635,37.55695],[126.78652,37.55705],[126.78661,37.55714],[126.78664,37.55719],[126.78666,37.55723],[126.78666,37.5573],[126.78664,37.55735],[126.78663,37.55739],[126.7866,37.55743],[126.78654,37.55748],[126.7742,37.56733],[126.77186,37.56919],[126.77147,37.5695],[126.77099,37.56986],[126.7709,37.56995],[126.77084,37.57005],[126.77081,37.57014],[126.77081,37.57021],[126.77082,37.57027],[126.77084,37.57032],[126.77088,37.5704],[126.77091,37.57045],[126.77095,37.5705],[126.77104,37.57057],[126.77163,37.57104],[126.77265,37.57186],[126.77375,37.57273],[126.77426,37.57313],[126.77591,37.57444],[126.77639,37.57482],[126.77644,37.57486],[126.7765,37.57489],[126.77657,37.57492],[126.77663,37.57494],[126.7767,37.57495],[126.77677,37.57495],[126.77683,37.57495],[126.7769,37.57494],[126.77696,37.57493],[126.77701,37.57491],[126.77709,37.57488],[126.77714,37.57485],[126.77728,37.57475],[126.77833,37.5739],[126.78133,37.57152],[126.78368,37.56963],[126.78395,37.56942],[126.78403,37.56935],[126.78407,37.56929],[126.7841,37.56923],[126.78412,37.56918],[126.78414,37.56913],[126.78415,37.56909],[126.78417,37.56906],[126.7842,37.56904],[126.78423,37.569],[126.78495,37.56844],[126.78861,37.5655],[126.78874,37.56543],[126.78882,37.56541],[126.78889,37.56538],[126.78897,37.56536],[126.78906,37.56535],[126.78914,37.56534],[126.78923,37.56534],[126.78933,37.56535],[126.78942,37.56538],[126.78949,37.56542],[126.78958,37.56547],[126.78975,37.56561],[126.79044,37.56614],[126.79051,37.56619],[126.79058,37.56622],[126.79065,37.56625],[126.79075,37.56628],[126.79084,37.56629],[126.79093,37.56629],[126.79102,37.56628],[126.7911,37.56626],[126.79118,37.56623],[126.79123,37.56619],[126.79179,37.56573],[126.79187,37.56569],[126.79195,37.56565],[126.79203,37.56563],[126.79211,37.56563],[126.79219,37.56564],[126.79225,37.56566],[126.7923,37.56569],[126.79234,37.56572],[126.79634,37.56887],[126.79948,37.57137],[126.7997,37.57156],[126.80004,37.57182],[126.80043,37.57213],[126.80051,37.57217],[126.80055,37.57218],[126.80062,37.57219],[126.80067,37.57219],[126.80072,37.57219],[126.80078,37.57218],[126.80084,37.57215],[126.80089,37.57212],[126.80126,37.57182],[126.80196,37.57122],[126.80287,37.5705]]}},{"type":"Feature","properties":{"class":"alley","highway":"service","sidewalk":"unknown","lanes":0,"name":"","oneway":false},"geometry":{"type":"LineString","coordinates":[[126.7792,37.57938],[126.77947,37.57918],[126.7795,37.57915],[126.77995,37.5794],[126.78036,37.57897]]}},{"type":"Feature","properties":{"class":"major","highway":"tertiary","sidewalk":"likely","lanes":2,"name":"","oneway":false},"geometry":{"type":"LineString","coordinates":[[126.76667,37.57748],[126.76687,37.57822],[126.76695,37.57835],[126.76705,37.57845],[126.76714,37.57852],[126.76788,37.5788],[126.7693,37.57933],[126.7703,37.57963],[126.77111,37.57983]]}},{"type":"Feature","properties":{"class":"minor","highway":"unclassified","sidewalk":"unknown","lanes":1,"name":"당산길","oneway":false},"geometry":{"type":"LineString","coordinates":[[126.76495,37.57152],[126.76526,37.57259],[126.76579,37.57444],[126.76613,37.57561],[126.76634,37.57632],[126.76667,37.57748]]}},{"type":"Feature","properties":{"class":"major","highway":"motorway","sidewalk":"likely","lanes":3,"name":"인천국제공항고속도로","oneway":true},"geometry":{"type":"LineString","coordinates":[[126.76663,37.5777],[126.76691,37.57787]]}},{"type":"Feature","properties":{"class":"major","highway":"motorway","sidewalk":"likely","lanes":3,"name":"인천국제공항고속도로","oneway":true},"geometry":{"type":"LineString","coordinates":[[126.76697,37.57805],[126.76669,37.57789]]}},{"type":"Feature","properties":{"class":"major","highway":"motorway","sidewalk":"likely","lanes":3,"name":"인천국제공항고속도로","oneway":true},"geometry":{"type":"LineString","coordinates":[[126.76669,37.57789],[126.76638,37.57772],[126.76587,37.57741],[126.76529,37.577],[126.76473,37.57657],[126.76418,37.57607],[126.76362,37.57551],[126.76236,37.57416],[126.76167,37.57351]]}},{"type":"Feature","properties":{"class":"major","highway":"motorway","sidewalk":"likely","lanes":3,"name":"인천국제공항고속도로","oneway":true},"geometry":{"type":"LineString","coordinates":[[126.76691,37.57787],[126.76722,37.57804],[126.76759,37.57823],[126.76793,37.57839],[126.76835,37.57858],[126.76888,37.57878],[126.76938,37.57895],[126.76991,37.57913],[126.77045,37.57929],[126.77095,37.57942],[126.77141,37.57953],[126.77185,37.57963],[126.77639,37.58059]]}},{"type":"Feature","properties":{"class":"alley","highway":"service","sidewalk":"unknown","lanes":1,"name":"","oneway":false},"geometry":{"type":"LineString","coordinates":[[126.76777,37.57892],[126.76796,37.57907],[126.76819,37.57924],[126.76837,37.57937],[126.76866,37.57957],[126.76881,37.57967],[126.76888,37.57971],[126.76894,37.57976],[126.76905,37.57986],[126.7691,37.57991],[126.76916,37.57996],[126.76931,37.58005],[126.76945,37.58014],[126.7695,37.58017],[126.76954,37.5802],[126.76962,37.58027],[126.76978,37.58041],[126.76989,37.58052],[126.76997,37.58058],[126.77018,37.58074],[126.77056,37.58102],[126.77082,37.5812],[126.77115,37.58145],[126.77143,37.58167],[126.77161,37.58181],[126.77179,37.58195],[126.7721,37.58219],[126.77228,37.58234],[126.77239,37.58243],[126.77243,37.58247],[126.77247,37.58252],[126.77253,37.5826],[126.77259,37.58266],[126.77266,37.58272],[126.77273,37.58276],[126.77283,37.58279],[126.77291,37.58282],[126.77296,37.58285],[126.77303,37.5829],[126.7732,37.58304],[126.77332,37.58313],[126.77356,37.5833],[126.77385,37.5835],[126.77413,37.58372],[126.77451,37.584],[126.77486,37.58427],[126.77536,37.58465],[126.77575,37.58494],[126.77583,37.58501],[126.77588,37.58507],[126.77592,37.5851],[126.77603,37.58517],[126.77638,37.58542],[126.77666,37.58562],[126.7769,37.5858],[126.77717,37.58602],[126.77746,37.58625],[126.77762,37.58639],[126.77771,37.58647],[126.7778,37.58655],[126.77797,37.58679],[126.77805,37.58692],[126.77812,37.58705]]}},{"type":"Feature","properties":{"class":"minor","highway":"unclassified","sidewalk":"unknown","lanes":0,"name":"개화동로20길","oneway":false},"geometry":{"type":"LineString","coordinates":[[126.77648,37.57562],[126.77625,37.57581]]}},{"type":"Feature","properties":{"class":"alley","highway":"service","sidewalk":"unknown","lanes":0,"name":"","oneway":false},"geometry":{"type":"LineString","coordinates":[[126.77625,37.57581],[126.77622,37.57583]]}},{"type":"Feature","properties":{"class":"alley","highway":"service","sidewalk":"unknown","lanes":0,"name":"개화동로4길","oneway":false},"geometry":{"type":"LineString","coordinates":[[126.79749,37.58198],[126.79739,37.58192],[126.79683,37.58162],[126.79647,37.58149],[126.79463,37.58098],[126.78923,37.57947],[126.78815,37.57918],[126.78661,37.57875],[126.78484,37.57827],[126.78481,37.57827],[126.78463,37.5782],[126.78444,37.57808],[126.78431,37.57796],[126.78416,37.57791],[126.78395,37.57791],[126.78377,37.57796],[126.78368,37.57796],[126.78094,37.5772],[126.77823,37.57645],[126.77795,37.57637],[126.77757,37.57623],[126.7772,37.57606],[126.77686,37.57584],[126.77669,37.5757],[126.77657,37.57554]]}},{"type":"Feature","properties":{"class":"minor","highway":"residential","sidewalk":"unknown","lanes":0,"name":"벌말로566번길","oneway":false},"geometry":{"type":"LineString","coordinates":[[126.7789,37.57891],[126.77906,37.57883],[126.77922,37.57847],[126.77932,37.57827],[126.77937,37.57819],[126.77943,37.57815],[126.78053,37.57746]]}},{"type":"Feature","properties":{"class":"alley","highway":"service","sidewalk":"unknown","lanes":0,"name":"개화동로20길","oneway":false},"geometry":{"type":"LineString","coordinates":[[126.79049,37.56637],[126.79038,37.56632],[126.78954,37.56566],[126.78946,37.56562],[126.78939,37.5656],[126.7893,37.5656],[126.78922,37.56561],[126.78915,37.56563],[126.78909,37.56567],[126.78731,37.56713],[126.78167,37.57157],[126.77657,37.57554],[126.77648,37.57562]]}},{"type":"Feature","properties":{"class":"alley","highway":"service","sidewalk":"unknown","lanes":0,"name":"","oneway":false},"geometry":{"type":"LineString","coordinates":[[126.77622,37.57583],[126.77633,37.57598],[126.77639,37.57607],[126.77637,37.57619]]}},{"type":"Feature","properties":{"class":"minor","highway":"unclassified","sidewalk":"unknown","lanes":0,"name":"","oneway":false},"geometry":{"type":"LineString","coordinates":[[126.76698,37.56701],[126.76641,37.56824],[126.76625,37.56844],[126.7658,37.56902],[126.7652,37.56973],[126.76459,37.5703]]}},{"type":"Feature","properties":{"class":"minor","highway":"unclassified","sidewalk":"unknown","lanes":0,"name":"","oneway":false},"geometry":{"type":"LineString","coordinates":[[126.76667,37.57748],[126.76699,37.57771],[126.76769,37.57807],[126.7684,37.57841],[126.76907,37.57868],[126.77013,37.57904],[126.77189,37.57944],[126.77334,37.57973],[126.77494,37.57963],[126.77525,37.57961],[126.77561,37.57946],[126.77567,37.57943]]}},{"type":"Feature","properties":{"class":"minor","highway":"unclassified","sidewalk":"unknown","lanes":0,"name":"","oneway":false},"geometry":{"type":"LineString","coordinates":[[126.7715,37.5798],[126.7713,37.57991]]}},{"type":"Feature","properties":{"class":"minor","highway":"unclassified","sidewalk":"unknown","lanes":0,"name":"","oneway":false},"geometry":{"type":"LineString","coordinates":[[126.77083,37.57204],[126.77103,37.57186]]}},{"type":"Feature","properties":{"class":"minor","highway":"unclassified","sidewalk":"unknown","lanes":0,"name":"","oneway":false},"geometry":{"type":"LineString","coordinates":[[126.77567,37.57943],[126.77628,37.57922]]}},{"type":"Feature","properties":{"class":"minor","highway":"unclassified","sidewalk":"unknown","lanes":0,"name":"","oneway":false},"geometry":{"type":"LineString","coordinates":[[126.77255,37.57526],[126.77304,37.57488]]}},{"type":"Feature","properties":{"class":"minor","highway":"unclassified","sidewalk":"unknown","lanes":0,"name":"","oneway":false},"geometry":{"type":"LineString","coordinates":[[126.77037,37.5724],[126.77083,37.57204]]}},{"type":"Feature","properties":{"class":"minor","highway":"unclassified","sidewalk":"unknown","lanes":0,"name":"","oneway":false},"geometry":{"type":"LineString","coordinates":[[126.77182,37.57954],[126.7715,37.5798]]}},{"type":"Feature","properties":{"class":"minor","highway":"unclassified","sidewalk":"unknown","lanes":0,"name":"","oneway":false},"geometry":{"type":"LineString","coordinates":[[126.77304,37.57488],[126.77315,37.57471],[126.77386,37.57417]]}},{"type":"Feature","properties":{"class":"minor","highway":"unclassified","sidewalk":"unknown","lanes":0,"name":"","oneway":false},"geometry":{"type":"LineString","coordinates":[[126.77628,37.57922],[126.77638,37.5792],[126.7764,37.5792],[126.77661,37.57913],[126.77707,37.5791],[126.77738,37.57903],[126.77839,37.57894],[126.77872,37.57894],[126.7789,37.57891]]}},{"type":"Feature","properties":{"class":"alley","highway":"service","sidewalk":"unknown","lanes":1,"name":"당산길","oneway":false},"geometry":{"type":"LineString","coordinates":[[126.76417,37.56876],[126.76418,37.5688],[126.76434,37.56937],[126.76455,37.57009],[126.76459,37.5703]]}},{"type":"Feature","properties":{"class":"minor","highway":"unclassified","sidewalk":"unknown","lanes":1,"name":"당산길","oneway":false},"geometry":{"type":"LineString","coordinates":[[126.76413,37.56862],[126.76417,37.56876]]}},{"type":"Feature","properties":{"class":"major","highway":"primary","sidewalk":"likely","lanes":4,"name":"벌말로","oneway":false},"geometry":{"type":"LineString","coordinates":[[126.76778,37.55284],[126.76782,37.55296],[126.76827,37.5544],[126.7685,37.5551],[126.76869,37.55558],[126.76897,37.55624],[126.76908,37.55652],[126.76932,37.55708],[126.76951,37.55768],[126.76961,37.55808],[126.76967,37.55856],[126.76972,37.55914],[126.76971,37.55996],[126.76971,37.56002],[126.76964,37.56211],[126.76956,37.56424],[126.7695,37.56588],[126.76945,37.56729],[126.76937,37.56924],[126.76938,37.56963],[126.76943,37.56989],[126.7695,37.57012],[126.76959,37.57035],[126.76971,37.57058],[126.76984,37.57078],[126.77001,37.57099],[126.77029,37.57126],[126.77103,37.57186],[126.77386,37.57417],[126.77599,37.5759],[126.77637,37.57619],[126.77651,37.57629],[126.7772,37.57682],[126.7774,37.57699],[126.77754,37.57712],[126.77776,37.57733],[126.77799,37.57758],[126.77821,37.57785],[126.7789,37.57891],[126.7792,37.57938],[126.77925,37.57946],[126.7798,37.5803],[126.77998,37.58057],[126.78036,37.58124],[126.78062,37.58179],[126.78097,37.58251],[126.78123,37.58303],[126.78136,37.58328],[126.7816,37.58357]]}},{"type":"Feature","properties":{"class":"minor","highway":"unclassified","sidewalk":"unknown","lanes":0,"name":"","oneway":false},"geometry":{"type":"LineString","coordinates":[[126.77526,37.58021],[126.77523,37.58009],[126.77495,37.57975],[126.77494,37.57963]]}},{"type":"Feature","properties":{"class":"major","highway":"tertiary","sidewalk":"likely","lanes":2,"name":"평리길","oneway":false},"geometry":{"type":"LineString","coordinates":[[126.77111,37.57983],[126.7713,37.57991],[126.77152,37.57998],[126.77209,37.58002],[126.77444,37.58057],[126.77499,37.5807]]}},{"type":"Feature","properties":{"class":"alley","highway":"service","sidewalk":"unknown","lanes":0,"name":"","oneway":false},"geometry":{"type":"LineString","coordinates":[[126.77147,37.5695],[126.77208,37.56993],[126.77211,37.56994],[126.77214,37.56995],[126.77216,37.56995],[126.77218,37.56994],[126.7722,37.56992],[126.77246,37.56971],[126.77247,37.5697],[126.77248,37.56968],[126.77247,37.56967],[126.77246,37.56966],[126.77244,37.56964],[126.77186,37.56919]]}},{"type":"Feature","properties":{"class":"alley","highway":"service","sidewalk":"unknown","lanes":0,"name":"","oneway":false},"geometry":{"type":"LineString","coordinates":[[126.77426,37.57313],[126.77431,37.57309],[126.77481,37.57269],[126.77483,37.57266],[126.77485,37.57263],[126.77486,37.57259],[126.77486,37.57256],[126.77491,37.5722],[126.77493,37.57216],[126.77496,37.57213],[126.775,37.57208],[126.77647,37.57052],[126.777,37.56985],[126.77703,37.56982]]}},{"type":"Feature","properties":{"class":"alley","highway":"service","sidewalk":"unknown","lanes":0,"name":"","oneway":false},"geometry":{"type":"LineString","coordinates":[[126.77703,37.56982],[126.77743,37.56951],[126.78004,37.56742],[126.78011,37.56737],[126.78015,37.56732],[126.78045,37.56698],[126.78049,37.56693],[126.78143,37.5658],[126.7815,37.56574],[126.78301,37.56453],[126.78304,37.5645],[126.78308,37.56448],[126.78334,37.56435],[126.78361,37.56422],[126.78365,37.5642]]}},{"type":"Feature","properties":{"class":"alley","highway":"service","sidewalk":"unknown","lanes":0,"name":"","oneway":false},"geometry":{"type":"LineString","coordinates":[[126.77701,37.56945],[126.7798,37.56724],[126.77992,37.56715],[126.78002,37.56708],[126.78013,37.56703],[126.78033,37.56695],[126.78042,37.56693],[126.78049,37.56693]]}},{"type":"Feature","properties":{"class":"alley","highway":"service","sidewalk":"unknown","lanes":0,"name":"","oneway":false},"geometry":{"type":"LineString","coordinates":[[126.7742,37.56733],[126.77548,37.56836]]}},{"type":"Feature","properties":{"class":"alley","highway":"service","sidewalk":"unknown","lanes":1,"name":"당산길","oneway":false},"geometry":{"type":"LineString","coordinates":[[126.76126,37.5588],[126.76147,37.55928],[126.76171,37.56011],[126.76181,37.56047],[126.76194,37.56091],[126.76224,37.56198],[126.7625,37.56289],[126.76278,37.56389],[126.76331,37.56576],[126.76333,37.56582],[126.76384,37.56763],[126.76413,37.56862]]}},{"type":"Feature","properties":{"class":"alley","highway":"service","sidewalk":"unknown","lanes":0,"name":"","oneway":false},"geometry":{"type":"LineString","coordinates":[[126.77087,37.56708],[126.77098,37.56705],[126.77107,37.56705],[126.77114,37.56706],[126.77129,37.56708],[126.77139,37.56712]]}},{"type":"Feature","properties":{"class":"alley","highway":"service","sidewalk":"unknown","lanes":0,"name":"","oneway":false},"geometry":{"type":"LineString","coordinates":[[126.77651,37.57629],[126.77609,37.57655],[126.77579,37.57673],[126.77538,37.57698],[126.776,37.57773],[126.77603,37.57777],[126.77606,37.57782],[126.77637,37.57906],[126.77638,37.57915],[126.77638,37.5792]]}},{"type":"Feature","properties":{"class":"alley","highway":"service","sidewalk":"unknown","lanes":0,"name":"","oneway":false},"geometry":{"type":"LineString","coordinates":[[126.77603,37.57777],[126.77683,37.57731],[126.77697,37.57723],[126.7774,37.57699]]}},{"type":"Feature","properties":{"class":"alley","highway":"service","sidewalk":"unknown","lanes":0,"name":"","oneway":false},"geometry":{"type":"LineString","coordinates":[[126.77683,37.57731],[126.77718,37.57765],[126.77753,37.57802],[126.77756,37.57806],[126.77758,37.57813],[126.77765,37.57822],[126.7779,37.57858],[126.77792,37.57861],[126.77795,37.57864],[126.77795,37.57865],[126.77797,37.57866],[126.77801,37.57869],[126.77807,37.5787],[126.77817,37.57876],[126.77828,37.57885],[126.77839,37.57894]]}},{"type":"Feature","properties":{"class":"alley","highway":"service","sidewalk":"unknown","lanes":0,"name":"","oneway":false},"geometry":{"type":"LineString","coordinates":[[126.77707,37.5791],[126.77697,37.57875],[126.77687,37.57858],[126.77678,37.57828],[126.77676,37.57809],[126.77678,37.57797],[126.77683,37.57792],[126.77692,37.57787],[126.77718,37.57765]]}},{"type":"Feature","properties":{"class":"alley","highway":"service","sidewalk":"unknown","lanes":0,"name":"","oneway":false},"geometry":{"type":"LineString","coordinates":[[126.77609,37.57655],[126.7764,37.57692],[126.77651,37.57701],[126.77678,37.5771],[126.77692,37.57717],[126.77697,37.57723]]}},{"type":"Feature","properties":{"class":"alley","highway":"service","sidewalk":"unknown","lanes":0,"name":"","oneway":false},"geometry":{"type":"LineString","coordinates":[[126.77579,37.57673],[126.77601,37.57698],[126.77617,37.57717],[126.77616,37.5772],[126.7761,37.57724],[126.77598,37.57729]]}},{"type":"Feature","properties":{"class":"alley","highway":"service","sidewalk":"unknown","lanes":0,"name":"","oneway":false},"geometry":{"type":"LineString","coordinates":[[126.7775,37.57846],[126.77754,37.57843],[126.77757,37.57835],[126.7776,37.57829],[126.77765,37.57822]]}},{"type":"Feature","properties":{"class":"alley","highway":"service","sidewalk":"unknown","lanes":0,"name":"","oneway":false},"geometry":{"type":"LineString","coordinates":[[126.77759,37.5787],[126.77774,37.57866],[126.77784,37.57862],[126.7779,37.57858]]}},{"type":"Feature","properties":{"class":"alley","highway":"service","sidewalk":"unknown","lanes":0,"name":"","oneway":false},"geometry":{"type":"LineString","coordinates":[[126.7779,37.57858],[126.7779,37.57854],[126.77789,37.57852],[126.7777,37.57826],[126.7778,37.57821],[126.77805,37.57856],[126.77792,37.57861]]}},{"type":"Feature","properties":{"class":"alley","highway":"service","sidewalk":"unknown","lanes":0,"name":"","oneway":false},"geometry":{"type":"LineString","coordinates":[[126.77797,37.57866],[126.77799,37.57889],[126.77792,37.5789]]}},{"type":"Feature","properties":{"class":"alley","highway":"service","sidewalk":"unknown","lanes":0,"name":"","oneway":false},"geometry":{"type":"LineString","coordinates":[[126.77792,37.5789],[126.77789,37.57865],[126.77795,37.57864]]}},{"type":"Feature","properties":{"class":"alley","highway":"service","sidewalk":"unknown","lanes":0,"name":"","oneway":false},"geometry":{"type":"LineString","coordinates":[[126.77751,37.58051],[126.77777,37.58037],[126.77808,37.58016],[126.7785,37.57991],[126.7789,37.57967],[126.77925,37.57946]]}},{"type":"Feature","properties":{"class":"alley","highway":"service","sidewalk":"unknown","lanes":0,"name":"","oneway":false},"geometry":{"type":"LineString","coordinates":[[126.7785,37.57991],[126.77918,37.5807]]}}]}