{"type":"FeatureCollection","features":[{"type":"Feature","properties":{"class":"major","highway":"tertiary","sidewalk":"likely","lanes":0,"name":"허준로","oneway":false},"geometry":{"type":"LineString","coordinates":[[126.86518,37.55891],[126.86424,37.55941],[126.86401,37.55954],[126.86385,37.55963],[126.86287,37.56015],[126.86279,37.5602],[126.86223,37.5605],[126.86158,37.56085],[126.86015,37.56163],[126.8601,37.56165],[126.85972,37.56186],[126.85946,37.562],[126.85894,37.56228],[126.8584,37.56258],[126.85833,37.56261],[126.85688,37.5634],[126.85681,37.56344],[126.85654,37.56359],[126.85638,37.56368],[126.85607,37.56385],[126.85544,37.5642],[126.85501,37.56443],[126.85387,37.56506],[126.85371,37.56515],[126.85358,37.56524],[126.8534,37.56535],[126.85278,37.56578],[126.85251,37.56596],[126.85137,37.56691],[126.85106,37.56717],[126.85092,37.5673],[126.85081,37.56739],[126.85071,37.56751],[126.85059,37.56762],[126.84973,37.5683],[126.84955,37.56844],[126.84916,37.56872],[126.84905,37.5688],[126.8486,37.56904],[126.84848,37.56909],[126.84827,37.56919],[126.84814,37.56923],[126.84769,37.56937],[126.84743,37.56945],[126.84525,37.57003],[126.84522,37.57004],[126.84519,37.57005],[126.84442,37.57026],[126.84368,37.57046],[126.84298,37.57064],[126.84218,37.57086],[126.8418,37.57098]]}},{"type":"Feature","properties":{"class":"major","highway":"primary","sidewalk":"likely","lanes":0,"name":"월드컵로","oneway":false},"geometry":{"type":"LineString","coordinates":[[126.88087,37.57743],[126.88035,37.57775],[126.87912,37.57847],[126.87776,37.5793],[126.87686,37.57981],[126.87667,37.5799],[126.87655,37.57998],[126.87648,37.58003],[126.87637,37.58012]]}},{"type":"Feature","properties":{"class":"major","highway":"tertiary","sidewalk":"likely","lanes":0,"name":"양천로59길","oneway":false},"geometry":{"type":"LineString","coordinates":[[126.85816,37.55948],[126.85828,37.55957],[126.85829,37.55958],[126.85888,37.56019],[126.85912,37.56044],[126.85926,37.56061],[126.85932,37.56071],[126.85961,37.561],[126.8597,37.5611],[126.86015,37.56163]]}},{"type":"Feature","properties":{"class":"major","highway":"primary","sidewalk":"likely","lanes":0,"name":"가양대로","oneway":true},"geometry":{"type":"LineString","coordinates":[[126.87506,37.5797],[126.87481,37.57959],[126.87433,37.57941],[126.87404,37.5793],[126.87376,37.5792],[126.8735,37.57913],[126.8723,37.57885],[126.8716,37.57868],[126.87065,37.57847],[126.87033,37.57839],[126.87001,37.5783],[126.86971,37.5782],[126.86942,37.5781],[126.86919,37.57802],[126.86897,37.57793],[126.86872,37.57782],[126.86846,37.57771],[126.86802,37.57747],[126.86778,37.57734],[126.86756,37.57721],[126.86732,37.57705],[126.8671,37.5769],[126.86678,37.57663],[126.86668,37.57655],[126.8664,37.5763],[126.86631,37.57623]]}},{"type":"Feature","properties":{"class":"major","highway":"trunk","sidewalk":"likely","lanes":4,"name":"올림픽대로","oneway":true},"geometry":{"type":"LineString","coordinates":[[126.86591,37.56151],[126.86283,37.56337],[126.86251,37.56353],[126.85637,37.56707],[126.8534,37.56883],[126.847,37.57254],[126.84439,37.57406],[126.84187,37.57553],[126.84118,37.57593],[126.84055,37.57628],[126.83954,37.57674],[126.8387,37.57711],[126.82604,37.58179],[126.82493,37.58218],[126.8234,37.58276],[126.82261,37.58311],[126.82186,37.58344],[126.82135,37.58367],[126.82077,37.58392],[126.81668,37.58599],[126.81003,37.58936],[126.80956,37.58952],[126.80905,37.58973],[126.80821,37.59003],[126.80721,37.59042],[126.80665,37.59071],[126.80617,37.59097],[126.8049,37.59171]]}},{"type":"Feature","properties":{"class":"major","highway":"trunk_link","sidewalk":"likely","lanes":0,"name":"","oneway":true},"geometry":{"type":"LineString","coordinates":[[126.88008,37.56672],[126.87936,37.5673],[126.87901,37.56753]]}},{"type":"Feature","properties":{"class":"major","highway":"trunk_link","sidewalk":"likely","lanes":0,"name":"","oneway":true},"geometry":{"type":"LineString","coordinates":[[126.88051,37.56942],[126.88,37.569],[126.87972,37.56874],[126.87896,37.5679],[126.87887,37.5678],[126.87875,37.56775],[126.87861,37.56777]]}},{"type":"Feature","properties":{"class":"major","highway":"trunk_link","sidewalk":"likely","lanes":1,"name":"","oneway":true},"geometry":{"type":"LineString","coordinates":[[126.86803,37.57313],[126.86927,37.57265]]}},{"type":"Feature","properties":{"class":"major","highway":"trunk_link","sidewalk":"likely","lanes":0,"name":"","oneway":true},"geometry":{"type":"LineString","coordinates":[[126.86394,37.57312],[126.86405,37.57324],[126.86419,37.5734],[126.86432,37.57357],[126.86439,37.57366],[126.86445,37.57372],[126.86451,37.57378],[126.86457,37.57382],[126.86467,37.57387],[126.86475,37.57391],[126.86484,37.57394],[126.86493,37.57397],[126.86507,37.57399],[126.86519,37.574],[126.86535,37.574],[126.86583,37.57387],[126.86694,37.5735],[126.868,37.57314],[126.86803,37.57313]]}},{"type":"Feature","properties":{"class":"major","highway":"trunk_link","sidewalk":"likely","lanes":0,"name":"","oneway":true},"geometry":{"type":"LineString","coordinates":[[126.8671,37.5769],[126.86671,37.57669],[126.86649,37.57652],[126.86636,37.57643],[126.86624,37.57635],[126.8662,37.57633],[126.866,37.57622],[126.86587,37.57616],[126.86574,37.57611],[126.8656,37.57607],[126.86544,37.57604],[126.86529,37.57602],[126.86514,37.57601],[126.86499,37.57601],[126.86486,37.57602],[126.86472,37.57604],[126.86456,37.57607],[126.86434,37.57613],[126.86411,37.57624],[126.86337,37.57662],[126.86309,37.57676],[126.86265,37.57697],[126.86221,37.5772],[126.86216,37.57723]]}},{"type":"Feature","properties":{"class":"major","highway":"trunk_link","sidewalk":"likely","lanes":1,"name":"","oneway":true},"geometry":{"type":"LineString","coordinates":[[126.85911,37.57848],[126.86025,37.57766],[126.86114,37.5771]]}},{"type":"Feature","properties":{"class":"major","highway":"trunk_link","sidewalk":"likely","lanes":0,"name":"","oneway":true},"geometry":{"type":"LineString","coordinates":[[126.86337,37.57662],[126.86301,37.57673],[126.86278,37.57671],[126.8626,37.57662],[126.86248,37.57645],[126.86247,37.57627],[126.86257,37.5761],[126.86315,37.57576],[126.86366,37.57549]]}},{"type":"Feature","properties":{"class":"major","highway":"trunk_link","sidewalk":"likely","lanes":0,"name":"","oneway":true},"geometry":{"type":"LineString","coordinates":[[126.8662,37.57525],[126.86616,37.57534],[126.86612,37.57544],[126.86611,37.57551],[126.86612,37.5756],[126.86612,37.57567],[126.86614,37.57574],[126.86618,37.57582],[126.86623,37.57589],[126.8663,37.57597],[126.86638,37.57607],[126.86644,37.57613],[126.86655,37.57623],[126.86668,37.57636],[126.86702,37.57666],[126.86717,37.57683]]}},{"type":"Feature","properties":{"class":"major","highway":"trunk_link","sidewalk":"likely","lanes":0,"name":"","oneway":true},"geometry":{"type":"LineString","coordinates":[[126.86757,37.57417],[126.86728,37.57433],[126.86602,37.57506]]}},{"type":"Feature","properties":{"class":"major","highway":"trunk_link","sidewalk":"likely","lanes":0,"name":"","oneway":true},"geometry":{"type":"LineString","coordinates":[[126.86114,37.5771],[126.86135,37.57697],[126.8623,37.57618],[126.86282,37.57574],[126.86324,37.57541]]}},{"type":"Feature","properties":{"class":"major","highway":"trunk_link","sidewalk":"likely","lanes":0,"name":"","oneway":true},"geometry":{"type":"LineString","coordinates":[[126.86847,37.57343],[126.8677,37.57408],[126.86757,37.57417],[126.8675,37.57424],[126.86676,37.57473],[126.86655,37.57485],[126.86633,37.57507],[126.86623,37.57517],[126.8662,37.57525]]}},{"type":"Feature","properties":{"class":"major","highway":"trunk_link","sidewalk":"likely","lanes":0,"name":"","oneway":true},"geometry":{"type":"LineString","coordinates":[[126.86635,37.57402],[126.86687,37.57373],[126.86729,37.57348],[126.8674,37.57345],[126.86758,37.57345],[126.86772,37.57346],[126.86789,37.57352],[126.868,37.57364],[126.86809,37.57379],[126.86811,37.57394],[126.86804,37.57407],[126.86793,37.57418],[126.86764,37.57434]]}},{"type":"Feature","properties":{"class":"major","highway":"trunk_link","sidewalk":"likely","lanes":0,"name":"","oneway":true},"geometry":{"type":"LineString","coordinates":[[126.86535,37.574],[126.8656,37.57398],[126.8661,37.57389],[126.86627,37.57387],[126.86642,37.5739],[126.86657,37.57395],[126.86669,37.57403],[126.86677,37.57415],[126.86682,37.57429],[126.8668,37.57442],[126.86674,37.57454],[126.86664,37.57462],[126.86651,37.5747],[126.86592,37.57504]]}},{"type":"Feature","properties":{"class":"major","highway":"trunk_link","sidewalk":"likely","lanes":0,"name":"","oneway":true},"geometry":{"type":"LineString","coordinates":[[126.8623,37.57618],[126.8629,37.5758],[126.86355,37.57543],[126.86382,37.57532],[126.86416,37.5752]]}},{"type":"Feature","properties":{"class":"alley","highway":"pedestrian","sidewalk":"unknown","lanes":0,"name":"황금내근린공원","oneway":false},"geometry":{"type":"LineString","coordinates":[[126.86411,37.56168],[126.86412,37.56169],[126.86414,37.56171],[126.86415,37.56172],[126.8642,37.56177],[126.86423,37.5618],[126.86426,37.56182]]}},{"type":"Feature","properties":{"class":"major","highway":"trunk_link","sidewalk":"likely","lanes":0,"name":"","oneway":true},"geometry":{"type":"LineString","coordinates":[[126.86283,37.56337],[126.86234,37.56376],[126.86193,37.564],[126.86011,37.56506],[126.85858,37.56597],[126.85827,37.56612]]}},{"type":"Feature","properties":{"class":"major","highway":"trunk_link","sidewalk":"likely","lanes":0,"name":"","oneway":true},"geometry":{"type":"LineString","coordinates":[[126.85681,37.56344],[126.85692,37.56357],[126.8571,37.56382],[126.85721,37.56392],[126.85737,37.56404],[126.85758,37.56416],[126.85775,37.56424],[126.85792,37.56427],[126.85822,37.56431],[126.85855,37.56435],[126.85894,37.56438],[126.85931,37.5644],[126.85966,37.56438],[126.85999,37.56434],[126.86032,37.56426],[126.86073,37.56413],[126.86106,37.56399],[126.86139,37.56381],[126.86273,37.56306],[126.86313,37.56297]]}},{"type":"Feature","properties":{"class":"major","highway":"trunk_link","sidewalk":"likely","lanes":0,"name":"","oneway":true},"geometry":{"type":"LineString","coordinates":[[126.86234,37.56376],[126.86185,37.56412],[126.86179,37.56417]]}},{"type":"Feature","properties":{"class":"minor","highway":"residential","sidewalk":"unknown","lanes":0,"name":"허준로","oneway":false},"geometry":{"type":"LineString","coordinates":[[126.86279,37.5602],[126.86411,37.56168],[126.86393,37.56179],[126.86265,37.56257],[126.86132,37.56337],[126.86116,37.56347],[126.86087,37.56364],[126.86068,37.56376],[126.86045,37.5639],[126.86033,37.56397],[126.86026,37.56401],[126.85996,37.56419],[126.85946,37.56417],[126.85932,37.56417],[126.85889,37.56415],[126.85801,37.56408]]}},{"type":"Feature","properties":{"class":"major","highway":"trunk_link","sidewalk":"likely","lanes":0,"name":"","oneway":true},"geometry":{"type":"LineString","coordinates":[[126.86635,37.56112],[126.86714,37.56048],[126.86754,37.5602],[126.86757,37.56016],[126.86758,37.56007],[126.86756,37.56],[126.86752,37.55992],[126.86747,37.55986],[126.86741,37.55983],[126.86734,37.55977]]}},{"type":"Feature","properties":{"class":"major","highway":"trunk_link","sidewalk":"likely","lanes":0,"name":"","oneway":true},"geometry":{"type":"LineString","coordinates":[[126.85755,37.56581],[126.85906,37.56492],[126.85943,37.56472],[126.85992,37.56451],[126.86041,37.56433],[126.86069,37.56422],[126.86094,37.5641],[126.86123,37.56394],[126.86139,37.56381]]}},{"type":"Feature","properties":{"class":"major","highway":"trunk_link","sidewalk":"likely","lanes":0,"name":"","oneway":true},"geometry":{"type":"LineString","coordinates":[[126.85893,37.56491],[126.85898,37.56488],[126.85914,37.56482],[126.85931,37.5648],[126.8595,37.56481],[126.85967,37.56486],[126.85983,37.56494],[126.85994,37.56505],[126.86001,37.56515],[126.86005,37.56528],[126.86005,37.56542],[126.86001,37.56556],[126.85995,37.56565],[126.85981,37.56584],[126.85977,37.56592],[126.8595,37.56629],[126.85942,37.56642],[126.85938,37.56656],[126.85937,37.56671],[126.8594,37.56685],[126.85946,37.56698],[126.85949,37.56703],[126.85959,37.56724]]}},{"type":"Feature","properties":{"class":"minor","highway":"residential","sidewalk":"unknown","lanes":0,"name":"","oneway":false},"geometry":{"type":"LineString","coordinates":[[126.85972,37.56186],[126.85977,37.56192],[126.85983,37.56198],[126.86106,37.56335],[126.86116,37.56347]]}},{"type":"Feature","properties":{"class":"major","highway":"trunk","sidewalk":"likely","lanes":5,"name":"자유로","oneway":true},"geometry":{"type":"LineString","coordinates":[[126.85911,37.57848],[126.86047,37.57772],[126.86206,37.57679],[126.86237,37.57661]]}},{"type":"Feature","properties":{"class":"alley","highway":"service","sidewalk":"unknown","lanes":0,"name":"한강난지로","oneway":false},"geometry":{"type":"LineString","coordinates":[[126.87935,37.56645],[126.87976,37.56622],[126.88042,37.56584],[126.88127,37.56536],[126.88177,37.56507],[126.88249,37.56465],[126.88344,37.56411],[126.88563,37.56288],[126.886,37.56263],[126.8864,37.56226],[126.88643,37.56224],[126.88661,37.56214],[126.88679,37.56204],[126.88698,37.56193],[126.88713,37.56185],[126.8873,37.56175],[126.88747,37.56165],[126.8876,37.56156],[126.88773,37.56148],[126.88779,37.56142],[126.88812,37.56115],[126.88846,37.56088]]}},{"type":"Feature","properties":{"class":"major","highway":"trunk","sidewalk":"likely","lanes":4,"name":"올림픽대로","oneway":true},"geometry":{"type":"LineString","coordinates":[[126.8756,37.55414],[126.87486,37.55467],[126.87335,37.55586],[126.87225,37.55684],[126.87048,37.55837],[126.86878,37.5597],[126.86807,37.56023],[126.86681,37.56097],[126.86591,37.56151]]}},{"type":"Feature","properties":{"class":"minor","highway":"unclassified","sidewalk":"unknown","lanes":0,"name":"","oneway":false},"geometry":{"type":"LineString","coordinates":[[126.86673,37.57589],[126.86696,37.57619],[126.86794,37.57682],[126.86844,37.57726],[126.86924,37.57741],[126.87054,37.57752],[126.87205,37.57784],[126.87294,37.57813],[126.87399,37.57855],[126.87435,37.57863],[126.87597,37.57875],[126.87629,37.57871],[126.87652,37.57862],[126.87825,37.57758],[126.87905,37.57705],[126.87952,37.57664],[126.8803,37.57593],[126.88324,37.57377],[126.88326,37.57376],[126.88332,37.57371]]}},{"type":"Feature","properties":{"class":"minor","highway":"unclassified","sidewalk":"unknown","lanes":0,"name":"","oneway":false},"geometry":{"type":"LineString","coordinates":[[126.86632,37.57548],[126.86673,37.57589]]}},{"type":"Feature","properties":{"class":"minor","highway":"unclassified","sidewalk":"unknown","lanes":0,"name":"노을길","oneway":false},"geometry":{"type":"LineString","coordinates":[[126.88065,37.56959],[126.88059,37.56963],[126.88057,37.56964],[126.87982,37.57009],[126.87929,37.57037],[126.87925,37.57039],[126.87925,37.57091],[126.88018,37.57235],[126.8805,37.57307],[126.88052,37.57328],[126.88039,37.5735],[126.8795,37.57423],[126.87894,37.57469],[126.87542,37.57733],[126.87527,37.57739],[126.87496,37.57737],[126.87301,37.57714],[126.87067,37.57698],[126.8695,37.57685],[126.86857,37.57664],[126.8675,37.57618],[126.86673,37.57589]]}},{"type":"Feature","properties":{"class":"alley","highway":"service","sidewalk":"unknown","lanes":0,"name":"중앙연결브릿지","oneway":true},"geometry":{"type":"LineString","coordinates":[[126.87837,37.56806],[126.87784,37.56752],[126.87777,37.56747],[126.87766,37.56745],[126.87758,37.56745],[126.87747,37.56749]]}},{"type":"Feature","properties":{"class":"alley","highway":"service","sidewalk":"unknown","lanes":0,"name":"","oneway":true},"geometry":{"type":"LineString","coordinates":[[126.87747,37.56749],[126.87682,37.56786]]}},{"type":"Feature","properties":{"class":"alley","highway":"service","sidewalk":"unknown","lanes":0,"name":"","oneway":false},"geometry":{"type":"LineString","coordinates":[[126.87649,37.56809],[126.87607,37.56832],[126.87553,37.56861],[126.87536,37.5687]]}},{"type":"Feature","properties":{"class":"alley","highway":"service","sidewalk":"unknown","lanes":0,"name":"","oneway":true},"geometry":{"type":"LineString","coordinates":[[126.87852,37.56816],[126.87844,37.56812],[126.87837,37.56806]]}},{"type":"Feature","properties":{"class":"alley","highway":"service","sidewalk":"unknown","lanes":0,"name":"","oneway":true},"geometry":{"type":"LineString","coordinates":[[126.87682,37.56786],[126.87649,37.56809]]}},{"type":"Feature","properties":{"class":"major","highway":"trunk_link","sidewalk":"likely","lanes":0,"name":"","oneway":true},"geometry":{"type":"LineString","coordinates":[[126.86366,37.57549],[126.86397,37.57535],[126.86461,37.57517],[126.86556,37.57478]]}},{"type":"Feature","properties":{"class":"minor","highway":"residential","sidewalk":"unknown","lanes":0,"name":"","oneway":false},"geometry":{"type":"LineString","coordinates":[[126.86277,37.56004],[126.86257,37.55981],[126.86251,37.55975],[126.86242,37.55965],[126.86232,37.55953],[126.86228,37.55948],[126.86221,37.55944]]}},{"type":"Feature","properties":{"class":"minor","highway":"residential","sidewalk":"unknown","lanes":0,"name":"","oneway":false},"geometry":{"type":"LineString","coordinates":[[126.86277,37.56004],[126.86287,37.56015]]}},{"type":"Feature","properties":{"class":"alley","highway":"service","sidewalk":"unknown","lanes":0,"name":"","oneway":false},"geometry":{"type":"LineString","coordinates":[[126.86277,37.56004],[126.86261,37.56007],[126.861,37.56096]]}},{"type":"Feature","properties":{"class":"alley","highway":"service","sidewalk":"unknown","lanes":0,"name":"","oneway":false},"geometry":{"type":"LineString","coordinates":[[126.861,37.56096],[126.86046,37.5603],[126.86074,37.56011]]}},{"type":"Feature","properties":{"class":"alley","highway":"service","sidewalk":"unknown","lanes":0,"name":"","oneway":false},"geometry":{"type":"LineString","coordinates":[[126.86074,37.56011],[126.86086,37.5603]]}},{"type":"Feature","properties":{"class":"alley","highway":"service","sidewalk":"unknown","lanes":0,"name":"","oneway":false},"geometry":{"type":"LineString","coordinates":[[126.86086,37.5603],[126.86092,37.56033],[126.86099,37.56033],[126.86157,37.56002],[126.86164,37.56001],[126.8617,37.56002],[126.86178,37.56001],[126.86242,37.55965]]}},{"type":"Feature","properties":{"class":"alley","highway":"service","sidewalk":"unknown","lanes":0,"name":"","oneway":false},"geometry":{"type":"LineString","coordinates":[[126.86074,37.56011],[126.86076,37.56006],[126.8615,37.55975],[126.86221,37.55948],[126.86228,37.55948]]}},{"type":"Feature","properties":{"class":"alley","highway":"service","sidewalk":"unknown","lanes":0,"name":"","oneway":false},"geometry":{"type":"LineString","coordinates":[[126.87982,37.57009],[126.87969,37.56994],[126.87952,37.56976]]}},{"type":"Feature","properties":{"class":"minor","highway":"unclassified","sidewalk":"unknown","lanes":0,"name":"","oneway":false},"geometry":{"type":"LineString","coordinates":[[126.86673,37.57589],[126.8666,37.57557],[126.86654,37.57533],[126.86665,37.5752],[126.87172,37.57216]]}},{"type":"Feature","properties":{"class":"major","highway":"trunk_link","sidewalk":"likely","lanes":0,"name":"","oneway":true},"geometry":{"type":"LineString","coordinates":[[126.86179,37.56417],[126.86172,37.56422],[126.86161,37.56431],[126.8615,37.56443],[126.8614,37.56456],[126.86126,37.56472],[126.8611,37.56489],[126.86095,37.56501],[126.86077,37.56515],[126.86045,37.56536],[126.86015,37.56556],[126.86003,37.56566],[126.85986,37.56585],[126.85977,37.56592]]}},{"type":"Feature","properties":{"class":"major","highway":"trunk_link","sidewalk":"likely","lanes":0,"name":"","oneway":true},"geometry":{"type":"LineString","coordinates":[[126.85946,37.56446],[126.85977,37.56445],[126.86003,37.56441],[126.86021,37.56438],[126.86035,37.56436],[126.86048,37.56438],[126.8606,37.56442],[126.86071,37.56449],[126.86079,37.56456],[126.86085,37.56466],[126.86087,37.56475],[126.86087,37.56484],[126.86084,37.56493],[126.86079,37.56501],[126.86073,37.56508],[126.86065,37.56514],[126.85981,37.56563],[126.85943,37.56584],[126.85913,37.566],[126.85886,37.5661],[126.85844,37.56623],[126.85799,37.56634],[126.85758,37.56651],[126.85753,37.56653]]}},{"type":"Feature","properties":{"class":"major","highway":"trunk_link","sidewalk":"likely","lanes":0,"name":"","oneway":true},"geometry":{"type":"LineString","coordinates":[[126.86592,37.57504],[126.86518,37.57547],[126.86484,37.57564],[126.86457,37.5757]]}},{"type":"Feature","properties":{"class":"major","highway":"trunk_link","sidewalk":"likely","lanes":0,"name":"","oneway":true},"geometry":{"type":"LineString","coordinates":[[126.8648,37.57577],[126.86432,37.57605],[126.86407,37.57617],[126.86388,37.57617],[126.86363,37.5761],[126.86344,37.57596],[126.86337,37.57583],[126.86338,37.57569],[126.86353,37.5754],[126.86408,37.5747]]}},{"type":"Feature","properties":{"class":"major","highway":"trunk_link","sidewalk":"likely","lanes":0,"name":"","oneway":true},"geometry":{"type":"LineString","coordinates":[[126.86764,37.57434],[126.86697,37.57469],[126.86633,37.57507]]}},{"type":"Feature","properties":{"class":"major","highway":"primary","sidewalk":"likely","lanes":0,"name":"가양대로","oneway":true},"geometry":{"type":"LineString","coordinates":[[126.87616,37.58026],[126.87587,37.58011],[126.87569,37.58002],[126.87543,37.57988],[126.87506,37.5797]]}},{"type":"Feature","properties":{"class":"major","highway":"trunk_link","sidewalk":"likely","lanes":0,"name":"","oneway":true},"geometry":{"type":"LineString","coordinates":[[126.86216,37.57723],[126.86154,37.57758],[126.86126,37.57774],[126.86101,37.57788],[126.86087,37.578],[126.86066,37.57819],[126.86038,37.57838],[126.86016,37.57851],[126.85966,37.57876],[126.85908,37.57911],[126.85885,37.57925],[126.85871,37.57935],[126.85855,37.57943],[126.85821,37.57953],[126.85787,37.57962]]}},{"type":"Feature","properties":{"class":"major","highway":"trunk_link","sidewalk":"likely","lanes":0,"name":"","oneway":true},"geometry":{"type":"LineString","coordinates":[[126.86416,37.5752],[126.8644,37.57512],[126.86461,37.57503],[126.86592,37.57427],[126.86635,37.57402]]}},{"type":"Feature","properties":{"class":"major","highway":"trunk_link","sidewalk":"likely","lanes":0,"name":"","oneway":true},"geometry":{"type":"LineString","coordinates":[[126.86324,37.57541],[126.86348,37.57522],[126.86385,37.57489],[126.86408,37.5747],[126.86415,37.57454],[126.86421,37.57429],[126.86423,37.57406],[126.86424,37.57398],[126.86424,37.57375]]}},{"type":"Feature","properties":{"class":"major","highway":"trunk","sidewalk":"likely","lanes":5,"name":"강변북로","oneway":true},"geometry":{"type":"LineString","coordinates":[[126.86493,37.57515],[126.86556,37.57478],[126.86927,37.57265],[126.87237,37.57088],[126.8738,37.5701],[126.87411,37.56992],[126.87749,37.56796],[126.87865,37.56729],[126.8808,37.56604],[126.88426,37.56405],[126.88512,37.56356],[126.8853,37.56345],[126.88676,37.56261],[126.88687,37.56255],[126.88723,37.56234],[126.88741,37.56223],[126.88799,37.5619],[126.88834,37.56168],[126.88895,37.56134],[126.88953,37.56102],[126.89075,37.56035],[126.89097,37.56023]]}},{"type":"Feature","properties":{"class":"major","highway":"trunk","sidewalk":"likely","lanes":5,"name":"자유로","oneway":true},"geometry":{"type":"LineString","coordinates":[[126.86533,37.57527],[126.86513,37.57539],[126.86457,37.5757],[126.86266,37.57678]]}},{"type":"Feature","properties":{"class":"major","highway":"primary","sidewalk":"likely","lanes":0,"name":"가양대로","oneway":true},"geometry":{"type":"LineString","coordinates":[[126.86631,37.57623],[126.86611,37.57605],[126.86594,37.57588],[126.86582,37.57576],[126.86573,37.57566],[126.86555,37.57546],[126.8649,37.5746],[126.86458,37.57416],[126.86424,37.57375],[126.86403,37.57348],[126.86382,37.57318],[126.86341,37.57261],[126.86146,37.56995],[126.86047,37.56862],[126.85951,37.56729]]}},{"type":"Feature","properties":{"class":"major","highway":"trunk_link","sidewalk":"likely","lanes":0,"name":"","oneway":true},"geometry":{"type":"LineString","coordinates":[[126.87901,37.56753],[126.87861,37.56777]]}},{"type":"Feature","properties":{"class":"major","highway":"trunk_link","sidewalk":"likely","lanes":0,"name":"","oneway":true},"geometry":{"type":"LineString","coordinates":[[126.87861,37.56777],[126.87793,37.56813],[126.87712,37.56843]]}},{"type":"Feature","properties":{"class":"major","highway":"trunk_link","sidewalk":"likely","lanes":0,"name":"","oneway":true},"geometry":{"type":"LineString","coordinates":[[126.87918,37.56778],[126.88015,37.5689],[126.88017,37.56892],[126.88034,37.56916],[126.88051,37.56942]]}},{"type":"Feature","properties":{"class":"major","highway":"trunk","sidewalk":"likely","lanes":5,"name":"강변북로","oneway":true},"geometry":{"type":"LineString","coordinates":[[126.87712,37.56843],[126.87309,37.57075],[126.87275,37.57095],[126.86847,37.57343],[126.86558,37.57512],[126.86533,37.57527]]}},{"type":"Feature","properties":{"class":"major","highway":"trunk","sidewalk":"likely","lanes":5,"name":"강변북로","oneway":true},"geometry":{"type":"LineString","coordinates":[[126.88008,37.56672],[126.87871,37.56747],[126.87712,37.56843]]}},{"type":"Feature","properties":{"class":"major","highway":"trunk_link","sidewalk":"likely","lanes":0,"name":"","oneway":true},"geometry":{"type":"LineString","coordinates":[[126.87309,37.57075],[126.87241,37.57134],[126.87226,37.57143],[126.87151,37.57189],[126.87138,37.57194],[126.87132,37.57193]]}},{"type":"Feature","properties":{"class":"major","highway":"trunk_link","sidewalk":"likely","lanes":1,"name":"","oneway":true},"geometry":{"type":"LineString","coordinates":[[126.87092,37.5715],[126.87092,37.57144],[126.87093,37.57139],[126.87107,37.57128],[126.87184,37.57099],[126.87237,37.57088]]}},{"type":"Feature","properties":{"class":"major","highway":"trunk_link","sidewalk":"likely","lanes":0,"name":"","oneway":true},"geometry":{"type":"LineString","coordinates":[[126.87132,37.57193],[126.87112,37.57176],[126.87092,37.5715]]}},{"type":"Feature","properties":{"class":"major","highway":"trunk_link","sidewalk":"likely","lanes":0,"name":"","oneway":true},"geometry":{"type":"LineString","coordinates":[[126.87607,37.56832],[126.87643,37.56826],[126.87703,37.5681],[126.87749,37.56796]]}},{"type":"Feature","properties":{"class":"alley","highway":"service","sidewalk":"unknown","lanes":0,"name":"","oneway":true},"geometry":{"type":"LineString","coordinates":[[126.87435,37.56925],[126.87433,37.56927],[126.87431,37.56929],[126.87428,37.5693],[126.87424,37.5693],[126.87421,37.5693],[126.87418,37.56928],[126.87416,37.56926],[126.87415,37.56924],[126.87415,37.56921],[126.87416,37.56919],[126.87418,37.56917],[126.8742,37.56915],[126.87424,37.56914],[126.87427,37.56914],[126.8743,37.56915],[126.87433,37.56917],[126.87435,37.56919],[126.87435,37.56922],[126.87435,37.56925]]}},{"type":"Feature","properties":{"class":"alley","highway":"service","sidewalk":"unknown","lanes":0,"name":"","oneway":true},"geometry":{"type":"LineString","coordinates":[[126.87452,37.56922],[126.87444,37.56924],[126.87438,37.56928],[126.87428,37.5693]]}},{"type":"Feature","properties":{"class":"major","highway":"trunk_link","sidewalk":"likely","lanes":1,"name":"","oneway":true},"geometry":{"type":"LineString","coordinates":[[126.8738,37.5701],[126.87409,37.56974],[126.8743,37.56948]]}},{"type":"Feature","properties":{"class":"alley","highway":"service","sidewalk":"unknown","lanes":0,"name":"","oneway":true},"geometry":{"type":"LineString","coordinates":[[126.8743,37.56948],[126.87425,37.56941],[126.87428,37.5693]]}},{"type":"Feature","properties":{"class":"alley","highway":"service","sidewalk":"unknown","lanes":0,"name":"","oneway":false},"geometry":{"type":"LineString","coordinates":[[126.87414,37.56941],[126.87314,37.56995],[126.87308,37.56998],[126.87283,37.57021],[126.87222,37.57054],[126.8716,37.57082],[126.87089,37.57125],[126.87074,37.57129],[126.87068,37.57131]]}},{"type":"Feature","properties":{"class":"alley","highway":"service","sidewalk":"unknown","lanes":0,"name":"","oneway":true},"geometry":{"type":"LineString","coordinates":[[126.87428,37.5693],[126.87424,37.56934],[126.8742,37.56937],[126.87414,37.56941]]}},{"type":"Feature","properties":{"class":"alley","highway":"service","sidewalk":"unknown","lanes":0,"name":"","oneway":false},"geometry":{"type":"LineString","coordinates":[[126.87314,37.56995],[126.87306,37.56985],[126.87415,37.56924]]}},{"type":"Feature","properties":{"class":"alley","highway":"service","sidewalk":"unknown","lanes":0,"name":"","oneway":true},"geometry":{"type":"LineString","coordinates":[[126.86426,37.57621],[126.86351,37.57658],[126.86226,37.57722]]}},{"type":"Feature","properties":{"class":"alley","highway":"service","sidewalk":"unknown","lanes":0,"name":"","oneway":false},"geometry":{"type":"LineString","coordinates":[[126.86473,37.5759],[126.86459,37.57618],[126.86413,37.57642],[126.86393,37.57651],[126.86378,37.57655],[126.86358,37.57668]]}},{"type":"Feature","properties":{"class":"alley","highway":"service","sidewalk":"unknown","lanes":0,"name":"","oneway":false},"geometry":{"type":"LineString","coordinates":[[126.86497,37.57574],[126.86511,37.57592],[126.86504,37.57612]]}},{"type":"Feature","properties":{"class":"major","highway":"trunk","sidewalk":"likely","lanes":0,"name":"","oneway":false},"geometry":{"type":"LineString","coordinates":[[126.85773,37.57928],[126.85777,37.57916],[126.8578,37.57908],[126.85812,37.57879],[126.85837,37.57856],[126.85852,37.57845],[126.85889,37.57819],[126.85909,37.57808],[126.8593,37.57795],[126.85961,37.57779],[126.85979,37.57772],[126.86014,37.57765],[126.86025,37.57766]]}},{"type":"Feature","properties":{"class":"alley","highway":"service","sidewalk":"unknown","lanes":0,"name":"","oneway":false},"geometry":{"type":"LineString","coordinates":[[126.86013,37.56391],[126.86002,37.56381],[126.85987,37.56364],[126.86005,37.56354],[126.86019,37.56371],[126.86028,37.56382]]}},{"type":"Feature","properties":{"class":"alley","highway":"service","sidewalk":"unknown","lanes":0,"name":"","oneway":false},"geometry":{"type":"LineString","coordinates":[[126.86002,37.56381],[126.86019,37.56371]]}},{"type":"Feature","properties":{"class":"alley","highway":"service","sidewalk":"unknown","lanes":0,"name":"","oneway":false},"geometry":{"type":"LineString","coordinates":[[126.8605,37.56354],[126.86035,37.56336],[126.86051,37.56328],[126.86065,37.56344],[126.86073,37.56354]]}},{"type":"Feature","properties":{"class":"alley","highway":"service","sidewalk":"unknown","lanes":0,"name":"","oneway":false},"geometry":{"type":"LineString","coordinates":[[126.86065,37.56344],[126.8605,37.56354]]}},{"type":"Feature","properties":{"class":"major","highway":"trunk","sidewalk":"likely","lanes":5,"name":"자유로","oneway":true},"geometry":{"type":"LineString","coordinates":[[126.86258,37.57683],[126.8622,37.57704],[126.86103,37.5777],[126.8604,37.57807],[126.85996,37.57832],[126.85984,37.57839],[126.85955,37.57856],[126.85883,37.57897],[126.85845,37.57919],[126.85753,37.57971],[126.85726,37.57987],[126.85703,37.58001]]}},{"type":"Feature","properties":{"class":"major","highway":"trunk","sidewalk":"likely","lanes":5,"name":"자유로","oneway":true},"geometry":{"type":"LineString","coordinates":[[126.86266,37.57678],[126.86258,37.57683]]}},{"type":"Feature","properties":{"class":"major","highway":"trunk","sidewalk":"likely","lanes":5,"name":"자유로","oneway":true},"geometry":{"type":"LineString","coordinates":[[126.86246,37.57657],[126.86493,37.57515]]}},{"type":"Feature","properties":{"class":"major","highway":"trunk","sidewalk":"likely","lanes":5,"name":"자유로","oneway":true},"geometry":{"type":"LineString","coordinates":[[126.86237,37.57661],[126.86246,37.57657]]}},{"type":"Feature","properties":{"class":"major","highway":"tertiary","sidewalk":"likely","lanes":2,"name":"으뜸로","oneway":false},"geometry":{"type":"LineString","coordinates":[[126.85756,37.58214],[126.85768,37.582],[126.85796,37.5817],[126.85803,37.58162],[126.8581,37.58156],[126.85817,37.58149],[126.85905,37.5809],[126.85968,37.5805],[126.85986,37.5804],[126.85997,37.58033],[126.86007,37.58028],[126.86057,37.58],[126.86085,37.57983],[126.86109,37.57971],[126.86149,37.57952],[126.86226,37.57924],[126.86239,37.5792],[126.86332,37.57901],[126.86382,37.57894],[126.8643,37.57889],[126.8644,37.57889],[126.86448,37.57889],[126.86525,37.57889],[126.86604,37.57889],[126.86675,37.57891],[126.86744,37.57893],[126.86755,37.57893],[126.86764,37.57894],[126.86804,37.57895],[126.86867,37.57904],[126.86934,37.57927],[126.86998,37.57958],[126.87009,37.57965],[126.87049,37.5799],[126.87055,37.57994],[126.87068,37.58004],[126.87079,37.58013],[126.87104,37.58032],[126.87113,37.58039],[126.87155,37.58078],[126.87173,37.58104]]}},{"type":"Feature","properties":{"class":"minor","highway":"residential","sidewalk":"unknown","lanes":1,"name":"","oneway":false},"geometry":{"type":"LineString","coordinates":[[126.86439,37.57829],[126.86499,37.57829],[126.86715,37.57833],[126.86758,37.57833],[126.86786,37.57832],[126.86872,37.5783],[126.86897,37.57833],[126.86935,37.57845],[126.86982,37.57879],[126.87007,37.57892],[126.87029,37.57901],[126.87025,37.57909],[126.87003,37.57949],[126.86998,37.57958]]}},{"type":"Feature","properties":{"class":"minor","highway":"residential","sidewalk":"unknown","lanes":1,"name":"","oneway":false},"geometry":{"type":"LineString","coordinates":[[126.86188,37.57841],[126.86191,37.57847],[126.86222,37.57916],[126.86226,37.57924]]}},{"type":"Feature","properties":{"class":"minor","highway":"residential","sidewalk":"unknown","lanes":1,"name":"","oneway":false},"geometry":{"type":"LineString","coordinates":[[126.8644,37.57889],[126.86441,37.579],[126.86442,37.57978],[126.86442,37.57985],[126.86442,37.57992],[126.86444,37.58061],[126.86444,37.58067]]}},{"type":"Feature","properties":{"class":"minor","highway":"residential","sidewalk":"unknown","lanes":1,"name":"","oneway":false},"geometry":{"type":"LineString","coordinates":[[126.86714,37.58064],[126.86715,37.58057],[126.86733,37.57991],[126.86734,37.57985],[126.86736,37.57978],[126.86754,37.57904],[126.86755,37.57893],[126.86756,37.57884],[126.86757,37.57838],[126.86758,37.57833]]}},{"type":"Feature","properties":{"class":"alley","highway":"service","sidewalk":"unknown","lanes":0,"name":"","oneway":false},"geometry":{"type":"LineString","coordinates":[[126.86252,37.56188],[126.8628,37.5622],[126.86284,37.56225],[126.86283,37.56231],[126.8625,37.56249],[126.86233,37.56259]]}},{"type":"Feature","properties":{"class":"alley","highway":"service","sidewalk":"unknown","lanes":0,"name":"","oneway":false},"geometry":{"type":"LineString","coordinates":[[126.86252,37.56188],[126.86202,37.56132],[126.86196,37.56127],[126.86193,37.56124],[126.86186,37.5612],[126.86158,37.56085]]}},{"type":"Feature","properties":{"class":"alley","highway":"service","sidewalk":"unknown","lanes":0,"name":"","oneway":false},"geometry":{"type":"LineString","coordinates":[[126.86092,37.56291],[126.86142,37.56264],[126.86144,37.56262],[126.86152,37.56253],[126.86161,37.56242],[126.86165,37.56237],[126.86172,37.56233],[126.8621,37.56212],[126.86252,37.56188]]}},{"type":"Feature","properties":{"class":"alley","highway":"service","sidewalk":"unknown","lanes":0,"name":"","oneway":false},"geometry":{"type":"LineString","coordinates":[[126.8601,37.56165],[126.86028,37.56189],[126.86037,37.56201],[126.86038,37.56205],[126.86037,37.56211],[126.86036,37.56215],[126.86036,37.5622],[126.86036,37.56224],[126.86038,37.56229],[126.8604,37.56233],[126.86044,37.56237],[126.86092,37.56291],[126.86121,37.56325]]}},{"type":"Feature","properties":{"class":"alley","highway":"service","sidewalk":"unknown","lanes":0,"name":"","oneway":false},"geometry":{"type":"LineString","coordinates":[[126.86106,37.56335],[126.86078,37.56351],[126.86073,37.56354],[126.86032,37.56379],[126.86028,37.56382],[126.86022,37.56385],[126.86013,37.56391],[126.86003,37.56398],[126.85988,37.56405],[126.85977,37.56407],[126.85966,37.56406],[126.85939,37.56404],[126.85886,37.56398],[126.85857,37.56394],[126.85826,37.5639],[126.85803,37.56384],[126.85797,37.56382],[126.85775,37.56374],[126.85766,37.56368],[126.85756,37.56361]]}},{"type":"Feature","properties":{"class":"alley","highway":"service","sidewalk":"unknown","lanes":0,"name":"","oneway":false},"geometry":{"type":"LineString","coordinates":[[126.87952,37.56887],[126.87971,37.56907],[126.87956,37.56917]]}},{"type":"Feature","properties":{"class":"alley","highway":"service","sidewalk":"unknown","lanes":0,"name":"","oneway":false},"geometry":{"type":"LineString","coordinates":[[126.87972,37.56874],[126.8797,37.56876],[126.87968,37.56876],[126.87952,37.56887],[126.87928,37.56901],[126.87928,37.56907],[126.87926,37.56913],[126.87921,37.56919],[126.87871,37.56947],[126.87864,37.56951],[126.87862,37.56951],[126.8786,37.56951],[126.87855,37.56947],[126.87802,37.56901],[126.87798,37.56897],[126.87798,37.56894],[126.878,37.5689],[126.87803,37.56888],[126.87853,37.56859],[126.87856,37.56857],[126.87858,37.56857],[126.87861,37.56857],[126.87866,37.56862],[126.87899,37.56892],[126.87904,37.56895],[126.87911,37.56899],[126.87922,37.569],[126.87928,37.56901]]}},{"type":"Feature","properties":{"class":"alley","highway":"service","sidewalk":"unknown","lanes":0,"name":"","oneway":false},"geometry":{"type":"LineString","coordinates":[[126.87929,37.57037],[126.87863,37.56963]]}},{"type":"Feature","properties":{"class":"major","highway":"primary_link","sidewalk":"likely","lanes":0,"name":"","oneway":true},"geometry":{"type":"LineString","coordinates":[[126.87686,37.57981],[126.87676,37.57993],[126.87674,37.57997],[126.87671,37.58003],[126.87669,37.58011],[126.87669,37.58015],[126.87671,37.58025],[126.87674,37.58032],[126.87682,37.58047]]}},{"type":"Feature","properties":{"class":"major","highway":"primary_link","sidewalk":"likely","lanes":0,"name":"","oneway":true},"geometry":{"type":"LineString","coordinates":[[126.87522,37.57963],[126.87539,37.57967],[126.87556,37.57975],[126.87575,37.57983],[126.87582,37.57986],[126.87591,37.57989],[126.87608,37.57993],[126.87618,37.57994],[126.87623,37.57994],[126.87628,37.57994],[126.87639,37.57993],[126.87649,37.5799],[126.8766,37.57986],[126.87686,37.57981]]}},{"type":"Feature","properties":{"class":"alley","highway":"pedestrian","sidewalk":"unknown","lanes":0,"name":"황금내근린공원","oneway":false},"geometry":{"type":"LineString","coordinates":[[126.86734,37.55977],[126.86728,37.55994],[126.86645,37.56045],[126.86635,37.56066],[126.8662,37.56081],[126.86575,37.56107],[126.8654,37.56119],[126.86452,37.56166],[126.86426,37.56182]]}},{"type":"Feature","properties":{"class":"alley","highway":"pedestrian","sidewalk":"unknown","lanes":0,"name":"황금내근린공원","oneway":false},"geometry":{"type":"LineString","coordinates":[[126.86426,37.56182],[126.86407,37.56194],[126.86404,37.56191],[126.86401,37.56188],[126.86378,37.56201],[126.86349,37.56217],[126.86298,37.56248],[126.86302,37.56253],[126.86286,37.56262],[126.86277,37.56267],[126.86236,37.56291],[126.8622,37.56296],[126.86198,37.56308],[126.86193,37.56316],[126.8614,37.56345],[126.86139,37.56346],[126.86136,37.56347],[126.86104,37.56366],[126.86063,37.56392],[126.86046,37.56401],[126.86035,37.56397],[126.86033,37.56397]]}},{"type":"Feature","properties":{"class":"alley","highway":"pedestrian","sidewalk":"unknown","lanes":0,"name":"황금내근린공원","oneway":false},"geometry":{"type":"LineString","coordinates":[[126.86349,37.56217],[126.86355,37.56223],[126.86357,37.56225]]}},{"type":"Feature","properties":{"class":"alley","highway":"service","sidewalk":"unknown","lanes":0,"name":"","oneway":true},"geometry":{"type":"LineString","coordinates":[[126.86226,37.57722],[126.86146,37.57767],[126.86115,37.57784],[126.86087,37.578]]}},{"type":"Feature","properties":{"class":"alley","highway":"service","sidewalk":"unknown","lanes":0,"name":"","oneway":true},"geometry":{"type":"LineString","coordinates":[[126.86602,37.57506],[126.86584,37.57525],[126.86507,37.57568],[126.86497,37.57574],[126.86473,37.5759],[126.86426,37.57621]]}},{"type":"Feature","properties":{"class":"alley","highway":"service","sidewalk":"unknown","lanes":0,"name":"","oneway":false},"geometry":{"type":"LineString","coordinates":[[126.86142,37.56264],[126.86149,37.56272],[126.86174,37.563],[126.8616,37.56308],[126.86136,37.56279],[126.86149,37.56272]]}},{"type":"Feature","properties":{"class":"alley","highway":"service","sidewalk":"unknown","lanes":0,"name":"","oneway":false},"geometry":{"type":"LineString","coordinates":[[126.86233,37.56259],[126.86218,37.56242],[126.86236,37.56232],[126.8625,37.56249]]}},{"type":"Feature","properties":{"class":"alley","highway":"service","sidewalk":"unknown","lanes":0,"name":"","oneway":false},"geometry":{"type":"LineString","coordinates":[[126.86038,37.56205],[126.86047,37.56202],[126.86067,37.56191],[126.86085,37.56182],[126.86128,37.56159],[126.86146,37.56149],[126.86164,37.5614],[126.86193,37.56124],[126.86237,37.561]]}},{"type":"Feature","properties":{"class":"alley","highway":"service","sidewalk":"unknown","lanes":0,"name":"","oneway":false},"geometry":{"type":"LineString","coordinates":[[126.86067,37.56191],[126.8608,37.56206]]}},{"type":"Feature","properties":{"class":"alley","highway":"service","sidewalk":"unknown","lanes":0,"name":"","oneway":false},"geometry":{"type":"LineString","coordinates":[[126.86085,37.56182],[126.86097,37.56197]]}},{"type":"Feature","properties":{"class":"alley","highway":"service","sidewalk":"unknown","lanes":0,"name":"","oneway":false},"geometry":{"type":"LineString","coordinates":[[126.86128,37.56159],[126.8614,37.56173]]}},{"type":"Feature","properties":{"class":"alley","highway":"service","sidewalk":"unknown","lanes":0,"name":"","oneway":false},"geometry":{"type":"LineString","coordinates":[[126.86146,37.56149],[126.86157,37.56163]]}},{"type":"Feature","properties":{"class":"alley","highway":"service","sidewalk":"unknown","lanes":0,"name":"","oneway":false},"geometry":{"type":"LineString","coordinates":[[126.86164,37.5614],[126.86175,37.56153]]}},{"type":"Feature","properties":{"class":"alley","highway":"service","sidewalk":"unknown","lanes":0,"name":"","oneway":false},"geometry":{"type":"LineString","coordinates":[[126.86172,37.56233],[126.8615,37.56206],[126.86187,37.56185],[126.8621,37.56212]]}},{"type":"Feature","properties":{"class":"alley","highway":"service","sidewalk":"unknown","lanes":0,"name":"","oneway":false},"geometry":{"type":"LineString","coordinates":[[126.86251,37.55975],[126.8624,37.55982],[126.86241,37.55987],[126.86238,37.55992],[126.86222,37.56001]]}},{"type":"Feature","properties":{"class":"alley","highway":"service","sidewalk":"unknown","lanes":0,"name":"","oneway":false},"geometry":{"type":"LineString","coordinates":[[126.86032,37.56379],[126.86023,37.56369]]}},{"type":"Feature","properties":{"class":"alley","highway":"service","sidewalk":"unknown","lanes":0,"name":"","oneway":false},"geometry":{"type":"LineString","coordinates":[[126.86078,37.56351],[126.8607,37.56341]]}},{"type":"Feature","properties":{"class":"major","highway":"primary_link","sidewalk":"likely","lanes":0,"name":"","oneway":true},"geometry":{"type":"LineString","coordinates":[[126.8735,37.57913],[126.87305,37.57909],[126.87256,37.57897],[126.87195,37.57885],[126.87174,37.5788],[126.87169,37.5788],[126.87165,37.57881],[126.87159,37.57883],[126.87156,37.57885],[126.87154,37.57888],[126.87152,37.57892],[126.8714,37.57924],[126.87134,37.57928]]}},{"type":"Feature","properties":{"class":"major","highway":"primary_link","sidewalk":"likely","lanes":0,"name":"","oneway":true},"geometry":{"type":"LineString","coordinates":[[126.87134,37.57928],[126.87132,37.57922],[126.87142,37.57891],[126.87143,37.57887],[126.87143,37.57883],[126.87141,37.57878],[126.87138,37.57875],[126.87133,37.57872],[126.87126,37.57868],[126.87113,37.57864],[126.87094,37.57857],[126.87065,37.57847]]}},{"type":"Feature","properties":{"class":"major","highway":"secondary","sidewalk":"likely","lanes":2,"name":"","oneway":false},"geometry":{"type":"LineString","coordinates":[[126.87133,37.57931],[126.87129,37.57944],[126.87116,37.57963],[126.87078,37.57995],[126.87068,37.58004]]}},{"type":"Feature","properties":{"class":"alley","highway":"service","sidewalk":"unknown","lanes":0,"name":"","oneway":true},"geometry":{"type":"LineString","coordinates":[[126.87414,37.56941],[126.87418,37.56935],[126.87418,37.56932],[126.87418,37.56928]]}},{"type":"Feature","properties":{"class":"alley","highway":"service","sidewalk":"unknown","lanes":0,"name":"","oneway":true},"geometry":{"type":"LineString","coordinates":[[126.87435,37.56919],[126.87441,37.5692],[126.87446,37.5692],[126.87452,37.56922]]}},{"type":"Feature","properties":{"class":"alley","highway":"pedestrian","sidewalk":"unknown","lanes":0,"name":"황금내근린공원","oneway":false},"geometry":{"type":"LineString","coordinates":[[126.86401,37.56188],[126.86396,37.56182],[126.86394,37.5618],[126.86393,37.56179]]}},{"type":"Feature","properties":{"class":"alley","highway":"pedestrian","sidewalk":"unknown","lanes":0,"name":"황금내근린공원","oneway":false},"geometry":{"type":"LineString","coordinates":[[126.86277,37.56267],[126.86268,37.56259],[126.86266,37.56257],[126.86265,37.56257]]}},{"type":"Feature","properties":{"class":"alley","highway":"pedestrian","sidewalk":"unknown","lanes":0,"name":"황금내근린공원","oneway":false},"geometry":{"type":"LineString","coordinates":[[126.86388,37.56205],[126.86396,37.56215]]}},{"type":"Feature","properties":{"class":"alley","highway":"pedestrian","sidewalk":"unknown","lanes":0,"name":"황금내근린공원","oneway":false},"geometry":{"type":"LineString","coordinates":[[126.86407,37.56194],[126.86388,37.56205],[126.86384,37.56208],[126.86378,37.56201]]}},{"type":"Feature","properties":{"class":"alley","highway":"pedestrian","sidewalk":"unknown","lanes":0,"name":"황금내근린공원","oneway":false},"geometry":{"type":"LineString","coordinates":[[126.86355,37.56223],[126.86352,37.56225]]}},{"type":"Feature","properties":{"class":"alley","highway":"pedestrian","sidewalk":"unknown","lanes":0,"name":"황금내근린공원","oneway":false},"geometry":{"type":"LineString","coordinates":[[126.86426,37.56182],[126.86434,37.56183],[126.86452,37.56183],[126.8646,37.56182],[126.86468,37.56185]]}},{"type":"Feature","properties":{"class":"alley","highway":"pedestrian","sidewalk":"unknown","lanes":0,"name":"황금내근린공원","oneway":false},"geometry":{"type":"LineString","coordinates":[[126.86452,37.56183],[126.86452,37.56166]]}},{"type":"Feature","properties":{"class":"alley","highway":"pedestrian","sidewalk":"unknown","lanes":0,"name":"황금내근린공원","oneway":false},"geometry":{"type":"LineString","coordinates":[[126.86302,37.56253],[126.86306,37.56257],[126.86309,37.5626]]}},{"type":"Feature","properties":{"class":"minor","highway":"unclassified","sidewalk":"unknown","lanes":0,"name":"","oneway":false},"geometry":{"type":"LineString","coordinates":[[126.87172,37.57216],[126.87852,37.56816],[126.87857,37.56813]]}},{"type":"Feature","properties":{"class":"alley","highway":"service","sidewalk":"unknown","lanes":0,"name":"","oneway":false},"geometry":{"type":"LineString","coordinates":[[126.87068,37.57131],[126.87041,37.57135]]}},{"type":"Feature","properties":{"class":"alley","highway":"service","sidewalk":"unknown","lanes":0,"name":"","oneway":false},"geometry":{"type":"LineString","coordinates":[[126.86442,37.57985],[126.86451,37.57984],[126.86454,37.57984],[126.86468,37.57983]]}},{"type":"Feature","properties":{"class":"alley","highway":"service","sidewalk":"unknown","lanes":0,"name":"","oneway":false},"geometry":{"type":"LineString","coordinates":[[126.86468,37.57983],[126.86486,37.57982]]}},{"type":"Feature","properties":{"class":"alley","highway":"service","sidewalk":"unknown","lanes":0,"name":"","oneway":false},"geometry":{"type":"LineString","coordinates":[[126.86734,37.57985],[126.86727,37.57984],[126.86725,37.57984],[126.86696,37.57983]]}},{"type":"Feature","properties":{"class":"alley","highway":"service","sidewalk":"unknown","lanes":0,"name":"","oneway":false},"geometry":{"type":"LineString","coordinates":[[126.86696,37.57983],[126.86679,37.57983]]}},{"type":"Feature","properties":{"class":"alley","highway":"service","sidewalk":"unknown","lanes":0,"name":"","oneway":false},"geometry":{"type":"LineString","coordinates":[[126.86734,37.57985],[126.8674,37.57985],[126.86742,37.57986],[126.86767,37.57989],[126.86779,37.57994]]}},{"type":"Feature","properties":{"class":"alley","highway":"service","sidewalk":"unknown","lanes":0,"name":"","oneway":false},"geometry":{"type":"LineString","coordinates":[[126.86779,37.57994],[126.86784,37.57999],[126.86789,37.58005]]}},{"type":"Feature","properties":{"class":"alley","highway":"service","sidewalk":"unknown","lanes":0,"name":"","oneway":false},"geometry":{"type":"LineString","coordinates":[[126.86256,37.57831],[126.86257,37.57836],[126.86258,37.57838],[126.86261,37.57851]]}},{"type":"Feature","properties":{"class":"alley","highway":"service","sidewalk":"unknown","lanes":0,"name":"","oneway":false},"geometry":{"type":"LineString","coordinates":[[126.86257,37.57863],[126.86255,37.57862],[126.86254,37.5786],[126.86253,37.57858],[126.86253,37.57856],[126.86254,37.57854],[126.86256,37.57853],[126.86258,37.57852],[126.86261,37.57851],[126.86263,37.57851],[126.86266,37.57852],[126.86268,37.57854],[126.86269,37.57856],[126.86269,37.57858],[126.86269,37.5786],[126.86267,37.57862],[126.86265,37.57864],[126.86262,37.57864],[126.8626,37.57864],[126.86257,37.57863]]}},{"type":"Feature","properties":{"class":"alley","highway":"service","sidewalk":"unknown","lanes":0,"name":"","oneway":false},"geometry":{"type":"LineString","coordinates":[[126.86253,37.57856],[126.86242,37.57855]]}},{"type":"Feature","properties":{"class":"minor","highway":"residential","sidewalk":"unknown","lanes":0,"name":"","oneway":false},"geometry":{"type":"LineString","coordinates":[[126.87104,37.58032],[126.8715,37.57998]]}},{"type":"Feature","properties":{"class":"major","highway":"trunk_link","sidewalk":"likely","lanes":0,"name":"","oneway":true},"geometry":{"type":"LineString","coordinates":[[126.86602,37.57506],[126.8648,37.57577]]}},{"type":"Feature","properties":{"class":"alley","highway":"service","sidewalk":"unknown","lanes":0,"name":"","oneway":false},"geometry":{"type":"LineString","coordinates":[[126.87536,37.5687],[126.87503,37.56886],[126.87452,37.56922]]}},{"type":"Feature","properties":{"class":"alley","highway":"service","sidewalk":"unknown","lanes":0,"name":"중앙연결브릿지","oneway":true},"geometry":{"type":"LineString","coordinates":[[126.87843,37.56691],[126.87795,37.56718],[126.87791,37.56723],[126.87789,37.56728],[126.87788,37.56733],[126.87789,37.56739],[126.87791,37.56746],[126.87839,37.56799],[126.87843,37.56803]]}},{"type":"Feature","properties":{"class":"alley","highway":"service","sidewalk":"unknown","lanes":0,"name":"","oneway":true},"geometry":{"type":"LineString","coordinates":[[126.87935,37.56645],[126.87937,37.56639],[126.87937,37.56632],[126.87935,37.56625],[126.8793,37.56622],[126.87923,37.5662],[126.87917,37.5662],[126.8791,37.56623],[126.87873,37.56645],[126.87867,37.5665],[126.87866,37.56653],[126.87865,37.56658],[126.87867,37.56665],[126.87866,37.5667],[126.87865,37.56675],[126.87862,37.56679],[126.87858,37.56682],[126.87843,37.56691]]}},{"type":"Feature","properties":{"class":"alley","highway":"service","sidewalk":"unknown","lanes":0,"name":"","oneway":true},"geometry":{"type":"LineString","coordinates":[[126.87843,37.56803],[126.8785,37.56808],[126.87851,37.56809],[126.87853,37.5681]]}},{"type":"Feature","properties":{"class":"alley","highway":"service","sidewalk":"unknown","lanes":0,"name":"한강난지로","oneway":false},"geometry":{"type":"LineString","coordinates":[[126.87649,37.56809],[126.87696,37.56791],[126.87697,37.5679],[126.87876,37.56685],[126.8789,37.56671],[126.87935,37.56645]]}},{"type":"Feature","properties":{"class":"minor","highway":"unclassified","sidewalk":"unknown","lanes":0,"name":"","oneway":false},"geometry":{"type":"LineString","coordinates":[[126.87857,37.56813],[126.87893,37.56792],[126.87894,37.56791],[126.87896,37.5679],[126.87918,37.56778]]}},{"type":"Feature","properties":{"class":"major","highway":"trunk_link","sidewalk":"likely","lanes":0,"name":"","oneway":true},"geometry":{"type":"LineString","coordinates":[[126.87901,37.56753],[126.87904,37.56764],[126.87918,37.56778]]}},{"type":"Feature","properties":{"class":"minor","highway":"residential","sidewalk":"unknown","lanes":1,"name":"","oneway":true},"geometry":{"type":"LineString","coordinates":[[126.86146,37.57767],[126.86186,37.57836],[126.86188,37.57841]]}},{"type":"Feature","properties":{"class":"minor","highway":"residential","sidewalk":"unknown","lanes":1,"name":"청초로","oneway":false},"geometry":{"type":"LineString","coordinates":[[126.85945,37.5796],[126.85949,37.57957],[126.85965,37.57947],[126.86008,37.57923],[126.86067,37.5789],[126.86098,37.57874],[126.86119,37.57864],[126.86179,37.57845],[126.86188,37.57841],[126.86196,37.5784],[126.86215,37.57837],[126.86256,37.57831],[126.86263,37.5783],[126.86278,37.57828],[126.86393,37.57828],[126.86429,37.57829],[126.86439,37.57829]]}},{"type":"Feature","properties":{"class":"minor","highway":"residential","sidewalk":"unknown","lanes":1,"name":"청초로","oneway":false},"geometry":{"type":"LineString","coordinates":[[126.86439,37.57829],[126.86439,37.57834],[126.8644,37.57881],[126.8644,37.57889]]}},{"type":"Feature","properties":{"class":"major","highway":"secondary","sidewalk":"likely","lanes":2,"name":"","oneway":false},"geometry":{"type":"LineString","coordinates":[[126.87134,37.57928],[126.87133,37.57931]]}},{"type":"Feature","properties":{"class":"major","highway":"primary","sidewalk":"likely","lanes":0,"name":"가양대로","oneway":true},"geometry":{"type":"LineString","coordinates":[[126.85959,37.56724],[126.85997,37.56773],[126.86037,37.56826],[126.86118,37.56933],[126.86277,37.57149],[126.86362,37.57265],[126.86394,37.57312],[126.86415,37.57342],[126.86435,37.57369],[126.8645,37.57392],[126.86466,37.57415],[126.86497,37.57458],[126.86528,37.57501],[126.86562,37.57543],[126.86578,37.57562],[126.86589,37.57573],[126.86597,37.57581],[126.86606,37.57591],[126.86614,37.57599],[126.86624,37.57608],[126.86637,37.5762]]}},{"type":"Feature","properties":{"class":"major","highway":"primary","sidewalk":"likely","lanes":0,"name":"가양대로","oneway":true},"geometry":{"type":"LineString","coordinates":[[126.86637,37.5762],[126.86646,37.57628],[126.86657,37.57638],[126.86669,37.57647],[126.86682,37.57658],[126.86696,37.57668],[126.86717,37.57683],[126.86742,37.57698],[126.86767,37.57713],[126.86788,37.57726],[126.86809,37.57738],[126.86853,37.5776],[126.86878,37.57772],[126.86904,37.57783],[126.86927,37.57792],[126.86952,37.57801],[126.86975,37.57809],[126.87008,37.5782],[126.87052,37.57832],[126.87112,37.57847],[126.87191,37.57864],[126.87265,37.57881],[126.87321,37.57894],[126.87354,37.57902],[126.87383,37.5791],[126.87413,37.57919],[126.87441,37.5793],[126.87489,37.57948],[126.87512,37.57958]]}},{"type":"Feature","properties":{"class":"major","highway":"primary","sidewalk":"likely","lanes":0,"name":"가양대로","oneway":true},"geometry":{"type":"LineString","coordinates":[[126.87512,37.57958],[126.87522,37.57963],[126.87552,37.57979],[126.87576,37.57991],[126.87595,37.58002],[126.87625,37.58018]]}},{"type":"Feature","properties":{"class":"alley","highway":"service","sidewalk":"unknown","lanes":0,"name":"","oneway":true},"geometry":{"type":"LineString","coordinates":[[126.87853,37.5681],[126.87855,37.56812],[126.87857,37.56813]]}}]}