{"type":"FeatureCollection","features":[{"type":"Feature","properties":{"class":"major","highway":"motorway_link","sidewalk":"likely","lanes":0,"name":"","oneway":true},"geometry":{"type":"LineString","coordinates":[[127.18336,37.57979],[127.18246,37.57966],[127.18162,37.57952],[127.18136,37.57946],[127.18089,37.57936],[127.1804,37.57924],[127.18,37.57917],[127.17955,37.57908],[127.17918,37.57898]]}},{"type":"Feature","properties":{"class":"major","highway":"motorway_link","sidewalk":"likely","lanes":0,"name":"","oneway":true},"geometry":{"type":"LineString","coordinates":[[127.18,37.57917],[127.1795,37.57902],[127.17943,37.57897],[127.1794,37.57891],[127.17939,37.57879],[127.17942,37.57871],[127.17949,37.57863],[127.17953,37.5786],[127.17962,37.57857],[127.17973,37.57855],[127.17981,37.57856],[127.18043,37.57874]]}},{"type":"Feature","properties":{"class":"major","highway":"tertiary","sidewalk":"likely","lanes":0,"name":"미사강변북로","oneway":false},"geometry":{"type":"LineString","coordinates":[[127.17828,37.5708],[127.17849,37.57084],[127.17896,37.57098],[127.17899,37.57099],[127.17973,37.5712],[127.17976,37.57121],[127.18091,37.57154],[127.18108,37.57159],[127.18122,37.57163],[127.18153,37.57173]]}},{"type":"Feature","properties":{"class":"major","highway":"tertiary","sidewalk":"likely","lanes":0,"name":"고덕로97길","oneway":false},"geometry":{"type":"LineString","coordinates":[[127.17928,37.56299],[127.1794,37.56292],[127.17962,37.56277],[127.17973,37.56251],[127.1798,37.56234],[127.17986,37.56219],[127.17995,37.56194],[127.18005,37.56166],[127.18006,37.56156],[127.18008,37.56142],[127.18007,37.56129],[127.18006,37.5612],[127.17998,37.56097],[127.17988,37.56071],[127.17987,37.56068],[127.17982,37.56052],[127.17967,37.56011],[127.17957,37.55985],[127.17956,37.55969],[127.17958,37.55953],[127.17962,37.55936],[127.17967,37.55922],[127.17989,37.5586],[127.1799,37.55859],[127.17996,37.55843]]}},{"type":"Feature","properties":{"class":"minor","highway":"unclassified","sidewalk":"unknown","lanes":0,"name":"","oneway":false},"geometry":{"type":"LineString","coordinates":[[127.18008,37.56142],[127.18028,37.5614],[127.18156,37.56168]]}},{"type":"Feature","properties":{"class":"major","highway":"motorway","sidewalk":"likely","lanes":4,"name":"미사대로;서울양양고속도로","oneway":true},"geometry":{"type":"LineString","coordinates":[[127.17963,37.57878],[127.18338,37.57964],[127.18482,37.57997]]}},{"type":"Feature","properties":{"class":"alley","highway":"service","sidewalk":"unknown","lanes":0,"name":"","oneway":false},"geometry":{"type":"LineString","coordinates":[[127.18286,37.57678],[127.1829,37.57668],[127.18292,37.57662],[127.18295,37.57654],[127.18297,37.57648],[127.18302,37.57634],[127.18304,37.57629],[127.18305,37.57624]]}},{"type":"Feature","properties":{"class":"alley","highway":"service","sidewalk":"unknown","lanes":0,"name":"미사강변대로226번길","oneway":false},"geometry":{"type":"LineString","coordinates":[[127.18494,37.56776],[127.18509,37.56781],[127.18512,37.56782],[127.18553,37.56796],[127.18612,37.56813],[127.18615,37.56817],[127.18618,37.56889],[127.1862,37.56942],[127.18622,37.56983],[127.18621,37.56987],[127.18619,37.56989],[127.18615,37.56991],[127.18595,37.56994],[127.18558,37.56999],[127.1852,37.56999],[127.18473,37.56991],[127.18437,37.5698]]}},{"type":"Feature","properties":{"class":"alley","highway":"service","sidewalk":"unknown","lanes":0,"name":"미사강변대로226번안길","oneway":false},"geometry":{"type":"LineString","coordinates":[[127.18437,37.5698],[127.18455,37.5695],[127.18473,37.56923],[127.18494,37.56892],[127.1852,37.56852],[127.18546,37.56809],[127.18553,37.56796]]}},{"type":"Feature","properties":{"class":"alley","highway":"service","sidewalk":"unknown","lanes":0,"name":"","oneway":false},"geometry":{"type":"LineString","coordinates":[[127.18494,37.56892],[127.18521,37.56902],[127.18545,37.56911],[127.18556,37.56922],[127.18557,37.56945],[127.18558,37.56999]]}},{"type":"Feature","properties":{"class":"alley","highway":"service","sidewalk":"unknown","lanes":0,"name":"","oneway":false},"geometry":{"type":"LineString","coordinates":[[127.1852,37.56852],[127.18618,37.56889]]}},{"type":"Feature","properties":{"class":"major","highway":"tertiary","sidewalk":"likely","lanes":0,"name":"미사강변한강로","oneway":false},"geometry":{"type":"LineString","coordinates":[[127.1805,37.57614],[127.18076,37.57623],[127.18105,37.57631],[127.18126,37.57634],[127.18272,37.57675],[127.18286,37.57678]]}},{"type":"Feature","properties":{"class":"minor","highway":"residential","sidewalk":"unknown","lanes":0,"name":"미사강변북로24번길","oneway":false},"geometry":{"type":"LineString","coordinates":[[127.18108,37.57159],[127.18114,37.57145],[127.18133,37.57102],[127.18134,37.57098],[127.18137,37.57093],[127.18139,37.57088],[127.18157,37.5705],[127.1816,37.57043]]}},{"type":"Feature","properties":{"class":"minor","highway":"residential","sidewalk":"unknown","lanes":0,"name":"미사강변북로30번길","oneway":false},"geometry":{"type":"LineString","coordinates":[[127.18153,37.57173],[127.18159,37.57161],[127.18169,37.57141],[127.18171,37.57136],[127.18186,37.57104],[127.18205,37.57065],[127.18208,37.57057],[127.18228,37.57013],[127.18234,37.57002],[127.18248,37.56974]]}},{"type":"Feature","properties":{"class":"major","highway":"secondary","sidewalk":"likely","lanes":0,"name":"미사강변북로","oneway":false},"geometry":{"type":"LineString","coordinates":[[127.18248,37.57201],[127.18274,37.57209]]}},{"type":"Feature","properties":{"class":"major","highway":"secondary","sidewalk":"likely","lanes":0,"name":"미사강변대로","oneway":false},"geometry":{"type":"LineString","coordinates":[[127.18376,37.56959],[127.18385,37.56944],[127.18462,37.56828]]}},{"type":"Feature","properties":{"class":"minor","highway":"residential","sidewalk":"unknown","lanes":0,"name":"미사강변북로30번안길","oneway":false},"geometry":{"type":"LineString","coordinates":[[127.1816,37.57043],[127.18121,37.57031],[127.18117,37.57028],[127.18117,37.57024],[127.18128,37.57003],[127.18154,37.56988],[127.18211,37.56962],[127.18248,37.56974]]}},{"type":"Feature","properties":{"class":"minor","highway":"residential","sidewalk":"unknown","lanes":0,"name":"","oneway":false},"geometry":{"type":"LineString","coordinates":[[127.18154,37.56988],[127.18228,37.57013]]}},{"type":"Feature","properties":{"class":"minor","highway":"residential","sidewalk":"unknown","lanes":0,"name":"","oneway":false},"geometry":{"type":"LineString","coordinates":[[127.18169,37.57141],[127.18212,37.57154]]}},{"type":"Feature","properties":{"class":"minor","highway":"residential","sidewalk":"unknown","lanes":0,"name":"미사강변북로30번길","oneway":false},"geometry":{"type":"LineString","coordinates":[[127.18362,37.56805],[127.18395,37.56818],[127.18403,37.56821],[127.18366,37.56877],[127.18328,37.56937],[127.18305,37.56974],[127.18293,37.56992]]}},{"type":"Feature","properties":{"class":"minor","highway":"residential","sidewalk":"unknown","lanes":0,"name":"","oneway":false},"geometry":{"type":"LineString","coordinates":[[127.18285,37.5692],[127.18294,37.56924],[127.18328,37.56937],[127.18358,37.5695],[127.18376,37.56959]]}},{"type":"Feature","properties":{"class":"major","highway":"secondary","sidewalk":"likely","lanes":0,"name":"미사강변북로","oneway":false},"geometry":{"type":"LineString","coordinates":[[127.18439,37.57255],[127.18445,37.57255],[127.18457,37.57255],[127.18611,37.57236],[127.18689,37.57227]]}},{"type":"Feature","properties":{"class":"alley","highway":"service","sidewalk":"unknown","lanes":0,"name":"","oneway":true},"geometry":{"type":"LineString","coordinates":[[127.18528,37.57401],[127.1853,37.57403],[127.18532,37.57404],[127.18533,37.57406],[127.18534,37.57408],[127.18534,37.5741],[127.18534,37.57412],[127.18533,37.57414],[127.18531,37.57415],[127.1853,37.57417],[127.18527,37.57418],[127.18525,37.57419],[127.18523,37.57419],[127.1852,37.57419],[127.18518,37.57419],[127.18516,37.57418],[127.18514,37.57417],[127.18513,37.57416],[127.18511,37.57414],[127.1851,37.57413],[127.1851,37.5741],[127.1851,37.57409],[127.1851,37.57407],[127.18511,37.57405],[127.18512,37.57403],[127.18514,37.57402],[127.18516,37.57401],[127.18519,37.574],[127.18521,37.574],[127.18524,37.574],[127.18526,37.574],[127.18528,37.57401]]}},{"type":"Feature","properties":{"class":"alley","highway":"service","sidewalk":"unknown","lanes":0,"name":"","oneway":false},"geometry":{"type":"LineString","coordinates":[[127.1851,37.5741],[127.18493,37.57413],[127.18487,37.57413],[127.18475,37.57415]]}},{"type":"Feature","properties":{"class":"major","highway":"secondary","sidewalk":"likely","lanes":0,"name":"아리수로","oneway":false},"geometry":{"type":"LineString","coordinates":[[127.18391,37.56671],[127.18315,37.56668],[127.1825,37.56665],[127.18235,37.56664],[127.18216,37.56664],[127.18126,37.56662],[127.17983,37.56658],[127.17953,37.56657],[127.17936,37.56656]]}},{"type":"Feature","properties":{"class":"major","highway":"secondary","sidewalk":"likely","lanes":0,"name":"아리수로","oneway":false},"geometry":{"type":"LineString","coordinates":[[127.18475,37.56673],[127.18391,37.56671]]}},{"type":"Feature","properties":{"class":"major","highway":"secondary","sidewalk":"likely","lanes":0,"name":"미사강변대로","oneway":false},"geometry":{"type":"LineString","coordinates":[[127.18546,37.56609],[127.18552,37.56555]]}},{"type":"Feature","properties":{"class":"alley","highway":"service","sidewalk":"unknown","lanes":0,"name":"","oneway":false},"geometry":{"type":"LineString","coordinates":[[127.18477,37.57422],[127.18464,37.57424],[127.18454,37.57426],[127.18433,37.57429],[127.18428,37.5743],[127.18423,37.5743],[127.18413,37.57428]]}},{"type":"Feature","properties":{"class":"alley","highway":"service","sidewalk":"unknown","lanes":0,"name":"","oneway":false},"geometry":{"type":"LineString","coordinates":[[127.18211,37.57323],[127.18223,37.57327],[127.18251,37.57335]]}},{"type":"Feature","properties":{"class":"alley","highway":"service","sidewalk":"unknown","lanes":0,"name":"","oneway":false},"geometry":{"type":"LineString","coordinates":[[127.18449,37.57207],[127.18445,37.57207],[127.18441,37.57206],[127.18439,37.57203],[127.18437,37.57201],[127.18436,37.57197],[127.18436,37.57194],[127.18439,37.57191],[127.18442,37.57188],[127.18445,37.57187],[127.18449,37.57187],[127.18453,37.57188],[127.18457,37.57189],[127.18459,37.57191],[127.18461,37.57194],[127.18462,37.57197],[127.18461,37.572],[127.18459,37.57203],[127.18457,37.57205],[127.18453,37.57207],[127.18449,37.57207]]}},{"type":"Feature","properties":{"class":"alley","highway":"service","sidewalk":"unknown","lanes":0,"name":"","oneway":false},"geometry":{"type":"LineString","coordinates":[[127.18323,37.57047],[127.18339,37.57053],[127.18374,37.57065],[127.18385,37.57068],[127.1839,37.57068]]}},{"type":"Feature","properties":{"class":"alley","highway":"service","sidewalk":"unknown","lanes":0,"name":"","oneway":false},"geometry":{"type":"LineString","coordinates":[[127.18521,37.57641],[127.18509,37.57641],[127.18508,37.57641],[127.18492,37.5764],[127.18489,37.5764],[127.18487,37.5764],[127.18484,37.57639],[127.18479,37.57639],[127.18471,37.57638],[127.18465,37.57636],[127.18459,37.57633]]}},{"type":"Feature","properties":{"class":"alley","highway":"service","sidewalk":"unknown","lanes":0,"name":"","oneway":false},"geometry":{"type":"LineString","coordinates":[[127.18566,37.57641],[127.18551,37.57644],[127.18538,37.57645],[127.18533,37.57644],[127.18527,37.57644],[127.1852,37.57643]]}},{"type":"Feature","properties":{"class":"alley","highway":"pedestrian","sidewalk":"unknown","lanes":0,"name":"","oneway":false},"geometry":{"type":"LineString","coordinates":[[127.18371,37.57001],[127.18416,37.57015],[127.18461,37.57028],[127.18484,37.57034],[127.18498,37.57036],[127.18537,37.5704],[127.18562,37.57038],[127.18603,37.57032],[127.18627,37.57029],[127.18645,37.57027],[127.18663,37.57027]]}},{"type":"Feature","properties":{"class":"minor","highway":"residential","sidewalk":"unknown","lanes":0,"name":"미사강변북로30번길","oneway":false},"geometry":{"type":"LineString","coordinates":[[127.18293,37.56992],[127.18252,37.5707],[127.18212,37.57154],[127.18206,37.57167]]}},{"type":"Feature","properties":{"class":"minor","highway":"residential","sidewalk":"unknown","lanes":0,"name":"","oneway":false},"geometry":{"type":"LineString","coordinates":[[127.18248,37.56974],[127.18293,37.56992]]}},{"type":"Feature","properties":{"class":"minor","highway":"residential","sidewalk":"unknown","lanes":0,"name":"","oneway":false},"geometry":{"type":"LineString","coordinates":[[127.18252,37.5707],[127.18208,37.57057]]}},{"type":"Feature","properties":{"class":"alley","highway":"pedestrian","sidewalk":"unknown","lanes":0,"name":"","oneway":false},"geometry":{"type":"LineString","coordinates":[[127.18201,37.56929],[127.1826,37.56956],[127.18305,37.56974],[127.18309,37.56975],[127.18338,37.56987]]}},{"type":"Feature","properties":{"class":"major","highway":"secondary","sidewalk":"likely","lanes":6,"name":"미사강변대로","oneway":false},"geometry":{"type":"LineString","coordinates":[[127.18138,37.5743],[127.18174,37.57357],[127.18177,37.57349]]}},{"type":"Feature","properties":{"class":"major","highway":"motorway","sidewalk":"likely","lanes":4,"name":"미사대로;서울양양고속도로","oneway":true},"geometry":{"type":"LineString","coordinates":[[127.18474,37.58012],[127.18336,37.57979],[127.18055,37.57913],[127.17959,37.57891]]}},{"type":"Feature","properties":{"class":"major","highway":"motorway","sidewalk":"likely","lanes":4,"name":"서울양양고속도로","oneway":true},"geometry":{"type":"LineString","coordinates":[[127.18482,37.57997],[127.18596,37.58025],[127.18732,37.58057],[127.18834,37.58081],[127.18909,37.58104],[127.18963,37.5812],[127.19039,37.58146]]}},{"type":"Feature","properties":{"class":"major","highway":"motorway_link","sidewalk":"likely","lanes":3,"name":"미사대로","oneway":true},"geometry":{"type":"LineString","coordinates":[[127.18482,37.57997],[127.18766,37.58052],[127.18856,37.58067],[127.18947,37.58078],[127.18986,37.58081],[127.19019,37.58083],[127.19056,37.5808],[127.19076,37.58077],[127.19091,37.58075],[127.1911,37.5807],[127.19129,37.58065],[127.19142,37.58061],[127.19172,37.5805],[127.19181,37.58047],[127.19219,37.58029],[127.19244,37.58009]]}},{"type":"Feature","properties":{"class":"major","highway":"tertiary","sidewalk":"likely","lanes":0,"name":"풍산로","oneway":false},"geometry":{"type":"LineString","coordinates":[[127.17936,37.56656],[127.17936,37.56641],[127.17937,37.56612],[127.17938,37.56583],[127.17938,37.56569],[127.17942,37.56554],[127.17951,37.56536],[127.17961,37.56513],[127.17977,37.56493],[127.18,37.56465],[127.1801,37.56454],[127.18025,37.56429],[127.1803,37.56421],[127.18039,37.56406],[127.1805,37.56387],[127.18069,37.56353],[127.18078,37.56337],[127.18088,37.56322],[127.18096,37.56307],[127.18114,37.56275],[127.18129,37.56244],[127.18142,37.56207],[127.18156,37.56168]]}},{"type":"Feature","properties":{"class":"alley","highway":"service","sidewalk":"unknown","lanes":0,"name":"입주민 전용","oneway":false},"geometry":{"type":"LineString","coordinates":[[127.18274,37.56517],[127.18287,37.56519],[127.18301,37.56522],[127.18316,37.56524],[127.1832,37.56525],[127.18323,37.56525],[127.18339,37.56525],[127.18347,37.56524]]}},{"type":"Feature","properties":{"class":"alley","highway":"service","sidewalk":"unknown","lanes":0,"name":"","oneway":false},"geometry":{"type":"LineString","coordinates":[[127.18474,37.56439],[127.18478,37.5644],[127.18512,37.56448],[127.18527,37.56449],[127.18534,37.5645],[127.18549,37.56451],[127.18558,37.56453]]}},{"type":"Feature","properties":{"class":"alley","highway":"service","sidewalk":"unknown","lanes":0,"name":"","oneway":false},"geometry":{"type":"LineString","coordinates":[[127.18415,37.56183],[127.18432,37.56187],[127.18444,37.56191],[127.18448,37.56192],[127.18461,37.56195]]}},{"type":"Feature","properties":{"class":"alley","highway":"service","sidewalk":"unknown","lanes":0,"name":"","oneway":false},"geometry":{"type":"LineString","coordinates":[[127.18415,37.56183],[127.18406,37.56181],[127.18391,37.56177],[127.18386,37.56176],[127.18376,37.56174],[127.18368,37.56172],[127.18355,37.5617],[127.18349,37.56174]]}},{"type":"Feature","properties":{"class":"alley","highway":"service","sidewalk":"unknown","lanes":0,"name":"","oneway":false},"geometry":{"type":"LineString","coordinates":[[127.1835,37.56168],[127.18341,37.5616]]}},{"type":"Feature","properties":{"class":"alley","highway":"service","sidewalk":"unknown","lanes":0,"name":"입주민 전용","oneway":false},"geometry":{"type":"LineString","coordinates":[[127.18156,37.56168],[127.18191,37.56175],[127.18209,37.56179]]}},{"type":"Feature","properties":{"class":"alley","highway":"service","sidewalk":"unknown","lanes":0,"name":"","oneway":false},"geometry":{"type":"LineString","coordinates":[[127.18096,37.57517],[127.1808,37.57512],[127.18058,37.57507],[127.18051,37.57503],[127.18045,37.57496],[127.18037,37.57484]]}},{"type":"Feature","properties":{"class":"alley","highway":"service","sidewalk":"unknown","lanes":0,"name":"","oneway":false},"geometry":{"type":"LineString","coordinates":[[127.18108,37.57159],[127.18103,37.57171],[127.18103,37.57174],[127.18099,37.57183],[127.18097,37.57189],[127.18096,37.57191],[127.18095,37.57194],[127.1809,37.57204],[127.18088,37.57209],[127.18087,37.57212],[127.18084,37.57218],[127.18081,37.57227],[127.18023,37.5721],[127.18014,37.57195],[127.17976,37.57209],[127.17971,37.57211],[127.17968,37.57215],[127.17965,37.5722]]}},{"type":"Feature","properties":{"class":"alley","highway":"service","sidewalk":"unknown","lanes":0,"name":"","oneway":false},"geometry":{"type":"LineString","coordinates":[[127.17976,37.57209],[127.17984,37.57223],[127.18023,37.5721]]}},{"type":"Feature","properties":{"class":"alley","highway":"service","sidewalk":"unknown","lanes":0,"name":"","oneway":false},"geometry":{"type":"LineString","coordinates":[[127.18081,37.57227],[127.18094,37.57231],[127.18097,37.57234],[127.18102,37.57245],[127.18107,37.57255],[127.1813,37.57247],[127.18125,37.57237],[127.18102,37.57245]]}},{"type":"Feature","properties":{"class":"alley","highway":"service","sidewalk":"unknown","lanes":0,"name":"","oneway":false},"geometry":{"type":"LineString","coordinates":[[127.18159,37.57344],[127.18122,37.57335],[127.1811,37.57331],[127.18097,37.57326]]}},{"type":"Feature","properties":{"class":"alley","highway":"service","sidewalk":"unknown","lanes":0,"name":"","oneway":false},"geometry":{"type":"LineString","coordinates":[[127.1811,37.57331],[127.18095,37.57336],[127.18081,37.57341],[127.18085,37.57347],[127.18066,37.57354],[127.18049,37.57326],[127.18068,37.57319],[127.18081,37.57341]]}},{"type":"Feature","properties":{"class":"alley","highway":"service","sidewalk":"unknown","lanes":0,"name":"","oneway":false},"geometry":{"type":"LineString","coordinates":[[127.18235,37.56664],[127.18234,37.5668],[127.18233,37.56703],[127.18232,37.56729],[127.18232,37.56743],[127.18232,37.56746]]}},{"type":"Feature","properties":{"class":"alley","highway":"service","sidewalk":"unknown","lanes":0,"name":"","oneway":false},"geometry":{"type":"LineString","coordinates":[[127.18119,37.56442],[127.18133,37.56446],[127.18179,37.5646],[127.18186,37.56464],[127.18188,37.56472],[127.18188,37.56479],[127.18187,37.56485],[127.18179,37.56501]]}},{"type":"Feature","properties":{"class":"alley","highway":"service","sidewalk":"unknown","lanes":0,"name":"","oneway":false},"geometry":{"type":"LineString","coordinates":[[127.18274,37.56517],[127.18265,37.56516],[127.18235,37.56511],[127.18211,37.56507],[127.18179,37.56501],[127.18162,37.56533],[127.18157,37.56544],[127.1815,37.56553],[127.18141,37.5656],[127.18127,37.56566],[127.18117,37.56567],[127.18104,37.56568],[127.18086,37.56564],[127.18076,37.56558],[127.18072,37.56545],[127.18071,37.56533],[127.18071,37.56531],[127.18081,37.56514],[127.18096,37.56485],[127.18108,37.56463],[127.18119,37.56442]]}},{"type":"Feature","properties":{"class":"alley","highway":"service","sidewalk":"unknown","lanes":0,"name":"","oneway":false},"geometry":{"type":"LineString","coordinates":[[127.18162,37.56533],[127.18182,37.56561],[127.18194,37.56579],[127.18143,37.56603],[127.18129,37.56585],[127.18117,37.56567]]}},{"type":"Feature","properties":{"class":"alley","highway":"service","sidewalk":"unknown","lanes":0,"name":"","oneway":false},"geometry":{"type":"LineString","coordinates":[[127.18129,37.56585],[127.18182,37.56561]]}},{"type":"Feature","properties":{"class":"alley","highway":"service","sidewalk":"unknown","lanes":0,"name":"","oneway":false},"geometry":{"type":"LineString","coordinates":[[127.18086,37.56564],[127.18074,37.56585],[127.18068,37.56596],[127.1806,37.56608],[127.18035,37.56598],[127.18041,37.56586]]}},{"type":"Feature","properties":{"class":"alley","highway":"service","sidewalk":"unknown","lanes":0,"name":"","oneway":false},"geometry":{"type":"LineString","coordinates":[[127.18068,37.56596],[127.18041,37.56586],[127.17978,37.56562],[127.17985,37.56551],[127.18074,37.56585]]}},{"type":"Feature","properties":{"class":"alley","highway":"service","sidewalk":"unknown","lanes":0,"name":"","oneway":false},"geometry":{"type":"LineString","coordinates":[[127.18071,37.56533],[127.18055,37.56528],[127.18014,37.56515],[127.18007,37.56513]]}},{"type":"Feature","properties":{"class":"alley","highway":"service","sidewalk":"unknown","lanes":0,"name":"","oneway":false},"geometry":{"type":"LineString","coordinates":[[127.18014,37.56515],[127.18021,37.565],[127.18028,37.56487],[127.18069,37.56499],[127.18062,37.56513],[127.18055,37.56528]]}},{"type":"Feature","properties":{"class":"alley","highway":"service","sidewalk":"unknown","lanes":0,"name":"","oneway":false},"geometry":{"type":"LineString","coordinates":[[127.18021,37.565],[127.18062,37.56513]]}},{"type":"Feature","properties":{"class":"alley","highway":"service","sidewalk":"unknown","lanes":0,"name":"","oneway":false},"geometry":{"type":"LineString","coordinates":[[127.18108,37.56463],[127.18052,37.56445]]}},{"type":"Feature","properties":{"class":"alley","highway":"service","sidewalk":"unknown","lanes":0,"name":"","oneway":false},"geometry":{"type":"LineString","coordinates":[[127.18179,37.5646],[127.18193,37.56452],[127.18216,37.56441],[127.18223,37.56424],[127.18226,37.56416],[127.18154,37.56397],[127.18121,37.56388],[127.181,37.56383],[127.18083,37.56378],[127.1808,37.56386],[127.18096,37.5639],[127.181,37.56383]]}},{"type":"Feature","properties":{"class":"alley","highway":"service","sidewalk":"unknown","lanes":0,"name":"","oneway":false},"geometry":{"type":"LineString","coordinates":[[127.18133,37.56446],[127.18139,37.56433],[127.18151,37.56405],[127.18154,37.56397]]}},{"type":"Feature","properties":{"class":"alley","highway":"service","sidewalk":"unknown","lanes":0,"name":"","oneway":false},"geometry":{"type":"LineString","coordinates":[[127.18151,37.56405],[127.18118,37.56396],[127.18121,37.56388]]}},{"type":"Feature","properties":{"class":"alley","highway":"service","sidewalk":"unknown","lanes":0,"name":"","oneway":false},"geometry":{"type":"LineString","coordinates":[[127.18223,37.56424],[127.18238,37.56427],[127.18243,37.56425],[127.18242,37.5642],[127.18226,37.56416]]}},{"type":"Feature","properties":{"class":"alley","highway":"service","sidewalk":"unknown","lanes":0,"name":"","oneway":false},"geometry":{"type":"LineString","coordinates":[[127.18151,37.56405],[127.18223,37.56424]]}},{"type":"Feature","properties":{"class":"alley","highway":"service","sidewalk":"unknown","lanes":0,"name":"","oneway":false},"geometry":{"type":"LineString","coordinates":[[127.18348,37.56626],[127.18363,37.56599],[127.18374,37.56579],[127.18379,37.5657],[127.18379,37.56564],[127.18373,37.56559],[127.18355,37.5654],[127.18339,37.56525]]}},{"type":"Feature","properties":{"class":"alley","highway":"service","sidewalk":"unknown","lanes":0,"name":"","oneway":false},"geometry":{"type":"LineString","coordinates":[[127.18478,37.5644],[127.18472,37.56416],[127.1847,37.5641],[127.18471,37.56405],[127.1848,37.56372]]}},{"type":"Feature","properties":{"class":"alley","highway":"service","sidewalk":"unknown","lanes":0,"name":"","oneway":false},"geometry":{"type":"LineString","coordinates":[[127.18539,37.56395],[127.18501,37.5638],[127.1848,37.56372],[127.18445,37.56365],[127.1839,37.56357],[127.18372,37.56354]]}},{"type":"Feature","properties":{"class":"alley","highway":"service","sidewalk":"unknown","lanes":0,"name":"","oneway":false},"geometry":{"type":"LineString","coordinates":[[127.18278,37.56626],[127.18348,37.56626],[127.18391,37.56627]]}},{"type":"Feature","properties":{"class":"major","highway":"tertiary","sidewalk":"likely","lanes":0,"name":"풍산로","oneway":false},"geometry":{"type":"LineString","coordinates":[[127.18156,37.56168],[127.18168,37.56129],[127.18177,37.56094],[127.18183,37.56069],[127.18187,37.56038],[127.18189,37.56014],[127.1819,37.56003],[127.18191,37.55946],[127.18189,37.55924],[127.18187,37.55904],[127.18186,37.55886]]}},{"type":"Feature","properties":{"class":"major","highway":"secondary","sidewalk":"likely","lanes":0,"name":"미사강변대로","oneway":false},"geometry":{"type":"LineString","coordinates":[[127.18534,37.56674],[127.18538,37.56658],[127.18539,37.56653],[127.18546,37.56609]]}},{"type":"Feature","properties":{"class":"major","highway":"secondary","sidewalk":"likely","lanes":0,"name":"아리수로","oneway":false},"geometry":{"type":"LineString","coordinates":[[127.18534,37.56674],[127.18512,37.56674],[127.18475,37.56673]]}},{"type":"Feature","properties":{"class":"major","highway":"secondary","sidewalk":"likely","lanes":0,"name":"미사강변대로","oneway":false},"geometry":{"type":"LineString","coordinates":[[127.18248,37.57201],[127.18256,37.57182],[127.18291,37.5711],[127.18314,37.57063],[127.18323,37.57047]]}},{"type":"Feature","properties":{"class":"major","highway":"secondary","sidewalk":"likely","lanes":0,"name":"미사강변대로","oneway":false},"geometry":{"type":"LineString","coordinates":[[127.18013,37.5769],[127.1803,37.57653],[127.18038,37.57638],[127.18043,37.57628],[127.1805,37.57614]]}},{"type":"Feature","properties":{"class":"major","highway":"tertiary","sidewalk":"likely","lanes":0,"name":"미사강변한강로","oneway":false},"geometry":{"type":"LineString","coordinates":[[127.1805,37.57614],[127.18026,37.57606],[127.17987,37.57596],[127.1795,37.57587],[127.17939,37.57582],[127.17914,37.57575]]}},{"type":"Feature","properties":{"class":"alley","highway":"service","sidewalk":"unknown","lanes":0,"name":"","oneway":true},"geometry":{"type":"LineString","coordinates":[[127.18475,37.55991],[127.18486,37.55994],[127.18508,37.55999],[127.18516,37.56001],[127.18534,37.56005],[127.18544,37.56007],[127.18581,37.56015],[127.18588,37.56016],[127.18596,37.56018]]}},{"type":"Feature","properties":{"class":"major","highway":"tertiary","sidewalk":"likely","lanes":0,"name":"미사강변서로","oneway":false},"geometry":{"type":"LineString","coordinates":[[127.18475,37.55991],[127.18472,37.56017],[127.18461,37.56062]]}},{"type":"Feature","properties":{"class":"alley","highway":"service","sidewalk":"unknown","lanes":0,"name":"","oneway":false},"geometry":{"type":"LineString","coordinates":[[127.18508,37.56004],[127.18509,37.56008],[127.18519,37.56014],[127.18592,37.5603],[127.18638,37.5604],[127.18698,37.56052]]}},{"type":"Feature","properties":{"class":"alley","highway":"service","sidewalk":"unknown","lanes":0,"name":"","oneway":false},"geometry":{"type":"LineString","coordinates":[[127.18461,37.56062],[127.18469,37.56063],[127.18474,37.56064],[127.18483,37.56065],[127.18476,37.56089],[127.18542,37.56104],[127.18562,37.56107],[127.18611,37.56117],[127.18624,37.56081],[127.18638,37.5604]]}},{"type":"Feature","properties":{"class":"major","highway":"tertiary","sidewalk":"likely","lanes":0,"name":"미사강변서로","oneway":false},"geometry":{"type":"LineString","coordinates":[[127.18461,37.56062],[127.1846,37.56067],[127.18447,37.56108],[127.18419,37.56174],[127.18415,37.56183],[127.1841,37.56196],[127.18367,37.56296],[127.18334,37.56375],[127.18318,37.56413],[127.18277,37.56508],[127.18274,37.56517],[127.18271,37.56528],[127.18255,37.56576],[127.18239,37.56648],[127.18235,37.56664]]}},{"type":"Feature","properties":{"class":"major","highway":"secondary","sidewalk":"likely","lanes":0,"name":"아리수로","oneway":false},"geometry":{"type":"LineString","coordinates":[[127.18632,37.56676],[127.18616,37.56675],[127.18609,37.56675],[127.18577,37.56675],[127.18575,37.56675],[127.18555,37.56674],[127.18534,37.56674]]}},{"type":"Feature","properties":{"class":"alley","highway":"service","sidewalk":"unknown","lanes":0,"name":"","oneway":false},"geometry":{"type":"LineString","coordinates":[[127.18562,37.56107],[127.18569,37.56087]]}},{"type":"Feature","properties":{"class":"major","highway":"secondary","sidewalk":"likely","lanes":0,"name":"미사강변대로","oneway":true},"geometry":{"type":"LineString","coordinates":[[127.18552,37.56555],[127.18547,37.56543],[127.18553,37.56493],[127.18558,37.56453]]}},{"type":"Feature","properties":{"class":"minor","highway":"unclassified","sidewalk":"unknown","lanes":0,"name":"","oneway":true},"geometry":{"type":"LineString","coordinates":[[127.17961,37.578],[127.17969,37.57814],[127.17977,37.57827],[127.17987,37.57841],[127.17993,37.57846],[127.18,37.57851],[127.18008,37.57855],[127.18018,37.57858],[127.1804,37.57864]]}},{"type":"Feature","properties":{"class":"alley","highway":"service","sidewalk":"unknown","lanes":0,"name":"","oneway":false},"geometry":{"type":"LineString","coordinates":[[127.1804,37.57864],[127.18045,37.57854],[127.18056,37.57828],[127.18057,37.57823],[127.18053,37.57819],[127.18046,37.57816]]}},{"type":"Feature","properties":{"class":"alley","highway":"pedestrian","sidewalk":"unknown","lanes":0,"name":"","oneway":false},"geometry":{"type":"LineString","coordinates":[[127.18404,37.56893],[127.18366,37.56877],[127.18323,37.56859]]}},{"type":"Feature","properties":{"class":"major","highway":"secondary","sidewalk":"likely","lanes":0,"name":"미사강변북로","oneway":false},"geometry":{"type":"LineString","coordinates":[[127.18274,37.57209],[127.184,37.57248],[127.18419,37.57252],[127.18439,37.57255]]}},{"type":"Feature","properties":{"class":"alley","highway":"service","sidewalk":"unknown","lanes":0,"name":"","oneway":false},"geometry":{"type":"LineString","coordinates":[[127.18439,37.57255],[127.1844,37.57243],[127.1844,37.57241],[127.18442,37.57228],[127.18442,37.57226],[127.18443,37.57223],[127.18445,37.57207]]}},{"type":"Feature","properties":{"class":"alley","highway":"service","sidewalk":"unknown","lanes":0,"name":"","oneway":false},"geometry":{"type":"LineString","coordinates":[[127.18243,37.56394],[127.18301,37.56409],[127.18309,37.56411],[127.18318,37.56413]]}},{"type":"Feature","properties":{"class":"alley","highway":"service","sidewalk":"unknown","lanes":0,"name":"","oneway":false},"geometry":{"type":"LineString","coordinates":[[127.18189,37.56383],[127.18102,37.5636],[127.18115,37.56332],[127.18105,37.56328],[127.18088,37.56322]]}},{"type":"Feature","properties":{"class":"alley","highway":"service","sidewalk":"unknown","lanes":0,"name":"","oneway":false},"geometry":{"type":"LineString","coordinates":[[127.18146,37.56608],[127.18148,37.56611],[127.18151,37.56614],[127.18155,37.56616],[127.1816,37.56616],[127.18165,37.56615]]}},{"type":"Feature","properties":{"class":"alley","highway":"service","sidewalk":"unknown","lanes":0,"name":"","oneway":false},"geometry":{"type":"LineString","coordinates":[[127.18201,37.56463],[127.18206,37.56468],[127.1821,37.5647],[127.18216,37.56471],[127.1822,37.5647],[127.18222,37.56468]]}},{"type":"Feature","properties":{"class":"alley","highway":"service","sidewalk":"unknown","lanes":0,"name":"","oneway":false},"geometry":{"type":"LineString","coordinates":[[127.18007,37.56513],[127.18004,37.56512],[127.18002,37.5651],[127.18001,37.56508],[127.18001,37.56505],[127.18003,37.56502],[127.18007,37.565]]}},{"type":"Feature","properties":{"class":"alley","highway":"service","sidewalk":"unknown","lanes":0,"name":"","oneway":false},"geometry":{"type":"LineString","coordinates":[[127.18133,37.56431],[127.18129,37.5643],[127.18124,37.56429],[127.1812,37.56429],[127.18117,37.5643],[127.18114,37.56432]]}},{"type":"Feature","properties":{"class":"alley","highway":"service","sidewalk":"unknown","lanes":0,"name":"","oneway":false},"geometry":{"type":"LineString","coordinates":[[127.18133,37.57102],[127.18126,37.571],[127.18122,37.57099],[127.18106,37.57094],[127.18103,37.571]]}},{"type":"Feature","properties":{"class":"alley","highway":"service","sidewalk":"unknown","lanes":0,"name":"","oneway":false},"geometry":{"type":"LineString","coordinates":[[127.18102,37.5723],[127.18124,37.57222]]}},{"type":"Feature","properties":{"class":"alley","highway":"service","sidewalk":"unknown","lanes":0,"name":"","oneway":false},"geometry":{"type":"LineString","coordinates":[[127.18512,37.57403],[127.18511,37.57399],[127.18505,37.57375]]}},{"type":"Feature","properties":{"class":"alley","highway":"service","sidewalk":"unknown","lanes":0,"name":"","oneway":false},"geometry":{"type":"LineString","coordinates":[[127.1854,37.57405],[127.18551,37.57403],[127.18558,37.57403],[127.18564,37.57403]]}},{"type":"Feature","properties":{"class":"alley","highway":"service","sidewalk":"unknown","lanes":0,"name":"","oneway":false},"geometry":{"type":"LineString","coordinates":[[127.18369,37.57701],[127.18366,37.57709],[127.18365,37.57711],[127.18361,37.57721]]}},{"type":"Feature","properties":{"class":"alley","highway":"service","sidewalk":"unknown","lanes":0,"name":"","oneway":false},"geometry":{"type":"LineString","coordinates":[[127.18371,37.57724],[127.18361,37.57721],[127.18339,37.57716],[127.1832,37.5776]]}},{"type":"Feature","properties":{"class":"alley","highway":"service","sidewalk":"unknown","lanes":0,"name":"","oneway":false},"geometry":{"type":"LineString","coordinates":[[127.18541,37.57599],[127.18546,37.57621],[127.18664,37.57606]]}},{"type":"Feature","properties":{"class":"alley","highway":"service","sidewalk":"unknown","lanes":0,"name":"","oneway":false},"geometry":{"type":"LineString","coordinates":[[127.18103,37.571],[127.18091,37.57125],[127.18079,37.57121]]}},{"type":"Feature","properties":{"class":"alley","highway":"service","sidewalk":"unknown","lanes":0,"name":"","oneway":false},"geometry":{"type":"LineString","coordinates":[[127.18553,37.56796],[127.18556,37.5679],[127.18558,37.56787],[127.1856,37.56783],[127.18606,37.56797],[127.18611,37.5679],[127.18612,37.56789]]}},{"type":"Feature","properties":{"class":"alley","highway":"service","sidewalk":"unknown","lanes":0,"name":"","oneway":false},"geometry":{"type":"LineString","coordinates":[[127.18575,37.56675],[127.18575,37.5669],[127.18574,37.56701]]}},{"type":"Feature","properties":{"class":"alley","highway":"service","sidewalk":"unknown","lanes":0,"name":"","oneway":true},"geometry":{"type":"LineString","coordinates":[[127.18579,37.56652],[127.1858,37.56648],[127.18617,37.56649],[127.18617,37.56653]]}},{"type":"Feature","properties":{"class":"alley","highway":"service","sidewalk":"unknown","lanes":0,"name":"","oneway":true},"geometry":{"type":"LineString","coordinates":[[127.18433,37.56796],[127.18447,37.568],[127.18462,37.56806],[127.18474,37.5681]]}},{"type":"Feature","properties":{"class":"alley","highway":"service","sidewalk":"unknown","lanes":0,"name":"","oneway":false},"geometry":{"type":"LineString","coordinates":[[127.18079,37.57121],[127.18064,37.57117]]}},{"type":"Feature","properties":{"class":"alley","highway":"service","sidewalk":"unknown","lanes":0,"name":"","oneway":false},"geometry":{"type":"LineString","coordinates":[[127.18215,37.56728],[127.18232,37.56729]]}},{"type":"Feature","properties":{"class":"alley","highway":"service","sidewalk":"unknown","lanes":0,"name":"","oneway":false},"geometry":{"type":"LineString","coordinates":[[127.18235,37.56511],[127.18243,37.5649]]}},{"type":"Feature","properties":{"class":"alley","highway":"service","sidewalk":"unknown","lanes":0,"name":"","oneway":false},"geometry":{"type":"LineString","coordinates":[[127.18444,37.56191],[127.18449,37.56177]]}},{"type":"Feature","properties":{"class":"alley","highway":"service","sidewalk":"unknown","lanes":0,"name":"","oneway":false},"geometry":{"type":"LineString","coordinates":[[127.18316,37.56524],[127.18322,37.56508]]}},{"type":"Feature","properties":{"class":"alley","highway":"service","sidewalk":"unknown","lanes":0,"name":"","oneway":false},"geometry":{"type":"LineString","coordinates":[[127.18102,37.57215],[127.18093,37.57213],[127.18087,37.57212]]}},{"type":"Feature","properties":{"class":"alley","highway":"service","sidewalk":"unknown","lanes":0,"name":"","oneway":false},"geometry":{"type":"LineString","coordinates":[[127.18391,37.56177],[127.18389,37.5618],[127.18387,37.56182],[127.18384,37.56183],[127.18381,37.56184],[127.18378,37.56183],[127.18375,37.56181],[127.18374,37.56179],[127.18375,37.56176],[127.18376,37.56174]]}},{"type":"Feature","properties":{"class":"alley","highway":"service","sidewalk":"unknown","lanes":0,"name":"","oneway":false},"geometry":{"type":"LineString","coordinates":[[127.18381,37.56184],[127.18394,37.56186]]}},{"type":"Feature","properties":{"class":"alley","highway":"service","sidewalk":"unknown","lanes":0,"name":"","oneway":false},"geometry":{"type":"LineString","coordinates":[[127.18484,37.57639],[127.18484,37.57632],[127.18484,37.57625]]}},{"type":"Feature","properties":{"class":"alley","highway":"service","sidewalk":"unknown","lanes":0,"name":"","oneway":false},"geometry":{"type":"LineString","coordinates":[[127.18297,37.57648],[127.18314,37.57652]]}},{"type":"Feature","properties":{"class":"alley","highway":"service","sidewalk":"unknown","lanes":0,"name":"","oneway":false},"geometry":{"type":"LineString","coordinates":[[127.18097,37.57189],[127.18099,37.5719],[127.181,37.57193],[127.181,37.57196],[127.18098,37.57201],[127.18096,37.57203],[127.18093,37.57204],[127.1809,37.57204]]}},{"type":"Feature","properties":{"class":"alley","highway":"service","sidewalk":"unknown","lanes":0,"name":"","oneway":false},"geometry":{"type":"LineString","coordinates":[[127.18073,37.56431],[127.18078,37.56422]]}},{"type":"Feature","properties":{"class":"alley","highway":"service","sidewalk":"unknown","lanes":0,"name":"","oneway":false},"geometry":{"type":"LineString","coordinates":[[127.1803,37.56421],[127.1806,37.56428],[127.18073,37.56431],[127.18099,37.56437],[127.18119,37.56442]]}},{"type":"Feature","properties":{"class":"alley","highway":"service","sidewalk":"unknown","lanes":0,"name":"","oneway":false},"geometry":{"type":"LineString","coordinates":[[127.1843,37.57418],[127.18431,37.57423],[127.18432,37.57424],[127.18433,37.57429]]}},{"type":"Feature","properties":{"class":"alley","highway":"service","sidewalk":"unknown","lanes":0,"name":"","oneway":false},"geometry":{"type":"LineString","coordinates":[[127.18414,37.57223],[127.18442,37.57226]]}},{"type":"Feature","properties":{"class":"alley","highway":"service","sidewalk":"unknown","lanes":0,"name":"","oneway":false},"geometry":{"type":"LineString","coordinates":[[127.18439,37.57191],[127.18433,37.57189]]}},{"type":"Feature","properties":{"class":"alley","highway":"service","sidewalk":"unknown","lanes":0,"name":"","oneway":false},"geometry":{"type":"LineString","coordinates":[[127.18459,37.57191],[127.18462,37.57189]]}},{"type":"Feature","properties":{"class":"alley","highway":"service","sidewalk":"unknown","lanes":0,"name":"","oneway":false},"geometry":{"type":"LineString","coordinates":[[127.18251,37.57335],[127.18264,37.57337],[127.18273,37.57337],[127.18282,37.57334]]}},{"type":"Feature","properties":{"class":"alley","highway":"service","sidewalk":"unknown","lanes":0,"name":"","oneway":false},"geometry":{"type":"LineString","coordinates":[[127.18533,37.57406],[127.1854,37.57405]]}},{"type":"Feature","properties":{"class":"alley","highway":"service","sidewalk":"unknown","lanes":0,"name":"","oneway":false},"geometry":{"type":"LineString","coordinates":[[127.18232,37.56746],[127.18231,37.56759],[127.18226,37.56767],[127.18213,37.56772]]}},{"type":"Feature","properties":{"class":"alley","highway":"service","sidewalk":"unknown","lanes":0,"name":"","oneway":false},"geometry":{"type":"LineString","coordinates":[[127.18097,37.57326],[127.1809,37.57322],[127.18089,37.57321],[127.1808,37.57309]]}},{"type":"Feature","properties":{"class":"alley","highway":"service","sidewalk":"unknown","lanes":0,"name":"","oneway":false},"geometry":{"type":"LineString","coordinates":[[127.18097,37.57234],[127.18102,37.5723]]}},{"type":"Feature","properties":{"class":"alley","highway":"service","sidewalk":"unknown","lanes":0,"name":"","oneway":false},"geometry":{"type":"LineString","coordinates":[[127.18037,37.57484],[127.18043,37.57481],[127.1805,37.5748],[127.18056,37.57482],[127.1806,37.57486],[127.1806,37.57491],[127.18055,37.57496]]}},{"type":"Feature","properties":{"class":"alley","highway":"service","sidewalk":"unknown","lanes":0,"name":"","oneway":false},"geometry":{"type":"LineString","coordinates":[[127.18143,37.56603],[127.18146,37.56608]]}},{"type":"Feature","properties":{"class":"alley","highway":"service","sidewalk":"unknown","lanes":0,"name":"","oneway":false},"geometry":{"type":"LineString","coordinates":[[127.18139,37.56433],[127.18133,37.56431]]}},{"type":"Feature","properties":{"class":"alley","highway":"service","sidewalk":"unknown","lanes":0,"name":"","oneway":false},"geometry":{"type":"LineString","coordinates":[[127.18193,37.56452],[127.18201,37.56463]]}},{"type":"Feature","properties":{"class":"alley","highway":"service","sidewalk":"unknown","lanes":0,"name":"입주민 전용","oneway":false},"geometry":{"type":"LineString","coordinates":[[127.18209,37.56179],[127.18231,37.56183]]}},{"type":"Feature","properties":{"class":"alley","highway":"service","sidewalk":"unknown","lanes":0,"name":"","oneway":false},"geometry":{"type":"LineString","coordinates":[[127.18355,37.5617],[127.18353,37.56169],[127.1835,37.56168]]}},{"type":"Feature","properties":{"class":"alley","highway":"service","sidewalk":"unknown","lanes":0,"name":"","oneway":false},"geometry":{"type":"LineString","coordinates":[[127.18349,37.56174],[127.1834,37.56181]]}},{"type":"Feature","properties":{"class":"alley","highway":"service","sidewalk":"unknown","lanes":0,"name":"입주민 전용","oneway":false},"geometry":{"type":"LineString","coordinates":[[127.18347,37.56524],[127.18353,37.56523],[127.18358,37.56521],[127.18362,37.56519]]}},{"type":"Feature","properties":{"class":"alley","highway":"service","sidewalk":"unknown","lanes":0,"name":"","oneway":false},"geometry":{"type":"LineString","coordinates":[[127.18458,37.56435],[127.18474,37.56439]]}},{"type":"Feature","properties":{"class":"alley","highway":"service","sidewalk":"unknown","lanes":0,"name":"","oneway":false},"geometry":{"type":"LineString","coordinates":[[127.18461,37.56195],[127.18465,37.56197],[127.18468,37.562],[127.18473,37.56207]]}},{"type":"Feature","properties":{"class":"alley","highway":"service","sidewalk":"unknown","lanes":0,"name":"","oneway":false},"geometry":{"type":"LineString","coordinates":[[127.1849,37.56038],[127.18519,37.56021],[127.18519,37.56014]]}},{"type":"Feature","properties":{"class":"alley","highway":"service","sidewalk":"unknown","lanes":0,"name":"","oneway":false},"geometry":{"type":"LineString","coordinates":[[127.18268,37.56944],[127.18263,37.56942],[127.18253,37.56938]]}},{"type":"Feature","properties":{"class":"alley","highway":"service","sidewalk":"unknown","lanes":0,"name":"","oneway":true},"geometry":{"type":"LineString","coordinates":[[127.18462,37.56828],[127.18449,37.56824],[127.18443,37.56822]]}},{"type":"Feature","properties":{"class":"alley","highway":"service","sidewalk":"unknown","lanes":0,"name":"","oneway":true},"geometry":{"type":"LineString","coordinates":[[127.18443,37.56822],[127.18422,37.56813],[127.18433,37.56796]]}},{"type":"Feature","properties":{"class":"alley","highway":"service","sidewalk":"unknown","lanes":0,"name":"","oneway":false},"geometry":{"type":"LineString","coordinates":[[127.18534,37.55995],[127.18522,37.55992],[127.18521,37.55992],[127.1852,37.55992],[127.18519,37.55993],[127.18518,37.55998],[127.18516,37.56001]]}},{"type":"Feature","properties":{"class":"alley","highway":"service","sidewalk":"unknown","lanes":0,"name":"","oneway":false},"geometry":{"type":"LineString","coordinates":[[127.18544,37.56007],[127.18545,37.56004],[127.18546,37.55999],[127.18547,37.55998],[127.18548,37.55998],[127.18561,37.56001]]}},{"type":"Feature","properties":{"class":"alley","highway":"service","sidewalk":"unknown","lanes":0,"name":"","oneway":false},"geometry":{"type":"LineString","coordinates":[[127.18561,37.56001],[127.18565,37.56002]]}},{"type":"Feature","properties":{"class":"alley","highway":"service","sidewalk":"unknown","lanes":0,"name":"","oneway":false},"geometry":{"type":"LineString","coordinates":[[127.18584,37.56007],[127.18575,37.56005]]}},{"type":"Feature","properties":{"class":"alley","highway":"service","sidewalk":"unknown","lanes":0,"name":"","oneway":true},"geometry":{"type":"LineString","coordinates":[[127.18577,37.56675],[127.18578,37.56661],[127.18579,37.56652]]}},{"type":"Feature","properties":{"class":"alley","highway":"pedestrian","sidewalk":"unknown","lanes":0,"name":"","oneway":false},"geometry":{"type":"LineString","coordinates":[[127.18611,37.56943],[127.18565,37.56945]]}},{"type":"Feature","properties":{"class":"alley","highway":"pedestrian","sidewalk":"unknown","lanes":0,"name":"","oneway":false},"geometry":{"type":"LineString","coordinates":[[127.1855,37.56945],[127.18523,37.56942],[127.18509,37.56939],[127.1848,37.56927]]}},{"type":"Feature","properties":{"class":"alley","highway":"pedestrian","sidewalk":"unknown","lanes":0,"name":"","oneway":false},"geometry":{"type":"LineString","coordinates":[[127.18431,37.56906],[127.18467,37.56921]]}},{"type":"Feature","properties":{"class":"minor","highway":"residential","sidewalk":"yes","lanes":2,"name":"미사강변북로55번길","oneway":false},"geometry":{"type":"LineString","coordinates":[[127.18498,37.57722],[127.18498,37.5772],[127.18499,37.57714],[127.185,37.57707],[127.18503,37.577],[127.18508,37.57688],[127.18512,37.5768],[127.18516,37.57671],[127.18518,37.57663],[127.18519,37.57656],[127.1852,37.57645],[127.1852,37.57643],[127.18521,37.57641],[127.18521,37.57637],[127.18521,37.5763],[127.18522,37.57624],[127.18522,37.57614],[127.18521,37.57606],[127.1852,37.57601],[127.18519,37.57596],[127.18514,37.5757],[127.18513,37.57565],[127.18505,37.57535],[127.18505,37.57534],[127.18502,37.5752],[127.18498,37.57504],[127.18483,37.57449],[127.18479,37.57431],[127.18477,37.57422],[127.18476,37.57419],[127.18475,37.57415],[127.18473,37.57405],[127.18468,37.57386],[127.1846,37.57356],[127.18452,37.57326],[127.18443,37.57292],[127.18439,37.57275],[127.18438,37.57272],[127.18438,37.5727],[127.18439,37.57255]]}},{"type":"Feature","properties":{"class":"alley","highway":"service","sidewalk":"unknown","lanes":0,"name":"","oneway":false},"geometry":{"type":"LineString","coordinates":[[127.18421,37.57435],[127.18428,37.5743]]}},{"type":"Feature","properties":{"class":"major","highway":"secondary","sidewalk":"likely","lanes":0,"name":"미사강변대로","oneway":false},"geometry":{"type":"LineString","coordinates":[[127.1805,37.57614],[127.18056,37.576],[127.18096,37.57517]]}},{"type":"Feature","properties":{"class":"major","highway":"secondary","sidewalk":"likely","lanes":6,"name":"미사강변대로","oneway":false},"geometry":{"type":"LineString","coordinates":[[127.18136,37.57434],[127.18138,37.5743]]}},{"type":"Feature","properties":{"class":"alley","highway":"service","sidewalk":"unknown","lanes":0,"name":"","oneway":false},"geometry":{"type":"LineString","coordinates":[[127.18193,37.57317],[127.18211,37.57323]]}},{"type":"Feature","properties":{"class":"alley","highway":"service","sidewalk":"unknown","lanes":0,"name":"","oneway":false},"geometry":{"type":"LineString","coordinates":[[127.18159,37.57344],[127.18177,37.57349]]}},{"type":"Feature","properties":{"class":"alley","highway":"service","sidewalk":"unknown","lanes":0,"name":"","oneway":false},"geometry":{"type":"LineString","coordinates":[[127.18579,37.57717],[127.1858,37.57726],[127.1858,37.57728]]}},{"type":"Feature","properties":{"class":"alley","highway":"service","sidewalk":"unknown","lanes":0,"name":"","oneway":false},"geometry":{"type":"LineString","coordinates":[[127.1858,37.57728],[127.18582,37.57739],[127.18604,37.57736],[127.18615,37.57794],[127.18617,37.57807],[127.18614,37.57814],[127.18609,37.57818],[127.18566,37.57823]]}},{"type":"Feature","properties":{"class":"major","highway":"secondary","sidewalk":"likely","lanes":0,"name":"미사강변대로","oneway":false},"geometry":{"type":"LineString","coordinates":[[127.18005,37.57707],[127.18013,37.5769]]}},{"type":"Feature","properties":{"class":"major","highway":"secondary","sidewalk":"likely","lanes":6,"name":"미사강변대로","oneway":false},"geometry":{"type":"LineString","coordinates":[[127.18193,37.57317],[127.18238,37.5722],[127.18248,37.57201]]}},{"type":"Feature","properties":{"class":"major","highway":"secondary","sidewalk":"likely","lanes":6,"name":"미사강변대로","oneway":false},"geometry":{"type":"LineString","coordinates":[[127.18177,37.57349],[127.18193,37.57317]]}},{"type":"Feature","properties":{"class":"major","highway":"secondary","sidewalk":"likely","lanes":0,"name":"미사강변대로","oneway":false},"geometry":{"type":"LineString","coordinates":[[127.18096,37.57517],[127.1812,37.57467],[127.18136,37.57434]]}},{"type":"Feature","properties":{"class":"major","highway":"secondary","sidewalk":"likely","lanes":0,"name":"미사강변대로","oneway":false},"geometry":{"type":"LineString","coordinates":[[127.18323,37.57047],[127.18338,37.57018],[127.18354,37.56992],[127.18367,37.56972],[127.18376,37.56959]]}},{"type":"Feature","properties":{"class":"alley","highway":"service","sidewalk":"unknown","lanes":0,"name":"","oneway":true},"geometry":{"type":"LineString","coordinates":[[127.18433,37.56796],[127.18435,37.56793],[127.18457,37.56782],[127.18472,37.56787],[127.18485,37.56791]]}},{"type":"Feature","properties":{"class":"major","highway":"secondary","sidewalk":"likely","lanes":0,"name":"미사강변대로","oneway":false},"geometry":{"type":"LineString","coordinates":[[127.18462,37.56828],[127.18474,37.5681]]}},{"type":"Feature","properties":{"class":"major","highway":"secondary","sidewalk":"likely","lanes":0,"name":"미사강변대로","oneway":false},"geometry":{"type":"LineString","coordinates":[[127.18474,37.5681],[127.18485,37.56791]]}},{"type":"Feature","properties":{"class":"major","highway":"secondary","sidewalk":"likely","lanes":0,"name":"미사강변대로","oneway":false},"geometry":{"type":"LineString","coordinates":[[127.18485,37.56791],[127.18494,37.56776]]}},{"type":"Feature","properties":{"class":"major","highway":"secondary","sidewalk":"likely","lanes":0,"name":"미사강변대로","oneway":false},"geometry":{"type":"LineString","coordinates":[[127.18494,37.56776],[127.18508,37.56747],[127.18522,37.56713],[127.18528,37.56695],[127.18529,37.56691],[127.18534,37.56674]]}},{"type":"Feature","properties":{"class":"major","highway":"secondary","sidewalk":"likely","lanes":0,"name":"미사강변대로","oneway":true},"geometry":{"type":"LineString","coordinates":[[127.18558,37.56453],[127.18563,37.56431],[127.18568,37.56412],[127.18573,37.56397],[127.18582,37.56373],[127.18597,37.56344]]}},{"type":"Feature","properties":{"class":"major","highway":"secondary","sidewalk":"likely","lanes":0,"name":"미사강변대로","oneway":true},"geometry":{"type":"LineString","coordinates":[[127.18609,37.56347],[127.18595,37.56375],[127.18583,37.56407],[127.18576,37.56429],[127.18573,37.56447],[127.1857,37.56465],[127.18567,37.56492],[127.18561,37.56543],[127.18552,37.56555]]}},{"type":"Feature","properties":{"class":"alley","highway":"service","sidewalk":"unknown","lanes":0,"name":"","oneway":false},"geometry":{"type":"LineString","coordinates":[[127.18046,37.57816],[127.17995,37.57803]]}},{"type":"Feature","properties":{"class":"major","highway":"tertiary","sidewalk":"likely","lanes":0,"name":"미사강변한강로","oneway":false},"geometry":{"type":"LineString","coordinates":[[127.18286,37.57678],[127.18301,37.57682],[127.18369,37.57701]]}},{"type":"Feature","properties":{"class":"major","highway":"tertiary","sidewalk":"likely","lanes":0,"name":"미사강변한강로","oneway":false},"geometry":{"type":"LineString","coordinates":[[127.18369,37.57701],[127.18412,37.57712],[127.18435,37.57717],[127.18451,37.57719],[127.18478,37.57722],[127.18493,37.57722],[127.18498,37.57722]]}},{"type":"Feature","properties":{"class":"major","highway":"tertiary","sidewalk":"likely","lanes":0,"name":"미사강변한강로","oneway":false},"geometry":{"type":"LineString","coordinates":[[127.18498,37.57722],[127.18502,37.57722],[127.18517,37.57723],[127.18529,37.57723],[127.18542,37.57722],[127.18579,37.57717]]}},{"type":"Feature","properties":{"class":"major","highway":"tertiary","sidewalk":"likely","lanes":0,"name":"미사강변한강로","oneway":false},"geometry":{"type":"LineString","coordinates":[[127.18579,37.57717],[127.18737,37.57697],[127.18754,37.57695]]}},{"type":"Feature","properties":{"class":"minor","highway":"residential","sidewalk":"unknown","lanes":0,"name":"미사강변북로30번길","oneway":false},"geometry":{"type":"LineString","coordinates":[[127.18248,37.56974],[127.18257,37.5696],[127.1826,37.56956],[127.18264,37.5695],[127.18268,37.56944],[127.18279,37.56927],[127.18285,37.5692],[127.1829,37.56912],[127.1832,37.56863],[127.18323,37.56859],[127.18326,37.56855],[127.18358,37.56807],[127.1836,37.56806],[127.18362,37.56805]]}},{"type":"Feature","properties":{"class":"minor","highway":"residential","sidewalk":"unknown","lanes":0,"name":"미사강변북로30번안길","oneway":false},"geometry":{"type":"LineString","coordinates":[[127.18208,37.57057],[127.1816,37.57043]]}},{"type":"Feature","properties":{"class":"major","highway":"motorway_link","sidewalk":"likely","lanes":0,"name":"","oneway":true},"geometry":{"type":"LineString","coordinates":[[127.17961,37.578],[127.17961,37.57808],[127.17961,37.57814],[127.17961,37.57823],[127.17963,37.57832],[127.17965,37.5784],[127.1797,37.57846],[127.1798,37.57852],[127.18043,37.57874],[127.18099,37.57892],[127.18167,37.57907],[127.18238,37.5793],[127.18338,37.57964]]}},{"type":"Feature","properties":{"class":"minor","highway":"unclassified","sidewalk":"unknown","lanes":0,"name":"","oneway":true},"geometry":{"type":"LineString","coordinates":[[127.1804,37.57864],[127.18247,37.57921],[127.1826,37.57924],[127.18431,37.57966],[127.18548,37.57993],[127.1864,37.58013],[127.18672,37.58019],[127.18804,37.58044],[127.18821,37.58046],[127.18915,37.5806],[127.18986,37.58071],[127.18995,37.58073],[127.19002,37.58076],[127.19019,37.58083]]}},{"type":"Feature","properties":{"class":"major","highway":"secondary","sidewalk":"likely","lanes":0,"name":"미사강변대로","oneway":false},"geometry":{"type":"LineString","coordinates":[[127.17977,37.57764],[127.18005,37.57707]]}},{"type":"Feature","properties":{"class":"alley","highway":"service","sidewalk":"unknown","lanes":0,"name":"미사강변대로226번길","oneway":false},"geometry":{"type":"LineString","coordinates":[[127.18437,37.5698],[127.18397,37.56967],[127.18376,37.56959]]}},{"type":"Feature","properties":{"class":"alley","highway":"service","sidewalk":"unknown","lanes":0,"name":"","oneway":false},"geometry":{"type":"LineString","coordinates":[[127.17996,37.56311],[127.18003,37.56316],[127.18043,37.5633]]}},{"type":"Feature","properties":{"class":"minor","highway":"residential","sidewalk":"unknown","lanes":0,"name":"","oneway":false},"geometry":{"type":"LineString","coordinates":[[127.18008,37.56142],[127.17993,37.56142],[127.17986,37.56142],[127.17969,37.56149],[127.17943,37.56155],[127.17937,37.56156],[127.17911,37.56155],[127.17892,37.56149],[127.17879,37.56138],[127.17876,37.56119],[127.17876,37.56108],[127.17875,37.56076],[127.17873,37.56036],[127.17876,37.56023],[127.1789,37.56005],[127.17903,37.55984],[127.17904,37.55977],[127.17905,37.55968],[127.17905,37.55966],[127.17907,37.55946],[127.17904,37.55936],[127.17901,37.55927],[127.17896,37.55918],[127.17892,37.55907],[127.17891,37.55896],[127.17889,37.55892],[127.1788,37.55882],[127.17867,37.55879],[127.17855,37.55879],[127.1784,37.55879],[127.17814,37.55879],[127.17806,37.55876],[127.17802,37.55871],[127.17794,37.55866],[127.17786,37.55864]]}},{"type":"Feature","properties":{"class":"minor","highway":"residential","sidewalk":"unknown","lanes":0,"name":"","oneway":false},"geometry":{"type":"LineString","coordinates":[[127.17962,37.55936],[127.17977,37.55935],[127.17987,37.55935],[127.18013,37.55944],[127.18018,37.55948],[127.18032,37.55959],[127.18044,37.55985],[127.18054,37.56011],[127.18056,37.56017],[127.18062,37.56032],[127.18067,37.5606],[127.18004,37.56069],[127.17988,37.56071]]}},{"type":"Feature","properties":{"class":"minor","highway":"residential","sidewalk":"unknown","lanes":0,"name":"","oneway":false},"geometry":{"type":"LineString","coordinates":[[127.18067,37.5606],[127.18067,37.56062],[127.18064,37.56076],[127.18066,37.56088],[127.18073,37.56095]]}},{"type":"Feature","properties":{"class":"alley","highway":"service","sidewalk":"unknown","lanes":0,"name":"","oneway":false},"geometry":{"type":"LineString","coordinates":[[127.18073,37.56095],[127.18078,37.56097],[127.18078,37.56109],[127.18099,37.56109],[127.181,37.56098],[127.18108,37.56098]]}},{"type":"Feature","properties":{"class":"alley","highway":"service","sidewalk":"unknown","lanes":0,"name":"","oneway":false},"geometry":{"type":"LineString","coordinates":[[127.18078,37.56097],[127.18092,37.56098],[127.181,37.56098]]}},{"type":"Feature","properties":{"class":"alley","highway":"service","sidewalk":"unknown","lanes":0,"name":"","oneway":false},"geometry":{"type":"LineString","coordinates":[[127.18067,37.56062],[127.18136,37.56056]]}},{"type":"Feature","properties":{"class":"alley","highway":"service","sidewalk":"unknown","lanes":0,"name":"","oneway":false},"geometry":{"type":"LineString","coordinates":[[127.18056,37.56017],[127.18086,37.5601],[127.18107,37.56005],[127.18112,37.56018],[127.18091,37.56023],[127.18086,37.5601]]}},{"type":"Feature","properties":{"class":"alley","highway":"service","sidewalk":"unknown","lanes":0,"name":"","oneway":false},"geometry":{"type":"LineString","coordinates":[[127.18107,37.56005],[127.18119,37.56002]]}},{"type":"Feature","properties":{"class":"major","highway":"tertiary","sidewalk":"likely","lanes":0,"name":"미사강변북로","oneway":false},"geometry":{"type":"LineString","coordinates":[[127.18153,37.57173],[127.18193,37.57184],[127.18223,37.57193],[127.18248,37.57201]]}}]}