{"type":"FeatureCollection","features":[{"type":"Feature","properties":{"class":"major","highway":"motorway","sidewalk":"likely","lanes":4,"name":"수도권제1순환고속도로","oneway":true},"geometry":{"type":"LineString","coordinates":[[126.75533,37.57852],[126.75551,37.57923],[126.75572,37.57992],[126.75605,37.58079],[126.75637,37.58146],[126.75666,37.58201],[126.75695,37.58249],[126.75728,37.58299],[126.75784,37.58373],[126.75864,37.58461],[126.75945,37.58538],[126.76369,37.58924],[126.7653,37.59075],[126.76594,37.59132],[126.76624,37.59159],[126.76652,37.59182],[126.76766,37.5927],[126.76817,37.59311],[126.76858,37.59342],[126.76879,37.59357],[126.76897,37.5937],[126.76933,37.59393],[126.77026,37.5945],[126.77105,37.59498],[126.77185,37.59544],[126.77195,37.5955],[126.77231,37.59568],[126.77398,37.59655]]}},{"type":"Feature","properties":{"class":"major","highway":"motorway","sidewalk":"likely","lanes":4,"name":"수도권제1순환고속도로","oneway":true},"geometry":{"type":"LineString","coordinates":[[126.77388,37.59669],[126.77337,37.59641],[126.77207,37.59576],[126.77146,37.59543],[126.77111,37.59523],[126.77069,37.59498],[126.77021,37.59469],[126.77011,37.59462],[126.76976,37.59439],[126.76904,37.59392],[126.76875,37.59373],[126.7686,37.59364],[126.76843,37.59351],[126.76823,37.59335],[126.76803,37.5932],[126.76754,37.5928],[126.76636,37.59187],[126.76516,37.59082],[126.76175,37.5877],[126.7599,37.58601],[126.75931,37.58548],[126.75849,37.58471],[126.75777,37.58392],[126.75744,37.58351],[126.75698,37.58285],[126.7566,37.58225],[126.75623,37.58153],[126.7559,37.58084],[126.75548,37.57979],[126.75532,37.57927],[126.75516,37.57854]]}},{"type":"Feature","properties":{"class":"minor","highway":"residential","sidewalk":"unknown","lanes":0,"name":"당미길","oneway":false},"geometry":{"type":"LineString","coordinates":[[126.7625,37.56289],[126.76238,37.5629],[126.76032,37.56281],[126.75959,37.56278],[126.75906,37.56275],[126.75888,37.56272],[126.75876,37.56265],[126.75815,37.56224]]}},{"type":"Feature","properties":{"class":"major","highway":"tertiary","sidewalk":"likely","lanes":4,"name":"드림로","oneway":false},"geometry":{"type":"LineString","coordinates":[[126.74704,37.57658],[126.75127,37.57598],[126.75183,37.57594],[126.75232,37.57593],[126.75268,37.57595],[126.7531,37.57599],[126.75353,37.57605],[126.75404,37.57614],[126.75445,37.57624],[126.755,37.57644],[126.75532,37.57657],[126.75991,37.57882],[126.76595,37.58178]]}},{"type":"Feature","properties":{"class":"major","highway":"tertiary","sidewalk":"likely","lanes":2,"name":"정서진로","oneway":false},"geometry":{"type":"LineString","coordinates":[[126.7796,37.58823],[126.77946,37.58816],[126.77903,37.58778],[126.77857,37.5874],[126.77812,37.58705],[126.77757,37.58662],[126.77739,37.58647],[126.77721,37.58634],[126.77702,37.58622],[126.77685,37.58611],[126.77651,37.5859],[126.7762,37.5857],[126.77589,37.58547],[126.77572,37.58534],[126.77562,37.58526],[126.7756,37.58523],[126.77548,37.58513],[126.7753,37.58493],[126.7749,37.58454],[126.77482,37.58445],[126.77474,37.58438],[126.77461,37.58426],[126.77446,37.58415],[126.77419,37.58395],[126.77267,37.5828],[126.76992,37.58076],[126.76956,37.58054],[126.76888,37.58014],[126.76829,37.57971],[126.76731,37.57884],[126.76464,37.57687],[126.76331,37.57583],[126.76205,37.57495],[126.76106,37.57443],[126.76046,37.57416],[126.75999,37.574]]}}]}