{"type":"FeatureCollection","features":[{"type":"Feature","properties":{"class":"major","highway":"trunk_link","sidewalk":"likely","lanes":0,"name":"","oneway":true},"geometry":{"type":"LineString","coordinates":[[126.82841,37.60087],[126.82898,37.60033],[126.82927,37.60007],[126.82961,37.5997],[126.83016,37.59927]]}},{"type":"Feature","properties":{"class":"minor","highway":"residential","sidewalk":"unknown","lanes":0,"name":"행주로15번길","oneway":false},"geometry":{"type":"LineString","coordinates":[[126.82433,37.60076],[126.82454,37.6005],[126.82487,37.60057],[126.82497,37.60057],[126.82507,37.6005],[126.82527,37.6004],[126.82597,37.60003],[126.82646,37.59976],[126.82662,37.59976],[126.82682,37.59989],[126.82696,37.60005],[126.82736,37.60031],[126.82833,37.60077],[126.82841,37.60087]]}},{"type":"Feature","properties":{"class":"major","highway":"motorway","sidewalk":"likely","lanes":2,"name":"수원문산고속도로","oneway":true},"geometry":{"type":"LineString","coordinates":[[126.83569,37.59951],[126.83429,37.59716]]}},{"type":"Feature","properties":{"class":"major","highway":"trunk","sidewalk":"likely","lanes":4,"name":"올림픽대로","oneway":true},"geometry":{"type":"LineString","coordinates":[[126.86591,37.56151],[126.86283,37.56337],[126.86251,37.56353],[126.85637,37.56707],[126.8534,37.56883],[126.847,37.57254],[126.84439,37.57406],[126.84187,37.57553],[126.84118,37.57593],[126.84055,37.57628],[126.83954,37.57674],[126.8387,37.57711],[126.82604,37.58179],[126.82493,37.58218],[126.8234,37.58276],[126.82261,37.58311],[126.82186,37.58344],[126.82135,37.58367],[126.82077,37.58392],[126.81668,37.58599],[126.81003,37.58936],[126.80956,37.58952],[126.80905,37.58973],[126.80821,37.59003],[126.80721,37.59042],[126.80665,37.59071],[126.80617,37.59097],[126.8049,37.59171]]}},{"type":"Feature","properties":{"class":"major","highway":"motorway","sidewalk":"likely","lanes":3,"name":"인천국제공항고속도로","oneway":true},"geometry":{"type":"LineString","coordinates":[[126.81351,37.58427],[126.81496,37.58385],[126.81558,37.58374],[126.81608,37.58366],[126.81664,37.58361],[126.81722,37.58358],[126.81782,37.58359],[126.81829,37.58361],[126.81875,37.58366],[126.8192,37.58372],[126.81961,37.5838],[126.82,37.58389],[126.82064,37.58409],[126.82112,37.58425],[126.82149,37.58442]]}},{"type":"Feature","properties":{"class":"major","highway":"motorway_link","sidewalk":"likely","lanes":2,"name":"","oneway":true},"geometry":{"type":"LineString","coordinates":[[126.81496,37.58385],[126.81534,37.58374],[126.81578,37.58363],[126.81636,37.58353],[126.81686,37.58349],[126.81734,37.58347],[126.81806,37.58348],[126.81864,37.58353],[126.81921,37.58361],[126.81979,37.58368],[126.82014,37.58369],[126.82043,37.58366]]}},{"type":"Feature","properties":{"class":"major","highway":"motorway_link","sidewalk":"likely","lanes":2,"name":"","oneway":true},"geometry":{"type":"LineString","coordinates":[[126.82043,37.58366],[126.82069,37.58361],[126.82096,37.58354],[126.82128,37.58341],[126.82159,37.5833],[126.82263,37.58284],[126.82356,37.58256]]}},{"type":"Feature","properties":{"class":"major","highway":"motorway_link","sidewalk":"likely","lanes":2,"name":"","oneway":true},"geometry":{"type":"LineString","coordinates":[[126.82036,37.58482],[126.82014,37.58483],[126.81984,37.58481],[126.81948,37.58475],[126.81911,37.58462],[126.81851,37.58436],[126.81808,37.58418],[126.81768,37.58403],[126.81735,37.58393],[126.81697,37.58387],[126.81666,37.58381],[126.81626,37.58381],[126.81605,37.58383],[126.81543,37.58396],[126.81485,37.58403]]}},{"type":"Feature","properties":{"class":"major","highway":"motorway_link","sidewalk":"likely","lanes":2,"name":"","oneway":true},"geometry":{"type":"LineString","coordinates":[[126.82604,37.58179],[126.82533,37.58213],[126.82423,37.5826],[126.82369,37.58286]]}},{"type":"Feature","properties":{"class":"major","highway":"motorway_link","sidewalk":"likely","lanes":2,"name":"","oneway":true},"geometry":{"type":"LineString","coordinates":[[126.82369,37.58286],[126.82268,37.58329],[126.82238,37.58341],[126.82208,37.58361],[126.82188,37.58378],[126.82152,37.58419],[126.82135,37.58436],[126.82111,37.58454],[126.82095,37.58464],[126.82079,37.58471],[126.8206,37.58478],[126.82036,37.58482]]}},{"type":"Feature","properties":{"class":"major","highway":"trunk","sidewalk":"likely","lanes":5,"name":"자유로","oneway":true},"geometry":{"type":"LineString","coordinates":[[126.83343,37.59542],[126.83254,37.59657]]}},{"type":"Feature","properties":{"class":"major","highway":"trunk","sidewalk":"likely","lanes":4,"name":"자유로","oneway":true},"geometry":{"type":"LineString","coordinates":[[126.8323,37.59645],[126.8332,37.59532]]}},{"type":"Feature","properties":{"class":"major","highway":"trunk","sidewalk":"likely","lanes":5,"name":"자유로","oneway":true},"geometry":{"type":"LineString","coordinates":[[126.83644,37.5917],[126.83714,37.5912],[126.83761,37.59093],[126.83854,37.59039],[126.83879,37.59025],[126.84067,37.5892],[126.8423,37.58825],[126.84319,37.58774],[126.84644,37.58585],[126.84908,37.58433],[126.8518,37.58276],[126.85321,37.58195],[126.85408,37.58146]]}},{"type":"Feature","properties":{"class":"major","highway":"motorway_link","sidewalk":"likely","lanes":0,"name":"","oneway":true},"geometry":{"type":"LineString","coordinates":[[126.83129,37.59206],[126.83191,37.59273],[126.83214,37.59299],[126.83233,37.59318],[126.8325,37.5933],[126.83266,37.59338],[126.83286,37.59346],[126.83312,37.59352],[126.83337,37.59353],[126.83363,37.59351],[126.83392,37.59346],[126.83411,37.59339]]}},{"type":"Feature","properties":{"class":"major","highway":"motorway_link","sidewalk":"likely","lanes":0,"name":"","oneway":true},"geometry":{"type":"LineString","coordinates":[[126.83411,37.59339],[126.83434,37.59325],[126.83467,37.593],[126.83528,37.59249],[126.83568,37.59214],[126.83644,37.5917]]}},{"type":"Feature","properties":{"class":"major","highway":"motorway_link","sidewalk":"likely","lanes":0,"name":"","oneway":true},"geometry":{"type":"LineString","coordinates":[[126.83237,37.59678],[126.83224,37.59708],[126.83212,37.59741],[126.83212,37.59759]]}},{"type":"Feature","properties":{"class":"major","highway":"motorway_link","sidewalk":"likely","lanes":0,"name":"","oneway":true},"geometry":{"type":"LineString","coordinates":[[126.83212,37.59759],[126.83214,37.59776],[126.83221,37.59793],[126.83233,37.59808],[126.83249,37.5982],[126.83266,37.59827],[126.83293,37.59832],[126.83318,37.59832],[126.83342,37.5983],[126.83365,37.5982],[126.83387,37.59805],[126.83405,37.59788],[126.83414,37.59769],[126.83417,37.59753],[126.83418,37.59736],[126.83416,37.59719],[126.83398,37.59669]]}},{"type":"Feature","properties":{"class":"major","highway":"trunk","sidewalk":"likely","lanes":5,"name":"자유로","oneway":true},"geometry":{"type":"LineString","coordinates":[[126.83254,37.59657],[126.83237,37.59678]]}},{"type":"Feature","properties":{"class":"major","highway":"trunk_link","sidewalk":"likely","lanes":0,"name":"","oneway":true},"geometry":{"type":"LineString","coordinates":[[126.83879,37.59025],[126.83922,37.58982],[126.83992,37.5893],[126.84029,37.58905],[126.84056,37.5889],[126.84077,37.58878],[126.84095,37.58868],[126.84119,37.58853],[126.84146,37.5884],[126.84181,37.58823],[126.84226,37.58805],[126.84253,37.58794],[126.84319,37.58774]]}},{"type":"Feature","properties":{"class":"major","highway":"trunk_link","sidewalk":"likely","lanes":0,"name":"","oneway":true},"geometry":{"type":"LineString","coordinates":[[126.84375,37.58762],[126.84321,37.58808],[126.84285,37.58834],[126.84248,37.58866],[126.84221,37.58888],[126.84195,37.58907],[126.84168,37.58923],[126.84133,37.58942],[126.84119,37.5895],[126.84075,37.58977],[126.84028,37.58998],[126.83971,37.59021],[126.83902,37.5905],[126.83802,37.59091]]}},{"type":"Feature","properties":{"class":"major","highway":"trunk_link","sidewalk":"likely","lanes":0,"name":"","oneway":true},"geometry":{"type":"LineString","coordinates":[[126.83085,37.59869],[126.83049,37.59959],[126.83027,37.60002],[126.82972,37.60064],[126.82884,37.60165]]}},{"type":"Feature","properties":{"class":"major","highway":"motorway","sidewalk":"likely","lanes":2,"name":"수원문산고속도로","oneway":true},"geometry":{"type":"LineString","coordinates":[[126.83438,37.59713],[126.83481,37.59781],[126.8358,37.59947]]}},{"type":"Feature","properties":{"class":"alley","highway":"service","sidewalk":"unknown","lanes":0,"name":"대덕로","oneway":false},"geometry":{"type":"LineString","coordinates":[[126.83871,37.59088],[126.83883,37.59082],[126.83905,37.59072],[126.84135,37.58988],[126.84145,37.58983],[126.84163,37.58971],[126.8418,37.58959],[126.84194,37.58946],[126.84289,37.58854],[126.84318,37.58831],[126.84346,37.58813],[126.8443,37.58761],[126.84539,37.58695],[126.84611,37.58651],[126.84621,37.58646],[126.84633,37.58643],[126.84652,37.58642],[126.84697,37.58636],[126.84705,37.58633],[126.84722,37.5862],[126.84731,37.58616],[126.85009,37.58456],[126.85048,37.58435],[126.85076,37.58424],[126.85093,37.58416],[126.85121,37.58401],[126.85589,37.58137],[126.85597,37.58134],[126.85602,37.58133],[126.85607,37.58134],[126.8561,37.58135],[126.85613,37.58138],[126.85709,37.58243],[126.85719,37.5826]]}},{"type":"Feature","properties":{"class":"major","highway":"trunk","sidewalk":"likely","lanes":4,"name":"자유로","oneway":true},"geometry":{"type":"LineString","coordinates":[[126.83237,37.59678],[126.83135,37.59807],[126.83094,37.59857],[126.83085,37.59869]]}},{"type":"Feature","properties":{"class":"major","highway":"motorway","sidewalk":"likely","lanes":2,"name":"인천국제공항고속도로","oneway":true},"geometry":{"type":"LineString","coordinates":[[126.83129,37.59206],[126.83179,37.59279],[126.83219,37.59342],[126.83288,37.59461],[126.83438,37.59713]]}},{"type":"Feature","properties":{"class":"major","highway":"motorway","sidewalk":"likely","lanes":3,"name":"인천국제공항고속도로","oneway":true},"geometry":{"type":"LineString","coordinates":[[126.831,37.5919],[126.83025,37.59114],[126.82969,37.59065],[126.82308,37.58551],[126.82237,37.58502],[126.82209,37.58485],[126.82195,37.58477],[126.82149,37.58453]]}},{"type":"Feature","properties":{"class":"major","highway":"motorway","sidewalk":"likely","lanes":3,"name":"인천국제공항고속도로","oneway":true},"geometry":{"type":"LineString","coordinates":[[126.82149,37.58453],[126.82106,37.58433],[126.82059,37.58415],[126.82007,37.584],[126.81957,37.58388],[126.81917,37.5838],[126.81865,37.58372],[126.81813,37.58367],[126.81762,37.58365],[126.81712,37.58366],[126.81665,37.58368],[126.81598,37.58379],[126.81548,37.58388],[126.81485,37.58403],[126.81357,37.5844]]}},{"type":"Feature","properties":{"class":"major","highway":"motorway","sidewalk":"likely","lanes":3,"name":"인천국제공항고속도로","oneway":true},"geometry":{"type":"LineString","coordinates":[[126.82149,37.58442],[126.82208,37.58471],[126.8222,37.58478],[126.82245,37.58495],[126.82315,37.58542],[126.82419,37.5862],[126.8298,37.59057],[126.83035,37.59106],[126.83129,37.59206]]}},{"type":"Feature","properties":{"class":"major","highway":"trunk_link","sidewalk":"likely","lanes":1,"name":"","oneway":true},"geometry":{"type":"LineString","coordinates":[[126.82186,37.58344],[126.82106,37.58388],[126.82037,37.58435],[126.82013,37.58454],[126.81988,37.58476],[126.81975,37.58492]]}},{"type":"Feature","properties":{"class":"minor","highway":"residential","sidewalk":"unknown","lanes":0,"name":"금낭화로26가길","oneway":false},"geometry":{"type":"LineString","coordinates":[[126.82437,37.58201],[126.8225,37.58264],[126.82147,37.58308],[126.82001,37.58356],[126.81974,37.58378],[126.81949,37.58403],[126.81923,37.58416],[126.81905,37.58423],[126.81807,37.58467],[126.81763,37.58486],[126.81558,37.5856]]}},{"type":"Feature","properties":{"class":"major","highway":"trunk","sidewalk":"likely","lanes":4,"name":"자유로","oneway":true},"geometry":{"type":"LineString","coordinates":[[126.82338,37.60415],[126.82482,37.60377],[126.82566,37.60355],[126.82606,37.6034],[126.82634,37.60329],[126.82662,37.60315],[126.82686,37.60301],[126.82714,37.60281],[126.82735,37.60263],[126.82758,37.60242],[126.82777,37.6022],[126.82799,37.60193],[126.8289,37.60076],[126.83016,37.59927]]}},{"type":"Feature","properties":{"class":"major","highway":"trunk_link","sidewalk":"likely","lanes":1,"name":"","oneway":true},"geometry":{"type":"LineString","coordinates":[[126.83611,37.59219],[126.8355,37.59296],[126.8351,37.59343],[126.8347,37.59412],[126.83439,37.59486],[126.83427,37.59522],[126.83421,37.59551]]}},{"type":"Feature","properties":{"class":"major","highway":"trunk_link","sidewalk":"likely","lanes":1,"name":"","oneway":true},"geometry":{"type":"LineString","coordinates":[[126.83413,37.59884],[126.83381,37.59874]]}},{"type":"Feature","properties":{"class":"major","highway":"trunk_link","sidewalk":"likely","lanes":1,"name":"","oneway":true},"geometry":{"type":"LineString","coordinates":[[126.83212,37.59574],[126.83286,37.59518]]}},{"type":"Feature","properties":{"class":"major","highway":"trunk_link","sidewalk":"likely","lanes":1,"name":"","oneway":true},"geometry":{"type":"LineString","coordinates":[[126.83134,37.59918],[126.83013,37.60002]]}},{"type":"Feature","properties":{"class":"major","highway":"trunk_link","sidewalk":"likely","lanes":1,"name":"","oneway":true},"geometry":{"type":"LineString","coordinates":[[126.83286,37.59518],[126.83351,37.59461],[126.83416,37.59407]]}},{"type":"Feature","properties":{"class":"major","highway":"trunk_link","sidewalk":"likely","lanes":1,"name":"","oneway":true},"geometry":{"type":"LineString","coordinates":[[126.83153,37.59669],[126.83158,37.59649],[126.83167,37.59628],[126.8318,37.59608],[126.83194,37.59591],[126.83212,37.59574]]}},{"type":"Feature","properties":{"class":"major","highway":"trunk_link","sidewalk":"likely","lanes":1,"name":"","oneway":true},"geometry":{"type":"LineString","coordinates":[[126.83421,37.59551],[126.8342,37.59583],[126.83419,37.59593],[126.83422,37.59625],[126.83427,37.59651],[126.83438,37.59687],[126.83449,37.59709],[126.83454,37.5972],[126.83589,37.59943]]}},{"type":"Feature","properties":{"class":"major","highway":"trunk_link","sidewalk":"likely","lanes":1,"name":"","oneway":true},"geometry":{"type":"LineString","coordinates":[[126.83381,37.59874],[126.8333,37.59858],[126.83247,37.59829],[126.83215,37.59809],[126.83197,37.59791],[126.83182,37.59775],[126.83166,37.5975],[126.83158,37.59731],[126.83152,37.59703],[126.83153,37.59669]]}},{"type":"Feature","properties":{"class":"major","highway":"motorway","sidewalk":"likely","lanes":3,"name":"인천국제공항고속도로","oneway":true},"geometry":{"type":"LineString","coordinates":[[126.83398,37.59669],[126.83275,37.59466],[126.83169,37.59283],[126.8314,37.59242],[126.831,37.5919]]}},{"type":"Feature","properties":{"class":"major","highway":"trunk_link","sidewalk":"likely","lanes":1,"name":"","oneway":true},"geometry":{"type":"LineString","coordinates":[[126.82027,37.58472],[126.81997,37.58474],[126.81974,37.58471],[126.81945,37.58464],[126.81906,37.58448],[126.81876,37.58431],[126.81846,37.58413],[126.81808,37.58386]]}},{"type":"Feature","properties":{"class":"major","highway":"trunk_link","sidewalk":"likely","lanes":1,"name":"","oneway":true},"geometry":{"type":"LineString","coordinates":[[126.8234,37.58276],[126.82267,37.58316],[126.82207,37.58343],[126.82187,37.58358],[126.82168,37.58374],[126.82155,37.58391],[126.82137,37.58417],[126.82122,37.58432],[126.82104,37.58445],[126.82075,37.5846],[126.82052,37.58468],[126.82027,37.58472]]}},{"type":"Feature","properties":{"class":"major","highway":"trunk_link","sidewalk":"likely","lanes":1,"name":"","oneway":true},"geometry":{"type":"LineString","coordinates":[[126.82193,37.58295],[126.82369,37.58235],[126.82461,37.58215]]}},{"type":"Feature","properties":{"class":"major","highway":"trunk_link","sidewalk":"likely","lanes":1,"name":"","oneway":true},"geometry":{"type":"LineString","coordinates":[[126.81791,37.58232],[126.81821,37.58261],[126.81848,37.58278],[126.81902,37.58303],[126.81964,37.58319],[126.82017,37.58328],[126.82076,37.58327],[126.82132,37.58316],[126.82193,37.58295]]}},{"type":"Feature","properties":{"class":"alley","highway":"service","sidewalk":"unknown","lanes":0,"name":"","oneway":false},"geometry":{"type":"LineString","coordinates":[[126.83911,37.59142],[126.83884,37.5911],[126.83871,37.59088]]}},{"type":"Feature","properties":{"class":"minor","highway":"unclassified","sidewalk":"unknown","lanes":0,"name":"","oneway":false},"geometry":{"type":"LineString","coordinates":[[126.83871,37.59088],[126.83717,37.59179],[126.8369,37.59195],[126.83654,37.59221],[126.83606,37.5926],[126.83562,37.59301],[126.83532,37.59336],[126.83512,37.59363],[126.83491,37.59397],[126.83476,37.59428],[126.83458,37.59478],[126.83449,37.59509],[126.83442,37.59556],[126.83441,37.59571],[126.83444,37.59585],[126.8345,37.596],[126.83456,37.59611],[126.83465,37.5962],[126.83477,37.59627],[126.83492,37.59634],[126.83513,37.5964],[126.83537,37.59648],[126.83573,37.59655],[126.83605,37.59661],[126.8365,37.59667],[126.8368,37.59668],[126.84322,37.59646],[126.84379,37.59645],[126.84547,37.59639],[126.84595,37.59643],[126.84624,37.59647],[126.84649,37.59653],[126.84672,37.5966],[126.84698,37.59669],[126.84726,37.59681],[126.84755,37.59696],[126.84786,37.59718],[126.84817,37.59744],[126.84834,37.59764],[126.84856,37.59783]]}},{"type":"Feature","properties":{"class":"major","highway":"trunk","sidewalk":"likely","lanes":4,"name":"올림픽대로","oneway":true},"geometry":{"type":"LineString","coordinates":[[126.80604,37.59083],[126.80648,37.5906],[126.80694,37.59039],[126.80722,37.59027],[126.80759,37.59013],[126.80787,37.59004],[126.80838,37.58986],[126.80905,37.5896],[126.80947,37.5894],[126.81025,37.58909],[126.8158,37.58629],[126.82084,37.58375],[126.82165,37.5834],[126.82264,37.58295],[126.82356,37.58256],[126.82461,37.58215],[126.82801,37.58086],[126.83862,37.57696],[126.83946,37.5766],[126.84044,37.57613],[126.84106,37.5758],[126.84177,37.5754],[126.84275,37.57483],[126.84521,37.57339],[126.85395,37.56833],[126.85609,37.56705],[126.86313,37.56297],[126.86399,37.56246],[126.86635,37.56112],[126.86794,37.56011],[126.86873,37.55955],[126.86973,37.55875],[126.87211,37.55673],[126.87407,37.55505]]}},{"type":"Feature","properties":{"class":"minor","highway":"residential","sidewalk":"unknown","lanes":0,"name":"행주산성로","oneway":false},"geometry":{"type":"LineString","coordinates":[[126.82161,37.60012],[126.8216,37.59959],[126.82139,37.59916],[126.82127,37.59892],[126.82102,37.59857],[126.8201,37.59727]]}},{"type":"Feature","properties":{"class":"major","highway":"trunk","sidewalk":"likely","lanes":4,"name":"자유로","oneway":true},"geometry":{"type":"LineString","coordinates":[[126.83016,37.59927],[126.8323,37.59645]]}},{"type":"Feature","properties":{"class":"major","highway":"trunk","sidewalk":"likely","lanes":4,"name":"자유로","oneway":true},"geometry":{"type":"LineString","coordinates":[[126.83085,37.59869],[126.82915,37.60087],[126.8282,37.60201],[126.82797,37.60231],[126.82778,37.60252],[126.82754,37.60277],[126.82731,37.60295],[126.8271,37.60308],[126.82687,37.60322],[126.82661,37.60337],[126.8263,37.60351],[126.82593,37.60363],[126.82345,37.60431]]}},{"type":"Feature","properties":{"class":"minor","highway":"residential","sidewalk":"unknown","lanes":0,"name":"행주로17번길","oneway":false},"geometry":{"type":"LineString","coordinates":[[126.82772,37.60129],[126.82745,37.60097],[126.82735,37.60084],[126.8272,37.60055],[126.8271,37.60043],[126.82694,37.60022],[126.82687,37.60006],[126.82682,37.59989]]}},{"type":"Feature","properties":{"class":"minor","highway":"unclassified","sidewalk":"unknown","lanes":0,"name":"강매로","oneway":false},"geometry":{"type":"LineString","coordinates":[[126.83149,37.59843],[126.83157,37.59846],[126.83178,37.59844],[126.83254,37.59843],[126.83419,37.5984],[126.83462,37.59843],[126.835,37.59842],[126.83527,37.59836],[126.83539,37.59835],[126.83679,37.5983],[126.83746,37.59828],[126.83923,37.59823],[126.83988,37.59821],[126.84121,37.59817],[126.84175,37.59815],[126.84327,37.59811],[126.8434,37.59811]]}},{"type":"Feature","properties":{"class":"major","highway":"trunk_link","sidewalk":"likely","lanes":0,"name":"","oneway":true},"geometry":{"type":"LineString","coordinates":[[126.82801,37.58086],[126.82881,37.58043],[126.82905,37.58031],[126.8292,37.58017],[126.82934,37.57995],[126.82943,37.5797]]}},{"type":"Feature","properties":{"class":"alley","highway":"service","sidewalk":"unknown","lanes":0,"name":"","oneway":false},"geometry":{"type":"LineString","coordinates":[[126.82356,37.57942],[126.82397,37.58027]]}},{"type":"Feature","properties":{"class":"alley","highway":"service","sidewalk":"unknown","lanes":0,"name":"","oneway":false},"geometry":{"type":"LineString","coordinates":[[126.82617,37.57967],[126.82555,37.57984],[126.82532,37.57991],[126.82397,37.58027]]}},{"type":"Feature","properties":{"class":"minor","highway":"residential","sidewalk":"unknown","lanes":0,"name":"행주산성로","oneway":false},"geometry":{"type":"LineString","coordinates":[[126.8201,37.59727],[126.82044,37.5971],[126.82052,37.59707],[126.82061,37.59703],[126.82067,37.59698],[126.82079,37.59682],[126.82092,37.59666]]}},{"type":"Feature","properties":{"class":"minor","highway":"residential","sidewalk":"unknown","lanes":0,"name":"","oneway":false},"geometry":{"type":"LineString","coordinates":[[126.8201,37.59727],[126.81987,37.59739],[126.81978,37.59744],[126.81934,37.59766],[126.81915,37.59776],[126.81898,37.59789],[126.81891,37.59808],[126.81892,37.59823],[126.81903,37.59835],[126.81911,37.59844]]}},{"type":"Feature","properties":{"class":"minor","highway":"residential","sidewalk":"unknown","lanes":0,"name":"","oneway":false},"geometry":{"type":"LineString","coordinates":[[126.82102,37.59857],[126.82055,37.59873],[126.82038,37.59873],[126.82002,37.59868],[126.81965,37.59861],[126.81938,37.59848],[126.81911,37.59844],[126.81904,37.59842],[126.81864,37.59837],[126.81835,37.59834],[126.81823,37.59833],[126.81808,37.5984],[126.81768,37.59866],[126.81761,37.59872],[126.81747,37.59885]]}},{"type":"Feature","properties":{"class":"minor","highway":"unclassified","sidewalk":"unknown","lanes":0,"name":"행주산성로","oneway":false},"geometry":{"type":"LineString","coordinates":[[126.82355,37.60012],[126.82357,37.59973],[126.82356,37.59942],[126.8237,37.59927],[126.82393,37.59916],[126.82401,37.59893],[126.82415,37.59879],[126.82422,37.5987],[126.82428,37.59861],[126.82431,37.59829],[126.82438,37.59817],[126.82454,37.59809]]}},{"type":"Feature","properties":{"class":"major","highway":"motorway","sidewalk":"likely","lanes":2,"name":"수원문산고속도로","oneway":false},"geometry":{"type":"LineString","coordinates":[[126.8358,37.59947],[126.83621,37.60018],[126.83649,37.60051],[126.83681,37.60085],[126.83698,37.60101]]}},{"type":"Feature","properties":{"class":"major","highway":"motorway","sidewalk":"likely","lanes":2,"name":"수원문산고속도로","oneway":false},"geometry":{"type":"LineString","coordinates":[[126.83605,37.60016],[126.83569,37.59951]]}},{"type":"Feature","properties":{"class":"major","highway":"motorway_link","sidewalk":"likely","lanes":0,"name":"","oneway":true},"geometry":{"type":"LineString","coordinates":[[126.8358,37.59947],[126.83616,37.59993],[126.8364,37.60015],[126.83673,37.60041],[126.8372,37.60077]]}},{"type":"Feature","properties":{"class":"major","highway":"trunk_link","sidewalk":"likely","lanes":1,"name":"","oneway":true},"geometry":{"type":"LineString","coordinates":[[126.83589,37.59943],[126.83618,37.59985],[126.83646,37.60009],[126.83683,37.60036],[126.83728,37.6007]]}},{"type":"Feature","properties":{"class":"major","highway":"trunk_link","sidewalk":"likely","lanes":1,"name":"","oneway":true},"geometry":{"type":"LineString","coordinates":[[126.83413,37.59884],[126.83377,37.59878],[126.83335,37.59873],[126.83287,37.59872],[126.83245,37.59879],[126.83216,37.59886],[126.83186,37.59896],[126.83155,37.59907],[126.83134,37.59918]]}},{"type":"Feature","properties":{"class":"minor","highway":"unclassified","sidewalk":"unknown","lanes":0,"name":"","oneway":false},"geometry":{"type":"LineString","coordinates":[[126.85103,37.59224],[126.85079,37.59226],[126.85063,37.59228],[126.85052,37.59231],[126.85035,37.59238],[126.8502,37.59245],[126.84996,37.59256],[126.84989,37.59259],[126.84968,37.59266],[126.84951,37.59267],[126.83743,37.59278],[126.83726,37.59278],[126.83718,37.59277]]}},{"type":"Feature","properties":{"class":"minor","highway":"unclassified","sidewalk":"unknown","lanes":0,"name":"","oneway":false},"geometry":{"type":"LineString","coordinates":[[126.83149,37.59843],[126.83136,37.59847],[126.83129,37.59851],[126.83119,37.59861],[126.83086,37.59904],[126.83065,37.59943],[126.83039,37.59999],[126.82965,37.60087],[126.82899,37.60161],[126.82884,37.60165]]}},{"type":"Feature","properties":{"class":"minor","highway":"residential","sidewalk":"unknown","lanes":0,"name":"행주로15번길","oneway":false},"geometry":{"type":"LineString","coordinates":[[126.82736,37.60031],[126.82753,37.60028],[126.82787,37.60032],[126.82807,37.60024],[126.8282,37.60018],[126.82828,37.60015],[126.82863,37.60007],[126.82886,37.59994],[126.82924,37.59981],[126.82929,37.59987],[126.82875,37.60035],[126.82855,37.60053],[126.82845,37.60064],[126.82833,37.60077],[126.82794,37.60111]]}},{"type":"Feature","properties":{"class":"minor","highway":"residential","sidewalk":"unknown","lanes":0,"name":"행주로15번길","oneway":false},"geometry":{"type":"LineString","coordinates":[[126.82682,37.59989],[126.82694,37.59965],[126.82713,37.59959]]}},{"type":"Feature","properties":{"class":"minor","highway":"residential","sidewalk":"unknown","lanes":0,"name":"행주로15번길","oneway":false},"geometry":{"type":"LineString","coordinates":[[126.82662,37.59976],[126.82663,37.59966],[126.82662,37.59947],[126.8266,37.59932],[126.82651,37.59913],[126.82648,37.599],[126.82643,37.59879],[126.82647,37.59859],[126.82664,37.59835],[126.82658,37.59827],[126.82654,37.5981],[126.82657,37.59795]]}},{"type":"Feature","properties":{"class":"minor","highway":"residential","sidewalk":"unknown","lanes":0,"name":"행주로15번길","oneway":false},"geometry":{"type":"LineString","coordinates":[[126.82647,37.59859],[126.82629,37.59824]]}},{"type":"Feature","properties":{"class":"minor","highway":"residential","sidewalk":"unknown","lanes":0,"name":"행주로15번길","oneway":false},"geometry":{"type":"LineString","coordinates":[[126.82664,37.59835],[126.82681,37.59832]]}},{"type":"Feature","properties":{"class":"minor","highway":"unclassified","sidewalk":"unknown","lanes":0,"name":"행주산성로","oneway":false},"geometry":{"type":"LineString","coordinates":[[126.82422,37.5987],[126.82398,37.59857],[126.82373,37.59832],[126.8238,37.59817],[126.82421,37.59772]]}},{"type":"Feature","properties":{"class":"minor","highway":"unclassified","sidewalk":"unknown","lanes":0,"name":"","oneway":false},"geometry":{"type":"LineString","coordinates":[[126.82428,37.59861],[126.82413,37.59853],[126.8241,37.59844],[126.82418,37.59799]]}},{"type":"Feature","properties":{"class":"alley","highway":"service","sidewalk":"unknown","lanes":0,"name":"","oneway":false},"geometry":{"type":"LineString","coordinates":[[126.82883,37.57981],[126.82753,37.58017],[126.82715,37.58025],[126.82702,37.58022],[126.8267,37.58033],[126.82607,37.58069],[126.82316,37.58153],[126.82176,37.58175],[126.82156,37.58172],[126.82079,37.58125],[126.82061,37.58134],[126.8196,37.58223],[126.81952,37.58223]]}},{"type":"Feature","properties":{"class":"alley","highway":"service","sidewalk":"unknown","lanes":0,"name":"","oneway":false},"geometry":{"type":"LineString","coordinates":[[126.8251,37.5768],[126.82518,37.57684],[126.82524,37.57695],[126.82648,37.57958],[126.82659,37.57987],[126.82657,37.58003],[126.8267,37.58033],[126.82683,37.58061]]}},{"type":"Feature","properties":{"class":"minor","highway":"residential","sidewalk":"unknown","lanes":0,"name":"행주로15번길","oneway":false},"geometry":{"type":"LineString","coordinates":[[126.8266,37.59932],[126.82665,37.5993],[126.82669,37.59924],[126.82674,37.59917],[126.82681,37.59911],[126.82689,37.59902]]}},{"type":"Feature","properties":{"class":"alley","highway":"service","sidewalk":"no","lanes":0,"name":"","oneway":false},"geometry":{"type":"LineString","coordinates":[[126.82454,37.6005],[126.82457,37.60045],[126.82461,37.60036],[126.82467,37.60023],[126.82472,37.60013],[126.82478,37.59999]]}},{"type":"Feature","properties":{"class":"alley","highway":"service","sidewalk":"no","lanes":0,"name":"","oneway":false},"geometry":{"type":"LineString","coordinates":[[126.82484,37.60016],[126.82472,37.60013],[126.82431,37.60003],[126.82436,37.5999],[126.82478,37.59999]]}},{"type":"Feature","properties":{"class":"alley","highway":"service","sidewalk":"unknown","lanes":0,"name":"","oneway":false},"geometry":{"type":"LineString","coordinates":[[126.81979,37.59727],[126.81975,37.59721],[126.81987,37.5971],[126.82,37.59698],[126.82013,37.59687],[126.82026,37.59675],[126.82048,37.59666],[126.82061,37.5966],[126.82074,37.59673],[126.82063,37.59686],[126.82043,37.59695],[126.82026,37.59704],[126.8201,37.59712],[126.81995,37.59719],[126.81979,37.59727]]}},{"type":"Feature","properties":{"class":"alley","highway":"service","sidewalk":"unknown","lanes":0,"name":"","oneway":false},"geometry":{"type":"LineString","coordinates":[[126.82006,37.59769],[126.81994,37.59751],[126.81993,37.59748],[126.81987,37.59739],[126.81985,37.59736],[126.81979,37.59727]]}},{"type":"Feature","properties":{"class":"alley","highway":"service","sidewalk":"unknown","lanes":0,"name":"","oneway":false},"geometry":{"type":"LineString","coordinates":[[126.8201,37.59712],[126.82,37.59698]]}},{"type":"Feature","properties":{"class":"alley","highway":"service","sidewalk":"unknown","lanes":0,"name":"","oneway":false},"geometry":{"type":"LineString","coordinates":[[126.82026,37.59704],[126.82013,37.59687]]}},{"type":"Feature","properties":{"class":"alley","highway":"service","sidewalk":"unknown","lanes":0,"name":"","oneway":false},"geometry":{"type":"LineString","coordinates":[[126.82026,37.59675],[126.82043,37.59695],[126.8205,37.59704],[126.82052,37.59707],[126.82054,37.59712],[126.82058,37.59719],[126.82055,37.59724]]}},{"type":"Feature","properties":{"class":"alley","highway":"service","sidewalk":"unknown","lanes":0,"name":"","oneway":false},"geometry":{"type":"LineString","coordinates":[[126.82063,37.59686],[126.82048,37.59666]]}},{"type":"Feature","properties":{"class":"alley","highway":"service","sidewalk":"unknown","lanes":0,"name":"","oneway":false},"geometry":{"type":"LineString","coordinates":[[126.82055,37.59724],[126.82043,37.59745],[126.82033,37.59731],[126.82048,37.59726],[126.82055,37.59724]]}},{"type":"Feature","properties":{"class":"alley","highway":"service","sidewalk":"unknown","lanes":0,"name":"","oneway":false},"geometry":{"type":"LineString","coordinates":[[126.8195,37.59771],[126.81975,37.59761],[126.81994,37.59751],[126.82005,37.59746],[126.82017,37.59765],[126.82006,37.59769],[126.81988,37.59776],[126.81975,37.59761]]}},{"type":"Feature","properties":{"class":"minor","highway":"residential","sidewalk":"unknown","lanes":0,"name":"","oneway":false},"geometry":{"type":"LineString","coordinates":[[126.82045,37.60014],[126.82045,37.59993]]}},{"type":"Feature","properties":{"class":"major","highway":"trunk","sidewalk":"likely","lanes":4,"name":"자유로","oneway":true},"geometry":{"type":"LineString","coordinates":[[126.8332,37.59532],[126.83416,37.59407]]}},{"type":"Feature","properties":{"class":"major","highway":"trunk_link","sidewalk":"likely","lanes":2,"name":"","oneway":true},"geometry":{"type":"LineString","coordinates":[[126.83655,37.60102],[126.83607,37.60044],[126.8357,37.59985],[126.83552,37.59959]]}},{"type":"Feature","properties":{"class":"major","highway":"trunk_link","sidewalk":"likely","lanes":2,"name":"","oneway":true},"geometry":{"type":"LineString","coordinates":[[126.83552,37.59959],[126.83532,37.59941],[126.8351,37.59925],[126.83484,37.59909],[126.83457,37.59898]]}},{"type":"Feature","properties":{"class":"alley","highway":"service","sidewalk":"no","lanes":0,"name":"","oneway":false},"geometry":{"type":"LineString","coordinates":[[126.82757,37.5955],[126.82764,37.59551],[126.8277,37.5955],[126.82778,37.59548],[126.82808,37.59528],[126.82831,37.59514],[126.82841,37.59504],[126.82846,37.59495],[126.82851,37.59489],[126.8287,37.59475],[126.82874,37.59473],[126.82876,37.59472],[126.82878,37.59471],[126.82881,37.59471],[126.82884,37.59472]]}},{"type":"Feature","properties":{"class":"alley","highway":"service","sidewalk":"no","lanes":0,"name":"","oneway":false},"geometry":{"type":"LineString","coordinates":[[126.82903,37.59534],[126.82909,37.59535],[126.82917,37.59536],[126.82924,37.59538],[126.82929,37.59541],[126.8293,37.59544],[126.8293,37.59546],[126.82929,37.5955],[126.82924,37.59562],[126.82919,37.59576],[126.82918,37.59582],[126.82918,37.59591],[126.82919,37.59595],[126.82925,37.59601],[126.82929,37.59605],[126.82933,37.5962],[126.82924,37.59636]]}},{"type":"Feature","properties":{"class":"alley","highway":"service","sidewalk":"no","lanes":0,"name":"","oneway":false},"geometry":{"type":"LineString","coordinates":[[126.82691,37.59542],[126.82696,37.59539],[126.82711,37.59538],[126.82726,37.59539],[126.82737,37.59541],[126.82746,37.59543],[126.82752,37.59546],[126.82757,37.5955]]}},{"type":"Feature","properties":{"class":"alley","highway":"service","sidewalk":"no","lanes":0,"name":"","oneway":false},"geometry":{"type":"LineString","coordinates":[[126.82884,37.59472],[126.82888,37.59474],[126.82891,37.59477],[126.82892,37.59481],[126.82892,37.59487],[126.82888,37.59504],[126.82887,37.59508],[126.82884,37.59512],[126.82884,37.59515],[126.82884,37.59519],[126.82888,37.59524],[126.82892,37.59529],[126.82897,37.59532],[126.82903,37.59534]]}},{"type":"Feature","properties":{"class":"alley","highway":"service","sidewalk":"no","lanes":0,"name":"","oneway":false},"geometry":{"type":"LineString","coordinates":[[126.82484,37.5998],[126.825,37.59944],[126.82509,37.59924],[126.82525,37.59899],[126.82535,37.59888],[126.82552,37.59872],[126.82557,37.59867],[126.8256,37.59862],[126.82562,37.59854],[126.82564,37.59838],[126.82565,37.59817],[126.82563,37.59795],[126.82563,37.59789],[126.82565,37.59781],[126.82568,37.59767],[126.82573,37.59756],[126.82596,37.59722],[126.8263,37.5967],[126.82662,37.59635],[126.82684,37.5961],[126.82698,37.59601],[126.82729,37.59575],[126.82732,37.59573],[126.82757,37.5955]]}},{"type":"Feature","properties":{"class":"alley","highway":"service","sidewalk":"unknown","lanes":0,"name":"","oneway":false},"geometry":{"type":"LineString","coordinates":[[126.82101,37.59654],[126.8209,37.59654],[126.82083,37.5965],[126.82082,37.59624]]}},{"type":"Feature","properties":{"class":"alley","highway":"service","sidewalk":"unknown","lanes":0,"name":"","oneway":false},"geometry":{"type":"LineString","coordinates":[[126.82092,37.59666],[126.82099,37.59662],[126.82101,37.59654],[126.821,37.5963],[126.82098,37.59605],[126.82115,37.5958]]}},{"type":"Feature","properties":{"class":"major","highway":"motorway","sidewalk":"likely","lanes":3,"name":"인천국제공항고속도로","oneway":true},"geometry":{"type":"LineString","coordinates":[[126.83429,37.59716],[126.83398,37.59669]]}},{"type":"Feature","properties":{"class":"major","highway":"trunk_link","sidewalk":"likely","lanes":2,"name":"","oneway":true},"geometry":{"type":"LineString","coordinates":[[126.83457,37.59898],[126.83413,37.59884]]}},{"type":"Feature","properties":{"class":"major","highway":"trunk_link","sidewalk":"likely","lanes":0,"name":"강매로","oneway":true},"geometry":{"type":"LineString","coordinates":[[126.83135,37.59807],[126.83135,37.59826],[126.83138,37.59832],[126.83142,37.59838],[126.83149,37.59843]]}},{"type":"Feature","properties":{"class":"minor","highway":"unclassified","sidewalk":"unknown","lanes":1,"name":"","oneway":true},"geometry":{"type":"LineString","coordinates":[[126.83676,37.59256],[126.83679,37.59252],[126.83683,37.59249],[126.83688,37.59247],[126.83693,37.59246],[126.83695,37.59246],[126.83698,37.59247],[126.83703,37.59249],[126.83707,37.59252],[126.83709,37.59256],[126.8371,37.59261],[126.83709,37.59265],[126.83706,37.59269],[126.83701,37.59271],[126.83696,37.59273],[126.8369,37.59273],[126.83685,37.59272],[126.8368,37.59269],[126.83677,37.59265],[126.83676,37.59261],[126.83676,37.59258],[126.83676,37.59256]]}},{"type":"Feature","properties":{"class":"minor","highway":"unclassified","sidewalk":"unknown","lanes":0,"name":"","oneway":true},"geometry":{"type":"LineString","coordinates":[[126.83709,37.59265],[126.83712,37.5927],[126.83715,37.59273],[126.83718,37.59277],[126.83713,37.59277],[126.83703,37.59276],[126.83696,37.59273]]}},{"type":"Feature","properties":{"class":"minor","highway":"unclassified","sidewalk":"unknown","lanes":0,"name":"","oneway":true},"geometry":{"type":"LineString","coordinates":[[126.83676,37.59258],[126.83675,37.59253],[126.83675,37.59248],[126.83676,37.59243],[126.83678,37.5924],[126.83686,37.5923],[126.83686,37.59236],[126.83688,37.5924],[126.83695,37.59246]]}},{"type":"Feature","properties":{"class":"minor","highway":"unclassified","sidewalk":"unknown","lanes":0,"name":"","oneway":false},"geometry":{"type":"LineString","coordinates":[[126.83686,37.5923],[126.83717,37.59179]]}},{"type":"Feature","properties":{"class":"major","highway":"trunk","sidewalk":"likely","lanes":5,"name":"자유로","oneway":true},"geometry":{"type":"LineString","coordinates":[[126.85464,37.58136],[126.85389,37.58179],[126.85325,37.58215],[126.85123,37.5833],[126.84919,37.58448],[126.84761,37.58544],[126.84693,37.58578],[126.84525,37.58677],[126.84375,37.58762],[126.8431,37.58798],[126.84191,37.58866],[126.84103,37.58917],[126.83995,37.5898],[126.83802,37.59091],[126.83729,37.59135],[126.83659,37.59181],[126.83611,37.59219],[126.83569,37.59257],[126.83531,37.59296],[126.83501,37.59331],[126.83455,37.59389],[126.83343,37.59542]]}},{"type":"Feature","properties":{"class":"major","highway":"trunk","sidewalk":"likely","lanes":5,"name":"자유로","oneway":true},"geometry":{"type":"LineString","coordinates":[[126.83416,37.59407],[126.83468,37.59341],[126.83516,37.59285],[126.83556,37.59245],[126.83595,37.59208],[126.83644,37.5917]]}}]}