{"type":"FeatureCollection","features":[{"type":"Feature","properties":{"class":"major","highway":"primary","sidewalk":"likely","lanes":3,"name":"중앙로","oneway":true},"geometry":{"type":"LineString","coordinates":[[126.88094,37.59265],[126.87997,37.59352],[126.87943,37.59399],[126.87922,37.5942],[126.87905,37.59437],[126.87857,37.59483],[126.87833,37.595],[126.87795,37.59536],[126.87621,37.59689],[126.87381,37.59938],[126.8735,37.5997],[126.87339,37.59981],[126.87305,37.60024],[126.87228,37.60101],[126.87206,37.60128],[126.87176,37.60158],[126.87166,37.60168],[126.87131,37.602],[126.8707,37.60265],[126.86992,37.60352],[126.86935,37.60412],[126.86904,37.60443],[126.86872,37.60467],[126.86856,37.60478],[126.86795,37.60518],[126.86783,37.60525],[126.86662,37.60606],[126.86593,37.60648],[126.86499,37.60713],[126.86351,37.60807],[126.86338,37.60814],[126.86275,37.60856],[126.86237,37.60881],[126.86199,37.60904],[126.86079,37.60982],[126.86071,37.60987]]}},{"type":"Feature","properties":{"class":"major","highway":"primary","sidewalk":"likely","lanes":0,"name":"가양대로","oneway":true},"geometry":{"type":"LineString","coordinates":[[126.88145,37.58307],[126.88085,37.58272],[126.87858,37.58155],[126.87803,37.58126],[126.8768,37.5806],[126.8767,37.58055],[126.87649,37.58044]]}},{"type":"Feature","properties":{"class":"minor","highway":"residential","sidewalk":"unknown","lanes":0,"name":"상암산로1길","oneway":false},"geometry":{"type":"LineString","coordinates":[[126.8799,37.58066],[126.88022,37.58095],[126.88033,37.58103],[126.88044,37.58109],[126.88058,37.58115],[126.88072,37.58119],[126.88087,37.58123],[126.88103,37.58125],[126.88105,37.58125],[126.88118,37.58125],[126.88136,37.58124],[126.88154,37.5812],[126.88172,37.58114],[126.8821,37.58098],[126.88225,37.58092],[126.8824,37.58088],[126.88258,37.58084],[126.88274,37.58081],[126.88293,37.58079],[126.8831,37.58078],[126.88318,37.58078],[126.88342,37.58078],[126.88358,37.58079]]}},{"type":"Feature","properties":{"class":"major","highway":"secondary","sidewalk":"likely","lanes":0,"name":"월드컵북로","oneway":false},"geometry":{"type":"LineString","coordinates":[[126.88193,37.58332],[126.88157,37.58354],[126.88075,37.58402],[126.87927,37.58489]]}},{"type":"Feature","properties":{"class":"major","highway":"primary","sidewalk":"yes","lanes":3,"name":"중앙로","oneway":true},"geometry":{"type":"LineString","coordinates":[[126.8606,37.60977],[126.86069,37.60972],[126.86134,37.60929],[126.86221,37.60867],[126.86287,37.60828],[126.86309,37.60814],[126.86327,37.60802],[126.8634,37.60795],[126.86385,37.60765],[126.86438,37.60732],[126.86497,37.60695],[126.86648,37.60592],[126.86715,37.6055],[126.86809,37.60491],[126.86861,37.6046],[126.86894,37.60434],[126.86912,37.60414],[126.86993,37.6033],[126.87078,37.60237],[126.87173,37.60135],[126.872,37.60107],[126.87216,37.6009],[126.873,37.60004],[126.87333,37.59974],[126.87394,37.59907],[126.87461,37.59839],[126.87616,37.59679],[126.87692,37.59609],[126.87807,37.59504],[126.8783,37.59482],[126.88109,37.59225]]}},{"type":"Feature","properties":{"class":"minor","highway":"residential","sidewalk":"unknown","lanes":0,"name":"","oneway":false},"geometry":{"type":"LineString","coordinates":[[126.88075,37.58402],[126.87959,37.58278],[126.87933,37.58293],[126.87897,37.58292]]}},{"type":"Feature","properties":{"class":"minor","highway":"residential","sidewalk":"unknown","lanes":0,"name":"월드컵북로","oneway":false},"geometry":{"type":"LineString","coordinates":[[126.87927,37.58489],[126.87952,37.58524],[126.87963,37.58537],[126.87968,37.58544],[126.87985,37.58558],[126.87996,37.58567],[126.88011,37.58577],[126.88022,37.58585],[126.88037,37.58592],[126.88048,37.58598],[126.8806,37.58602],[126.88088,37.58611],[126.88122,37.5862],[126.88142,37.58627],[126.88155,37.58633],[126.88167,37.58641],[126.88181,37.58655],[126.88236,37.58714],[126.88292,37.58775]]}},{"type":"Feature","properties":{"class":"alley","highway":"service","sidewalk":"unknown","lanes":0,"name":"","oneway":false},"geometry":{"type":"LineString","coordinates":[[126.8821,37.58098],[126.88237,37.58151],[126.88245,37.58159]]}},{"type":"Feature","properties":{"class":"alley","highway":"service","sidewalk":"unknown","lanes":0,"name":"","oneway":false},"geometry":{"type":"LineString","coordinates":[[126.88105,37.58125],[126.881,37.58157],[126.88096,37.58163],[126.8809,37.58165],[126.88049,37.58179],[126.88036,37.58182],[126.88027,37.5818],[126.8802,37.58175]]}},{"type":"Feature","properties":{"class":"major","highway":"secondary","sidewalk":"likely","lanes":0,"name":"월드컵북로","oneway":false},"geometry":{"type":"LineString","coordinates":[[126.88396,37.58215],[126.88251,37.583]]}},{"type":"Feature","properties":{"class":"major","highway":"primary","sidewalk":"likely","lanes":0,"name":"수색로","oneway":true},"geometry":{"type":"LineString","coordinates":[[126.88259,37.59093],[126.88343,37.59019],[126.88368,37.58994],[126.88381,37.58984],[126.88446,37.5893]]}},{"type":"Feature","properties":{"class":"major","highway":"primary","sidewalk":"likely","lanes":3,"name":"향동로","oneway":false},"geometry":{"type":"LineString","coordinates":[[126.88205,37.59141],[126.8822,37.59151],[126.88236,37.59162],[126.88302,37.59205],[126.88325,37.59221],[126.88364,37.59254],[126.88427,37.59333],[126.88459,37.59371],[126.88484,37.594],[126.88584,37.59479],[126.88607,37.59502],[126.88614,37.59508],[126.88633,37.59531],[126.88649,37.59554],[126.88695,37.59629],[126.88771,37.59763],[126.88781,37.59781],[126.88794,37.59802]]}},{"type":"Feature","properties":{"class":"minor","highway":"residential","sidewalk":"unknown","lanes":0,"name":"중앙로64번길","oneway":false},"geometry":{"type":"LineString","coordinates":[[126.88147,37.59976],[126.88168,37.59952],[126.8818,37.59942],[126.88183,37.59903],[126.88125,37.59883],[126.88089,37.59871],[126.88056,37.59859],[126.88036,37.59846],[126.88013,37.59834],[126.87881,37.59802],[126.87865,37.598],[126.87855,37.5979],[126.87809,37.5974],[126.87803,37.59737],[126.87751,37.59742],[126.8774,37.59735],[126.87719,37.59709],[126.87711,37.59684]]}},{"type":"Feature","properties":{"class":"major","highway":"primary","sidewalk":"likely","lanes":4,"name":"","oneway":true},"geometry":{"type":"LineString","coordinates":[[126.88259,37.59116],[126.88244,37.59131]]}},{"type":"Feature","properties":{"class":"major","highway":"primary","sidewalk":"likely","lanes":4,"name":"중앙로","oneway":true},"geometry":{"type":"LineString","coordinates":[[126.8827,37.59105],[126.88259,37.59116]]}},{"type":"Feature","properties":{"class":"major","highway":"primary","sidewalk":"likely","lanes":4,"name":"중앙로","oneway":true},"geometry":{"type":"LineString","coordinates":[[126.88245,37.59106],[126.88259,37.59093]]}},{"type":"Feature","properties":{"class":"major","highway":"primary","sidewalk":"likely","lanes":4,"name":"","oneway":true},"geometry":{"type":"LineString","coordinates":[[126.88229,37.59123],[126.88245,37.59106]]}},{"type":"Feature","properties":{"class":"major","highway":"secondary","sidewalk":"likely","lanes":0,"name":"구룡길","oneway":false},"geometry":{"type":"LineString","coordinates":[[126.88014,37.58879],[126.88038,37.58872],[126.88141,37.58839],[126.88205,37.58816],[126.88254,37.58794],[126.88292,37.58775],[126.88381,37.58725],[126.88421,37.58697],[126.88456,37.58671],[126.88525,37.58616],[126.8855,37.58592],[126.88562,37.58582]]}},{"type":"Feature","properties":{"class":"minor","highway":"residential","sidewalk":"unknown","lanes":0,"name":"중앙로46번길","oneway":false},"geometry":{"type":"LineString","coordinates":[[126.88147,37.59696],[126.88159,37.59693],[126.88275,37.59723],[126.88314,37.5973],[126.88341,37.59747],[126.88357,37.59763],[126.88377,37.59786],[126.88384,37.59791],[126.88394,37.598],[126.88414,37.59808],[126.88435,37.5981],[126.88452,37.59806],[126.88473,37.5975],[126.88479,37.59739],[126.88487,37.59738],[126.88531,37.59737]]}},{"type":"Feature","properties":{"class":"major","highway":"primary","sidewalk":"likely","lanes":0,"name":"가양대로","oneway":true},"geometry":{"type":"LineString","coordinates":[[126.87682,37.58047],[126.87812,37.58115],[126.87867,37.58144],[126.88094,37.58262],[126.88102,37.58266],[126.88154,37.58297],[126.88185,37.58313],[126.88202,37.58323],[126.88206,37.58325]]}},{"type":"Feature","properties":{"class":"alley","highway":"service","sidewalk":"unknown","lanes":0,"name":"","oneway":false},"geometry":{"type":"LineString","coordinates":[[126.88197,37.5843],[126.88231,37.58412],[126.8827,37.58444],[126.88279,37.58458],[126.88281,37.58477],[126.88279,37.58496],[126.88276,37.58515],[126.88276,37.58534],[126.88276,37.58546],[126.88285,37.58571],[126.88294,37.58587],[126.88302,37.58601],[126.88311,37.58619],[126.8832,37.58634],[126.88327,37.58644],[126.88331,37.58652],[126.8832,37.58666],[126.88269,37.58695],[126.88236,37.58714],[126.8821,37.58726],[126.88191,37.58737],[126.88182,37.58744],[126.88182,37.5875],[126.88188,37.5876],[126.88196,37.5877],[126.88197,37.5878],[126.88188,37.58791],[126.88128,37.58815]]}},{"type":"Feature","properties":{"class":"alley","highway":"service","sidewalk":"unknown","lanes":0,"name":"","oneway":false},"geometry":{"type":"LineString","coordinates":[[126.88101,37.58676],[126.88088,37.58665],[126.88075,37.58652],[126.88065,37.58645],[126.88051,37.58641],[126.8804,37.58641],[126.88032,37.58644],[126.88027,37.58648]]}},{"type":"Feature","properties":{"class":"alley","highway":"service","sidewalk":"unknown","lanes":0,"name":"","oneway":false},"geometry":{"type":"LineString","coordinates":[[126.88122,37.5862],[126.88119,37.58632],[126.88114,37.58648],[126.8811,37.58662],[126.88101,37.58676],[126.8809,37.58685],[126.88076,37.58694],[126.88062,37.58701],[126.88045,37.58705],[126.88033,37.58703],[126.88024,37.58695],[126.88023,37.58687]]}},{"type":"Feature","properties":{"class":"major","highway":"primary_link","sidewalk":"likely","lanes":0,"name":"","oneway":true},"geometry":{"type":"LineString","coordinates":[[126.88154,37.58297],[126.88175,37.58303],[126.88192,37.58308],[126.88199,37.5831],[126.88211,37.5831],[126.88227,37.58306],[126.88251,37.583]]}},{"type":"Feature","properties":{"class":"major","highway":"primary_link","sidewalk":"likely","lanes":0,"name":"","oneway":true},"geometry":{"type":"LineString","coordinates":[[126.88157,37.58354],[126.8816,37.58342],[126.88159,37.58329],[126.88154,37.58317],[126.88145,37.58307]]}},{"type":"Feature","properties":{"class":"major","highway":"primary_link","sidewalk":"likely","lanes":0,"name":"","oneway":true},"geometry":{"type":"LineString","coordinates":[[126.88233,37.5836],[126.88215,37.58354],[126.88196,37.58351],[126.88177,37.58351],[126.88157,37.58354]]}},{"type":"Feature","properties":{"class":"alley","highway":"service","sidewalk":"unknown","lanes":0,"name":"","oneway":false},"geometry":{"type":"LineString","coordinates":[[126.88159,37.58221],[126.88192,37.582],[126.88243,37.5817]]}},{"type":"Feature","properties":{"class":"alley","highway":"service","sidewalk":"unknown","lanes":0,"name":"","oneway":false},"geometry":{"type":"LineString","coordinates":[[126.88096,37.58163],[126.88106,37.58173],[126.88118,37.58184],[126.88134,37.58198],[126.88148,37.58211],[126.88159,37.58221],[126.88166,37.5823],[126.88167,37.58237],[126.8817,37.58245],[126.8819,37.58263]]}},{"type":"Feature","properties":{"class":"alley","highway":"service","sidewalk":"unknown","lanes":0,"name":"","oneway":false},"geometry":{"type":"LineString","coordinates":[[126.88381,37.58725],[126.88387,37.5873],[126.88399,37.58742],[126.88401,37.58747],[126.88402,37.5875],[126.88398,37.58757],[126.88376,37.58771],[126.8826,37.58821],[126.88119,37.58882],[126.87983,37.58933],[126.87878,37.58971],[126.8787,37.58972],[126.8785,37.58939]]}},{"type":"Feature","properties":{"class":"minor","highway":"residential","sidewalk":"unknown","lanes":0,"name":"중앙로62번길","oneway":false},"geometry":{"type":"LineString","coordinates":[[126.8778,37.59567],[126.87933,37.59677],[126.87981,37.59712],[126.88074,37.59758],[126.88083,37.59762],[126.88128,37.59713],[126.88147,37.59696]]}},{"type":"Feature","properties":{"class":"minor","highway":"residential","sidewalk":"unknown","lanes":0,"name":"","oneway":false},"geometry":{"type":"LineString","coordinates":[[126.88083,37.59762],[126.88013,37.59834]]}},{"type":"Feature","properties":{"class":"minor","highway":"residential","sidewalk":"unknown","lanes":0,"name":"","oneway":false},"geometry":{"type":"LineString","coordinates":[[126.88022,37.59794],[126.87938,37.59746],[126.879,37.59717]]}},{"type":"Feature","properties":{"class":"minor","highway":"residential","sidewalk":"unknown","lanes":0,"name":"중앙로46번길","oneway":false},"geometry":{"type":"LineString","coordinates":[[126.87922,37.5942],[126.8793,37.59426],[126.87934,37.59437],[126.87931,37.59456],[126.87949,37.5947],[126.87984,37.59491],[126.87998,37.59509],[126.88004,37.59514],[126.88024,37.5953],[126.88039,37.59546],[126.8808,37.5956],[126.88103,37.59578],[126.88122,37.59596],[126.88144,37.59624],[126.88146,37.59653],[126.88147,37.59696],[126.88154,37.59729],[126.88172,37.59758]]}},{"type":"Feature","properties":{"class":"minor","highway":"residential","sidewalk":"unknown","lanes":0,"name":"중앙로46번길","oneway":false},"geometry":{"type":"LineString","coordinates":[[126.88004,37.59514],[126.8801,37.59511],[126.88033,37.59517],[126.88048,37.5952],[126.88083,37.59515],[126.88102,37.59502]]}},{"type":"Feature","properties":{"class":"minor","highway":"residential","sidewalk":"unknown","lanes":0,"name":"중앙로","oneway":false},"geometry":{"type":"LineString","coordinates":[[126.87997,37.59352],[126.88004,37.59357],[126.88022,37.59378],[126.88044,37.59408],[126.88063,37.59425]]}},{"type":"Feature","properties":{"class":"minor","highway":"residential","sidewalk":"unknown","lanes":0,"name":"","oneway":false},"geometry":{"type":"LineString","coordinates":[[126.88044,37.59408],[126.87999,37.59436],[126.87981,37.59441],[126.87961,37.59426],[126.8793,37.59426]]}},{"type":"Feature","properties":{"class":"minor","highway":"residential","sidewalk":"unknown","lanes":0,"name":"중앙로46번길","oneway":false},"geometry":{"type":"LineString","coordinates":[[126.88122,37.59596],[126.88138,37.596],[126.88166,37.59623],[126.88196,37.59633],[126.88212,37.59627],[126.88241,37.59614]]}},{"type":"Feature","properties":{"class":"alley","highway":"service","sidewalk":"unknown","lanes":0,"name":"","oneway":false},"geometry":{"type":"LineString","coordinates":[[126.8825,37.58917],[126.88199,37.5896],[126.88197,37.58975],[126.88196,37.58981],[126.88148,37.59031],[126.88139,37.5905],[126.88115,37.59081],[126.88098,37.5909],[126.88093,37.59093],[126.88078,37.59101],[126.8805,37.59136],[126.88031,37.59168],[126.87984,37.5919],[126.8782,37.59322],[126.87781,37.59347],[126.87771,37.59355],[126.87733,37.59383],[126.87554,37.59569],[126.87514,37.59538],[126.87483,37.59514]]}},{"type":"Feature","properties":{"class":"alley","highway":"service","sidewalk":"unknown","lanes":0,"name":"","oneway":false},"geometry":{"type":"LineString","coordinates":[[126.88148,37.59031],[126.88176,37.59023],[126.88195,37.59035],[126.88206,37.59042],[126.88221,37.59056]]}},{"type":"Feature","properties":{"class":"alley","highway":"service","sidewalk":"unknown","lanes":0,"name":"","oneway":false},"geometry":{"type":"LineString","coordinates":[[126.88197,37.58975],[126.88257,37.59019]]}},{"type":"Feature","properties":{"class":"alley","highway":"service","sidewalk":"unknown","lanes":0,"name":"","oneway":false},"geometry":{"type":"LineString","coordinates":[[126.89046,37.58388],[126.88992,37.5842],[126.88956,37.58442],[126.88949,37.58438],[126.8893,37.58449],[126.88834,37.58516],[126.88773,37.58561],[126.88785,37.58579],[126.8877,37.58592],[126.88748,37.58611],[126.88661,37.58681],[126.88572,37.58751],[126.8854,37.58773],[126.88473,37.58831],[126.8846,37.58843],[126.88437,37.58864],[126.8838,37.58913],[126.88286,37.58994],[126.88257,37.59019],[126.8825,37.59026],[126.88221,37.59056],[126.88213,37.59064]]}},{"type":"Feature","properties":{"class":"alley","highway":"service","sidewalk":"unknown","lanes":0,"name":"","oneway":false},"geometry":{"type":"LineString","coordinates":[[126.8825,37.59026],[126.88221,37.5901],[126.88195,37.59035]]}},{"type":"Feature","properties":{"class":"major","highway":"secondary","sidewalk":"likely","lanes":0,"name":"구룡길","oneway":false},"geometry":{"type":"LineString","coordinates":[[126.87982,37.58889],[126.88014,37.58879]]}},{"type":"Feature","properties":{"class":"alley","highway":"service","sidewalk":"unknown","lanes":0,"name":"","oneway":false},"geometry":{"type":"LineString","coordinates":[[126.8787,37.58972],[126.87873,37.58988],[126.87922,37.58985],[126.88026,37.58959]]}},{"type":"Feature","properties":{"class":"minor","highway":"residential","sidewalk":"unknown","lanes":0,"name":"수색로24길","oneway":false},"geometry":{"type":"LineString","coordinates":[[126.88293,37.59128],[126.88285,37.59122],[126.88276,37.59113],[126.8827,37.59105]]}},{"type":"Feature","properties":{"class":"major","highway":"primary","sidewalk":"likely","lanes":4,"name":"중앙로","oneway":true},"geometry":{"type":"LineString","coordinates":[[126.88244,37.59131],[126.8822,37.59151],[126.88198,37.59171],[126.88094,37.59265]]}},{"type":"Feature","properties":{"class":"major","highway":"primary","sidewalk":"likely","lanes":4,"name":"중앙로","oneway":true},"geometry":{"type":"LineString","coordinates":[[126.88109,37.59225],[126.88205,37.59141],[126.88229,37.59123]]}},{"type":"Feature","properties":{"class":"minor","highway":"residential","sidewalk":"unknown","lanes":0,"name":"중앙로64번길","oneway":false},"geometry":{"type":"LineString","coordinates":[[126.88125,37.59883],[126.88133,37.59881],[126.88165,37.59886],[126.88187,37.59889]]}},{"type":"Feature","properties":{"class":"minor","highway":"residential","sidewalk":"unknown","lanes":0,"name":"중앙로62번길","oneway":false},"geometry":{"type":"LineString","coordinates":[[126.88036,37.59846],[126.88049,37.59835]]}},{"type":"Feature","properties":{"class":"major","highway":"primary","sidewalk":"likely","lanes":0,"name":"수색로","oneway":true},"geometry":{"type":"LineString","coordinates":[[126.88723,37.58707],[126.88589,37.58824],[126.88554,37.58862],[126.88513,37.58907],[126.88508,37.58913],[126.88471,37.58945],[126.88443,37.58969],[126.88428,37.5898],[126.88407,37.58995],[126.88354,37.5903],[126.8827,37.59105]]}},{"type":"Feature","properties":{"class":"alley","highway":"service","sidewalk":"unknown","lanes":0,"name":"","oneway":false},"geometry":{"type":"LineString","coordinates":[[126.88091,37.57988],[126.88113,37.58019],[126.88112,37.58025],[126.88054,37.58058],[126.88045,37.58056],[126.88021,37.58029]]}},{"type":"Feature","properties":{"class":"major","highway":"primary_link","sidewalk":"likely","lanes":0,"name":"","oneway":true},"geometry":{"type":"LineString","coordinates":[[126.88325,37.59221],[126.88298,37.59215],[126.88291,37.59212],[126.88282,37.59207],[126.88228,37.59171],[126.88224,37.5917],[126.88219,37.59169],[126.88211,37.59169],[126.88198,37.59171]]}},{"type":"Feature","properties":{"class":"major","highway":"secondary","sidewalk":"likely","lanes":0,"name":"월드컵북로","oneway":false},"geometry":{"type":"LineString","coordinates":[[126.88251,37.583],[126.88206,37.58325]]}},{"type":"Feature","properties":{"class":"major","highway":"primary_link","sidewalk":"likely","lanes":0,"name":"","oneway":true},"geometry":{"type":"LineString","coordinates":[[126.88251,37.583],[126.88246,37.58311],[126.88241,37.5832],[126.88238,37.58326],[126.88236,37.5833],[126.88237,37.58335],[126.8824,37.58343],[126.88241,37.58354]]}},{"type":"Feature","properties":{"class":"major","highway":"primary","sidewalk":"likely","lanes":0,"name":"가양대로","oneway":true},"geometry":{"type":"LineString","coordinates":[[126.88425,37.585],[126.88233,37.5836],[126.88193,37.58332]]}},{"type":"Feature","properties":{"class":"minor","highway":"residential","sidewalk":"unknown","lanes":0,"name":"수색로24길","oneway":false},"geometry":{"type":"LineString","coordinates":[[126.8827,37.59105],[126.88259,37.59093]]}},{"type":"Feature","properties":{"class":"alley","highway":"pedestrian","sidewalk":"unknown","lanes":0,"name":"","oneway":false},"geometry":{"type":"LineString","coordinates":[[126.88337,37.57987],[126.88288,37.58001],[126.88228,37.5802],[126.88185,37.58034],[126.88089,37.58085],[126.8805,37.58106],[126.88044,37.58109],[126.88033,37.58115],[126.88018,37.58124],[126.88018,37.58135],[126.88025,37.58142],[126.88021,37.58156],[126.88021,37.58174]]}},{"type":"Feature","properties":{"class":"alley","highway":"pedestrian","sidewalk":"unknown","lanes":0,"name":"","oneway":false},"geometry":{"type":"LineString","coordinates":[[126.88018,37.58124],[126.87987,37.58131],[126.87928,37.5814],[126.87872,37.58142]]}},{"type":"Feature","properties":{"class":"major","highway":"primary","sidewalk":"likely","lanes":0,"name":"가양대로","oneway":true},"geometry":{"type":"LineString","coordinates":[[126.88241,37.58354],[126.8844,37.58492]]}},{"type":"Feature","properties":{"class":"major","highway":"primary","sidewalk":"likely","lanes":0,"name":"가양대로","oneway":true},"geometry":{"type":"LineString","coordinates":[[126.88206,37.58325],[126.88241,37.58354]]}},{"type":"Feature","properties":{"class":"major","highway":"secondary","sidewalk":"likely","lanes":0,"name":"월드컵북로","oneway":false},"geometry":{"type":"LineString","coordinates":[[126.88206,37.58325],[126.88193,37.58332]]}},{"type":"Feature","properties":{"class":"major","highway":"primary","sidewalk":"likely","lanes":0,"name":"가양대로","oneway":true},"geometry":{"type":"LineString","coordinates":[[126.88193,37.58332],[126.88176,37.58323],[126.88145,37.58307]]}},{"type":"Feature","properties":{"class":"major","highway":"primary","sidewalk":"likely","lanes":0,"name":"수색로","oneway":true},"geometry":{"type":"LineString","coordinates":[[126.8872,37.58696],[126.88748,37.58674],[126.88802,37.58624],[126.88883,37.58556],[126.88905,37.58541],[126.88917,37.5853],[126.88938,37.5851],[126.88949,37.58501],[126.88978,37.58479],[126.89,37.58465],[126.89032,37.58448],[126.89058,37.58438],[126.89065,37.58435],[126.89145,37.58402],[126.89162,37.58396],[126.89206,37.58377],[126.89209,37.58376],[126.89213,37.58374],[126.89226,37.58369],[126.89267,37.5835],[126.89279,37.58345],[126.89369,37.58309],[126.89373,37.58307],[126.89396,37.58294],[126.89433,37.58275],[126.89453,37.58265],[126.89489,37.58244],[126.8952,37.58227],[126.8953,37.58221],[126.89542,37.58214]]}},{"type":"Feature","properties":{"class":"major","highway":"secondary","sidewalk":"likely","lanes":0,"name":"은평터널로","oneway":false},"geometry":{"type":"LineString","coordinates":[[126.89547,37.58219],[126.896,37.5827],[126.89636,37.58302],[126.89666,37.58329],[126.89679,37.58339],[126.89688,37.58346],[126.89719,37.58369],[126.89741,37.58386],[126.89775,37.58412],[126.89814,37.58441],[126.89848,37.58466],[126.89901,37.58507],[126.89941,37.58537],[126.90028,37.58605],[126.90034,37.58609],[126.90045,37.58618],[126.90054,37.58625],[126.90076,37.58643],[126.90118,37.58675],[126.90186,37.58743]]}},{"type":"Feature","properties":{"class":"minor","highway":"residential","sidewalk":"unknown","lanes":0,"name":"향기1로","oneway":false},"geometry":{"type":"LineString","coordinates":[[126.88779,37.59426],[126.88772,37.59418],[126.88757,37.59406],[126.8874,37.59383],[126.88733,37.59374],[126.88684,37.59312],[126.88657,37.59251],[126.88632,37.5922],[126.88589,37.59181]]}},{"type":"Feature","properties":{"class":"alley","highway":"service","sidewalk":"unknown","lanes":0,"name":"","oneway":false},"geometry":{"type":"LineString","coordinates":[[126.88588,37.59368],[126.88572,37.59353],[126.88544,37.59327],[126.88513,37.59298],[126.88486,37.59273],[126.88455,37.59243],[126.88427,37.59217],[126.88399,37.59191],[126.88379,37.59172],[126.88373,37.59167],[126.88356,37.5916]]}},{"type":"Feature","properties":{"class":"minor","highway":"residential","sidewalk":"unknown","lanes":0,"name":"수색로24길","oneway":false},"geometry":{"type":"LineString","coordinates":[[126.88351,37.59147],[126.88355,37.5915],[126.88357,37.59154],[126.88357,37.59158],[126.88356,37.5916]]}},{"type":"Feature","properties":{"class":"alley","highway":"service","sidewalk":"unknown","lanes":0,"name":"","oneway":true},"geometry":{"type":"LineString","coordinates":[[126.88608,37.59222],[126.88427,37.59217]]}},{"type":"Feature","properties":{"class":"alley","highway":"service","sidewalk":"unknown","lanes":0,"name":"","oneway":true},"geometry":{"type":"LineString","coordinates":[[126.88621,37.59252],[126.88455,37.59243]]}},{"type":"Feature","properties":{"class":"alley","highway":"service","sidewalk":"unknown","lanes":0,"name":"","oneway":true},"geometry":{"type":"LineString","coordinates":[[126.88631,37.59278],[126.88486,37.59273]]}},{"type":"Feature","properties":{"class":"alley","highway":"service","sidewalk":"unknown","lanes":0,"name":"","oneway":false},"geometry":{"type":"LineString","coordinates":[[126.88572,37.59353],[126.88661,37.59355],[126.88657,37.59342],[126.88653,37.5933],[126.88641,37.59303],[126.88631,37.59278],[126.88621,37.59252],[126.88608,37.59222],[126.88602,37.59207],[126.88583,37.59196],[126.88399,37.59191]]}},{"type":"Feature","properties":{"class":"major","highway":"primary","sidewalk":"likely","lanes":0,"name":"수색로","oneway":true},"geometry":{"type":"LineString","coordinates":[[126.88446,37.5893],[126.88467,37.58914],[126.88487,37.58899],[126.8858,37.58818],[126.8871,37.58704]]}},{"type":"Feature","properties":{"class":"minor","highway":"residential","sidewalk":"unknown","lanes":0,"name":"월드컵북로56길","oneway":false},"geometry":{"type":"LineString","coordinates":[[126.88688,37.58042],[126.88837,37.58189],[126.88916,37.58267]]}},{"type":"Feature","properties":{"class":"alley","highway":"pedestrian","sidewalk":"unknown","lanes":0,"name":"월드컵북로","oneway":false},"geometry":{"type":"LineString","coordinates":[[126.88863,37.57937],[126.88926,37.57962],[126.88997,37.57996],[126.8907,37.58027]]}},{"type":"Feature","properties":{"class":"alley","highway":"pedestrian","sidewalk":"unknown","lanes":0,"name":"상암산로","oneway":false},"geometry":{"type":"LineString","coordinates":[[126.8907,37.58027],[126.89167,37.57929]]}},{"type":"Feature","properties":{"class":"minor","highway":"residential","sidewalk":"unknown","lanes":0,"name":"월드컵북로58길","oneway":false},"geometry":{"type":"LineString","coordinates":[[126.88599,37.58096],[126.88739,37.58235],[126.88817,37.58312]]}},{"type":"Feature","properties":{"class":"minor","highway":"residential","sidewalk":"unknown","lanes":0,"name":"월드컵북로62길","oneway":false},"geometry":{"type":"LineString","coordinates":[[126.88396,37.58215],[126.88494,37.58312]]}},{"type":"Feature","properties":{"class":"minor","highway":"residential","sidewalk":"unknown","lanes":0,"name":"월드컵북로54길","oneway":false},"geometry":{"type":"LineString","coordinates":[[126.88787,37.57982],[126.88829,37.58023],[126.88875,37.58069],[126.88935,37.5813]]}},{"type":"Feature","properties":{"class":"minor","highway":"residential","sidewalk":"unknown","lanes":0,"name":"상암산로1길","oneway":true},"geometry":{"type":"LineString","coordinates":[[126.88435,37.58084],[126.88464,37.58125]]}},{"type":"Feature","properties":{"class":"minor","highway":"residential","sidewalk":"unknown","lanes":0,"name":"","oneway":false},"geometry":{"type":"LineString","coordinates":[[126.88496,37.58156],[126.88621,37.58278]]}},{"type":"Feature","properties":{"class":"minor","highway":"residential","sidewalk":"unknown","lanes":0,"name":"","oneway":true},"geometry":{"type":"LineString","coordinates":[[126.88404,37.58088],[126.88397,37.58087],[126.88388,37.58085],[126.88377,37.58083],[126.88358,37.58079]]}},{"type":"Feature","properties":{"class":"minor","highway":"residential","sidewalk":"unknown","lanes":0,"name":"","oneway":true},"geometry":{"type":"LineString","coordinates":[[126.88444,37.58058],[126.88437,37.58065],[126.88435,37.5807],[126.88435,37.58075]]}},{"type":"Feature","properties":{"class":"minor","highway":"residential","sidewalk":"unknown","lanes":0,"name":"상암산로1길","oneway":false},"geometry":{"type":"LineString","coordinates":[[126.88444,37.58058],[126.88462,37.5805],[126.88484,37.58038],[126.88586,37.5798],[126.88654,37.57938],[126.88672,37.57925],[126.88694,37.57907]]}},{"type":"Feature","properties":{"class":"minor","highway":"residential","sidewalk":"unknown","lanes":0,"name":"","oneway":true},"geometry":{"type":"LineString","coordinates":[[126.88358,37.58079],[126.88373,37.58076],[126.88383,37.58075],[126.88392,37.58075],[126.88403,37.58075]]}},{"type":"Feature","properties":{"class":"minor","highway":"residential","sidewalk":"unknown","lanes":0,"name":"","oneway":false},"geometry":{"type":"LineString","coordinates":[[126.88421,37.58067],[126.88427,37.58068],[126.88432,37.58071],[126.88435,37.58075],[126.88436,37.5808],[126.88435,37.58084],[126.88432,37.58089],[126.88426,37.58093],[126.8842,37.58094],[126.88414,37.58093],[126.88409,37.58091],[126.88404,37.58088],[126.88401,37.58082],[126.88403,37.58075],[126.88405,37.58071],[126.8841,37.58068],[126.88416,37.58067],[126.88421,37.58067]]}},{"type":"Feature","properties":{"class":"major","highway":"secondary","sidewalk":"likely","lanes":0,"name":"월드컵북로","oneway":false},"geometry":{"type":"LineString","coordinates":[[126.89234,37.57715],[126.89141,37.57772],[126.89136,37.57776],[126.89059,37.57821],[126.88977,37.57871],[126.88863,37.57937],[126.88787,37.57982],[126.88688,37.58042],[126.88599,37.58096],[126.88496,37.58156]]}},{"type":"Feature","properties":{"class":"minor","highway":"residential","sidewalk":"unknown","lanes":0,"name":"수색로12길","oneway":false},"geometry":{"type":"LineString","coordinates":[[126.89855,37.58036],[126.89871,37.58053],[126.89889,37.58075],[126.89898,37.58097],[126.89937,37.58142],[126.90022,37.58233],[126.90073,37.58252]]}},{"type":"Feature","properties":{"class":"minor","highway":"residential","sidewalk":"unknown","lanes":0,"name":"은평터널로2길","oneway":false},"geometry":{"type":"LineString","coordinates":[[126.90015,37.58279],[126.89976,37.5828],[126.89968,37.58286],[126.89955,37.58281],[126.89939,37.58302],[126.89934,37.583],[126.89924,37.58312],[126.89894,37.58349],[126.89887,37.58353],[126.8988,37.58357]]}},{"type":"Feature","properties":{"class":"minor","highway":"residential","sidewalk":"unknown","lanes":0,"name":"은평터널로2길","oneway":false},"geometry":{"type":"LineString","coordinates":[[126.89976,37.58309],[126.89966,37.58311],[126.89966,37.58312],[126.89956,37.58321],[126.89924,37.58312]]}},{"type":"Feature","properties":{"class":"minor","highway":"residential","sidewalk":"unknown","lanes":0,"name":"수색로14길","oneway":false},"geometry":{"type":"LineString","coordinates":[[126.8988,37.58357],[126.89844,37.5836],[126.89832,37.58347],[126.89791,37.58306],[126.89781,37.58297],[126.89771,37.58286],[126.89746,37.5826],[126.8973,37.58243],[126.89718,37.58233],[126.89687,37.58199],[126.89678,37.58182],[126.89658,37.58152]]}},{"type":"Feature","properties":{"class":"alley","highway":"service","sidewalk":"unknown","lanes":0,"name":"","oneway":false},"geometry":{"type":"LineString","coordinates":[[126.89739,37.58149],[126.89714,37.58175],[126.89693,37.58197],[126.89687,37.58199]]}},{"type":"Feature","properties":{"class":"minor","highway":"residential","sidewalk":"unknown","lanes":0,"name":"수색로14길","oneway":false},"geometry":{"type":"LineString","coordinates":[[126.89687,37.58199],[126.89679,37.58202],[126.89674,37.58206],[126.8967,37.5821],[126.89649,37.58233]]}},{"type":"Feature","properties":{"class":"minor","highway":"residential","sidewalk":"unknown","lanes":0,"name":"","oneway":false},"geometry":{"type":"LineString","coordinates":[[126.89674,37.58206],[126.89661,37.58202],[126.89626,37.58207],[126.89603,37.58184]]}},{"type":"Feature","properties":{"class":"minor","highway":"residential","sidewalk":"unknown","lanes":0,"name":"수색로","oneway":false},"geometry":{"type":"LineString","coordinates":[[126.88449,37.58975],[126.88462,37.58972],[126.88474,37.58985],[126.88485,37.58995],[126.88507,37.59005],[126.88515,37.59014],[126.88539,37.59005],[126.88561,37.58994],[126.8858,37.58987],[126.88585,37.58983],[126.88589,37.58979]]}},{"type":"Feature","properties":{"class":"minor","highway":"residential","sidewalk":"unknown","lanes":0,"name":"수색로18나길","oneway":false},"geometry":{"type":"LineString","coordinates":[[126.89673,37.58493],[126.89652,37.58514],[126.89606,37.58536],[126.89584,37.58549],[126.89535,37.58575],[126.89516,37.58575],[126.89499,37.58574],[126.89481,37.58552],[126.89464,37.58534],[126.89451,37.58524],[126.89434,37.58512]]}},{"type":"Feature","properties":{"class":"minor","highway":"residential","sidewalk":"unknown","lanes":0,"name":"수색로18길","oneway":false},"geometry":{"type":"LineString","coordinates":[[126.89467,37.5827],[126.89475,37.58277],[126.89482,37.5829],[126.89484,37.58302],[126.89482,37.58312],[126.89477,37.58319],[126.89475,37.58321],[126.89462,37.58328],[126.89446,37.58334],[126.89439,37.58338]]}},{"type":"Feature","properties":{"class":"minor","highway":"residential","sidewalk":"unknown","lanes":0,"name":"수색로22나길","oneway":false},"geometry":{"type":"LineString","coordinates":[[126.88936,37.58664],[126.88895,37.58663],[126.8889,37.58664],[126.88818,37.58663],[126.88818,37.58689],[126.88814,37.58695],[126.88815,37.58706],[126.88812,37.58715],[126.88811,37.5872],[126.88808,37.58725],[126.88807,37.58736],[126.88818,37.58747],[126.88825,37.58765]]}},{"type":"Feature","properties":{"class":"minor","highway":"residential","sidewalk":"unknown","lanes":0,"name":"수색로","oneway":false},"geometry":{"type":"LineString","coordinates":[[126.88546,37.59106],[126.88531,37.59092],[126.88502,37.59069],[126.88481,37.59044],[126.88469,37.59022],[126.88459,37.59003],[126.88452,37.58983],[126.88449,37.58975],[126.88443,37.58969]]}},{"type":"Feature","properties":{"class":"minor","highway":"residential","sidewalk":"unknown","lanes":0,"name":"","oneway":false},"geometry":{"type":"LineString","coordinates":[[126.88652,37.58895],[126.88655,37.58886],[126.88656,37.58877],[126.88656,37.58863],[126.88656,37.58857],[126.88666,37.5884],[126.88675,37.58823],[126.88682,37.58814]]}},{"type":"Feature","properties":{"class":"minor","highway":"residential","sidewalk":"unknown","lanes":0,"name":"수색로22나길","oneway":false},"geometry":{"type":"LineString","coordinates":[[126.88849,37.58607],[126.88862,37.58613],[126.88896,37.58613],[126.88938,37.58614]]}},{"type":"Feature","properties":{"class":"minor","highway":"residential","sidewalk":"unknown","lanes":0,"name":"수색로18길","oneway":false},"geometry":{"type":"LineString","coordinates":[[126.89381,37.58321],[126.89424,37.58375]]}},{"type":"Feature","properties":{"class":"minor","highway":"residential","sidewalk":"unknown","lanes":0,"name":"수색로22길","oneway":false},"geometry":{"type":"LineString","coordinates":[[126.88825,37.58765],[126.88828,37.5879],[126.88872,37.58784],[126.88926,37.58776],[126.88971,37.58767],[126.88965,37.58749],[126.88961,37.58741],[126.88957,37.58738],[126.88937,37.58726],[126.88935,37.58719],[126.88936,37.58694],[126.88936,37.58664],[126.88937,37.5864],[126.88938,37.58614],[126.88939,37.58588],[126.8894,37.58561],[126.88941,37.58546],[126.8893,37.5854]]}},{"type":"Feature","properties":{"class":"minor","highway":"residential","sidewalk":"unknown","lanes":0,"name":"","oneway":false},"geometry":{"type":"LineString","coordinates":[[126.88939,37.58588],[126.89013,37.58587]]}},{"type":"Feature","properties":{"class":"minor","highway":"residential","sidewalk":"unknown","lanes":0,"name":"","oneway":false},"geometry":{"type":"LineString","coordinates":[[126.88866,37.58756],[126.88872,37.58784]]}},{"type":"Feature","properties":{"class":"minor","highway":"residential","sidewalk":"unknown","lanes":0,"name":"","oneway":false},"geometry":{"type":"LineString","coordinates":[[126.88481,37.59044],[126.88538,37.59026]]}},{"type":"Feature","properties":{"class":"alley","highway":"service","sidewalk":"unknown","lanes":0,"name":"","oneway":false},"geometry":{"type":"LineString","coordinates":[[126.89512,37.58322],[126.89477,37.58319]]}},{"type":"Feature","properties":{"class":"alley","highway":"service","sidewalk":"unknown","lanes":0,"name":"","oneway":false},"geometry":{"type":"LineString","coordinates":[[126.89195,37.58347],[126.89213,37.58374]]}},{"type":"Feature","properties":{"class":"alley","highway":"service","sidewalk":"unknown","lanes":0,"name":"","oneway":false},"geometry":{"type":"LineString","coordinates":[[126.88986,37.5864],[126.88937,37.5864]]}},{"type":"Feature","properties":{"class":"minor","highway":"residential","sidewalk":"unknown","lanes":0,"name":"수색로24길","oneway":true},"geometry":{"type":"LineString","coordinates":[[126.88333,37.5916],[126.88301,37.59139],[126.88293,37.59128]]}},{"type":"Feature","properties":{"class":"minor","highway":"residential","sidewalk":"unknown","lanes":0,"name":"향동아랫말5로","oneway":false},"geometry":{"type":"LineString","coordinates":[[126.88546,37.59106],[126.88563,37.59102],[126.88572,37.59088],[126.88577,37.5908],[126.88581,37.59073],[126.88581,37.5906],[126.88584,37.59043],[126.88586,37.59027],[126.8859,37.59015],[126.88592,37.59005],[126.88595,37.58994],[126.88593,37.58982],[126.88589,37.58979]]}},{"type":"Feature","properties":{"class":"minor","highway":"residential","sidewalk":"unknown","lanes":0,"name":"","oneway":false},"geometry":{"type":"LineString","coordinates":[[126.88813,37.58629],[126.88831,37.58637],[126.88896,37.58638]]}},{"type":"Feature","properties":{"class":"alley","highway":"service","sidewalk":"unknown","lanes":0,"name":"","oneway":false},"geometry":{"type":"LineString","coordinates":[[126.8906,37.58616],[126.89058,37.5861],[126.89055,37.58605],[126.89055,37.58594]]}},{"type":"Feature","properties":{"class":"minor","highway":"residential","sidewalk":"unknown","lanes":0,"name":"수색로22나길","oneway":false},"geometry":{"type":"LineString","coordinates":[[126.88894,37.58688],[126.88895,37.58663],[126.88896,37.58638],[126.88896,37.58613]]}},{"type":"Feature","properties":{"class":"minor","highway":"residential","sidewalk":"unknown","lanes":0,"name":"수색로22길","oneway":false},"geometry":{"type":"LineString","coordinates":[[126.88837,37.58758],[126.88848,37.58757],[126.88866,37.58756],[126.88903,37.58753],[126.88957,37.58738]]}},{"type":"Feature","properties":{"class":"minor","highway":"residential","sidewalk":"yes","lanes":0,"name":"","oneway":false},"geometry":{"type":"LineString","coordinates":[[126.88938,37.5851],[126.88953,37.58522],[126.88994,37.58561]]}},{"type":"Feature","properties":{"class":"minor","highway":"residential","sidewalk":"unknown","lanes":0,"name":"수색로","oneway":false},"geometry":{"type":"LineString","coordinates":[[126.88771,37.58769],[126.88756,37.58746],[126.88744,37.58734],[126.88728,37.58723],[126.88723,37.58707]]}},{"type":"Feature","properties":{"class":"minor","highway":"residential","sidewalk":"unknown","lanes":0,"name":"","oneway":false},"geometry":{"type":"LineString","coordinates":[[126.8894,37.58561],[126.88994,37.58561]]}},{"type":"Feature","properties":{"class":"minor","highway":"residential","sidewalk":"unknown","lanes":0,"name":"수색로","oneway":false},"geometry":{"type":"LineString","coordinates":[[126.88756,37.58746],[126.88781,37.58736],[126.88771,37.58713],[126.88773,37.58705],[126.88771,37.58698],[126.88768,37.58688],[126.88755,37.58679]]}},{"type":"Feature","properties":{"class":"minor","highway":"residential","sidewalk":"unknown","lanes":0,"name":"","oneway":false},"geometry":{"type":"LineString","coordinates":[[126.89891,37.58589],[126.899,37.58575],[126.89915,37.58571],[126.89927,37.58564],[126.89934,37.58552],[126.89938,37.58544],[126.89941,37.58537]]}},{"type":"Feature","properties":{"class":"minor","highway":"residential","sidewalk":"unknown","lanes":0,"name":"수색로22나길","oneway":false},"geometry":{"type":"LineString","coordinates":[[126.88811,37.5872],[126.88816,37.58721],[126.88835,37.58713],[126.88855,37.58744],[126.8884,37.58752],[126.88837,37.58758],[126.88825,37.58765]]}},{"type":"Feature","properties":{"class":"minor","highway":"residential","sidewalk":"unknown","lanes":0,"name":"수색로","oneway":false},"geometry":{"type":"LineString","coordinates":[[126.88652,37.58895],[126.88644,37.58891],[126.88632,37.58878],[126.88624,37.58863],[126.88615,37.5885],[126.88608,37.5884],[126.88599,37.58832],[126.88589,37.58824]]}},{"type":"Feature","properties":{"class":"minor","highway":"residential","sidewalk":"unknown","lanes":0,"name":"수색로22나길","oneway":false},"geometry":{"type":"LineString","coordinates":[[126.8884,37.58689],[126.88894,37.58688],[126.88898,37.58686],[126.88906,37.58687],[126.88907,37.58692],[126.88907,37.58697],[126.88912,37.58701],[126.88911,37.58706],[126.88906,37.58707]]}},{"type":"Feature","properties":{"class":"alley","highway":"service","sidewalk":"unknown","lanes":0,"name":"","oneway":false},"geometry":{"type":"LineString","coordinates":[[126.8858,37.58818],[126.88572,37.58812]]}},{"type":"Feature","properties":{"class":"minor","highway":"residential","sidewalk":"unknown","lanes":0,"name":"수색로22가길","oneway":false},"geometry":{"type":"LineString","coordinates":[[126.88938,37.58614],[126.88992,37.58614],[126.89008,37.5861],[126.89013,37.58607],[126.89021,37.58602],[126.89039,37.58592],[126.89055,37.58594],[126.89068,37.58597],[126.89091,37.58597],[126.89113,37.58592],[126.89143,37.58583],[126.89157,37.58579],[126.89171,37.58574],[126.89175,37.58573],[126.89207,37.58564],[126.89251,37.58549],[126.89284,37.58532],[126.893,37.58523],[126.89319,37.58511],[126.89334,37.585],[126.8935,37.58488],[126.89368,37.58471]]}},{"type":"Feature","properties":{"class":"minor","highway":"residential","sidewalk":"unknown","lanes":0,"name":"수색로","oneway":false},"geometry":{"type":"LineString","coordinates":[[126.88589,37.58979],[126.88584,37.58967],[126.88578,37.58961],[126.88572,37.58958],[126.88565,37.58952],[126.88559,37.58943],[126.88555,37.58933],[126.88553,37.58924],[126.88552,37.58917],[126.88543,37.58914],[126.88528,37.58911],[126.88513,37.58907]]}},{"type":"Feature","properties":{"class":"minor","highway":"residential","sidewalk":"unknown","lanes":0,"name":"월드컵북로60길","oneway":false},"geometry":{"type":"LineString","coordinates":[[126.88494,37.58312],[126.88621,37.58278]]}},{"type":"Feature","properties":{"class":"minor","highway":"residential","sidewalk":"unknown","lanes":0,"name":"월드컵북로56길","oneway":false},"geometry":{"type":"LineString","coordinates":[[126.88739,37.58235],[126.88837,37.58189]]}},{"type":"Feature","properties":{"class":"minor","highway":"residential","sidewalk":"unknown","lanes":0,"name":"","oneway":false},"geometry":{"type":"LineString","coordinates":[[126.88621,37.58278],[126.8868,37.58257],[126.88739,37.58235]]}},{"type":"Feature","properties":{"class":"minor","highway":"residential","sidewalk":"unknown","lanes":0,"name":"월드컵북로54길","oneway":false},"geometry":{"type":"LineString","coordinates":[[126.88837,37.58189],[126.88885,37.58162],[126.88935,37.5813]]}},{"type":"Feature","properties":{"class":"alley","highway":"pedestrian","sidewalk":"unknown","lanes":0,"name":"월드컵북로","oneway":false},"geometry":{"type":"LineString","coordinates":[[126.89141,37.57772],[126.89221,37.57852],[126.89378,37.58007]]}},{"type":"Feature","properties":{"class":"alley","highway":"pedestrian","sidewalk":"unknown","lanes":0,"name":"","oneway":false},"geometry":{"type":"LineString","coordinates":[[126.88875,37.58069],[126.88997,37.57996]]}},{"type":"Feature","properties":{"class":"major","highway":"primary","sidewalk":"likely","lanes":0,"name":"가양대로","oneway":true},"geometry":{"type":"LineString","coordinates":[[126.8871,37.58704],[126.88703,37.58699]]}},{"type":"Feature","properties":{"class":"major","highway":"secondary","sidewalk":"likely","lanes":0,"name":"성암로","oneway":false},"geometry":{"type":"LineString","coordinates":[[126.8995,37.57625],[126.89864,37.57678],[126.89774,37.57739],[126.8967,37.57808],[126.89661,37.57815],[126.89635,37.57833],[126.89599,37.57859],[126.89564,37.57881],[126.8956,37.57884],[126.89482,37.57936],[126.89469,37.57945],[126.89454,37.57955],[126.89378,37.58007],[126.89302,37.58061]]}},{"type":"Feature","properties":{"class":"major","highway":"secondary","sidewalk":"likely","lanes":0,"name":"성암로","oneway":false},"geometry":{"type":"LineString","coordinates":[[126.89302,37.58061],[126.8924,37.58102],[126.89136,37.58164],[126.89024,37.58218],[126.88975,37.5824],[126.88916,37.58267],[126.88817,37.58312],[126.88709,37.58363],[126.88676,37.58378],[126.88598,37.58414],[126.88488,37.58469],[126.88447,37.58488],[126.8844,37.58492]]}},{"type":"Feature","properties":{"class":"major","highway":"secondary","sidewalk":"likely","lanes":0,"name":"상암산로","oneway":false},"geometry":{"type":"LineString","coordinates":[[126.88836,37.576],[126.88943,37.57706],[126.88994,37.57756],[126.89059,37.57821],[126.89115,37.57878],[126.89167,37.57929],[126.89302,37.58061]]}},{"type":"Feature","properties":{"class":"minor","highway":"residential","sidewalk":"unknown","lanes":0,"name":"월드컵북로54길","oneway":false},"geometry":{"type":"LineString","coordinates":[[126.88935,37.5813],[126.89024,37.58218]]}},{"type":"Feature","properties":{"class":"major","highway":"secondary","sidewalk":"likely","lanes":0,"name":"월드컵북로","oneway":false},"geometry":{"type":"LineString","coordinates":[[126.88496,37.58156],[126.88396,37.58215]]}},{"type":"Feature","properties":{"class":"minor","highway":"residential","sidewalk":"unknown","lanes":0,"name":"월드컵북로62길","oneway":false},"geometry":{"type":"LineString","coordinates":[[126.88494,37.58312],[126.88598,37.58414]]}},{"type":"Feature","properties":{"class":"minor","highway":"residential","sidewalk":"unknown","lanes":0,"name":"월드컵북로60길","oneway":false},"geometry":{"type":"LineString","coordinates":[[126.88621,37.58278],[126.88709,37.58363]]}},{"type":"Feature","properties":{"class":"major","highway":"primary","sidewalk":"likely","lanes":0,"name":"가양대로","oneway":true},"geometry":{"type":"LineString","coordinates":[[126.88565,37.58603],[126.8855,37.58592]]}},{"type":"Feature","properties":{"class":"minor","highway":"residential","sidewalk":"unknown","lanes":0,"name":"향기2로","oneway":false},"geometry":{"type":"LineString","coordinates":[[126.89059,37.59433],[126.89062,37.59426],[126.89078,37.59394],[126.89102,37.59362],[126.89106,37.59358],[126.89113,37.59355],[126.89141,37.59342],[126.89175,37.59337],[126.89207,37.5933],[126.89226,37.59325],[126.89232,37.59323],[126.8924,37.59319],[126.89248,37.59314],[126.89254,37.59309],[126.89267,37.59299],[126.89274,37.5929],[126.8928,37.59279],[126.89286,37.59268],[126.89289,37.59261],[126.89291,37.59254],[126.89292,37.59244],[126.89316,37.59224],[126.89362,37.59215],[126.89399,37.59214],[126.89428,37.59217]]}},{"type":"Feature","properties":{"class":"minor","highway":"residential","sidewalk":"unknown","lanes":0,"name":"향기2로","oneway":false},"geometry":{"type":"LineString","coordinates":[[126.89106,37.59358],[126.89101,37.59354],[126.89072,37.59329],[126.89055,37.59308],[126.89052,37.59304],[126.89047,37.59298],[126.89036,37.59285],[126.8903,37.59272]]}},{"type":"Feature","properties":{"class":"minor","highway":"residential","sidewalk":"unknown","lanes":0,"name":"","oneway":false},"geometry":{"type":"LineString","coordinates":[[126.88994,37.58561],[126.89039,37.58592]]}},{"type":"Feature","properties":{"class":"alley","highway":"pedestrian","sidewalk":"unknown","lanes":0,"name":"","oneway":false},"geometry":{"type":"LineString","coordinates":[[126.89144,37.58036],[126.89147,37.58042],[126.89148,37.58048],[126.89146,37.58054],[126.89142,37.58059],[126.89135,37.58063],[126.89128,37.58064],[126.8912,37.58064],[126.89113,37.58062],[126.89108,37.58058],[126.89104,37.58053],[126.89102,37.58048],[126.89103,37.58042],[126.89106,37.58037],[126.89111,37.58032],[126.89117,37.58029],[126.89124,37.58028],[126.89131,37.58029],[126.89138,37.58032],[126.89144,37.58036]]}},{"type":"Feature","properties":{"class":"major","highway":"primary","sidewalk":"likely","lanes":0,"name":"","oneway":true},"geometry":{"type":"LineString","coordinates":[[126.88703,37.58699],[126.88565,37.58603]]}},{"type":"Feature","properties":{"class":"alley","highway":"pedestrian","sidewalk":"unknown","lanes":0,"name":"성암로","oneway":false},"geometry":{"type":"LineString","coordinates":[[126.8907,37.58027],[126.8924,37.58102]]}},{"type":"Feature","properties":{"class":"alley","highway":"pedestrian","sidewalk":"unknown","lanes":0,"name":"월드컵북로54길","oneway":false},"geometry":{"type":"LineString","coordinates":[[126.88935,37.5813],[126.88986,37.58093],[126.89029,37.5806],[126.8907,37.58027]]}},{"type":"Feature","properties":{"class":"minor","highway":"residential","sidewalk":"unknown","lanes":0,"name":"은평터널로","oneway":false},"geometry":{"type":"LineString","coordinates":[[126.89649,37.58233],[126.89627,37.58254],[126.896,37.5827]]}},{"type":"Feature","properties":{"class":"minor","highway":"residential","sidewalk":"unknown","lanes":0,"name":"수색로","oneway":false},"geometry":{"type":"LineString","coordinates":[[126.88654,37.58915],[126.88654,37.58906],[126.88652,37.58895]]}},{"type":"Feature","properties":{"class":"minor","highway":"residential","sidewalk":"unknown","lanes":0,"name":"","oneway":false},"geometry":{"type":"LineString","coordinates":[[126.89889,37.58075],[126.89945,37.58044],[126.89951,37.58041],[126.8998,37.58024],[126.90004,37.5801],[126.90034,37.57994],[126.90044,37.57987]]}},{"type":"Feature","properties":{"class":"alley","highway":"service","sidewalk":"unknown","lanes":0,"name":"","oneway":false},"geometry":{"type":"LineString","coordinates":[[126.88436,37.58831],[126.88437,37.58835],[126.88437,37.58848],[126.88437,37.58864],[126.88412,37.58858],[126.88391,37.58843]]}},{"type":"Feature","properties":{"class":"alley","highway":"service","sidewalk":"unknown","lanes":0,"name":"","oneway":false},"geometry":{"type":"LineString","coordinates":[[126.88572,37.58812],[126.88556,37.58803],[126.88532,37.58791],[126.88525,37.58788],[126.88514,37.58786],[126.885,37.58785],[126.88482,37.58786],[126.88466,37.5879],[126.88454,37.58798],[126.88445,37.58807],[126.88441,37.58813],[126.88439,37.5882],[126.88436,37.58831]]}},{"type":"Feature","properties":{"class":"minor","highway":"residential","sidewalk":"unknown","lanes":0,"name":"수색로18길","oneway":false},"geometry":{"type":"LineString","coordinates":[[126.89434,37.58512],[126.89415,37.58499],[126.89384,37.58481],[126.89368,37.58471],[126.89399,37.58429],[126.89425,37.58388]]}},{"type":"Feature","properties":{"class":"major","highway":"primary_link","sidewalk":"likely","lanes":0,"name":"","oneway":true},"geometry":{"type":"LineString","coordinates":[[126.88488,37.58469],[126.8848,37.58479],[126.88476,37.58491],[126.88475,37.58503],[126.88478,37.58514],[126.88482,37.58522]]}},{"type":"Feature","properties":{"class":"alley","highway":"service","sidewalk":"unknown","lanes":0,"name":"","oneway":false},"geometry":{"type":"LineString","coordinates":[[126.90017,37.58654],[126.89962,37.58615]]}},{"type":"Feature","properties":{"class":"alley","highway":"service","sidewalk":"unknown","lanes":0,"name":"","oneway":false},"geometry":{"type":"LineString","coordinates":[[126.89935,37.58656],[126.90036,37.5873],[126.90048,37.58735],[126.90052,37.58734],[126.90057,37.58731],[126.90065,37.58725],[126.90068,37.58718],[126.90065,37.58712],[126.90008,37.5867],[126.90007,37.58665],[126.90012,37.58659],[126.90017,37.58654],[126.90045,37.58632],[126.90054,37.58625]]}},{"type":"Feature","properties":{"class":"alley","highway":"service","sidewalk":"unknown","lanes":0,"name":"","oneway":true},"geometry":{"type":"LineString","coordinates":[[126.88437,37.58835],[126.88441,37.58841],[126.8845,37.58843],[126.88455,37.58844],[126.8846,37.58843]]}},{"type":"Feature","properties":{"class":"alley","highway":"service","sidewalk":"unknown","lanes":0,"name":"","oneway":false},"geometry":{"type":"LineString","coordinates":[[126.88773,37.58561],[126.88751,37.58576],[126.8877,37.58592]]}},{"type":"Feature","properties":{"class":"alley","highway":"service","sidewalk":"unknown","lanes":0,"name":"","oneway":false},"geometry":{"type":"LineString","coordinates":[[126.88975,37.5824],[126.88996,37.58255],[126.89015,37.58252],[126.89072,37.58239],[126.89157,37.58196],[126.892,37.58164],[126.89216,37.58152],[126.89225,37.58151],[126.89235,37.5815],[126.89242,37.58149],[126.89248,37.58149],[126.89253,37.5815],[126.89261,37.5815],[126.89268,37.58151],[126.89291,37.58142],[126.8933,37.58124],[126.89443,37.58046],[126.89505,37.57999],[126.89539,37.5797],[126.89572,37.57941],[126.89577,37.57932],[126.89581,37.57921],[126.89667,37.57861],[126.89691,37.57844],[126.89732,37.57817],[126.89759,37.57801],[126.8977,37.57811],[126.89813,37.57787],[126.89834,37.57762],[126.89972,37.57673],[126.89973,37.57669],[126.89974,37.57664],[126.89987,37.57651]]}},{"type":"Feature","properties":{"class":"alley","highway":"service","sidewalk":"unknown","lanes":0,"name":"","oneway":false},"geometry":{"type":"LineString","coordinates":[[126.8998,37.58024],[126.89977,37.58018],[126.89976,37.58015],[126.89978,37.58013],[126.8998,37.58011]]}},{"type":"Feature","properties":{"class":"alley","highway":"service","sidewalk":"unknown","lanes":0,"name":"","oneway":false},"geometry":{"type":"LineString","coordinates":[[126.8998,37.58011],[126.89985,37.58011],[126.89989,37.58008]]}},{"type":"Feature","properties":{"class":"alley","highway":"service","sidewalk":"unknown","lanes":0,"name":"","oneway":false},"geometry":{"type":"LineString","coordinates":[[126.8998,37.58024],[126.90008,37.58027]]}},{"type":"Feature","properties":{"class":"minor","highway":"residential","sidewalk":"unknown","lanes":0,"name":"","oneway":false},"geometry":{"type":"LineString","coordinates":[[126.89951,37.58041],[126.89922,37.5801],[126.89913,37.58001]]}},{"type":"Feature","properties":{"class":"alley","highway":"service","sidewalk":"unknown","lanes":0,"name":"","oneway":false},"geometry":{"type":"LineString","coordinates":[[126.89175,37.58573],[126.8915,37.58537],[126.89148,37.58531],[126.89147,37.58518],[126.89144,37.58512],[126.89135,37.58506],[126.89128,37.58506],[126.8909,37.5852]]}},{"type":"Feature","properties":{"class":"alley","highway":"service","sidewalk":"unknown","lanes":0,"name":"","oneway":false},"geometry":{"type":"LineString","coordinates":[[126.89096,37.58529],[126.8909,37.5852],[126.89082,37.58507],[126.89081,37.58503],[126.89081,37.58497],[126.89083,37.58495]]}},{"type":"Feature","properties":{"class":"alley","highway":"service","sidewalk":"unknown","lanes":0,"name":"","oneway":false},"geometry":{"type":"LineString","coordinates":[[126.89368,37.58471],[126.89346,37.58463]]}},{"type":"Feature","properties":{"class":"minor","highway":"residential","sidewalk":"unknown","lanes":0,"name":"수색로18길","oneway":true},"geometry":{"type":"LineString","coordinates":[[126.89433,37.58384],[126.89432,37.58385],[126.8943,37.58387],[126.89428,37.58388],[126.89425,37.58388],[126.89423,37.58387],[126.8942,37.58386],[126.89419,37.58385],[126.89418,37.58383],[126.89417,37.58381],[126.89418,37.58379],[126.89419,37.58377],[126.89421,37.58376],[126.89424,37.58375],[126.89426,37.58375],[126.89428,37.58376],[126.89431,37.58377],[126.89432,37.58378],[126.89433,37.5838],[126.89433,37.58382],[126.89433,37.58384]]}},{"type":"Feature","properties":{"class":"minor","highway":"residential","sidewalk":"unknown","lanes":0,"name":"수색로16길","oneway":false},"geometry":{"type":"LineString","coordinates":[[126.89527,37.58233],[126.89535,37.58241],[126.89541,37.58252],[126.8955,37.58282],[126.89556,37.58307]]}},{"type":"Feature","properties":{"class":"minor","highway":"residential","sidewalk":"unknown","lanes":0,"name":"","oneway":false},"geometry":{"type":"LineString","coordinates":[[126.89844,37.5836],[126.89775,37.58412],[126.89673,37.58493],[126.89644,37.58468],[126.89598,37.58422],[126.89582,37.58406],[126.89514,37.5834],[126.89508,37.58338],[126.89488,37.58352],[126.89443,37.58373],[126.89432,37.58378]]}},{"type":"Feature","properties":{"class":"alley","highway":"service","sidewalk":"unknown","lanes":0,"name":"","oneway":false},"geometry":{"type":"LineString","coordinates":[[126.89976,37.58309],[126.90026,37.58292],[126.9003,37.5829],[126.90032,37.58288],[126.90033,37.58286],[126.90033,37.58284],[126.90032,37.58282]]}},{"type":"Feature","properties":{"class":"alley","highway":"service","sidewalk":"unknown","lanes":0,"name":"","oneway":false},"geometry":{"type":"LineString","coordinates":[[126.89714,37.58175],[126.89806,37.58233]]}},{"type":"Feature","properties":{"class":"alley","highway":"service","sidewalk":"unknown","lanes":0,"name":"","oneway":false},"geometry":{"type":"LineString","coordinates":[[126.89806,37.58233],[126.89811,37.58231],[126.89816,37.5823],[126.89819,37.58231],[126.89854,37.58252],[126.89855,37.58254],[126.89855,37.58256],[126.89846,37.58266],[126.89845,37.58266],[126.89843,37.58266],[126.89801,37.58245],[126.898,37.58243],[126.89801,37.58241],[126.89806,37.58233]]}},{"type":"Feature","properties":{"class":"major","highway":"primary","sidewalk":"likely","lanes":0,"name":"수색로","oneway":true},"geometry":{"type":"LineString","coordinates":[[126.89542,37.58214],[126.89554,37.58206],[126.89599,37.58179],[126.89654,37.58146],[126.89756,37.58082],[126.89782,37.58067],[126.89849,37.58029],[126.89905,37.57993],[126.89967,37.57953]]}},{"type":"Feature","properties":{"class":"minor","highway":"residential","sidewalk":"unknown","lanes":0,"name":"","oneway":false},"geometry":{"type":"LineString","coordinates":[[126.89292,37.59244],[126.89282,37.59238],[126.89252,37.59201]]}},{"type":"Feature","properties":{"class":"minor","highway":"residential","sidewalk":"unknown","lanes":0,"name":"향기1로","oneway":false},"geometry":{"type":"LineString","coordinates":[[126.88589,37.59181],[126.88583,37.59169],[126.8856,37.59127],[126.88555,37.59117],[126.88546,37.59106]]}},{"type":"Feature","properties":{"class":"minor","highway":"residential","sidewalk":"unknown","lanes":0,"name":"수색로24길","oneway":false},"geometry":{"type":"LineString","coordinates":[[126.88589,37.59181],[126.8854,37.59154],[126.88519,37.59147],[126.88502,37.59145],[126.88484,37.59145],[126.88444,37.59146]]}},{"type":"Feature","properties":{"class":"minor","highway":"residential","sidewalk":"unknown","lanes":0,"name":"향뫼2로","oneway":false},"geometry":{"type":"LineString","coordinates":[[126.8903,37.59272],[126.89025,37.59259],[126.89023,37.59239],[126.89023,37.59213],[126.89026,37.59182]]}},{"type":"Feature","properties":{"class":"minor","highway":"unclassified","sidewalk":"unknown","lanes":0,"name":"향뫼2로","oneway":false},"geometry":{"type":"LineString","coordinates":[[126.89026,37.59182],[126.89022,37.59175],[126.88994,37.59165],[126.88995,37.59157],[126.89001,37.5913],[126.89012,37.59115],[126.89035,37.59104],[126.89039,37.59095],[126.89038,37.59072],[126.89048,37.5906],[126.89081,37.59035],[126.8911,37.59022],[126.89115,37.59005],[126.89114,37.58984]]}},{"type":"Feature","properties":{"class":"minor","highway":"unclassified","sidewalk":"unknown","lanes":0,"name":"향뫼로","oneway":false},"geometry":{"type":"LineString","coordinates":[[126.89428,37.59217],[126.89473,37.59197],[126.89489,37.59183],[126.89524,37.59177],[126.89531,37.59175],[126.89575,37.59174],[126.89594,37.59158],[126.89627,37.59148],[126.89665,37.59146]]}},{"type":"Feature","properties":{"class":"minor","highway":"unclassified","sidewalk":"unknown","lanes":0,"name":"향뫼로","oneway":false},"geometry":{"type":"LineString","coordinates":[[126.89524,37.59177],[126.89493,37.59153],[126.89485,37.59137],[126.89486,37.59129]]}},{"type":"Feature","properties":{"class":"minor","highway":"residential","sidewalk":"unknown","lanes":0,"name":"수색로24길","oneway":true},"geometry":{"type":"LineString","coordinates":[[126.88351,37.59147],[126.88375,37.59146],[126.88387,37.59148]]}},{"type":"Feature","properties":{"class":"minor","highway":"residential","sidewalk":"unknown","lanes":0,"name":"수색로24길","oneway":true},"geometry":{"type":"LineString","coordinates":[[126.88387,37.59148],[126.88377,37.59153],[126.88357,37.59158]]}},{"type":"Feature","properties":{"class":"minor","highway":"residential","sidewalk":"unknown","lanes":0,"name":"숯골길","oneway":false},"geometry":{"type":"LineString","coordinates":[[126.88345,37.59166],[126.88357,37.59177],[126.88385,37.59201],[126.88415,37.59231],[126.88433,37.59259],[126.88463,37.59298],[126.88488,37.59336],[126.88494,37.59347],[126.88522,37.5937],[126.88547,37.59389],[126.8857,37.59395],[126.88581,37.59396],[126.88592,37.59396],[126.88625,37.59393],[126.88652,37.59387],[126.8867,37.59381],[126.88688,37.59381],[126.88721,37.59389],[126.88729,37.59389],[126.8874,37.59383]]}},{"type":"Feature","properties":{"class":"minor","highway":"residential","sidewalk":"unknown","lanes":0,"name":"수색로24길","oneway":false},"geometry":{"type":"LineString","coordinates":[[126.88356,37.5916],[126.88353,37.59163],[126.88349,37.59165],[126.88345,37.59166],[126.8834,37.59165],[126.88336,37.59163],[126.88333,37.5916],[126.88332,37.59157],[126.88332,37.59153],[126.88334,37.5915],[126.88337,37.59148],[126.88341,37.59146]]}},{"type":"Feature","properties":{"class":"minor","highway":"residential","sidewalk":"unknown","lanes":0,"name":"수색로24길","oneway":true},"geometry":{"type":"LineString","coordinates":[[126.88293,37.59128],[126.88305,37.5913],[126.88341,37.59146]]}},{"type":"Feature","properties":{"class":"minor","highway":"residential","sidewalk":"unknown","lanes":0,"name":"","oneway":true},"geometry":{"type":"LineString","coordinates":[[126.88416,37.58067],[126.88444,37.58058]]}},{"type":"Feature","properties":{"class":"major","highway":"primary","sidewalk":"likely","lanes":0,"name":"수색로","oneway":true},"geometry":{"type":"LineString","coordinates":[[126.89977,37.57963],[126.89913,37.58001],[126.89855,37.58036],[126.89788,37.58075],[126.89763,37.5809],[126.89658,37.58152],[126.89603,37.58184],[126.8956,37.58212],[126.89552,37.58216],[126.89547,37.58219]]}},{"type":"Feature","properties":{"class":"major","highway":"primary","sidewalk":"likely","lanes":0,"name":"수색로","oneway":true},"geometry":{"type":"LineString","coordinates":[[126.89547,37.58219],[126.89536,37.58227],[126.89527,37.58233],[126.89505,37.58245],[126.89491,37.58254],[126.89467,37.5827],[126.89443,37.58287],[126.89415,37.58303],[126.89392,37.58315],[126.89381,37.58321],[126.89326,37.58344],[126.89294,37.58358],[126.89217,37.5839],[126.89173,37.58409],[126.89168,37.58411],[126.8909,37.58444],[126.89061,37.58457],[126.89048,37.58463],[126.89038,37.58468],[126.89024,37.58475],[126.88979,37.58502],[126.88953,37.58522],[126.8893,37.5854],[126.88849,37.58607],[126.88813,37.58629],[126.88806,37.58636],[126.88755,37.58679],[126.88723,37.58707]]}},{"type":"Feature","properties":{"class":"minor","highway":"residential","sidewalk":"unknown","lanes":0,"name":"","oneway":false},"geometry":{"type":"LineString","coordinates":[[126.89598,37.58422],[126.89594,37.58421],[126.8959,37.58421],[126.89584,37.5842],[126.89578,37.58423],[126.89575,37.58424],[126.89572,37.58428],[126.89571,37.58432]]}},{"type":"Feature","properties":{"class":"minor","highway":"residential","sidewalk":"unknown","lanes":0,"name":"수색로","oneway":false},"geometry":{"type":"LineString","coordinates":[[126.89433,37.58275],[126.89404,37.58241],[126.89405,37.58235],[126.89413,37.58232],[126.89423,37.58235],[126.89453,37.58265]]}},{"type":"Feature","properties":{"class":"minor","highway":"residential","sidewalk":"unknown","lanes":0,"name":"수색로","oneway":false},"geometry":{"type":"LineString","coordinates":[[126.89373,37.58307],[126.89354,37.58279],[126.89343,37.58263],[126.89395,37.58238],[126.89404,37.58241]]}},{"type":"Feature","properties":{"class":"minor","highway":"residential","sidewalk":"unknown","lanes":0,"name":"수색로","oneway":false},"geometry":{"type":"LineString","coordinates":[[126.89267,37.5835],[126.89251,37.58325],[126.89304,37.58302],[126.89354,37.58279]]}},{"type":"Feature","properties":{"class":"minor","highway":"residential","sidewalk":"unknown","lanes":0,"name":"","oneway":false},"geometry":{"type":"LineString","coordinates":[[126.88818,37.58663],[126.88816,37.58644],[126.88806,37.58636]]}},{"type":"Feature","properties":{"class":"alley","highway":"service","sidewalk":"unknown","lanes":0,"name":"상암산로1길","oneway":false},"geometry":{"type":"LineString","coordinates":[[126.88405,37.58071],[126.88399,37.58069],[126.88396,37.58066],[126.88387,37.58058],[126.88356,37.58026],[126.88315,37.58028],[126.88309,37.58033],[126.8831,37.58078]]}},{"type":"Feature","properties":{"class":"major","highway":"secondary","sidewalk":"likely","lanes":0,"name":"은평터널로","oneway":false},"geometry":{"type":"LineString","coordinates":[[126.89542,37.58214],[126.89547,37.58219]]}},{"type":"Feature","properties":{"class":"major","highway":"primary","sidewalk":"likely","lanes":0,"name":"가양대로","oneway":true},"geometry":{"type":"LineString","coordinates":[[126.88723,37.58707],[126.8871,37.58704]]}},{"type":"Feature","properties":{"class":"minor","highway":"residential","sidewalk":"unknown","lanes":0,"name":"수색로24길","oneway":false},"geometry":{"type":"LineString","coordinates":[[126.88341,37.59146],[126.88346,37.59146],[126.88351,37.59147]]}},{"type":"Feature","properties":{"class":"minor","highway":"residential","sidewalk":"unknown","lanes":0,"name":"수색로24길","oneway":false},"geometry":{"type":"LineString","coordinates":[[126.88444,37.59146],[126.88387,37.59148]]}},{"type":"Feature","properties":{"class":"major","highway":"primary","sidewalk":"likely","lanes":0,"name":"가양대로","oneway":true},"geometry":{"type":"LineString","coordinates":[[126.8855,37.58592],[126.88425,37.585]]}},{"type":"Feature","properties":{"class":"major","highway":"primary","sidewalk":"likely","lanes":0,"name":"가양대로","oneway":true},"geometry":{"type":"LineString","coordinates":[[126.8844,37.58492],[126.88482,37.58522],[126.88562,37.58582]]}},{"type":"Feature","properties":{"class":"major","highway":"primary","sidewalk":"likely","lanes":0,"name":"","oneway":true},"geometry":{"type":"LineString","coordinates":[[126.88576,37.58592],[126.88711,37.5869]]}},{"type":"Feature","properties":{"class":"major","highway":"primary","sidewalk":"likely","lanes":0,"name":"가양대로","oneway":true},"geometry":{"type":"LineString","coordinates":[[126.8872,37.58696],[126.88723,37.58707]]}},{"type":"Feature","properties":{"class":"major","highway":"primary","sidewalk":"likely","lanes":0,"name":"가양대로","oneway":true},"geometry":{"type":"LineString","coordinates":[[126.88562,37.58582],[126.88576,37.58592]]}},{"type":"Feature","properties":{"class":"major","highway":"secondary","sidewalk":"likely","lanes":0,"name":"성암로","oneway":false},"geometry":{"type":"LineString","coordinates":[[126.8844,37.58492],[126.88425,37.585]]}},{"type":"Feature","properties":{"class":"major","highway":"primary","sidewalk":"likely","lanes":0,"name":"수색로","oneway":true},"geometry":{"type":"LineString","coordinates":[[126.8871,37.58704],[126.8872,37.58696]]}},{"type":"Feature","properties":{"class":"major","highway":"primary","sidewalk":"likely","lanes":0,"name":"가양대로","oneway":true},"geometry":{"type":"LineString","coordinates":[[126.88711,37.5869],[126.8872,37.58696]]}},{"type":"Feature","properties":{"class":"major","highway":"primary_link","sidewalk":"likely","lanes":0,"name":"","oneway":true},"geometry":{"type":"LineString","coordinates":[[126.89788,37.58075],[126.89783,37.58074],[126.89781,37.58071],[126.89782,37.58067]]}},{"type":"Feature","properties":{"class":"major","highway":"primary_link","sidewalk":"likely","lanes":0,"name":"","oneway":true},"geometry":{"type":"LineString","coordinates":[[126.89217,37.5839],[126.89213,37.58389],[126.8921,37.58389],[126.89208,37.58387],[126.89206,37.58384]]}},{"type":"Feature","properties":{"class":"major","highway":"primary_link","sidewalk":"likely","lanes":0,"name":"","oneway":true},"geometry":{"type":"LineString","coordinates":[[126.89173,37.584],[126.89174,37.58402],[126.89174,37.58404],[126.89174,37.58406],[126.89173,37.58409]]}},{"type":"Feature","properties":{"class":"major","highway":"primary_link","sidewalk":"likely","lanes":0,"name":"","oneway":true},"geometry":{"type":"LineString","coordinates":[[126.89206,37.58384],[126.89206,37.58382],[126.89206,37.58377]]}},{"type":"Feature","properties":{"class":"major","highway":"primary_link","sidewalk":"likely","lanes":0,"name":"","oneway":true},"geometry":{"type":"LineString","coordinates":[[126.89162,37.58396],[126.89167,37.58396],[126.8917,37.58398],[126.89173,37.584]]}},{"type":"Feature","properties":{"class":"minor","highway":"residential","sidewalk":"unknown","lanes":0,"name":"상암산로1길","oneway":true},"geometry":{"type":"LineString","coordinates":[[126.88464,37.58125],[126.8842,37.58094]]}},{"type":"Feature","properties":{"class":"minor","highway":"residential","sidewalk":"unknown","lanes":0,"name":"상암산로1길","oneway":false},"geometry":{"type":"LineString","coordinates":[[126.88464,37.58125],[126.88496,37.58156]]}},{"type":"Feature","properties":{"class":"alley","highway":"service","sidewalk":"unknown","lanes":0,"name":"","oneway":true},"geometry":{"type":"LineString","coordinates":[[126.88641,37.59303],[126.88513,37.59298]]}},{"type":"Feature","properties":{"class":"alley","highway":"service","sidewalk":"unknown","lanes":0,"name":"","oneway":true},"geometry":{"type":"LineString","coordinates":[[126.88653,37.5933],[126.88544,37.59327]]}},{"type":"Feature","properties":{"class":"alley","highway":"service","sidewalk":"unknown","lanes":0,"name":"","oneway":false},"geometry":{"type":"LineString","coordinates":[[126.88657,37.59342],[126.88675,37.5932],[126.88684,37.59312]]}},{"type":"Feature","properties":{"class":"minor","highway":"residential","sidewalk":"unknown","lanes":0,"name":"향기로","oneway":false},"geometry":{"type":"LineString","coordinates":[[126.89199,37.59523],[126.89189,37.59528],[126.89127,37.59562],[126.89119,37.59567],[126.8911,37.59572],[126.89035,37.59613],[126.89025,37.59619]]}},{"type":"Feature","properties":{"class":"major","highway":"tertiary","sidewalk":"likely","lanes":1,"name":"꽃마을로","oneway":false},"geometry":{"type":"LineString","coordinates":[[126.8927,37.5984],[126.89262,37.59844],[126.89231,37.59859],[126.89198,37.59882],[126.89187,37.59891],[126.89181,37.59896],[126.89176,37.59899],[126.89172,37.59902]]}},{"type":"Feature","properties":{"class":"major","highway":"tertiary","sidewalk":"likely","lanes":1,"name":"","oneway":false},"geometry":{"type":"LineString","coordinates":[[126.89172,37.59902],[126.89141,37.59923]]}},{"type":"Feature","properties":{"class":"major","highway":"tertiary","sidewalk":"likely","lanes":1,"name":"꽃마을로","oneway":false},"geometry":{"type":"LineString","coordinates":[[126.89141,37.59923],[126.89138,37.59927],[126.8913,37.59933],[126.89123,37.5994],[126.89112,37.59949],[126.89097,37.5997],[126.89083,37.59997],[126.8908,37.60007],[126.89078,37.60013],[126.89077,37.6003],[126.89078,37.60036],[126.89083,37.60059],[126.89091,37.60087],[126.89093,37.60093],[126.89097,37.60099],[126.89112,37.60117],[126.89137,37.60134],[126.89157,37.60146],[126.89162,37.60149],[126.89192,37.60163],[126.89228,37.60168],[126.89235,37.60169],[126.89243,37.6017],[126.89251,37.60171]]}},{"type":"Feature","properties":{"class":"minor","highway":"residential","sidewalk":"unknown","lanes":0,"name":"","oneway":false},"geometry":{"type":"LineString","coordinates":[[126.89181,37.59896],[126.89187,37.59901],[126.89261,37.59957],[126.8928,37.59975],[126.89298,37.60009],[126.89301,37.60014],[126.89302,37.60018],[126.89307,37.60033],[126.89308,37.60052],[126.89306,37.60084],[126.89299,37.60162],[126.89299,37.60169]]}},{"type":"Feature","properties":{"class":"major","highway":"secondary","sidewalk":"likely","lanes":3,"name":"향기로","oneway":false},"geometry":{"type":"LineString","coordinates":[[126.88607,37.59502],[126.88624,37.59495],[126.88675,37.59468]]}},{"type":"Feature","properties":{"class":"minor","highway":"residential","sidewalk":"unknown","lanes":0,"name":"향기3로","oneway":false},"geometry":{"type":"LineString","coordinates":[[126.89268,37.59723],[126.89278,37.59721],[126.89325,37.59713],[126.8935,37.59707],[126.89358,37.59704],[126.89365,37.59702],[126.89401,37.59691],[126.89458,37.59675],[126.89512,37.59661],[126.89536,37.59648],[126.89555,37.59629],[126.89562,37.59618],[126.89572,37.59608],[126.89581,37.596],[126.89592,37.59595]]}},{"type":"Feature","properties":{"class":"major","highway":"secondary","sidewalk":"likely","lanes":1,"name":"향기로","oneway":false},"geometry":{"type":"LineString","coordinates":[[126.89199,37.59523],[126.89205,37.59532],[126.89216,37.59548],[126.89236,37.59576],[126.89243,37.5959],[126.8925,37.59606],[126.89257,37.5963],[126.89263,37.5965],[126.89266,37.5968],[126.89267,37.59703],[126.89267,37.59713],[126.89268,37.59723],[126.89267,37.59733],[126.89266,37.59797],[126.89266,37.59803],[126.89267,37.59814],[126.89268,37.59827],[126.89269,37.59834],[126.8927,37.5984],[126.89274,37.59849],[126.89284,37.59868],[126.89308,37.59901],[126.89339,37.59938],[126.89369,37.59967],[126.89374,37.59973],[126.89379,37.59978],[126.894,37.59999],[126.89439,37.60035],[126.89475,37.60069],[126.8948,37.60075],[126.89486,37.6008],[126.89574,37.60171],[126.89598,37.60202],[126.8961,37.60225],[126.89624,37.60251],[126.89628,37.60272],[126.89633,37.60296],[126.89636,37.60325],[126.89637,37.60331],[126.89637,37.60337],[126.89647,37.60421],[126.89651,37.60463],[126.89648,37.60504],[126.89645,37.6052],[126.89644,37.60528],[126.89641,37.60539],[126.89634,37.60561],[126.89621,37.60591],[126.89617,37.60601],[126.89602,37.60623],[126.89585,37.60639],[126.89559,37.60657],[126.89548,37.60666],[126.89531,37.6068],[126.89479,37.60706],[126.89456,37.60716],[126.89446,37.60721]]}},{"type":"Feature","properties":{"class":"major","highway":"primary","sidewalk":"likely","lanes":3,"name":"향동생태통로","oneway":false},"geometry":{"type":"LineString","coordinates":[[126.88794,37.59802],[126.88812,37.59834]]}},{"type":"Feature","properties":{"class":"major","highway":"secondary","sidewalk":"likely","lanes":3,"name":"","oneway":false},"geometry":{"type":"LineString","coordinates":[[126.88675,37.59468],[126.88727,37.59444]]}},{"type":"Feature","properties":{"class":"major","highway":"secondary","sidewalk":"likely","lanes":3,"name":"향기로","oneway":false},"geometry":{"type":"LineString","coordinates":[[126.88727,37.59444],[126.88736,37.59441],[126.8875,37.59435],[126.88768,37.59429],[126.88779,37.59426]]}},{"type":"Feature","properties":{"class":"minor","highway":"residential","sidewalk":"unknown","lanes":0,"name":"","oneway":false},"geometry":{"type":"LineString","coordinates":[[126.89301,37.60014],[126.89305,37.60012],[126.89324,37.60001],[126.89367,37.59977],[126.89374,37.59973]]}},{"type":"Feature","properties":{"class":"minor","highway":"residential","sidewalk":"unknown","lanes":0,"name":"","oneway":false},"geometry":{"type":"LineString","coordinates":[[126.89235,37.60169],[126.89235,37.60162],[126.8924,37.60112],[126.89211,37.60098],[126.89192,37.60083],[126.89181,37.60074],[126.89177,37.60068],[126.89174,37.60063],[126.89172,37.60058],[126.8917,37.60052],[126.89165,37.60033],[126.89166,37.60006],[126.89173,37.59989],[126.89184,37.59974],[126.89137,37.59938],[126.8913,37.59933]]}},{"type":"Feature","properties":{"class":"minor","highway":"residential","sidewalk":"unknown","lanes":0,"name":"향기4로","oneway":false},"geometry":{"type":"LineString","coordinates":[[126.8948,37.60075],[126.89488,37.60069],[126.89522,37.60041],[126.8954,37.60024],[126.89557,37.6001],[126.89563,37.60005],[126.89623,37.59954],[126.89637,37.59951],[126.89713,37.59953],[126.89782,37.59955],[126.89858,37.59951],[126.89893,37.59951]]}},{"type":"Feature","properties":{"class":"minor","highway":"residential","sidewalk":"unknown","lanes":0,"name":"꽃내음1길","oneway":false},"geometry":{"type":"LineString","coordinates":[[126.88938,37.59799],[126.88914,37.5982],[126.88901,37.59839],[126.88892,37.59859],[126.88889,37.59877],[126.88889,37.59892],[126.88893,37.59908],[126.88916,37.59954],[126.88955,37.60031]]}},{"type":"Feature","properties":{"class":"minor","highway":"residential","sidewalk":"unknown","lanes":0,"name":"꽃내음1길","oneway":true},"geometry":{"type":"LineString","coordinates":[[126.88973,37.59827],[126.88955,37.59844],[126.88941,37.59861],[126.88938,37.5987],[126.88936,37.5988],[126.88937,37.5989],[126.88939,37.599],[126.8895,37.59924],[126.88959,37.5994],[126.88998,37.60016]]}},{"type":"Feature","properties":{"class":"minor","highway":"residential","sidewalk":"unknown","lanes":0,"name":"꽃내음1길","oneway":true},"geometry":{"type":"LineString","coordinates":[[126.89044,37.59976],[126.89025,37.59969],[126.89003,37.59924],[126.88999,37.59916],[126.88986,37.59884],[126.88991,37.59869],[126.89006,37.59855]]}},{"type":"Feature","properties":{"class":"minor","highway":"residential","sidewalk":"unknown","lanes":0,"name":"꽃내음1길","oneway":false},"geometry":{"type":"LineString","coordinates":[[126.89052,37.59893],[126.89023,37.59918],[126.89003,37.59924],[126.88959,37.5994],[126.88916,37.59954]]}},{"type":"Feature","properties":{"class":"minor","highway":"residential","sidewalk":"unknown","lanes":0,"name":"꽃내음1길","oneway":false},"geometry":{"type":"LineString","coordinates":[[126.88955,37.60031],[126.88991,37.60019],[126.88998,37.60016],[126.89025,37.60004],[126.89031,37.59996],[126.89038,37.59988],[126.89044,37.59976],[126.89051,37.5996],[126.89071,37.59929],[126.8909,37.59907]]}},{"type":"Feature","properties":{"class":"minor","highway":"residential","sidewalk":"unknown","lanes":0,"name":"꽃내음1길","oneway":false},"geometry":{"type":"LineString","coordinates":[[126.8913,37.59933],[126.89124,37.59928],[126.89102,37.59912],[126.8909,37.59907],[126.89082,37.59904],[126.89052,37.59893],[126.89006,37.59855],[126.88973,37.59827],[126.88938,37.59799]]}},{"type":"Feature","properties":{"class":"minor","highway":"residential","sidewalk":"unknown","lanes":0,"name":"향기3로","oneway":false},"geometry":{"type":"LineString","coordinates":[[126.89489,37.59581],[126.89494,37.59604],[126.89499,37.59625],[126.89505,37.59645],[126.8951,37.59656],[126.89512,37.59661]]}},{"type":"Feature","properties":{"class":"minor","highway":"residential","sidewalk":"unknown","lanes":0,"name":"향기3로","oneway":false},"geometry":{"type":"LineString","coordinates":[[126.89458,37.59675],[126.89456,37.5967],[126.89453,37.59656],[126.89445,37.59633],[126.89441,37.59611],[126.89437,37.5959],[126.8944,37.59586],[126.89444,37.59583],[126.89489,37.59581],[126.89544,37.59574],[126.89555,37.59629]]}},{"type":"Feature","properties":{"class":"alley","highway":"service","sidewalk":"unknown","lanes":0,"name":"","oneway":false},"geometry":{"type":"LineString","coordinates":[[126.89374,37.59973],[126.89382,37.59969],[126.8939,37.59965],[126.89409,37.59955]]}},{"type":"Feature","properties":{"class":"alley","highway":"service","sidewalk":"unknown","lanes":0,"name":"","oneway":false},"geometry":{"type":"LineString","coordinates":[[126.89409,37.59955],[126.89376,37.59924]]}},{"type":"Feature","properties":{"class":"alley","highway":"service","sidewalk":"unknown","lanes":0,"name":"","oneway":false},"geometry":{"type":"LineString","coordinates":[[126.89409,37.59955],[126.89416,37.59954],[126.89433,37.59956]]}},{"type":"Feature","properties":{"class":"alley","highway":"service","sidewalk":"unknown","lanes":0,"name":"","oneway":false},"geometry":{"type":"LineString","coordinates":[[126.89557,37.6001],[126.89554,37.60007],[126.89552,37.60005],[126.89543,37.59998],[126.8953,37.59992]]}},{"type":"Feature","properties":{"class":"alley","highway":"service","sidewalk":"unknown","lanes":0,"name":"","oneway":false},"geometry":{"type":"LineString","coordinates":[[126.8953,37.59992],[126.89503,37.59986]]}},{"type":"Feature","properties":{"class":"alley","highway":"service","sidewalk":"unknown","lanes":0,"name":"","oneway":false},"geometry":{"type":"LineString","coordinates":[[126.89543,37.59998],[126.89575,37.59969]]}},{"type":"Feature","properties":{"class":"alley","highway":"service","sidewalk":"unknown","lanes":0,"name":"","oneway":false},"geometry":{"type":"LineString","coordinates":[[126.89268,37.59723],[126.89259,37.59723],[126.89256,37.59723],[126.89241,37.59724]]}},{"type":"Feature","properties":{"class":"alley","highway":"service","sidewalk":"unknown","lanes":0,"name":"","oneway":false},"geometry":{"type":"LineString","coordinates":[[126.89241,37.59724],[126.89219,37.59725]]}},{"type":"Feature","properties":{"class":"alley","highway":"service","sidewalk":"unknown","lanes":0,"name":"","oneway":false},"geometry":{"type":"LineString","coordinates":[[126.89038,37.59634],[126.8903,37.59626],[126.89029,37.59624],[126.89025,37.59619],[126.8902,37.59613],[126.89018,37.5961],[126.89012,37.59604]]}},{"type":"Feature","properties":{"class":"alley","highway":"service","sidewalk":"unknown","lanes":0,"name":"","oneway":false},"geometry":{"type":"LineString","coordinates":[[126.89038,37.59634],[126.89048,37.59646]]}},{"type":"Feature","properties":{"class":"alley","highway":"service","sidewalk":"unknown","lanes":0,"name":"","oneway":false},"geometry":{"type":"LineString","coordinates":[[126.89012,37.59604],[126.88999,37.5959]]}},{"type":"Feature","properties":{"class":"alley","highway":"service","sidewalk":"unknown","lanes":0,"name":"","oneway":false},"geometry":{"type":"LineString","coordinates":[[126.88905,37.59409],[126.88904,37.59416],[126.88904,37.59422],[126.88903,37.59431]]}},{"type":"Feature","properties":{"class":"alley","highway":"service","sidewalk":"unknown","lanes":0,"name":"","oneway":false},"geometry":{"type":"LineString","coordinates":[[126.88903,37.59431],[126.88904,37.59438],[126.88908,37.59444]]}},{"type":"Feature","properties":{"class":"alley","highway":"service","sidewalk":"unknown","lanes":0,"name":"","oneway":false},"geometry":{"type":"LineString","coordinates":[[126.88905,37.59409],[126.88906,37.59402],[126.88907,37.59396],[126.88908,37.59361]]}},{"type":"Feature","properties":{"class":"alley","highway":"service","sidewalk":"unknown","lanes":0,"name":"","oneway":false},"geometry":{"type":"LineString","coordinates":[[126.88919,37.59349],[126.8892,37.59352],[126.88919,37.59355],[126.88917,37.59357],[126.88915,37.59359],[126.88911,37.5936],[126.88908,37.59361],[126.88904,37.5936],[126.88901,37.59358],[126.88898,37.59356],[126.88897,37.59353],[126.88897,37.59349],[126.88899,37.59347],[126.88901,37.59344],[126.88905,37.59343],[126.88909,37.59342],[126.88912,37.59343],[126.88916,37.59344],[126.88918,37.59346],[126.88919,37.59349]]}},{"type":"Feature","properties":{"class":"alley","highway":"service","sidewalk":"unknown","lanes":0,"name":"","oneway":false},"geometry":{"type":"LineString","coordinates":[[126.88897,37.59349],[126.88881,37.59348]]}},{"type":"Feature","properties":{"class":"alley","highway":"service","sidewalk":"unknown","lanes":0,"name":"","oneway":false},"geometry":{"type":"LineString","coordinates":[[126.88909,37.59342],[126.8891,37.5933]]}},{"type":"Feature","properties":{"class":"alley","highway":"service","sidewalk":"unknown","lanes":0,"name":"","oneway":false},"geometry":{"type":"LineString","coordinates":[[126.89052,37.59304],[126.89047,37.59305],[126.89044,37.59305],[126.89022,37.59308],[126.89011,37.59308],[126.89004,37.59306]]}},{"type":"Feature","properties":{"class":"alley","highway":"service","sidewalk":"unknown","lanes":0,"name":"","oneway":false},"geometry":{"type":"LineString","coordinates":[[126.89004,37.59306],[126.88997,37.59303],[126.88992,37.59299]]}},{"type":"Feature","properties":{"class":"alley","highway":"service","sidewalk":"unknown","lanes":0,"name":"","oneway":false},"geometry":{"type":"LineString","coordinates":[[126.89022,37.59308],[126.8901,37.59297]]}},{"type":"Feature","properties":{"class":"alley","highway":"service","sidewalk":"unknown","lanes":0,"name":"","oneway":false},"geometry":{"type":"LineString","coordinates":[[126.89052,37.59304],[126.89057,37.59301],[126.89059,37.593],[126.89077,37.59293]]}},{"type":"Feature","properties":{"class":"alley","highway":"service","sidewalk":"unknown","lanes":0,"name":"","oneway":false},"geometry":{"type":"LineString","coordinates":[[126.89077,37.59293],[126.89088,37.59289]]}},{"type":"Feature","properties":{"class":"alley","highway":"service","sidewalk":"unknown","lanes":0,"name":"","oneway":false},"geometry":{"type":"LineString","coordinates":[[126.8924,37.59319],[126.89235,37.59315],[126.89234,37.59314],[126.89224,37.59304]]}},{"type":"Feature","properties":{"class":"alley","highway":"service","sidewalk":"unknown","lanes":0,"name":"","oneway":false},"geometry":{"type":"LineString","coordinates":[[126.89224,37.59304],[126.89218,37.59296]]}},{"type":"Feature","properties":{"class":"minor","highway":"residential","sidewalk":"unknown","lanes":0,"name":"","oneway":false},"geometry":{"type":"LineString","coordinates":[[126.8925,37.59606],[126.89258,37.59604],[126.89326,37.59593]]}},{"type":"Feature","properties":{"class":"major","highway":"secondary","sidewalk":"likely","lanes":2,"name":"향기로","oneway":false},"geometry":{"type":"LineString","coordinates":[[126.88779,37.59426],[126.88792,37.59423],[126.88837,37.59413],[126.88867,37.5941],[126.88893,37.59409],[126.88905,37.59409],[126.88917,37.59409],[126.88943,37.5941],[126.88972,37.59411],[126.88998,37.59416],[126.89037,37.59426],[126.8905,37.5943],[126.89059,37.59433],[126.8907,37.59437],[126.89098,37.59447],[126.89134,37.59464],[126.89162,37.59483],[126.89183,37.59504],[126.89193,37.59515],[126.89199,37.59523]]}},{"type":"Feature","properties":{"class":"major","highway":"primary","sidewalk":"likely","lanes":3,"name":"향동로","oneway":false},"geometry":{"type":"LineString","coordinates":[[126.88812,37.59834],[126.88833,37.59868],[126.88887,37.59966],[126.88931,37.60047],[126.8898,37.60134]]}},{"type":"Feature","properties":{"class":"minor","highway":"residential","sidewalk":"unknown","lanes":0,"name":"","oneway":false},"geometry":{"type":"LineString","coordinates":[[126.89544,37.59574],[126.89549,37.59542],[126.89547,37.59527]]}},{"type":"Feature","properties":{"class":"minor","highway":"residential","sidewalk":"unknown","lanes":0,"name":"","oneway":false},"geometry":{"type":"LineString","coordinates":[[126.89713,37.59987],[126.89713,37.59953]]}},{"type":"Feature","properties":{"class":"alley","highway":"service","sidewalk":"unknown","lanes":0,"name":"","oneway":false},"geometry":{"type":"LineString","coordinates":[[126.88771,37.59763],[126.88756,37.59768],[126.88722,37.59776],[126.88706,37.59784],[126.88685,37.59797]]}}]}