{"type":"FeatureCollection","features":[{"type":"Feature","properties":{"class":"major","highway":"motorway","sidewalk":"likely","lanes":4,"name":"서울양양고속도로","oneway":true},"geometry":{"type":"LineString","coordinates":[[127.19031,37.58159],[127.18954,37.58132],[127.18888,37.58111],[127.18817,37.58089],[127.18724,37.58068],[127.18474,37.58012]]}},{"type":"Feature","properties":{"class":"major","highway":"motorway_link","sidewalk":"likely","lanes":3,"name":"미사대로","oneway":true},"geometry":{"type":"LineString","coordinates":[[127.18886,37.58122],[127.18841,37.58118],[127.18811,37.58112],[127.18805,37.5811],[127.18756,37.58094],[127.1869,37.58072],[127.18626,37.58053],[127.18604,37.58047],[127.18474,37.58012]]}},{"type":"Feature","properties":{"class":"major","highway":"motorway","sidewalk":"likely","lanes":4,"name":"미사대로;서울양양고속도로","oneway":true},"geometry":{"type":"LineString","coordinates":[[127.18474,37.58012],[127.18336,37.57979],[127.18055,37.57913],[127.17959,37.57891]]}},{"type":"Feature","properties":{"class":"major","highway":"motorway","sidewalk":"likely","lanes":4,"name":"서울양양고속도로","oneway":true},"geometry":{"type":"LineString","coordinates":[[127.18482,37.57997],[127.18596,37.58025],[127.18732,37.58057],[127.18834,37.58081],[127.18909,37.58104],[127.18963,37.5812],[127.19039,37.58146]]}},{"type":"Feature","properties":{"class":"major","highway":"motorway_link","sidewalk":"likely","lanes":3,"name":"미사대로","oneway":true},"geometry":{"type":"LineString","coordinates":[[127.18482,37.57997],[127.18766,37.58052],[127.18856,37.58067],[127.18947,37.58078],[127.18986,37.58081],[127.19019,37.58083],[127.19056,37.5808],[127.19076,37.58077],[127.19091,37.58075],[127.1911,37.5807],[127.19129,37.58065],[127.19142,37.58061],[127.19172,37.5805],[127.19181,37.58047],[127.19219,37.58029],[127.19244,37.58009]]}},{"type":"Feature","properties":{"class":"minor","highway":"unclassified","sidewalk":"unknown","lanes":0,"name":"","oneway":true},"geometry":{"type":"LineString","coordinates":[[127.1804,37.57864],[127.18247,37.57921],[127.1826,37.57924],[127.18431,37.57966],[127.18548,37.57993],[127.1864,37.58013],[127.18672,37.58019],[127.18804,37.58044],[127.18821,37.58046],[127.18915,37.5806],[127.18986,37.58071],[127.18995,37.58073],[127.19002,37.58076],[127.19019,37.58083]]}}]}