{"type":"FeatureCollection","features":[{"type":"Feature","properties":{"class":"major","highway":"secondary","sidewalk":"likely","lanes":2,"name":"사가정로","oneway":true},"geometry":{"type":"LineString","coordinates":[[127.12337,37.5768],[127.12235,37.57717],[127.12132,37.57744],[127.11952,37.57778],[127.11329,37.57869],[127.10443,37.58001],[127.10113,37.58029],[127.09794,37.5805],[127.0949,37.58051],[127.09339,37.58055]]}},{"type":"Feature","properties":{"class":"major","highway":"motorway","sidewalk":"likely","lanes":3,"name":"세종포천고속도로","oneway":true},"geometry":{"type":"LineString","coordinates":[[127.12966,37.57873],[127.12845,37.57886],[127.12731,37.57897],[127.12625,37.5792],[127.12508,37.5795],[127.12394,37.57991],[127.12176,37.58084],[127.11978,37.58216],[127.11801,37.58387],[127.11698,37.58517],[127.11616,37.58664],[127.11538,37.58884],[127.11512,37.59037],[127.1151,37.59262],[127.11514,37.59701],[127.11508,37.60041],[127.11502,37.6027],[127.11506,37.6037],[127.11507,37.60475]]}},{"type":"Feature","properties":{"class":"major","highway":"motorway","sidewalk":"likely","lanes":3,"name":"세종포천고속도로","oneway":true},"geometry":{"type":"LineString","coordinates":[[127.11468,37.60353],[127.11466,37.60194],[127.11473,37.5903],[127.1149,37.58912],[127.11556,37.58678],[127.11655,37.58511],[127.11798,37.58334],[127.11934,37.58207],[127.11997,37.58157],[127.12135,37.5807],[127.12329,37.57974],[127.12519,37.57907],[127.12759,37.57859],[127.12969,37.57844]]}},{"type":"Feature","properties":{"class":"major","highway":"secondary","sidewalk":"likely","lanes":2,"name":"사가정로","oneway":true},"geometry":{"type":"LineString","coordinates":[[127.09294,37.5805],[127.09344,37.5805],[127.09447,37.58047],[127.09587,37.58044],[127.09805,37.58043],[127.09892,37.58037],[127.10154,37.5802],[127.10235,37.58013],[127.10291,37.58008],[127.10446,37.57994],[127.10524,37.57982],[127.10725,37.57951],[127.10973,37.57915],[127.11211,37.57878],[127.11301,37.57865],[127.11446,37.57844],[127.11625,37.57817],[127.11743,37.57799],[127.11886,37.57777],[127.11954,37.57767],[127.12032,37.57752],[127.12122,37.57732],[127.12212,37.57704],[127.1233,37.57659]]}},{"type":"Feature","properties":{"class":"major","highway":"primary","sidewalk":"likely","lanes":0,"name":"용마산로","oneway":false},"geometry":{"type":"LineString","coordinates":[[127.10042,37.59991],[127.10043,37.60006],[127.10047,37.60054],[127.10051,37.60081]]}},{"type":"Feature","properties":{"class":"major","highway":"tertiary","sidewalk":"likely","lanes":0,"name":"용마공원로","oneway":false},"geometry":{"type":"LineString","coordinates":[[127.10346,37.59088],[127.10345,37.59089],[127.10329,37.59094],[127.10309,37.59096],[127.10293,37.5911],[127.10285,37.59116],[127.10231,37.5913],[127.10229,37.59137],[127.10206,37.59193],[127.10185,37.59247],[127.1015,37.5935],[127.10137,37.59382],[127.10108,37.59447],[127.101,37.59454],[127.10087,37.59468],[127.10064,37.59492],[127.10032,37.59523],[127.10024,37.59532],[127.10007,37.59548]]}},{"type":"Feature","properties":{"class":"major","highway":"primary","sidewalk":"likely","lanes":3,"name":"망우로","oneway":true},"geometry":{"type":"LineString","coordinates":[[127.10042,37.59991],[127.10017,37.59985],[127.09983,37.59979],[127.09951,37.59972]]}},{"type":"Feature","properties":{"class":"major","highway":"primary","sidewalk":"likely","lanes":0,"name":"용마산로","oneway":false},"geometry":{"type":"LineString","coordinates":[[127.10007,37.59548],[127.10019,37.59572],[127.10022,37.59583],[127.10023,37.59589]]}},{"type":"Feature","properties":{"class":"minor","highway":"residential","sidewalk":"unknown","lanes":0,"name":"용마산로116길","oneway":false},"geometry":{"type":"LineString","coordinates":[[127.10038,37.59917],[127.10057,37.59921],[127.10096,37.5993],[127.10098,37.5993],[127.10116,37.59934],[127.10133,37.59937],[127.10145,37.59938],[127.10161,37.59941],[127.10179,37.59944],[127.10223,37.59949],[127.10255,37.59952],[127.10357,37.59965],[127.10387,37.59969],[127.1039,37.59969],[127.10392,37.5997],[127.10429,37.59974],[127.10468,37.59979],[127.10524,37.59984]]}},{"type":"Feature","properties":{"class":"minor","highway":"residential","sidewalk":"unknown","lanes":0,"name":"망우로76길","oneway":false},"geometry":{"type":"LineString","coordinates":[[127.106,37.59829],[127.10579,37.59859],[127.10565,37.59884],[127.10557,37.59899],[127.10557,37.59901],[127.10554,37.59923],[127.10553,37.59927],[127.10549,37.59943],[127.10545,37.59952],[127.10544,37.59953],[127.10534,37.59967],[127.10529,37.59976],[127.10524,37.59984],[127.10509,37.60007],[127.10498,37.60023],[127.10486,37.60044],[127.10485,37.60052]]}},{"type":"Feature","properties":{"class":"minor","highway":"residential","sidewalk":"unknown","lanes":0,"name":"용마산로115길","oneway":false},"geometry":{"type":"LineString","coordinates":[[127.09506,37.59806],[127.09516,37.59806],[127.09517,37.59806],[127.09519,37.59806],[127.09599,37.59823],[127.09685,37.59841],[127.09755,37.59856],[127.09822,37.59871],[127.09849,37.59876],[127.09889,37.59885],[127.09918,37.59891],[127.09964,37.59902],[127.09996,37.59909],[127.10025,37.59914],[127.10038,37.59917]]}},{"type":"Feature","properties":{"class":"minor","highway":"residential","sidewalk":"unknown","lanes":0,"name":"경춘로20번길","oneway":false},"geometry":{"type":"LineString","coordinates":[[127.11648,37.59967],[127.11654,37.59986],[127.11655,37.5999],[127.11656,37.59992],[127.11664,37.60007],[127.11667,37.60018],[127.11694,37.60035],[127.11697,37.60037],[127.11719,37.60059],[127.11728,37.60071],[127.11737,37.60082]]}},{"type":"Feature","properties":{"class":"alley","highway":"service","sidewalk":"unknown","lanes":0,"name":"","oneway":false},"geometry":{"type":"LineString","coordinates":[[127.11199,37.59936],[127.11209,37.59981],[127.11215,37.60007]]}},{"type":"Feature","properties":{"class":"minor","highway":"residential","sidewalk":"unknown","lanes":0,"name":"","oneway":false},"geometry":{"type":"LineString","coordinates":[[127.1025,37.59526],[127.10248,37.59539],[127.10241,37.59548],[127.10241,37.59549],[127.10238,37.59554]]}},{"type":"Feature","properties":{"class":"alley","highway":"service","sidewalk":"unknown","lanes":0,"name":"망우로70길","oneway":false},"geometry":{"type":"LineString","coordinates":[[127.10308,37.59688],[127.10352,37.59699],[127.10352,37.597],[127.10352,37.59701],[127.10339,37.59722],[127.10338,37.59722],[127.10337,37.59722],[127.10299,37.59706]]}},{"type":"Feature","properties":{"class":"alley","highway":"service","sidewalk":"unknown","lanes":0,"name":"","oneway":false},"geometry":{"type":"LineString","coordinates":[[127.10341,37.59622],[127.10444,37.59659]]}},{"type":"Feature","properties":{"class":"minor","highway":"residential","sidewalk":"unknown","lanes":0,"name":"망우로70길","oneway":false},"geometry":{"type":"LineString","coordinates":[[127.10528,37.59378],[127.10528,37.59406],[127.10528,37.59411],[127.10528,37.59415],[127.10524,37.59439],[127.10524,37.59442],[127.10526,37.5945],[127.10527,37.59452],[127.10531,37.59457],[127.10533,37.59459],[127.10536,37.5946],[127.10552,37.59463],[127.10546,37.59482],[127.10534,37.59493],[127.10481,37.59524],[127.10461,37.59536],[127.10415,37.59564],[127.10378,37.59564],[127.10346,37.59595],[127.10341,37.59622],[127.10325,37.59644],[127.10308,37.59688],[127.10299,37.59706],[127.10297,37.5971],[127.10275,37.59739],[127.10245,37.59808],[127.10218,37.5986],[127.10201,37.599],[127.10179,37.59944]]}},{"type":"Feature","properties":{"class":"minor","highway":"residential","sidewalk":"unknown","lanes":0,"name":"","oneway":false},"geometry":{"type":"LineString","coordinates":[[127.1034,37.59328],[127.10367,37.5935],[127.10368,37.59351],[127.10374,37.59356],[127.10393,37.59382],[127.10392,37.59386],[127.10379,37.59478]]}},{"type":"Feature","properties":{"class":"minor","highway":"residential","sidewalk":"unknown","lanes":0,"name":"망우로74길","oneway":false},"geometry":{"type":"LineString","coordinates":[[127.10376,37.60035],[127.10378,37.60027],[127.10381,37.60015],[127.10389,37.59976],[127.1039,37.59969],[127.10391,37.59961],[127.10396,37.59929],[127.10396,37.59924],[127.10397,37.59922],[127.10404,37.59888],[127.10405,37.59882],[127.10413,37.59839],[127.10419,37.59801]]}},{"type":"Feature","properties":{"class":"minor","highway":"residential","sidewalk":"unknown","lanes":0,"name":"망우로68길","oneway":false},"geometry":{"type":"LineString","coordinates":[[127.10117,37.59998],[127.10118,37.5999],[127.10116,37.59934],[127.10114,37.5989],[127.10111,37.59867],[127.1011,37.59849],[127.10109,37.59828],[127.10108,37.59793],[127.10105,37.59751],[127.10104,37.59738],[127.10101,37.59657],[127.10097,37.59639],[127.10097,37.59626],[127.10096,37.59611],[127.10095,37.59565],[127.10094,37.59556],[127.10092,37.59546],[127.10084,37.5953],[127.10077,37.59517],[127.10068,37.59499],[127.10064,37.59492]]}},{"type":"Feature","properties":{"class":"minor","highway":"residential","sidewalk":"unknown","lanes":0,"name":"용마공원로3길","oneway":false},"geometry":{"type":"LineString","coordinates":[[127.10108,37.59447],[127.10138,37.59498],[127.1015,37.59518],[127.10164,37.59543],[127.10171,37.59554],[127.10163,37.59584],[127.10161,37.59586],[127.1016,37.59587],[127.10133,37.59598],[127.10123,37.59614],[127.10113,37.59628],[127.10106,37.59639],[127.10097,37.59639]]}},{"type":"Feature","properties":{"class":"minor","highway":"residential","sidewalk":"unknown","lanes":0,"name":"용마산로114길","oneway":false},"geometry":{"type":"LineString","coordinates":[[127.10114,37.5989],[127.10152,37.59893],[127.10176,37.59896],[127.10201,37.599],[127.10233,37.59905],[127.10262,37.59908],[127.10295,37.59912],[127.10341,37.59917],[127.10364,37.5992],[127.10395,37.59924],[127.10396,37.59924],[127.10399,37.59925],[127.10437,37.59929],[127.10444,37.5993],[127.10474,37.59934],[127.10503,37.59938],[127.10525,37.59941],[127.10549,37.59943]]}},{"type":"Feature","properties":{"class":"minor","highway":"residential","sidewalk":"unknown","lanes":0,"name":"용마산로112길","oneway":false},"geometry":{"type":"LineString","coordinates":[[127.1011,37.59849],[127.10124,37.59847],[127.10158,37.59851],[127.10187,37.59854],[127.10218,37.5986],[127.1024,37.59863],[127.10243,37.59863],[127.1027,37.59866],[127.10303,37.59869],[127.10328,37.59872],[127.1035,37.59874],[127.10372,37.59877],[127.10403,37.59882],[127.10405,37.59882],[127.10408,37.59882],[127.10452,37.59887],[127.1046,37.59888],[127.10483,37.59891],[127.10513,37.59894],[127.10557,37.59899]]}},{"type":"Feature","properties":{"class":"minor","highway":"residential","sidewalk":"unknown","lanes":0,"name":"용마산로112가길","oneway":false},"geometry":{"type":"LineString","coordinates":[[127.10275,37.59739],[127.10266,37.59737],[127.10259,37.59742],[127.10235,37.59759],[127.10189,37.59795],[127.10174,37.59805],[127.10162,37.59815],[127.10151,37.59824],[127.10124,37.59847]]}},{"type":"Feature","properties":{"class":"minor","highway":"residential","sidewalk":"unknown","lanes":0,"name":"용마산로112나길","oneway":false},"geometry":{"type":"LineString","coordinates":[[127.10141,37.59658],[127.10133,37.59653],[127.10129,37.59651],[127.10135,37.59641],[127.10137,37.59638],[127.10138,37.59636],[127.10166,37.59622],[127.10168,37.59622],[127.10184,37.596],[127.10197,37.59589],[127.10199,37.59588],[127.10205,37.59583],[127.10213,37.59577],[127.10214,37.59576],[127.10215,37.59565],[127.10216,37.59565],[127.10238,37.59554]]}},{"type":"Feature","properties":{"class":"minor","highway":"residential","sidewalk":"unknown","lanes":0,"name":"망우로72길","oneway":false},"geometry":{"type":"LineString","coordinates":[[127.10255,37.59952],[127.10258,37.59936],[127.10262,37.59908],[127.1027,37.59866],[127.10271,37.59852],[127.10276,37.59829],[127.10279,37.59812],[127.10285,37.59785],[127.10285,37.59784],[127.10292,37.59755],[127.10292,37.59752],[127.10295,37.59733],[127.10297,37.59717],[127.10297,37.5971]]}},{"type":"Feature","properties":{"class":"minor","highway":"residential","sidewalk":"unknown","lanes":0,"name":"망우로74가길","oneway":false},"geometry":{"type":"LineString","coordinates":[[127.10413,37.59839],[127.10444,37.59843],[127.10461,37.59845],[127.10469,37.59846],[127.10493,37.59849],[127.10513,37.59851],[127.10521,37.59852],[127.10553,37.59856],[127.10579,37.59859]]}},{"type":"Feature","properties":{"class":"minor","highway":"residential","sidewalk":"unknown","lanes":0,"name":"망우로74가길","oneway":false},"geometry":{"type":"LineString","coordinates":[[127.1047,37.59799],[127.10461,37.59845]]}},{"type":"Feature","properties":{"class":"minor","highway":"residential","sidewalk":"unknown","lanes":0,"name":"망우로74가길","oneway":false},"geometry":{"type":"LineString","coordinates":[[127.10444,37.59843],[127.10452,37.59796],[127.10453,37.59793]]}},{"type":"Feature","properties":{"class":"minor","highway":"residential","sidewalk":"unknown","lanes":0,"name":"망우로78길","oneway":false},"geometry":{"type":"LineString","coordinates":[[127.106,37.60059],[127.10599,37.6005],[127.10592,37.59994],[127.1059,37.59987],[127.10586,37.59966],[127.10583,37.5995]]}},{"type":"Feature","properties":{"class":"minor","highway":"residential","sidewalk":"unknown","lanes":0,"name":"망우로76길","oneway":false},"geometry":{"type":"LineString","coordinates":[[127.106,37.59829],[127.10595,37.59823],[127.10582,37.59811],[127.10578,37.59805],[127.10569,37.59792],[127.10558,37.59785]]}},{"type":"Feature","properties":{"class":"alley","highway":"service","sidewalk":"unknown","lanes":0,"name":"","oneway":false},"geometry":{"type":"LineString","coordinates":[[127.10276,37.59476],[127.10278,37.59471],[127.10292,37.5947],[127.10293,37.5947],[127.10294,37.59469],[127.1031,37.59442]]}},{"type":"Feature","properties":{"class":"minor","highway":"residential","sidewalk":"unknown","lanes":0,"name":"용마공원로2길","oneway":true},"geometry":{"type":"LineString","coordinates":[[127.10064,37.59492],[127.10062,37.59489],[127.10038,37.59445],[127.10001,37.5938],[127.09988,37.59355],[127.09959,37.59303],[127.09938,37.59263]]}},{"type":"Feature","properties":{"class":"minor","highway":"residential","sidewalk":"unknown","lanes":0,"name":"용마공원로5길","oneway":false},"geometry":{"type":"LineString","coordinates":[[127.10236,37.59467],[127.10268,37.59377]]}},{"type":"Feature","properties":{"class":"alley","highway":"service","sidewalk":"unknown","lanes":0,"name":"","oneway":false},"geometry":{"type":"LineString","coordinates":[[127.1034,37.59328],[127.10325,37.59325],[127.10325,37.59325],[127.10324,37.59324],[127.10324,37.59324],[127.10324,37.59324],[127.10343,37.59259],[127.10343,37.59259],[127.10344,37.59258]]}},{"type":"Feature","properties":{"class":"minor","highway":"residential","sidewalk":"unknown","lanes":0,"name":"용마공원로4길","oneway":false},"geometry":{"type":"LineString","coordinates":[[127.10108,37.59447],[127.10059,37.59359],[127.1005,37.59342],[127.10046,37.59335],[127.09994,37.59243]]}},{"type":"Feature","properties":{"class":"alley","highway":"service","sidewalk":"unknown","lanes":0,"name":"","oneway":false},"geometry":{"type":"LineString","coordinates":[[127.10344,37.59258],[127.10345,37.59258],[127.10345,37.59258],[127.10354,37.5926],[127.10354,37.59261],[127.10355,37.59261],[127.10357,37.59268],[127.1034,37.59328]]}},{"type":"Feature","properties":{"class":"minor","highway":"residential","sidewalk":"unknown","lanes":0,"name":"용마산로102길","oneway":false},"geometry":{"type":"LineString","coordinates":[[127.09868,37.59288],[127.09912,37.59272],[127.09938,37.59263],[127.09994,37.59243],[127.10054,37.59222],[127.10084,37.59212],[127.1011,37.59202]]}},{"type":"Feature","properties":{"class":"minor","highway":"residential","sidewalk":"unknown","lanes":0,"name":"용마산로100길","oneway":false},"geometry":{"type":"LineString","coordinates":[[127.10117,37.59069],[127.10144,37.5912],[127.1016,37.5915]]}},{"type":"Feature","properties":{"class":"minor","highway":"residential","sidewalk":"unknown","lanes":0,"name":"","oneway":false},"geometry":{"type":"LineString","coordinates":[[127.1018,37.58881],[127.10164,37.58871],[127.10162,37.5887],[127.10161,37.5887],[127.10158,37.58869],[127.10145,37.58872]]}},{"type":"Feature","properties":{"class":"minor","highway":"residential","sidewalk":"unknown","lanes":0,"name":"용마공원로5가길","oneway":false},"geometry":{"type":"LineString","coordinates":[[127.10178,37.59457],[127.10195,37.59418],[127.10216,37.59365],[127.10251,37.59263],[127.10305,37.59133],[127.10306,37.59122]]}},{"type":"Feature","properties":{"class":"minor","highway":"residential","sidewalk":"unknown","lanes":0,"name":"용마공원로","oneway":false},"geometry":{"type":"LineString","coordinates":[[127.10285,37.59116],[127.10306,37.59122],[127.10351,37.59124],[127.10358,37.59125]]}},{"type":"Feature","properties":{"class":"minor","highway":"residential","sidewalk":"unknown","lanes":0,"name":"용마산로","oneway":false},"geometry":{"type":"LineString","coordinates":[[127.10104,37.59738],[127.10041,37.5974],[127.1003,37.5974]]}},{"type":"Feature","properties":{"class":"alley","highway":"service","sidewalk":"unknown","lanes":0,"name":"용마산로","oneway":false},"geometry":{"type":"LineString","coordinates":[[127.10101,37.59657],[127.10092,37.59663],[127.10068,37.59692],[127.1005,37.59708],[127.10049,37.59709],[127.10048,37.59709],[127.1004,37.5971],[127.10029,37.5971]]}},{"type":"Feature","properties":{"class":"minor","highway":"residential","sidewalk":"unknown","lanes":0,"name":"용마공원로","oneway":false},"geometry":{"type":"LineString","coordinates":[[127.10231,37.5913],[127.1023,37.59129],[127.10196,37.59139],[127.1016,37.5915]]}},{"type":"Feature","properties":{"class":"minor","highway":"residential","sidewalk":"unknown","lanes":0,"name":"용마공원로","oneway":false},"geometry":{"type":"LineString","coordinates":[[127.10147,37.59179],[127.10178,37.59186],[127.10206,37.59193]]}},{"type":"Feature","properties":{"class":"minor","highway":"residential","sidewalk":"unknown","lanes":0,"name":"용마공원로10가길","oneway":false},"geometry":{"type":"LineString","coordinates":[[127.1016,37.5915],[127.10147,37.59179],[127.10144,37.59187],[127.10124,37.59231],[127.1011,37.59261],[127.10092,37.593]]}},{"type":"Feature","properties":{"class":"alley","highway":"service","sidewalk":"unknown","lanes":0,"name":"용마산로96길","oneway":false},"geometry":{"type":"LineString","coordinates":[[127.10244,37.58858],[127.10234,37.58863],[127.10229,37.5887],[127.10214,37.58892],[127.10206,37.589]]}},{"type":"Feature","properties":{"class":"minor","highway":"residential","sidewalk":"unknown","lanes":0,"name":"용마산로96길","oneway":false},"geometry":{"type":"LineString","coordinates":[[127.10083,37.5894],[127.10051,37.58952],[127.1002,37.58963],[127.0999,37.58974],[127.09986,37.58975],[127.0996,37.58984],[127.09933,37.58993],[127.09902,37.59004],[127.09872,37.59014],[127.09845,37.59022],[127.09813,37.59033],[127.09811,37.59034],[127.09781,37.59045],[127.09757,37.59053],[127.09744,37.59058]]}},{"type":"Feature","properties":{"class":"minor","highway":"residential","sidewalk":"unknown","lanes":0,"name":"용마산로94길","oneway":false},"geometry":{"type":"LineString","coordinates":[[127.10002,37.58742],[127.10008,37.58781],[127.10012,37.58808]]}},{"type":"Feature","properties":{"class":"minor","highway":"residential","sidewalk":"unknown","lanes":0,"name":"용마산로94길","oneway":false},"geometry":{"type":"LineString","coordinates":[[127.10008,37.58781],[127.0996,37.58786]]}},{"type":"Feature","properties":{"class":"minor","highway":"residential","sidewalk":"unknown","lanes":0,"name":"용마산로94길","oneway":false},"geometry":{"type":"LineString","coordinates":[[127.10032,37.58713],[127.10042,37.58793]]}},{"type":"Feature","properties":{"class":"minor","highway":"residential","sidewalk":"unknown","lanes":0,"name":"용마산로94길","oneway":false},"geometry":{"type":"LineString","coordinates":[[127.10002,37.58742],[127.09989,37.58742],[127.09982,37.58741],[127.09971,37.58738],[127.0997,37.58737],[127.0997,37.58737],[127.09968,37.58735],[127.0996,37.58704]]}},{"type":"Feature","properties":{"class":"minor","highway":"residential","sidewalk":"unknown","lanes":0,"name":"","oneway":false},"geometry":{"type":"LineString","coordinates":[[127.10029,37.58912],[127.10062,37.589]]}},{"type":"Feature","properties":{"class":"minor","highway":"residential","sidewalk":"unknown","lanes":0,"name":"용마산로94길","oneway":false},"geometry":{"type":"LineString","coordinates":[[127.09678,37.58938],[127.09693,37.58933],[127.09718,37.58925],[127.09748,37.58914],[127.09778,37.58904],[127.09807,37.58894],[127.09833,37.58884],[127.09837,37.58883],[127.09865,37.58873],[127.09892,37.58863],[127.09922,37.58853],[127.09952,37.58842],[127.09984,37.5883],[127.0999,37.58825],[127.10012,37.58808]]}},{"type":"Feature","properties":{"class":"minor","highway":"residential","sidewalk":"unknown","lanes":0,"name":"용마산로94길","oneway":false},"geometry":{"type":"LineString","coordinates":[[127.10099,37.58718],[127.10097,37.58709],[127.10096,37.58697]]}},{"type":"Feature","properties":{"class":"minor","highway":"residential","sidewalk":"unknown","lanes":0,"name":"용마산로94다길","oneway":false},"geometry":{"type":"LineString","coordinates":[[127.10202,37.58757],[127.10205,37.58758],[127.10212,37.58765],[127.10213,37.58766],[127.10214,37.5877],[127.10214,37.58772],[127.10214,37.58773],[127.10214,37.58775],[127.10213,37.58776],[127.10211,37.58777],[127.10202,37.58783],[127.10201,37.58783],[127.10201,37.58784],[127.10201,37.58784],[127.10201,37.58785],[127.10229,37.58826],[127.102,37.58838],[127.10196,37.58839]]}},{"type":"Feature","properties":{"class":"minor","highway":"residential","sidewalk":"unknown","lanes":0,"name":"용마산로94길","oneway":false},"geometry":{"type":"LineString","coordinates":[[127.10097,37.58709],[127.10063,37.58712],[127.10032,37.58713],[127.10027,37.58714],[127.10004,37.58731],[127.10002,37.58733],[127.10001,37.58735],[127.10002,37.58742]]}},{"type":"Feature","properties":{"class":"minor","highway":"residential","sidewalk":"unknown","lanes":0,"name":"용마산로94길","oneway":false},"geometry":{"type":"LineString","coordinates":[[127.10059,37.5869],[127.10096,37.58697],[127.10161,37.587],[127.10163,37.58701],[127.10165,37.58702],[127.10166,37.58704],[127.10166,37.58706],[127.10166,37.58707],[127.10161,37.58717],[127.10162,37.58725],[127.10163,37.58727],[127.10169,37.58738],[127.10177,37.58762]]}},{"type":"Feature","properties":{"class":"minor","highway":"residential","sidewalk":"unknown","lanes":0,"name":"용마산로96길","oneway":false},"geometry":{"type":"LineString","coordinates":[[127.10111,37.58906],[127.10121,37.58928],[127.10186,37.59044]]}},{"type":"Feature","properties":{"class":"minor","highway":"residential","sidewalk":"unknown","lanes":0,"name":"용마산로96길","oneway":false},"geometry":{"type":"LineString","coordinates":[[127.10175,37.58911],[127.10239,37.59029]]}},{"type":"Feature","properties":{"class":"minor","highway":"residential","sidewalk":"unknown","lanes":0,"name":"용마산로100길","oneway":false},"geometry":{"type":"LineString","coordinates":[[127.10218,37.58921],[127.10235,37.58952],[127.10247,37.58968],[127.10272,37.59015]]}},{"type":"Feature","properties":{"class":"minor","highway":"residential","sidewalk":"unknown","lanes":0,"name":"용마산로100길","oneway":false},"geometry":{"type":"LineString","coordinates":[[127.10286,37.59011],[127.10272,37.59015],[127.10239,37.59029],[127.10212,37.59036],[127.10186,37.59044],[127.10154,37.59056],[127.10146,37.59058],[127.10117,37.59069],[127.10085,37.5908],[127.10053,37.59091],[127.10025,37.59101],[127.09996,37.5911],[127.09967,37.5912],[127.09936,37.59131],[127.09878,37.59151],[127.0986,37.59157],[127.09847,37.59162],[127.09821,37.59172],[127.09807,37.59176]]}},{"type":"Feature","properties":{"class":"minor","highway":"residential","sidewalk":"unknown","lanes":0,"name":"용마산로100길","oneway":false},"geometry":{"type":"LineString","coordinates":[[127.10025,37.59101],[127.10052,37.59153]]}},{"type":"Feature","properties":{"class":"minor","highway":"residential","sidewalk":"unknown","lanes":0,"name":"용마산로96길","oneway":false},"geometry":{"type":"LineString","coordinates":[[127.10146,37.59058],[127.10083,37.5894]]}},{"type":"Feature","properties":{"class":"minor","highway":"residential","sidewalk":"unknown","lanes":0,"name":"용마산로100길","oneway":false},"geometry":{"type":"LineString","coordinates":[[127.10111,37.59132],[127.10085,37.5908]]}},{"type":"Feature","properties":{"class":"minor","highway":"residential","sidewalk":"unknown","lanes":0,"name":"용마산로100길","oneway":false},"geometry":{"type":"LineString","coordinates":[[127.10144,37.5912],[127.10111,37.59132],[127.10081,37.59143],[127.10078,37.59144],[127.10052,37.59153],[127.10023,37.59164]]}},{"type":"Feature","properties":{"class":"minor","highway":"residential","sidewalk":"unknown","lanes":0,"name":"용마공원로5길","oneway":false},"geometry":{"type":"LineString","coordinates":[[127.10108,37.59447],[127.10144,37.59452],[127.10178,37.59457],[127.10208,37.59462],[127.10236,37.59467],[127.10276,37.59476],[127.1029,37.5948],[127.10303,37.59482],[127.10335,37.59488],[127.10356,37.59486],[127.10379,37.59478]]}},{"type":"Feature","properties":{"class":"minor","highway":"residential","sidewalk":"unknown","lanes":0,"name":"망우로","oneway":false},"geometry":{"type":"LineString","coordinates":[[127.10814,37.60043],[127.10813,37.60035],[127.10811,37.60016],[127.1081,37.60003],[127.10809,37.59991]]}},{"type":"Feature","properties":{"class":"minor","highway":"residential","sidewalk":"unknown","lanes":0,"name":"경춘로20번길","oneway":false},"geometry":{"type":"LineString","coordinates":[[127.11664,37.60007],[127.1167,37.60003],[127.11674,37.60002],[127.11718,37.60004],[127.11721,37.60004],[127.11723,37.60003],[127.11725,37.60001],[127.11742,37.59978],[127.11744,37.59976],[127.11758,37.59966]]}},{"type":"Feature","properties":{"class":"minor","highway":"residential","sidewalk":"unknown","lanes":0,"name":"","oneway":false},"geometry":{"type":"LineString","coordinates":[[127.10303,37.59482],[127.103,37.5949],[127.10294,37.59509],[127.10276,37.59516],[127.10266,37.5952],[127.1025,37.59526],[127.10235,37.59525],[127.10232,37.59524],[127.10214,37.59513],[127.10208,37.5951],[127.102,37.59497]]}},{"type":"Feature","properties":{"class":"minor","highway":"residential","sidewalk":"unknown","lanes":0,"name":"용마산로109길","oneway":false},"geometry":{"type":"LineString","coordinates":[[127.09831,37.59717],[127.0989,37.59729],[127.099,37.59731],[127.09953,37.59741],[127.10018,37.59741],[127.1003,37.5974]]}},{"type":"Feature","properties":{"class":"minor","highway":"residential","sidewalk":"unknown","lanes":0,"name":"망우로80길","oneway":false},"geometry":{"type":"LineString","coordinates":[[127.10633,37.60056],[127.10631,37.60048],[127.10626,37.60008],[127.10623,37.59985],[127.10621,37.59969],[127.1062,37.59961]]}},{"type":"Feature","properties":{"class":"minor","highway":"residential","sidewalk":"unknown","lanes":0,"name":"용마공원로3길","oneway":false},"geometry":{"type":"LineString","coordinates":[[127.10171,37.59554],[127.10188,37.59554],[127.10189,37.59554],[127.10191,37.59554],[127.10204,37.59558],[127.10215,37.59565]]}},{"type":"Feature","properties":{"class":"minor","highway":"residential","sidewalk":"unknown","lanes":0,"name":"용마공원로3길","oneway":false},"geometry":{"type":"LineString","coordinates":[[127.10133,37.59598],[127.10129,37.59562],[127.10128,37.59556]]}},{"type":"Feature","properties":{"class":"minor","highway":"residential","sidewalk":"unknown","lanes":0,"name":"용마공원로3길","oneway":false},"geometry":{"type":"LineString","coordinates":[[127.10106,37.59639],[127.10129,37.59651]]}},{"type":"Feature","properties":{"class":"minor","highway":"residential","sidewalk":"unknown","lanes":0,"name":"용마공원로3길","oneway":false},"geometry":{"type":"LineString","coordinates":[[127.10094,37.59556],[127.10128,37.59556],[127.10164,37.59543]]}},{"type":"Feature","properties":{"class":"minor","highway":"residential","sidewalk":"unknown","lanes":0,"name":"용마공원로10길","oneway":false},"geometry":{"type":"LineString","coordinates":[[127.10054,37.59222],[127.10092,37.593],[127.10106,37.59328],[127.10113,37.59341],[127.1015,37.5935]]}},{"type":"Feature","properties":{"class":"minor","highway":"residential","sidewalk":"unknown","lanes":0,"name":"용마산로106길","oneway":false},"geometry":{"type":"LineString","coordinates":[[127.09931,37.59404],[127.10001,37.5938],[127.10059,37.59359],[127.10113,37.59341]]}},{"type":"Feature","properties":{"class":"minor","highway":"residential","sidewalk":"unknown","lanes":0,"name":"용마공원로9길","oneway":false},"geometry":{"type":"LineString","coordinates":[[127.10268,37.59377],[127.10216,37.59365],[127.1015,37.5935]]}},{"type":"Feature","properties":{"class":"minor","highway":"residential","sidewalk":"unknown","lanes":0,"name":"용마산로96길","oneway":false},"geometry":{"type":"LineString","coordinates":[[127.1002,37.58963],[127.09976,37.58884]]}},{"type":"Feature","properties":{"class":"minor","highway":"residential","sidewalk":"unknown","lanes":0,"name":"용마산로96나길","oneway":false},"geometry":{"type":"LineString","coordinates":[[127.10085,37.5908],[127.1002,37.58963]]}},{"type":"Feature","properties":{"class":"minor","highway":"residential","sidewalk":"unknown","lanes":0,"name":"용마공원로20길","oneway":false},"geometry":{"type":"LineString","coordinates":[[127.10285,37.59116],[127.10239,37.59029]]}},{"type":"Feature","properties":{"class":"minor","highway":"residential","sidewalk":"unknown","lanes":0,"name":"용마공원로18길","oneway":false},"geometry":{"type":"LineString","coordinates":[[127.10186,37.59044],[127.1023,37.59129]]}},{"type":"Feature","properties":{"class":"minor","highway":"residential","sidewalk":"unknown","lanes":2,"name":"","oneway":false},"geometry":{"type":"LineString","coordinates":[[127.11405,37.60102],[127.11397,37.60097],[127.11386,37.60089],[127.11379,37.60079],[127.11378,37.60072],[127.1138,37.60063],[127.1138,37.60056],[127.11378,37.60049],[127.11371,37.60041],[127.11362,37.60032],[127.11349,37.60023],[127.1134,37.60018],[127.11331,37.60015],[127.11328,37.6001],[127.11328,37.60002],[127.11333,37.59995],[127.11348,37.59981],[127.11354,37.59973],[127.11357,37.59966],[127.11358,37.59955],[127.1136,37.5995],[127.11364,37.5994],[127.11367,37.59936],[127.11379,37.59929],[127.11396,37.59922],[127.11404,37.59913],[127.11406,37.59904],[127.11409,37.59899],[127.11412,37.59893],[127.11418,37.59887]]}},{"type":"Feature","properties":{"class":"minor","highway":"residential","sidewalk":"unknown","lanes":0,"name":"용마산로96길","oneway":false},"geometry":{"type":"LineString","coordinates":[[127.10051,37.58952],[127.10117,37.59069]]}},{"type":"Feature","properties":{"class":"minor","highway":"residential","sidewalk":"unknown","lanes":0,"name":"용마산로94길","oneway":false},"geometry":{"type":"LineString","coordinates":[[127.09984,37.5883],[127.10029,37.58912],[127.10044,37.58938],[127.10051,37.58952]]}},{"type":"Feature","properties":{"class":"minor","highway":"residential","sidewalk":"unknown","lanes":0,"name":"용마산로112나길","oneway":false},"geometry":{"type":"LineString","coordinates":[[127.10238,37.59554],[127.10245,37.59567],[127.10267,37.5959],[127.10292,37.59617]]}},{"type":"Feature","properties":{"class":"minor","highway":"residential","sidewalk":"unknown","lanes":0,"name":"용마산로96길","oneway":false},"geometry":{"type":"LineString","coordinates":[[127.10206,37.589],[127.10218,37.58921]]}},{"type":"Feature","properties":{"class":"minor","highway":"residential","sidewalk":"unknown","lanes":0,"name":"","oneway":false},"geometry":{"type":"LineString","coordinates":[[127.1018,37.58881],[127.10111,37.58906]]}},{"type":"Feature","properties":{"class":"minor","highway":"residential","sidewalk":"unknown","lanes":0,"name":"용마산로94다길","oneway":false},"geometry":{"type":"LineString","coordinates":[[127.10145,37.58872],[127.10137,37.58846]]}},{"type":"Feature","properties":{"class":"minor","highway":"residential","sidewalk":"unknown","lanes":0,"name":"용마산로96길","oneway":false},"geometry":{"type":"LineString","coordinates":[[127.1019,37.58906],[127.1018,37.58881]]}},{"type":"Feature","properties":{"class":"minor","highway":"residential","sidewalk":"unknown","lanes":0,"name":"용마산로94길","oneway":false},"geometry":{"type":"LineString","coordinates":[[127.10075,37.58782],[127.1008,37.58781],[127.10083,37.5878],[127.10089,37.58779],[127.10107,37.58777],[127.10139,37.58775],[127.10144,37.58774],[127.10149,37.58773],[127.10177,37.58762],[127.10191,37.58758],[127.10198,37.58757],[127.10202,37.58757]]}},{"type":"Feature","properties":{"class":"minor","highway":"residential","sidewalk":"unknown","lanes":0,"name":"용마산로94길","oneway":false},"geometry":{"type":"LineString","coordinates":[[127.10063,37.58712],[127.10075,37.58782]]}},{"type":"Feature","properties":{"class":"minor","highway":"residential","sidewalk":"unknown","lanes":0,"name":"용마산로94길","oneway":false},"geometry":{"type":"LineString","coordinates":[[127.10161,37.58717],[127.10099,37.58718],[127.10107,37.58777]]}},{"type":"Feature","properties":{"class":"minor","highway":"residential","sidewalk":"unknown","lanes":0,"name":"","oneway":false},"geometry":{"type":"LineString","coordinates":[[127.10558,37.59785],[127.10547,37.59779],[127.1053,37.59778],[127.10501,37.59787],[127.1047,37.59799]]}},{"type":"Feature","properties":{"class":"alley","highway":"service","sidewalk":"unknown","lanes":0,"name":"용마산로","oneway":false},"geometry":{"type":"LineString","coordinates":[[127.09996,37.5978],[127.1002,37.59779],[127.10032,37.59779]]}},{"type":"Feature","properties":{"class":"minor","highway":"residential","sidewalk":"unknown","lanes":0,"name":"","oneway":false},"geometry":{"type":"LineString","coordinates":[[127.10292,37.59617],[127.1031,37.5962],[127.10341,37.59622]]}},{"type":"Feature","properties":{"class":"minor","highway":"residential","sidewalk":"unknown","lanes":0,"name":"용마공원로3길","oneway":false},"geometry":{"type":"LineString","coordinates":[[127.1015,37.59518],[127.10191,37.59505],[127.10193,37.59504],[127.10195,37.59502],[127.102,37.59497],[127.10209,37.59488],[127.10214,37.59485],[127.10217,37.59484],[127.1022,37.59483],[127.10231,37.5948],[127.10232,37.5948],[127.10233,37.59479],[127.10233,37.59479],[127.10234,37.59478],[127.10236,37.59467]]}},{"type":"Feature","properties":{"class":"minor","highway":"residential","sidewalk":"unknown","lanes":0,"name":"","oneway":false},"geometry":{"type":"LineString","coordinates":[[127.10025,37.59101],[127.0996,37.58984]]}},{"type":"Feature","properties":{"class":"minor","highway":"residential","sidewalk":"unknown","lanes":0,"name":"","oneway":false},"geometry":{"type":"LineString","coordinates":[[127.10053,37.59091],[127.0999,37.58974],[127.0999,37.58973]]}},{"type":"Feature","properties":{"class":"minor","highway":"residential","sidewalk":"unknown","lanes":0,"name":"","oneway":false},"geometry":{"type":"LineString","coordinates":[[127.10053,37.59091],[127.10081,37.59143],[127.1011,37.59202],[127.10124,37.59231]]}},{"type":"Feature","properties":{"class":"minor","highway":"residential","sidewalk":"unknown","lanes":0,"name":"","oneway":false},"geometry":{"type":"LineString","coordinates":[[127.10052,37.59153],[127.10084,37.59212],[127.1011,37.59261]]}},{"type":"Feature","properties":{"class":"minor","highway":"residential","sidewalk":"unknown","lanes":0,"name":"","oneway":false},"geometry":{"type":"LineString","coordinates":[[127.10111,37.59132],[127.10144,37.59187]]}},{"type":"Feature","properties":{"class":"minor","highway":"residential","sidewalk":"unknown","lanes":0,"name":"","oneway":false},"geometry":{"type":"LineString","coordinates":[[127.10151,37.58918],[127.10212,37.59036],[127.10228,37.59063]]}},{"type":"Feature","properties":{"class":"minor","highway":"residential","sidewalk":"unknown","lanes":0,"name":"","oneway":false},"geometry":{"type":"LineString","coordinates":[[127.10012,37.58808],[127.10011,37.58817],[127.10012,37.5882],[127.10013,37.58823],[127.1005,37.58878],[127.10062,37.589],[127.1007,37.58915]]}},{"type":"Feature","properties":{"class":"minor","highway":"residential","sidewalk":"unknown","lanes":0,"name":"용마산로94다길","oneway":false},"geometry":{"type":"LineString","coordinates":[[127.1005,37.58878],[127.10055,37.58876],[127.10083,37.58864],[127.10116,37.5885],[127.10137,37.58846],[127.1016,37.58842],[127.1018,37.58839],[127.10186,37.58839],[127.10196,37.58839]]}},{"type":"Feature","properties":{"class":"minor","highway":"residential","sidewalk":"unknown","lanes":0,"name":"","oneway":false},"geometry":{"type":"LineString","coordinates":[[127.10196,37.59139],[127.10154,37.59056]]}},{"type":"Feature","properties":{"class":"minor","highway":"residential","sidewalk":"unknown","lanes":0,"name":"","oneway":false},"geometry":{"type":"LineString","coordinates":[[127.10196,37.59139],[127.10178,37.59186],[127.10146,37.5927]]}},{"type":"Feature","properties":{"class":"minor","highway":"residential","sidewalk":"unknown","lanes":0,"name":"용마산로112나길","oneway":false},"geometry":{"type":"LineString","coordinates":[[127.10141,37.59658],[127.10143,37.59659],[127.10151,37.59669],[127.1015,37.5968],[127.10149,37.5969],[127.10149,37.59707],[127.10148,37.59724],[127.10152,37.59749],[127.10152,37.59751],[127.10176,37.59779],[127.10189,37.59795]]}},{"type":"Feature","properties":{"class":"major","highway":"primary","sidewalk":"likely","lanes":3,"name":"망우로","oneway":true},"geometry":{"type":"LineString","coordinates":[[127.10042,37.59981],[127.1007,37.59989],[127.10117,37.59998],[127.10234,37.6002],[127.10242,37.60018]]}},{"type":"Feature","properties":{"class":"major","highway":"primary","sidewalk":"likely","lanes":0,"name":"용마산로","oneway":false},"geometry":{"type":"LineString","coordinates":[[127.10042,37.59981],[127.10042,37.59986],[127.10042,37.59989],[127.10042,37.59991]]}},{"type":"Feature","properties":{"class":"minor","highway":"residential","sidewalk":"unknown","lanes":0,"name":"","oneway":false},"geometry":{"type":"LineString","coordinates":[[127.1062,37.59961],[127.10586,37.59966]]}},{"type":"Feature","properties":{"class":"minor","highway":"residential","sidewalk":"unknown","lanes":0,"name":"","oneway":false},"geometry":{"type":"LineString","coordinates":[[127.10429,37.59974],[127.10437,37.59929]]}},{"type":"Feature","properties":{"class":"minor","highway":"residential","sidewalk":"unknown","lanes":0,"name":"","oneway":false},"geometry":{"type":"LineString","coordinates":[[127.10468,37.59979],[127.10471,37.59971],[127.10473,37.59966],[127.10455,37.59964],[127.10456,37.59962],[127.10435,37.59959],[127.1044,37.59939],[127.10497,37.59946]]}},{"type":"Feature","properties":{"class":"minor","highway":"residential","sidewalk":"unknown","lanes":0,"name":"","oneway":false},"geometry":{"type":"LineString","coordinates":[[127.10473,37.59966],[127.1052,37.59972],[127.10525,37.59964]]}},{"type":"Feature","properties":{"class":"minor","highway":"residential","sidewalk":"unknown","lanes":0,"name":"용마산로 114길","oneway":false},"geometry":{"type":"LineString","coordinates":[[127.10503,37.59938],[127.10513,37.59894]]}},{"type":"Feature","properties":{"class":"minor","highway":"residential","sidewalk":"unknown","lanes":0,"name":"용마산로114길","oneway":false},"geometry":{"type":"LineString","coordinates":[[127.10474,37.59934],[127.10483,37.59891]]}},{"type":"Feature","properties":{"class":"minor","highway":"residential","sidewalk":"unknown","lanes":0,"name":"용마산로 114길","oneway":false},"geometry":{"type":"LineString","coordinates":[[127.10444,37.5993],[127.10452,37.59887]]}},{"type":"Feature","properties":{"class":"minor","highway":"residential","sidewalk":"unknown","lanes":0,"name":"","oneway":false},"geometry":{"type":"LineString","coordinates":[[127.10405,37.59882],[127.10397,37.59873]]}},{"type":"Feature","properties":{"class":"minor","highway":"residential","sidewalk":"unknown","lanes":0,"name":"","oneway":false},"geometry":{"type":"LineString","coordinates":[[127.10271,37.59852],[127.10281,37.59853]]}},{"type":"Feature","properties":{"class":"minor","highway":"residential","sidewalk":"unknown","lanes":0,"name":"망우로76길","oneway":false},"geometry":{"type":"LineString","coordinates":[[127.10578,37.59805],[127.10557,37.59816]]}},{"type":"Feature","properties":{"class":"minor","highway":"residential","sidewalk":"unknown","lanes":0,"name":"","oneway":false},"geometry":{"type":"LineString","coordinates":[[127.10453,37.59793],[127.1047,37.59799]]}},{"type":"Feature","properties":{"class":"minor","highway":"residential","sidewalk":"unknown","lanes":0,"name":"","oneway":false},"geometry":{"type":"LineString","coordinates":[[127.1053,37.59778],[127.10536,37.59775],[127.10544,37.59767],[127.10536,37.59756],[127.10462,37.59784],[127.10453,37.59793]]}},{"type":"Feature","properties":{"class":"minor","highway":"residential","sidewalk":"unknown","lanes":0,"name":"","oneway":false},"geometry":{"type":"LineString","coordinates":[[127.10308,37.59688],[127.10324,37.59681]]}},{"type":"Feature","properties":{"class":"alley","highway":"service","sidewalk":"unknown","lanes":0,"name":"용마산로114길","oneway":false},"geometry":{"type":"LineString","coordinates":[[127.10243,37.59863],[127.10238,37.59889]]}},{"type":"Feature","properties":{"class":"alley","highway":"service","sidewalk":"unknown","lanes":0,"name":"용마산로112길","oneway":false},"geometry":{"type":"LineString","coordinates":[[127.1024,37.59863],[127.10249,37.59829]]}},{"type":"Feature","properties":{"class":"minor","highway":"residential","sidewalk":"unknown","lanes":0,"name":"용마산로114길","oneway":false},"geometry":{"type":"LineString","coordinates":[[127.10295,37.59912],[127.10303,37.59869]]}},{"type":"Feature","properties":{"class":"minor","highway":"residential","sidewalk":"unknown","lanes":0,"name":"용마산로114길","oneway":false},"geometry":{"type":"LineString","coordinates":[[127.10364,37.5992],[127.10367,37.59904],[127.10372,37.59877]]}},{"type":"Feature","properties":{"class":"alley","highway":"service","sidewalk":"unknown","lanes":0,"name":"용마산로112길","oneway":false},"geometry":{"type":"LineString","coordinates":[[127.1035,37.59874],[127.10348,37.59887]]}},{"type":"Feature","properties":{"class":"minor","highway":"residential","sidewalk":"unknown","lanes":0,"name":"용마산로116길","oneway":false},"geometry":{"type":"LineString","coordinates":[[127.10145,37.59938],[127.10152,37.59893]]}},{"type":"Feature","properties":{"class":"minor","highway":"residential","sidewalk":"unknown","lanes":0,"name":"용마산로116길","oneway":false},"geometry":{"type":"LineString","coordinates":[[127.10223,37.59949],[127.10233,37.59905]]}},{"type":"Feature","properties":{"class":"minor","highway":"residential","sidewalk":"unknown","lanes":0,"name":"용마산로116길","oneway":false},"geometry":{"type":"LineString","coordinates":[[127.10179,37.59944],[127.10174,37.59958]]}},{"type":"Feature","properties":{"class":"minor","highway":"residential","sidewalk":"unknown","lanes":0,"name":"","oneway":false},"geometry":{"type":"LineString","coordinates":[[127.10161,37.59941],[127.10157,37.5996]]}},{"type":"Feature","properties":{"class":"minor","highway":"residential","sidewalk":"unknown","lanes":0,"name":"용마산로114길","oneway":false},"geometry":{"type":"LineString","coordinates":[[127.10176,37.59896],[127.10182,37.59859],[127.10187,37.59854]]}},{"type":"Feature","properties":{"class":"minor","highway":"residential","sidewalk":"unknown","lanes":0,"name":"용마산로112가길","oneway":false},"geometry":{"type":"LineString","coordinates":[[127.10189,37.59795],[127.10193,37.598],[127.10195,37.59801],[127.10196,37.59801],[127.10197,37.59801],[127.10212,37.59804],[127.10245,37.59808],[127.10279,37.59812]]}},{"type":"Feature","properties":{"class":"minor","highway":"residential","sidewalk":"unknown","lanes":0,"name":"용마산로112길","oneway":false},"geometry":{"type":"LineString","coordinates":[[127.10187,37.59854],[127.10212,37.59804]]}},{"type":"Feature","properties":{"class":"alley","highway":"service","sidewalk":"unknown","lanes":0,"name":"","oneway":false},"geometry":{"type":"LineString","coordinates":[[127.10149,37.5969],[127.10145,37.59688],[127.10122,37.59674],[127.10132,37.59664],[127.10143,37.59659]]}},{"type":"Feature","properties":{"class":"alley","highway":"service","sidewalk":"unknown","lanes":0,"name":"용마산로112길나길","oneway":false},"geometry":{"type":"LineString","coordinates":[[127.10145,37.59688],[127.10136,37.59697]]}},{"type":"Feature","properties":{"class":"alley","highway":"service","sidewalk":"unknown","lanes":0,"name":"용마공원로3길","oneway":false},"geometry":{"type":"LineString","coordinates":[[127.10113,37.59628],[127.10131,37.59637]]}},{"type":"Feature","properties":{"class":"minor","highway":"residential","sidewalk":"unknown","lanes":0,"name":"","oneway":false},"geometry":{"type":"LineString","coordinates":[[127.10501,37.59787],[127.10502,37.59803],[127.10528,37.59803]]}},{"type":"Feature","properties":{"class":"minor","highway":"residential","sidewalk":"unknown","lanes":0,"name":"망우로74가길","oneway":false},"geometry":{"type":"LineString","coordinates":[[127.10502,37.59803],[127.105,37.59804],[127.10499,37.59805],[127.10498,37.59807],[127.10493,37.59849]]}},{"type":"Feature","properties":{"class":"minor","highway":"residential","sidewalk":"unknown","lanes":0,"name":"망우로74가길","oneway":false},"geometry":{"type":"LineString","coordinates":[[127.10553,37.59856],[127.10557,37.59835]]}},{"type":"Feature","properties":{"class":"minor","highway":"residential","sidewalk":"unknown","lanes":0,"name":"망우로74가길","oneway":false},"geometry":{"type":"LineString","coordinates":[[127.10513,37.59851],[127.10518,37.59827]]}},{"type":"Feature","properties":{"class":"minor","highway":"residential","sidewalk":"unknown","lanes":0,"name":"용마산로114길","oneway":false},"geometry":{"type":"LineString","coordinates":[[127.10513,37.59894],[127.10521,37.59852]]}},{"type":"Feature","properties":{"class":"minor","highway":"residential","sidewalk":"unknown","lanes":0,"name":"","oneway":false},"geometry":{"type":"LineString","coordinates":[[127.10525,37.59941],[127.10528,37.59929]]}},{"type":"Feature","properties":{"class":"minor","highway":"residential","sidewalk":"unknown","lanes":0,"name":"","oneway":true},"geometry":{"type":"LineString","coordinates":[[127.10242,37.60018],[127.10243,37.60012],[127.10243,37.60009],[127.10246,37.59999]]}},{"type":"Feature","properties":{"class":"alley","highway":"living_street","sidewalk":"unknown","lanes":0,"name":"","oneway":false},"geometry":{"type":"LineString","coordinates":[[127.10293,37.60022],[127.10294,37.60018],[127.10297,37.60003],[127.10274,37.6],[127.10265,37.60002],[127.10246,37.59999]]}},{"type":"Feature","properties":{"class":"minor","highway":"residential","sidewalk":"unknown","lanes":0,"name":"망우로","oneway":false},"geometry":{"type":"LineString","coordinates":[[127.10323,37.60026],[127.10324,37.60022],[127.10325,37.60012],[127.10352,37.59983],[127.10353,37.59982],[127.10357,37.59965]]}},{"type":"Feature","properties":{"class":"alley","highway":"service","sidewalk":"unknown","lanes":0,"name":"","oneway":false},"geometry":{"type":"LineString","coordinates":[[127.1046,37.59888],[127.10469,37.59846]]}},{"type":"Feature","properties":{"class":"minor","highway":"residential","sidewalk":"unknown","lanes":0,"name":"망우로72가길","oneway":false},"geometry":{"type":"LineString","coordinates":[[127.10419,37.59801],[127.10394,37.59798],[127.10369,37.59795],[127.10347,37.59792],[127.1032,37.59789],[127.10285,37.59785]]}},{"type":"Feature","properties":{"class":"minor","highway":"residential","sidewalk":"unknown","lanes":0,"name":"","oneway":false},"geometry":{"type":"LineString","coordinates":[[127.10419,37.59801],[127.1042,37.59798],[127.10422,37.59797],[127.10424,37.59796],[127.10426,37.59796],[127.10439,37.59798],[127.10442,37.59798],[127.10445,37.59798],[127.10448,37.59797],[127.1045,37.59797],[127.10452,37.59796]]}},{"type":"Feature","properties":{"class":"alley","highway":"service","sidewalk":"unknown","lanes":0,"name":"","oneway":false},"geometry":{"type":"LineString","coordinates":[[127.10565,37.59884],[127.10602,37.59898]]}},{"type":"Feature","properties":{"class":"alley","highway":"service","sidewalk":"unknown","lanes":0,"name":"","oneway":false},"geometry":{"type":"LineString","coordinates":[[127.10557,37.59901],[127.10593,37.59914]]}},{"type":"Feature","properties":{"class":"alley","highway":"service","sidewalk":"unknown","lanes":0,"name":"망우로76길","oneway":false},"geometry":{"type":"LineString","coordinates":[[127.10553,37.59927],[127.10573,37.59932]]}},{"type":"Feature","properties":{"class":"alley","highway":"service","sidewalk":"unknown","lanes":0,"name":"","oneway":false},"geometry":{"type":"LineString","coordinates":[[127.10109,37.59828],[127.10103,37.59828],[127.10093,37.59828],[127.10092,37.59819]]}},{"type":"Feature","properties":{"class":"alley","highway":"service","sidewalk":"unknown","lanes":0,"name":"","oneway":false},"geometry":{"type":"LineString","coordinates":[[127.10035,37.59848],[127.10047,37.5985],[127.10052,37.59851],[127.10065,37.59851],[127.10081,37.59852],[127.10094,37.59851],[127.1011,37.59849]]}},{"type":"Feature","properties":{"class":"alley","highway":"service","sidewalk":"unknown","lanes":0,"name":"","oneway":false},"geometry":{"type":"LineString","coordinates":[[127.09993,37.59846],[127.10023,37.59845],[127.10035,37.59845]]}},{"type":"Feature","properties":{"class":"alley","highway":"service","sidewalk":"unknown","lanes":0,"name":"","oneway":false},"geometry":{"type":"LineString","coordinates":[[127.10811,37.60016],[127.10852,37.60014],[127.10852,37.60026],[127.10853,37.60028],[127.10855,37.60029],[127.10877,37.60028],[127.10879,37.60027],[127.1088,37.60025],[127.10877,37.59972],[127.10877,37.59971],[127.10875,37.5997],[127.10872,37.59969],[127.10814,37.59972]]}},{"type":"Feature","properties":{"class":"alley","highway":"service","sidewalk":"unknown","lanes":0,"name":"","oneway":false},"geometry":{"type":"LineString","coordinates":[[127.10852,37.60014],[127.10851,37.59994]]}},{"type":"Feature","properties":{"class":"alley","highway":"service","sidewalk":"unknown","lanes":0,"name":"","oneway":false},"geometry":{"type":"LineString","coordinates":[[127.10809,37.59991],[127.1076,37.59994]]}},{"type":"Feature","properties":{"class":"minor","highway":"residential","sidewalk":"unknown","lanes":0,"name":"망우로","oneway":false},"geometry":{"type":"LineString","coordinates":[[127.10704,37.60049],[127.10703,37.60043],[127.10698,37.59997],[127.10698,37.59996],[127.10699,37.59996],[127.107,37.59995],[127.10748,37.59992]]}},{"type":"Feature","properties":{"class":"minor","highway":"residential","sidewalk":"unknown","lanes":0,"name":"망우로","oneway":false},"geometry":{"type":"LineString","coordinates":[[127.10698,37.59997],[127.10697,37.59986]]}},{"type":"Feature","properties":{"class":"minor","highway":"residential","sidewalk":"unknown","lanes":0,"name":"망우로","oneway":false},"geometry":{"type":"LineString","coordinates":[[127.10889,37.60038],[127.10889,37.6003],[127.10886,37.59986]]}},{"type":"Feature","properties":{"class":"alley","highway":"service","sidewalk":"unknown","lanes":0,"name":"망우로80길","oneway":false},"geometry":{"type":"LineString","coordinates":[[127.10623,37.59985],[127.10645,37.59983]]}},{"type":"Feature","properties":{"class":"minor","highway":"residential","sidewalk":"unknown","lanes":0,"name":"","oneway":false},"geometry":{"type":"LineString","coordinates":[[127.1062,37.59961],[127.1062,37.59957],[127.10617,37.59941]]}},{"type":"Feature","properties":{"class":"alley","highway":"service","sidewalk":"unknown","lanes":0,"name":"","oneway":false},"geometry":{"type":"LineString","coordinates":[[127.1062,37.59957],[127.10655,37.59954]]}},{"type":"Feature","properties":{"class":"minor","highway":"residential","sidewalk":"unknown","lanes":0,"name":"망우로78길","oneway":false},"geometry":{"type":"LineString","coordinates":[[127.1059,37.59987],[127.10562,37.5999]]}},{"type":"Feature","properties":{"class":"alley","highway":"service","sidewalk":"unknown","lanes":0,"name":"망우로72길","oneway":false},"geometry":{"type":"LineString","coordinates":[[127.10258,37.59936],[127.10276,37.59938]]}},{"type":"Feature","properties":{"class":"alley","highway":"service","sidewalk":"unknown","lanes":0,"name":"용마산로112길","oneway":false},"geometry":{"type":"LineString","coordinates":[[127.10325,37.59886],[127.10328,37.59872]]}},{"type":"Feature","properties":{"class":"alley","highway":"service","sidewalk":"unknown","lanes":0,"name":"","oneway":false},"geometry":{"type":"LineString","coordinates":[[127.10398,37.59781],[127.10394,37.59798]]}},{"type":"Feature","properties":{"class":"alley","highway":"service","sidewalk":"unknown","lanes":0,"name":"","oneway":false},"geometry":{"type":"LineString","coordinates":[[127.10373,37.59775],[127.10369,37.59795]]}},{"type":"Feature","properties":{"class":"alley","highway":"service","sidewalk":"unknown","lanes":0,"name":"망우로72가길","oneway":false},"geometry":{"type":"LineString","coordinates":[[127.10354,37.59749],[127.10347,37.59792]]}},{"type":"Feature","properties":{"class":"alley","highway":"service","sidewalk":"unknown","lanes":0,"name":"","oneway":false},"geometry":{"type":"LineString","coordinates":[[127.11064,37.60018],[127.1107,37.60007],[127.11085,37.59987],[127.11095,37.59976],[127.111,37.59964],[127.11104,37.5995],[127.11105,37.59898],[127.11106,37.59894],[127.11108,37.5989],[127.11112,37.59886],[127.11116,37.59883],[127.1112,37.5988],[127.11126,37.59879],[127.11175,37.59879],[127.11183,37.59881],[127.11189,37.59881],[127.11193,37.59885]]}},{"type":"Feature","properties":{"class":"alley","highway":"service","sidewalk":"unknown","lanes":0,"name":"망우로68길","oneway":false},"geometry":{"type":"LineString","coordinates":[[127.10086,37.59872],[127.10091,37.59868],[127.10092,37.59867],[127.10094,37.59867],[127.10095,37.59867],[127.10111,37.59867]]}},{"type":"Feature","properties":{"class":"alley","highway":"service","sidewalk":"unknown","lanes":0,"name":"망우로68길","oneway":false},"geometry":{"type":"LineString","coordinates":[[127.10111,37.59867],[127.10126,37.59868]]}},{"type":"Feature","properties":{"class":"alley","highway":"service","sidewalk":"unknown","lanes":0,"name":"용마산로114길","oneway":false},"geometry":{"type":"LineString","coordinates":[[127.10152,37.59893],[127.10154,37.59878]]}},{"type":"Feature","properties":{"class":"alley","highway":"service","sidewalk":"unknown","lanes":0,"name":"망우로72가길","oneway":false},"geometry":{"type":"LineString","coordinates":[[127.1032,37.59789],[127.10323,37.59776]]}},{"type":"Feature","properties":{"class":"alley","highway":"service","sidewalk":"unknown","lanes":0,"name":"망우로72길","oneway":false},"geometry":{"type":"LineString","coordinates":[[127.10292,37.59755],[127.10325,37.59759],[127.10326,37.59759],[127.10327,37.59759],[127.10327,37.59758],[127.1033,37.59741],[127.1033,37.5974],[127.1033,37.5974],[127.10329,37.59739],[127.10295,37.59733]]}},{"type":"Feature","properties":{"class":"alley","highway":"service","sidewalk":"unknown","lanes":0,"name":"","oneway":false},"geometry":{"type":"LineString","coordinates":[[127.10259,37.59742],[127.10239,37.59736],[127.10233,37.59734],[127.10215,37.59723]]}},{"type":"Feature","properties":{"class":"alley","highway":"service","sidewalk":"unknown","lanes":0,"name":"","oneway":false},"geometry":{"type":"LineString","coordinates":[[127.10215,37.59723],[127.10221,37.59718],[127.10222,37.59717]]}},{"type":"Feature","properties":{"class":"alley","highway":"service","sidewalk":"unknown","lanes":0,"name":"","oneway":false},"geometry":{"type":"LineString","coordinates":[[127.10222,37.59717],[127.10233,37.59707]]}},{"type":"Feature","properties":{"class":"alley","highway":"service","sidewalk":"unknown","lanes":0,"name":"","oneway":false},"geometry":{"type":"LineString","coordinates":[[127.10233,37.59707],[127.1024,37.597],[127.10241,37.59699],[127.10241,37.59698],[127.10232,37.59693]]}},{"type":"Feature","properties":{"class":"alley","highway":"service","sidewalk":"unknown","lanes":0,"name":"","oneway":false},"geometry":{"type":"LineString","coordinates":[[127.10215,37.59723],[127.10197,37.59729],[127.10195,37.5973],[127.10194,37.5973],[127.1018,37.59721],[127.1018,37.5972],[127.1018,37.59719],[127.10193,37.59705],[127.10193,37.59704]]}},{"type":"Feature","properties":{"class":"alley","highway":"service","sidewalk":"unknown","lanes":0,"name":"","oneway":false},"geometry":{"type":"LineString","coordinates":[[127.10133,37.59653],[127.10136,37.59649],[127.10141,37.59646],[127.10147,37.59641],[127.10153,37.59637],[127.10157,37.59635],[127.10159,37.59632],[127.10163,37.59628]]}},{"type":"Feature","properties":{"class":"alley","highway":"service","sidewalk":"unknown","lanes":0,"name":"","oneway":false},"geometry":{"type":"LineString","coordinates":[[127.10135,37.59641],[127.10141,37.59646]]}},{"type":"Feature","properties":{"class":"alley","highway":"service","sidewalk":"unknown","lanes":0,"name":"","oneway":false},"geometry":{"type":"LineString","coordinates":[[127.1031,37.59442],[127.10312,37.5944],[127.10314,37.59439],[127.10329,37.59434],[127.10332,37.59433],[127.10333,37.59431],[127.10336,37.59414],[127.10338,37.59412],[127.1034,37.59412],[127.10372,37.59413]]}},{"type":"Feature","properties":{"class":"alley","highway":"service","sidewalk":"unknown","lanes":0,"name":"용마산로112가길","oneway":false},"geometry":{"type":"LineString","coordinates":[[127.10151,37.59824],[127.10144,37.59818],[127.10139,37.59813]]}},{"type":"Feature","properties":{"class":"minor","highway":"residential","sidewalk":"unknown","lanes":0,"name":"망우로68길","oneway":false},"geometry":{"type":"LineString","coordinates":[[127.10108,37.59793],[127.10127,37.59792],[127.10129,37.59792],[127.1013,37.59792],[127.10151,37.59782],[127.10152,37.59781],[127.10153,37.59781],[127.10154,37.59782],[127.10163,37.59794],[127.10168,37.598],[127.10174,37.59805]]}},{"type":"Feature","properties":{"class":"alley","highway":"service","sidewalk":"unknown","lanes":0,"name":"망우로68길","oneway":false},"geometry":{"type":"LineString","coordinates":[[127.10105,37.59751],[127.10131,37.5975],[127.10134,37.5975],[127.10152,37.59749]]}},{"type":"Feature","properties":{"class":"alley","highway":"service","sidewalk":"unknown","lanes":0,"name":"용마산로112길","oneway":false},"geometry":{"type":"LineString","coordinates":[[127.10158,37.59851],[127.10175,37.59821],[127.10175,37.5982],[127.10175,37.59819],[127.10162,37.59815]]}},{"type":"Feature","properties":{"class":"alley","highway":"service","sidewalk":"unknown","lanes":0,"name":"","oneway":false},"geometry":{"type":"LineString","coordinates":[[127.10176,37.59779],[127.10187,37.59772],[127.10219,37.59754]]}},{"type":"Feature","properties":{"class":"alley","highway":"service","sidewalk":"unknown","lanes":0,"name":"","oneway":false},"geometry":{"type":"LineString","coordinates":[[127.10187,37.59772],[127.10183,37.59767],[127.10182,37.59766],[127.10172,37.59749]]}},{"type":"Feature","properties":{"class":"minor","highway":"residential","sidewalk":"unknown","lanes":0,"name":"용마산로","oneway":false},"geometry":{"type":"LineString","coordinates":[[127.10025,37.59627],[127.10036,37.59627],[127.10068,37.59626],[127.10097,37.59626]]}},{"type":"Feature","properties":{"class":"minor","highway":"residential","sidewalk":"unknown","lanes":0,"name":"망우로68길","oneway":false},"geometry":{"type":"LineString","coordinates":[[127.10096,37.59611],[127.10114,37.59611],[127.10116,37.59611],[127.10118,37.59611],[127.10123,37.59614]]}},{"type":"Feature","properties":{"class":"alley","highway":"service","sidewalk":"unknown","lanes":0,"name":"용마산로","oneway":false},"geometry":{"type":"LineString","coordinates":[[127.10068,37.59626],[127.10067,37.59594]]}},{"type":"Feature","properties":{"class":"alley","highway":"service","sidewalk":"unknown","lanes":0,"name":"","oneway":false},"geometry":{"type":"LineString","coordinates":[[127.10023,37.59589],[127.10034,37.59588],[127.1006,37.59588],[127.10061,37.59588],[127.10061,37.59587],[127.10061,37.59586],[127.10061,37.59571]]}},{"type":"Feature","properties":{"class":"major","highway":"primary","sidewalk":"likely","lanes":0,"name":"용마산로","oneway":false},"geometry":{"type":"LineString","coordinates":[[127.10023,37.59589],[127.10025,37.59627],[127.10026,37.59651],[127.10027,37.59677],[127.10029,37.5971],[127.1003,37.5974],[127.10031,37.5975],[127.10032,37.59779],[127.10035,37.59845],[127.10035,37.59848],[127.10038,37.59907],[127.10038,37.59917],[127.10041,37.59967],[127.10042,37.59981]]}},{"type":"Feature","properties":{"class":"alley","highway":"service","sidewalk":"unknown","lanes":0,"name":"용마공원로","oneway":false},"geometry":{"type":"LineString","coordinates":[[127.10032,37.59523],[127.10037,37.59528],[127.1004,37.59532],[127.10042,37.59534],[127.10045,37.59541],[127.10046,37.59546],[127.10051,37.59563]]}},{"type":"Feature","properties":{"class":"alley","highway":"service","sidewalk":"unknown","lanes":0,"name":"망우로68길","oneway":false},"geometry":{"type":"LineString","coordinates":[[127.10073,37.59557],[127.10073,37.59536],[127.10073,37.59535],[127.10074,37.59534],[127.10075,37.59533],[127.10084,37.5953]]}},{"type":"Feature","properties":{"class":"major","highway":"tertiary","sidewalk":"likely","lanes":0,"name":"봉우재로","oneway":false},"geometry":{"type":"LineString","coordinates":[[127.09993,37.59558],[127.10007,37.59548]]}},{"type":"Feature","properties":{"class":"minor","highway":"residential","sidewalk":"unknown","lanes":0,"name":"","oneway":true},"geometry":{"type":"LineString","coordinates":[[127.10246,37.59999],[127.10255,37.59952]]}},{"type":"Feature","properties":{"class":"alley","highway":"service","sidewalk":"unknown","lanes":0,"name":"용마산로112나길","oneway":false},"geometry":{"type":"LineString","coordinates":[[127.10212,37.59598],[127.10199,37.59588]]}},{"type":"Feature","properties":{"class":"alley","highway":"service","sidewalk":"unknown","lanes":0,"name":"","oneway":false},"geometry":{"type":"LineString","coordinates":[[127.10241,37.59549],[127.10211,37.59537],[127.1021,37.59536],[127.1021,37.59534],[127.10211,37.5953],[127.10214,37.59513]]}},{"type":"Feature","properties":{"class":"minor","highway":"residential","sidewalk":"unknown","lanes":0,"name":"용마공원로3길","oneway":false},"geometry":{"type":"LineString","coordinates":[[127.10138,37.59498],[127.10178,37.59484],[127.1018,37.59484],[127.10182,37.59484],[127.10183,37.59484],[127.10186,37.59485]]}},{"type":"Feature","properties":{"class":"alley","highway":"service","sidewalk":"unknown","lanes":0,"name":"","oneway":false},"geometry":{"type":"LineString","coordinates":[[127.10552,37.59463],[127.10555,37.59457],[127.10555,37.59454],[127.10555,37.5945],[127.10554,37.59436],[127.10554,37.59433],[127.10554,37.59431],[127.10558,37.59422]]}},{"type":"Feature","properties":{"class":"alley","highway":"service","sidewalk":"unknown","lanes":0,"name":"","oneway":false},"geometry":{"type":"LineString","coordinates":[[127.10098,37.5993],[127.10098,37.59938],[127.10098,37.59969]]}},{"type":"Feature","properties":{"class":"alley","highway":"service","sidewalk":"unknown","lanes":0,"name":"","oneway":false},"geometry":{"type":"LineString","coordinates":[[127.09965,37.59469],[127.09983,37.59463],[127.10011,37.59454],[127.10038,37.59445]]}},{"type":"Feature","properties":{"class":"major","highway":"primary","sidewalk":"likely","lanes":0,"name":"용마산로","oneway":false},"geometry":{"type":"LineString","coordinates":[[127.09965,37.59469],[127.09974,37.59487],[127.09998,37.59531],[127.10007,37.59548]]}},{"type":"Feature","properties":{"class":"alley","highway":"service","sidewalk":"unknown","lanes":0,"name":"","oneway":false},"geometry":{"type":"LineString","coordinates":[[127.10017,37.59466],[127.10011,37.59454]]}},{"type":"Feature","properties":{"class":"alley","highway":"service","sidewalk":"unknown","lanes":0,"name":"용마공원로4길","oneway":false},"geometry":{"type":"LineString","coordinates":[[127.09988,37.59355],[127.10046,37.59335]]}},{"type":"Feature","properties":{"class":"alley","highway":"pedestrian","sidewalk":"unknown","lanes":0,"name":"","oneway":false},"geometry":{"type":"LineString","coordinates":[[127.09888,37.59159],[127.09888,37.59157],[127.09889,37.59155],[127.09894,37.59156],[127.09896,37.59157],[127.09897,37.59159],[127.09898,37.5916],[127.09925,37.59209],[127.09927,37.5921],[127.09929,37.5921],[127.09931,37.5921],[127.10009,37.59182],[127.10011,37.59185],[127.09928,37.59214],[127.09926,37.59215],[127.09924,37.59215],[127.09923,37.59215],[127.09921,37.59214],[127.0992,37.59214],[127.09918,37.59213],[127.09888,37.59159]]}},{"type":"Feature","properties":{"class":"minor","highway":"residential","sidewalk":"unknown","lanes":0,"name":"경춘로20번길","oneway":false},"geometry":{"type":"LineString","coordinates":[[127.11654,37.59986],[127.11612,37.59986],[127.116,37.59986],[127.11599,37.59986],[127.11598,37.59985],[127.11598,37.59984],[127.11599,37.59967],[127.116,37.59966],[127.11601,37.59965],[127.11602,37.59964],[127.11612,37.59964],[127.11643,37.59964],[127.11645,37.59964],[127.11646,37.59965],[127.11648,37.59966],[127.11648,37.59967]]}},{"type":"Feature","properties":{"class":"alley","highway":"pedestrian","sidewalk":"unknown","lanes":0,"name":"","oneway":false},"geometry":{"type":"LineString","coordinates":[[127.11606,37.59983],[127.11606,37.59968],[127.11612,37.59968],[127.11617,37.59968],[127.11617,37.59978],[127.11617,37.59983],[127.11612,37.59983],[127.11606,37.59983]]}},{"type":"Feature","properties":{"class":"alley","highway":"service","sidewalk":"unknown","lanes":0,"name":"용마산로","oneway":false},"geometry":{"type":"LineString","coordinates":[[127.09948,37.59653],[127.10015,37.59651],[127.10026,37.59651]]}},{"type":"Feature","properties":{"class":"alley","highway":"service","sidewalk":"unknown","lanes":0,"name":"","oneway":false},"geometry":{"type":"LineString","coordinates":[[127.09989,37.59663],[127.09989,37.59676],[127.09989,37.59676],[127.0999,37.59676],[127.0999,37.59677],[127.0999,37.59677],[127.0999,37.59677],[127.0999,37.59677],[127.09991,37.59677],[127.10016,37.59677],[127.10027,37.59677]]}},{"type":"Feature","properties":{"class":"alley","highway":"service","sidewalk":"unknown","lanes":0,"name":"","oneway":false},"geometry":{"type":"LineString","coordinates":[[127.10077,37.59517],[127.10091,37.59513]]}},{"type":"Feature","properties":{"class":"alley","highway":"service","sidewalk":"unknown","lanes":0,"name":"용마공원로","oneway":false},"geometry":{"type":"LineString","coordinates":[[127.10104,37.595],[127.10091,37.59476],[127.10087,37.59468]]}},{"type":"Feature","properties":{"class":"alley","highway":"service","sidewalk":"unknown","lanes":0,"name":"용마공원로3길","oneway":false},"geometry":{"type":"LineString","coordinates":[[127.10144,37.59567],[127.10129,37.59562]]}},{"type":"Feature","properties":{"class":"alley","highway":"service","sidewalk":"unknown","lanes":0,"name":"용마공원로","oneway":false},"geometry":{"type":"LineString","coordinates":[[127.10144,37.59452],[127.10167,37.59393],[127.10167,37.59392],[127.10167,37.59391],[127.10166,37.5939],[127.10165,37.5939],[127.10137,37.59382]]}},{"type":"Feature","properties":{"class":"alley","highway":"service","sidewalk":"unknown","lanes":0,"name":"용마공원로5길","oneway":false},"geometry":{"type":"LineString","coordinates":[[127.10208,37.59462],[127.10222,37.59425],[127.10195,37.59418]]}},{"type":"Feature","properties":{"class":"alley","highway":"service","sidewalk":"unknown","lanes":0,"name":"","oneway":false},"geometry":{"type":"LineString","coordinates":[[127.11193,37.59885],[127.11197,37.59891],[127.11198,37.59896],[127.11198,37.59929],[127.11198,37.59932],[127.11199,37.59936]]}},{"type":"Feature","properties":{"class":"minor","highway":"residential","sidewalk":"unknown","lanes":0,"name":"","oneway":false},"geometry":{"type":"LineString","coordinates":[[127.11418,37.59887],[127.11422,37.59883],[127.11431,37.59874],[127.11437,37.59867],[127.11452,37.59848],[127.11463,37.59835]]}},{"type":"Feature","properties":{"class":"alley","highway":"service","sidewalk":"unknown","lanes":0,"name":"","oneway":false},"geometry":{"type":"LineString","coordinates":[[127.10055,37.58876],[127.10059,37.58882],[127.10073,37.58906],[127.10074,37.58908],[127.10077,37.58909],[127.10079,37.58908],[127.10131,37.58892],[127.10132,37.58891],[127.10133,37.5889],[127.10133,37.58888],[127.10128,37.58879],[127.10127,37.58877],[127.10124,37.58876],[127.10122,37.58876],[127.10085,37.58874],[127.10082,37.58875],[127.10079,37.58876],[127.10059,37.58882]]}},{"type":"Feature","properties":{"class":"minor","highway":"residential","sidewalk":"unknown","lanes":0,"name":"용마산로96길","oneway":false},"geometry":{"type":"LineString","coordinates":[[127.10206,37.589],[127.1019,37.58906],[127.10175,37.58911],[127.10151,37.58918],[127.10121,37.58928],[127.10107,37.58933],[127.10093,37.58937],[127.10083,37.5894]]}},{"type":"Feature","properties":{"class":"alley","highway":"service","sidewalk":"unknown","lanes":0,"name":"","oneway":false},"geometry":{"type":"LineString","coordinates":[[127.10096,37.58914],[127.10107,37.58933]]}},{"type":"Feature","properties":{"class":"alley","highway":"service","sidewalk":"unknown","lanes":0,"name":"","oneway":false},"geometry":{"type":"LineString","coordinates":[[127.10083,37.58918],[127.10093,37.58937]]}},{"type":"Feature","properties":{"class":"alley","highway":"service","sidewalk":"unknown","lanes":0,"name":"","oneway":false},"geometry":{"type":"LineString","coordinates":[[127.10044,37.58938],[127.10069,37.58929]]}},{"type":"Feature","properties":{"class":"minor","highway":"residential","sidewalk":"unknown","lanes":0,"name":"","oneway":false},"geometry":{"type":"LineString","coordinates":[[127.10229,37.58826],[127.10239,37.58841],[127.10239,37.58842],[127.10239,37.58844],[127.10237,37.58847],[127.10207,37.58889],[127.10205,37.58892],[127.10204,37.58894],[127.10204,37.58895],[127.10206,37.589]]}},{"type":"Feature","properties":{"class":"alley","highway":"service","sidewalk":"unknown","lanes":0,"name":"","oneway":false},"geometry":{"type":"LineString","coordinates":[[127.1019,37.58871],[127.10205,37.58859],[127.10208,37.58857],[127.1021,37.58856],[127.10237,37.58847]]}},{"type":"Feature","properties":{"class":"alley","highway":"service","sidewalk":"unknown","lanes":0,"name":"","oneway":false},"geometry":{"type":"LineString","coordinates":[[127.10167,37.58865],[127.10196,37.58839]]}},{"type":"Feature","properties":{"class":"alley","highway":"service","sidewalk":"unknown","lanes":0,"name":"","oneway":false},"geometry":{"type":"LineString","coordinates":[[127.10144,37.58774],[127.10152,37.58791]]}},{"type":"Feature","properties":{"class":"alley","highway":"service","sidewalk":"unknown","lanes":0,"name":"","oneway":false},"geometry":{"type":"LineString","coordinates":[[127.10116,37.5885],[127.10113,37.58833],[127.10112,37.58827],[127.10111,37.58823],[127.10109,37.58819],[127.10108,37.58815],[127.10107,37.58813],[127.10099,37.58798],[127.10089,37.58779]]}},{"type":"Feature","properties":{"class":"alley","highway":"service","sidewalk":"unknown","lanes":0,"name":"","oneway":false},"geometry":{"type":"LineString","coordinates":[[127.10071,37.58849],[127.10103,37.58834],[127.10106,37.58833],[127.10109,37.58832],[127.10113,37.58833],[127.10117,37.58833],[127.10121,37.58832],[127.10154,37.58826]]}},{"type":"Feature","properties":{"class":"alley","highway":"service","sidewalk":"unknown","lanes":0,"name":"","oneway":false},"geometry":{"type":"LineString","coordinates":[[127.10059,37.58834],[127.10099,37.58814],[127.10104,37.58813],[127.10107,37.58813],[127.1011,37.58813],[127.10115,37.58813],[127.1012,37.58812],[127.10148,37.58806]]}},{"type":"Feature","properties":{"class":"alley","highway":"service","sidewalk":"unknown","lanes":0,"name":"","oneway":false},"geometry":{"type":"LineString","coordinates":[[127.10028,37.58825],[127.10039,37.5882],[127.10088,37.58799]]}},{"type":"Feature","properties":{"class":"alley","highway":"service","sidewalk":"unknown","lanes":0,"name":"","oneway":false},"geometry":{"type":"LineString","coordinates":[[127.10026,37.58801],[127.10039,37.5882]]}},{"type":"Feature","properties":{"class":"alley","highway":"service","sidewalk":"unknown","lanes":0,"name":"","oneway":false},"geometry":{"type":"LineString","coordinates":[[127.10141,37.58788],[127.10099,37.58798]]}},{"type":"Feature","properties":{"class":"alley","highway":"service","sidewalk":"unknown","lanes":0,"name":"","oneway":false},"geometry":{"type":"LineString","coordinates":[[127.10083,37.58864],[127.10071,37.58849],[127.10059,37.58834],[127.10057,37.58831]]}},{"type":"Feature","properties":{"class":"alley","highway":"service","sidewalk":"unknown","lanes":0,"name":"","oneway":false},"geometry":{"type":"LineString","coordinates":[[127.1016,37.58842],[127.10154,37.58826],[127.10148,37.58806],[127.10141,37.58788]]}},{"type":"Feature","properties":{"class":"minor","highway":"residential","sidewalk":"unknown","lanes":0,"name":"용마산로94길","oneway":false},"geometry":{"type":"LineString","coordinates":[[127.10012,37.58808],[127.10026,37.58801],[127.10042,37.58793],[127.10075,37.58782]]}},{"type":"Feature","properties":{"class":"alley","highway":"service","sidewalk":"unknown","lanes":0,"name":"용마산로94길","oneway":false},"geometry":{"type":"LineString","coordinates":[[127.10138,37.58745],[127.10169,37.58738]]}},{"type":"Feature","properties":{"class":"minor","highway":"residential","sidewalk":"unknown","lanes":0,"name":"용마산로94길","oneway":false},"geometry":{"type":"LineString","coordinates":[[127.10027,37.58714],[127.10015,37.58714],[127.10012,37.58714],[127.10008,37.58714],[127.09997,37.58713],[127.09996,37.58713],[127.09996,37.58711],[127.09997,37.58692]]}},{"type":"Feature","properties":{"class":"alley","highway":"service","sidewalk":"unknown","lanes":0,"name":"용마산로94길","oneway":false},"geometry":{"type":"LineString","coordinates":[[127.10016,37.58695],[127.10015,37.58714]]}},{"type":"Feature","properties":{"class":"major","highway":"primary","sidewalk":"likely","lanes":5,"name":"망우로","oneway":true},"geometry":{"type":"LineString","coordinates":[[127.1021,37.60026],[127.10126,37.60011],[127.10067,37.59998],[127.10042,37.59991]]}},{"type":"Feature","properties":{"class":"major","highway":"primary","sidewalk":"likely","lanes":5,"name":"망우로","oneway":true},"geometry":{"type":"LineString","coordinates":[[127.09956,37.59963],[127.09967,37.59965],[127.10018,37.59975],[127.10042,37.59981]]}},{"type":"Feature","properties":{"class":"alley","highway":"service","sidewalk":"unknown","lanes":0,"name":"용마공원로5길","oneway":false},"geometry":{"type":"LineString","coordinates":[[127.10278,37.59471],[127.10288,37.59446],[127.10288,37.59444],[127.10288,37.59443],[127.10287,37.59443],[127.10286,37.59442],[127.10276,37.5944],[127.10265,37.59437]]}},{"type":"Feature","properties":{"class":"alley","highway":"service","sidewalk":"unknown","lanes":0,"name":"용마공원로5길","oneway":false},"geometry":{"type":"LineString","coordinates":[[127.10276,37.5944],[127.10281,37.59425],[127.10282,37.59423],[127.10283,37.59422],[127.10294,37.59414],[127.10301,37.59409],[127.10303,37.59407],[127.10304,37.59405],[127.10304,37.59403],[127.10304,37.59401],[127.10304,37.5938]]}},{"type":"Feature","properties":{"class":"minor","highway":"residential","sidewalk":"unknown","lanes":0,"name":"용마공원로5길","oneway":false},"geometry":{"type":"LineString","coordinates":[[127.10268,37.59377],[127.10271,37.59369],[127.10277,37.59353],[127.10277,37.59352],[127.10276,37.59352],[127.10275,37.59351],[127.1026,37.59348]]}},{"type":"Feature","properties":{"class":"minor","highway":"residential","sidewalk":"unknown","lanes":0,"name":"용마공원로9길","oneway":false},"geometry":{"type":"LineString","coordinates":[[127.10271,37.59369],[127.10299,37.59379],[127.10302,37.5938],[127.10304,37.5938],[127.10309,37.5938],[127.10312,37.5938],[127.10315,37.59379],[127.10318,37.59378],[127.1032,37.59377],[127.10323,37.59375],[127.10331,37.59368],[127.10332,37.59367],[127.10334,37.59366],[127.10368,37.59351]]}},{"type":"Feature","properties":{"class":"alley","highway":"service","sidewalk":"unknown","lanes":0,"name":"","oneway":false},"geometry":{"type":"LineString","coordinates":[[127.10306,37.59429],[127.10305,37.59428],[127.10303,37.59427],[127.10302,37.59425],[127.10294,37.59414]]}},{"type":"Feature","properties":{"class":"alley","highway":"service","sidewalk":"unknown","lanes":0,"name":"용마공원로5길","oneway":false},"geometry":{"type":"LineString","coordinates":[[127.10222,37.59425],[127.10225,37.59417]]}}]}