{"type":"FeatureCollection","features":[{"type":"Feature","properties":{"class":"major","highway":"trunk","sidewalk":"likely","lanes":1,"name":"강변북로","oneway":true},"geometry":{"type":"LineString","coordinates":[[127.16121,37.58184],[127.16427,37.5834]]}},{"type":"Feature","properties":{"class":"major","highway":"trunk","sidewalk":"likely","lanes":1,"name":"강변북로","oneway":true},"geometry":{"type":"LineString","coordinates":[[127.16117,37.58188],[127.16083,37.58172],[127.16042,37.58154]]}},{"type":"Feature","properties":{"class":"major","highway":"trunk","sidewalk":"likely","lanes":1,"name":"강변북로","oneway":true},"geometry":{"type":"LineString","coordinates":[[127.16424,37.58343],[127.16117,37.58188]]}},{"type":"Feature","properties":{"class":"major","highway":"motorway_link","sidewalk":"likely","lanes":0,"name":"","oneway":true},"geometry":{"type":"LineString","coordinates":[[127.15905,37.58065],[127.15952,37.58081],[127.16026,37.58119],[127.16083,37.58144],[127.16113,37.58155],[127.16126,37.58161],[127.1613,37.58166],[127.16136,37.58172]]}},{"type":"Feature","properties":{"class":"major","highway":"motorway_link","sidewalk":"likely","lanes":0,"name":"","oneway":true},"geometry":{"type":"LineString","coordinates":[[127.16078,37.58215],[127.16048,37.58191],[127.16041,37.58184],[127.16027,37.5817],[127.16013,37.58161],[127.15999,37.58157],[127.15983,37.58155],[127.15972,37.58155],[127.15955,37.58169]]}},{"type":"Feature","properties":{"class":"major","highway":"motorway_link","sidewalk":"likely","lanes":0,"name":"","oneway":true},"geometry":{"type":"LineString","coordinates":[[127.16136,37.58172],[127.16142,37.58185],[127.16144,37.582],[127.16135,37.58213],[127.16129,37.58217]]}},{"type":"Feature","properties":{"class":"major","highway":"trunk","sidewalk":"likely","lanes":3,"name":"강변북로","oneway":true},"geometry":{"type":"LineString","coordinates":[[127.16017,37.58141],[127.1593,37.58093],[127.15839,37.58046],[127.15792,37.58023]]}},{"type":"Feature","properties":{"class":"major","highway":"trunk","sidewalk":"likely","lanes":3,"name":"강변북로","oneway":true},"geometry":{"type":"LineString","coordinates":[[127.15905,37.58065],[127.16061,37.58149]]}},{"type":"Feature","properties":{"class":"major","highway":"tertiary","sidewalk":"likely","lanes":0,"name":"왕숙천로","oneway":true},"geometry":{"type":"LineString","coordinates":[[127.16204,37.5842],[127.16195,37.58399],[127.16186,37.58377],[127.16156,37.58306],[127.16145,37.58286]]}},{"type":"Feature","properties":{"class":"major","highway":"tertiary","sidewalk":"likely","lanes":0,"name":"왕숙천로","oneway":true},"geometry":{"type":"LineString","coordinates":[[127.16239,37.58756],[127.16217,37.58654],[127.16199,37.58559],[127.16183,37.58487],[127.1615,37.58317],[127.16145,37.58286]]}},{"type":"Feature","properties":{"class":"major","highway":"trunk_link","sidewalk":"likely","lanes":0,"name":"왕숙천로","oneway":true},"geometry":{"type":"LineString","coordinates":[[127.16117,37.58195],[127.16109,37.58197],[127.16106,37.582],[127.16105,37.58203]]}},{"type":"Feature","properties":{"class":"major","highway":"motorway_link","sidewalk":"likely","lanes":0,"name":"","oneway":true},"geometry":{"type":"LineString","coordinates":[[127.16078,37.58215],[127.1605,37.58184],[127.16043,37.58175],[127.16035,37.58168],[127.16023,37.5816],[127.16012,37.58154],[127.15998,37.58151],[127.15978,37.58148]]}},{"type":"Feature","properties":{"class":"minor","highway":"unclassified","sidewalk":"unknown","lanes":0,"name":"","oneway":true},"geometry":{"type":"LineString","coordinates":[[127.16144,37.582],[127.16163,37.58255],[127.16177,37.58294],[127.1619,37.58341],[127.16196,37.58378],[127.16198,37.58391],[127.16204,37.5842]]}},{"type":"Feature","properties":{"class":"major","highway":"motorway_link","sidewalk":"likely","lanes":0,"name":"","oneway":true},"geometry":{"type":"LineString","coordinates":[[127.16129,37.58217],[127.16121,37.58223],[127.16109,37.58225]]}},{"type":"Feature","properties":{"class":"major","highway":"trunk_link","sidewalk":"likely","lanes":0,"name":"왕숙천로","oneway":true},"geometry":{"type":"LineString","coordinates":[[127.16105,37.58203],[127.16082,37.58178]]}},{"type":"Feature","properties":{"class":"major","highway":"tertiary","sidewalk":"likely","lanes":0,"name":"왕숙천로","oneway":false},"geometry":{"type":"LineString","coordinates":[[127.16145,37.58286],[127.16134,37.58262],[127.16105,37.58203]]}},{"type":"Feature","properties":{"class":"major","highway":"trunk","sidewalk":"likely","lanes":3,"name":"강변북로","oneway":true},"geometry":{"type":"LineString","coordinates":[[127.16082,37.58178],[127.16042,37.58154]]}},{"type":"Feature","properties":{"class":"major","highway":"trunk","sidewalk":"likely","lanes":2,"name":"강변북로","oneway":true},"geometry":{"type":"LineString","coordinates":[[127.16116,37.58174],[127.16422,37.58329]]}},{"type":"Feature","properties":{"class":"major","highway":"trunk","sidewalk":"likely","lanes":2,"name":"강변북로","oneway":true},"geometry":{"type":"LineString","coordinates":[[127.16061,37.58149],[127.16116,37.58174]]}},{"type":"Feature","properties":{"class":"major","highway":"trunk","sidewalk":"likely","lanes":2,"name":"강변북로","oneway":true},"geometry":{"type":"LineString","coordinates":[[127.16429,37.58354],[127.16121,37.58197]]}},{"type":"Feature","properties":{"class":"alley","highway":"pedestrian","sidewalk":"unknown","lanes":0,"name":"수석교 아래 쉼터","oneway":false},"geometry":{"type":"LineString","coordinates":[[127.1637,37.58327],[127.16369,37.58317],[127.1637,37.58313],[127.16371,37.58306],[127.16373,37.583],[127.16374,37.58297],[127.16398,37.58308],[127.16392,37.58324],[127.1639,37.58331],[127.16388,37.58337],[127.1637,37.58327]]}},{"type":"Feature","properties":{"class":"alley","highway":"pedestrian","sidewalk":"unknown","lanes":0,"name":"수석교 아래 쉼터","oneway":false},"geometry":{"type":"LineString","coordinates":[[127.16356,37.58322],[127.16356,37.58317],[127.16356,37.58314],[127.16357,37.58307],[127.1636,37.58301],[127.16364,37.58295],[127.16366,37.58293],[127.16363,37.58292],[127.16339,37.58281],[127.1634,37.58314],[127.16356,37.58322]]}},{"type":"Feature","properties":{"class":"alley","highway":"pedestrian","sidewalk":"unknown","lanes":0,"name":"","oneway":false},"geometry":{"type":"LineString","coordinates":[[127.16352,37.58262],[127.16352,37.58264],[127.16351,37.58265],[127.16351,37.58267],[127.16351,37.58268],[127.16351,37.58268],[127.16351,37.58269],[127.16351,37.5827],[127.16352,37.58271],[127.16353,37.58273],[127.16354,37.58274],[127.16355,37.58275],[127.16357,37.58276],[127.16358,37.58277],[127.1636,37.58277],[127.16362,37.58277],[127.16364,37.58278],[127.16366,37.58277],[127.16367,37.58277],[127.16369,37.58277],[127.16371,37.58276],[127.16372,37.58275],[127.16373,37.58274],[127.16374,37.58273],[127.16375,37.58272],[127.16376,37.5827],[127.16376,37.58269],[127.16376,37.58268],[127.16376,37.58266],[127.16376,37.58265],[127.16375,37.58263],[127.16375,37.58262],[127.16374,37.58261],[127.16373,37.5826],[127.16372,37.58259],[127.1637,37.58259],[127.16369,37.58258],[127.16367,37.58257],[127.16365,37.58257],[127.16364,37.58257],[127.16362,37.58257],[127.16361,37.58257],[127.1636,37.58258],[127.16358,37.58258],[127.16357,37.58259],[127.16355,37.5826],[127.16354,37.58261],[127.16352,37.58262]]}},{"type":"Feature","properties":{"class":"alley","highway":"service","sidewalk":"unknown","lanes":0,"name":"","oneway":false},"geometry":{"type":"LineString","coordinates":[[127.16134,37.58262],[127.1613,37.58289],[127.16129,37.58305],[127.16134,37.58328],[127.16136,37.58355],[127.16132,37.5836],[127.16121,37.58367],[127.16107,37.58367],[127.16055,37.58365],[127.16016,37.58363],[127.16015,37.58367],[127.15977,37.58374],[127.15948,37.58375]]}},{"type":"Feature","properties":{"class":"major","highway":"motorway_link","sidewalk":"likely","lanes":0,"name":"","oneway":true},"geometry":{"type":"LineString","coordinates":[[127.16017,37.58141],[127.15989,37.5814]]}},{"type":"Feature","properties":{"class":"major","highway":"motorway_link","sidewalk":"likely","lanes":0,"name":"","oneway":true},"geometry":{"type":"LineString","coordinates":[[127.16109,37.58225],[127.16097,37.58224],[127.16086,37.5822],[127.16078,37.58215]]}},{"type":"Feature","properties":{"class":"major","highway":"trunk","sidewalk":"likely","lanes":2,"name":"강변북로","oneway":true},"geometry":{"type":"LineString","coordinates":[[127.16121,37.58197],[127.16117,37.58195],[127.16082,37.58178]]}},{"type":"Feature","properties":{"class":"major","highway":"trunk","sidewalk":"likely","lanes":4,"name":"강변북로","oneway":true},"geometry":{"type":"LineString","coordinates":[[127.16042,37.58154],[127.16017,37.58141]]}},{"type":"Feature","properties":{"class":"major","highway":"trunk","sidewalk":"likely","lanes":1,"name":"강변북로","oneway":true},"geometry":{"type":"LineString","coordinates":[[127.16061,37.58149],[127.16105,37.58176],[127.16121,37.58184]]}}]}