{"type":"FeatureCollection","features":[{"type":"Feature","properties":{"class":"major","highway":"motorway","sidewalk":"likely","lanes":4,"name":"수도권제1순환고속도로","oneway":true},"geometry":{"type":"LineString","coordinates":[[126.75533,37.57852],[126.75551,37.57923],[126.75572,37.57992],[126.75605,37.58079],[126.75637,37.58146],[126.75666,37.58201],[126.75695,37.58249],[126.75728,37.58299],[126.75784,37.58373],[126.75864,37.58461],[126.75945,37.58538],[126.76369,37.58924],[126.7653,37.59075],[126.76594,37.59132],[126.76624,37.59159],[126.76652,37.59182],[126.76766,37.5927],[126.76817,37.59311],[126.76858,37.59342],[126.76879,37.59357],[126.76897,37.5937],[126.76933,37.59393],[126.77026,37.5945],[126.77105,37.59498],[126.77185,37.59544],[126.77195,37.5955],[126.77231,37.59568],[126.77398,37.59655]]}},{"type":"Feature","properties":{"class":"major","highway":"motorway_link","sidewalk":"no","lanes":0,"name":"","oneway":true},"geometry":{"type":"LineString","coordinates":[[126.77405,37.59644],[126.77426,37.59655]]}},{"type":"Feature","properties":{"class":"major","highway":"motorway","sidewalk":"likely","lanes":4,"name":"수도권제1순환고속도로","oneway":true},"geometry":{"type":"LineString","coordinates":[[126.77417,37.59666],[126.775,37.59708]]}},{"type":"Feature","properties":{"class":"major","highway":"motorway","sidewalk":"likely","lanes":4,"name":"수도권제1순환고속도로","oneway":true},"geometry":{"type":"LineString","coordinates":[[126.77398,37.59655],[126.77417,37.59666]]}},{"type":"Feature","properties":{"class":"major","highway":"motorway","sidewalk":"likely","lanes":4,"name":"수도권제1순환고속도로","oneway":true},"geometry":{"type":"LineString","coordinates":[[126.77388,37.59669],[126.77337,37.59641],[126.77207,37.59576],[126.77146,37.59543],[126.77111,37.59523],[126.77069,37.59498],[126.77021,37.59469],[126.77011,37.59462],[126.76976,37.59439],[126.76904,37.59392],[126.76875,37.59373],[126.7686,37.59364],[126.76843,37.59351],[126.76823,37.59335],[126.76803,37.5932],[126.76754,37.5928],[126.76636,37.59187],[126.76516,37.59082],[126.76175,37.5877],[126.7599,37.58601],[126.75931,37.58548],[126.75849,37.58471],[126.75777,37.58392],[126.75744,37.58351],[126.75698,37.58285],[126.7566,37.58225],[126.75623,37.58153],[126.7559,37.58084],[126.75548,37.57979],[126.75532,37.57927],[126.75516,37.57854]]}},{"type":"Feature","properties":{"class":"major","highway":"motorway","sidewalk":"likely","lanes":4,"name":"수도권제1순환고속도로","oneway":true},"geometry":{"type":"LineString","coordinates":[[126.77407,37.59679],[126.77388,37.59669]]}},{"type":"Feature","properties":{"class":"major","highway":"motorway_link","sidewalk":"no","lanes":0,"name":"","oneway":true},"geometry":{"type":"LineString","coordinates":[[126.77529,37.59827],[126.77514,37.59819],[126.77499,37.59808],[126.77482,37.59791],[126.77461,37.59769],[126.77437,37.59744]]}},{"type":"Feature","properties":{"class":"major","highway":"motorway_link","sidewalk":"no","lanes":0,"name":"","oneway":true},"geometry":{"type":"LineString","coordinates":[[126.77437,37.59744],[126.77399,37.5971]]}},{"type":"Feature","properties":{"class":"major","highway":"motorway_link","sidewalk":"no","lanes":0,"name":"","oneway":true},"geometry":{"type":"LineString","coordinates":[[126.77371,37.59688],[126.77353,37.59675],[126.77326,37.59656],[126.77287,37.59634],[126.77265,37.59623],[126.77187,37.59584],[126.77112,37.59539],[126.77069,37.59511],[126.77042,37.5949],[126.77011,37.59462]]}},{"type":"Feature","properties":{"class":"major","highway":"motorway_link","sidewalk":"no","lanes":0,"name":"","oneway":true},"geometry":{"type":"LineString","coordinates":[[126.77399,37.5971],[126.77371,37.59688]]}},{"type":"Feature","properties":{"class":"major","highway":"motorway_link","sidewalk":"no","lanes":0,"name":"","oneway":true},"geometry":{"type":"LineString","coordinates":[[126.77426,37.59655],[126.77514,37.597]]}},{"type":"Feature","properties":{"class":"major","highway":"motorway","sidewalk":"likely","lanes":4,"name":"수도권제1순환고속도로","oneway":true},"geometry":{"type":"LineString","coordinates":[[126.77749,37.59838],[126.7798,37.59956],[126.78224,37.60085],[126.78378,37.60185]]}},{"type":"Feature","properties":{"class":"major","highway":"motorway","sidewalk":"likely","lanes":4,"name":"수도권제1순환고속도로","oneway":true},"geometry":{"type":"LineString","coordinates":[[126.77726,37.59845],[126.77711,37.59837]]}},{"type":"Feature","properties":{"class":"major","highway":"motorway","sidewalk":"likely","lanes":4,"name":"수도권제1순환고속도로","oneway":true},"geometry":{"type":"LineString","coordinates":[[126.77711,37.59837],[126.77606,37.59782]]}},{"type":"Feature","properties":{"class":"major","highway":"motorway_link","sidewalk":"no","lanes":0,"name":"","oneway":true},"geometry":{"type":"LineString","coordinates":[[126.77391,37.59775],[126.77387,37.59764],[126.77382,37.5975],[126.77381,37.59734],[126.77381,37.59719],[126.77383,37.59704],[126.77388,37.59686],[126.77398,37.59665],[126.77409,37.59651],[126.77422,37.59636],[126.77439,37.59622],[126.77459,37.59611],[126.77484,37.596],[126.77509,37.59593],[126.77538,37.59588],[126.7759,37.59586]]}},{"type":"Feature","properties":{"class":"major","highway":"motorway_link","sidewalk":"no","lanes":0,"name":"","oneway":true},"geometry":{"type":"LineString","coordinates":[[126.77484,37.59853],[126.77471,37.59849],[126.77454,37.59841],[126.77442,37.59833],[126.77425,37.59818],[126.77411,37.59804],[126.77399,37.59789],[126.77391,37.59775]]}},{"type":"Feature","properties":{"class":"major","highway":"motorway","sidewalk":"likely","lanes":4,"name":"수도권제1순환고속도로","oneway":true},"geometry":{"type":"LineString","coordinates":[[126.775,37.59708],[126.77622,37.59773]]}},{"type":"Feature","properties":{"class":"major","highway":"motorway","sidewalk":"likely","lanes":4,"name":"수도권제1순환고속도로","oneway":true},"geometry":{"type":"LineString","coordinates":[[126.77622,37.59773],[126.77732,37.59828]]}},{"type":"Feature","properties":{"class":"major","highway":"motorway","sidewalk":"likely","lanes":4,"name":"수도권제1순환고속도로","oneway":true},"geometry":{"type":"LineString","coordinates":[[126.77484,37.59718],[126.77407,37.59679]]}},{"type":"Feature","properties":{"class":"major","highway":"motorway","sidewalk":"likely","lanes":4,"name":"수도권제1순환고속도로","oneway":true},"geometry":{"type":"LineString","coordinates":[[126.77606,37.59782],[126.77484,37.59718]]}},{"type":"Feature","properties":{"class":"major","highway":"motorway","sidewalk":"likely","lanes":5,"name":"수도권제1순환고속도로","oneway":true},"geometry":{"type":"LineString","coordinates":[[126.77732,37.59828],[126.77749,37.59838]]}},{"type":"Feature","properties":{"class":"major","highway":"motorway_link","sidewalk":"no","lanes":0,"name":"","oneway":true},"geometry":{"type":"LineString","coordinates":[[126.77284,37.59902],[126.77303,37.59881],[126.77322,37.59865],[126.77337,37.59847],[126.77343,37.59838],[126.77351,37.59826],[126.77356,37.59814],[126.77361,37.59799],[126.77364,37.59777],[126.77365,37.59761],[126.77363,37.59743],[126.7736,37.5973],[126.77353,37.59711],[126.77341,37.5969],[126.77324,37.59669],[126.77307,37.59654],[126.77284,37.59637],[126.77265,37.59623]]}},{"type":"Feature","properties":{"class":"major","highway":"motorway_link","sidewalk":"no","lanes":0,"name":"","oneway":true},"geometry":{"type":"LineString","coordinates":[[126.77925,37.59947],[126.77845,37.59918],[126.77798,37.59899],[126.77777,37.59892],[126.77756,37.59886],[126.77725,37.5988],[126.77702,37.59877],[126.77656,37.59874],[126.7762,37.59875],[126.77543,37.59879],[126.77459,37.59883],[126.77407,37.59886],[126.77381,37.5989],[126.7736,37.59895],[126.77341,37.59901],[126.77314,37.59912],[126.77273,37.59931]]}},{"type":"Feature","properties":{"class":"major","highway":"motorway_link","sidewalk":"no","lanes":0,"name":"","oneway":true},"geometry":{"type":"LineString","coordinates":[[126.77702,37.59877],[126.77658,37.59871],[126.77618,37.59868],[126.77574,37.59866],[126.7754,37.59864],[126.77512,37.5986],[126.77484,37.59853]]}},{"type":"Feature","properties":{"class":"major","highway":"motorway_link","sidewalk":"no","lanes":0,"name":"","oneway":true},"geometry":{"type":"LineString","coordinates":[[126.77635,37.59765],[126.77691,37.59798],[126.77732,37.59828]]}},{"type":"Feature","properties":{"class":"major","highway":"motorway_link","sidewalk":"no","lanes":0,"name":"","oneway":true},"geometry":{"type":"LineString","coordinates":[[126.77514,37.597],[126.77549,37.59719],[126.77618,37.59755],[126.77635,37.59765]]}},{"type":"Feature","properties":{"class":"major","highway":"motorway_link","sidewalk":"no","lanes":0,"name":"","oneway":true},"geometry":{"type":"LineString","coordinates":[[126.77185,37.59544],[126.77283,37.59569],[126.77306,37.59575],[126.77324,37.59578],[126.77343,37.59581],[126.77364,37.59584],[126.77383,37.59586],[126.77405,37.59587],[126.77453,37.59586],[126.7747,37.59586],[126.77525,37.59583],[126.77542,37.59582],[126.77557,37.59583],[126.7759,37.59586],[126.77644,37.59596],[126.7766,37.59598],[126.77676,37.59599],[126.77693,37.59599],[126.77712,37.59598],[126.77727,37.59595],[126.7775,37.59589],[126.77767,37.59583],[126.77782,37.59576],[126.77866,37.59536]]}},{"type":"Feature","properties":{"class":"major","highway":"motorway_link","sidewalk":"no","lanes":0,"name":"","oneway":true},"geometry":{"type":"LineString","coordinates":[[126.77808,37.59711],[126.77802,37.59743],[126.77797,37.59761],[126.77788,37.59779],[126.77778,37.59793],[126.77763,37.59808],[126.77747,37.5982],[126.77728,37.59832],[126.77702,37.59843],[126.77681,37.59849],[126.77659,37.59852],[126.77637,37.59854],[126.77619,37.59853],[126.77602,37.59852],[126.77588,37.59849],[126.77573,37.59846],[126.7756,37.59842],[126.77547,37.59836],[126.77529,37.59827]]}},{"type":"Feature","properties":{"class":"major","highway":"motorway_link","sidewalk":"no","lanes":0,"name":"","oneway":true},"geometry":{"type":"LineString","coordinates":[[126.78082,37.5943],[126.78078,37.59435],[126.78066,37.59447],[126.7804,37.59464],[126.77979,37.595],[126.77925,37.59536],[126.77885,37.59563],[126.77858,37.59584],[126.77837,37.59606],[126.77826,37.59624],[126.77817,37.59644],[126.77813,37.59656],[126.77811,37.59667],[126.77809,37.59685],[126.77808,37.59711],[126.7781,37.59747],[126.77816,37.5978],[126.77825,37.59804],[126.77836,37.59827],[126.7785,37.59848],[126.77865,37.59867],[126.77882,37.59886],[126.77901,37.59901],[126.77918,37.59914],[126.77948,37.59932],[126.7798,37.59956]]}},{"type":"Feature","properties":{"class":"major","highway":"motorway_link","sidewalk":"no","lanes":0,"name":"","oneway":true},"geometry":{"type":"LineString","coordinates":[[126.77572,37.59723],[126.77602,37.59695],[126.77617,37.59679],[126.77622,37.5967],[126.77624,37.59663],[126.77625,37.59655],[126.77625,37.59647],[126.77622,37.59639],[126.77618,37.59632],[126.77612,37.59625],[126.77605,37.59619],[126.77597,37.59614],[126.77584,37.59609],[126.77564,37.59606],[126.77554,37.59605],[126.77543,37.59607],[126.77529,37.59611],[126.77512,37.59619],[126.77501,37.59629],[126.77496,37.59639],[126.77493,37.59648],[126.77492,37.59657],[126.77494,37.59669],[126.77499,37.59681],[126.77504,37.59687],[126.7751,37.59692],[126.77518,37.59698]]}},{"type":"Feature","properties":{"class":"major","highway":"motorway_link","sidewalk":"no","lanes":0,"name":"","oneway":true},"geometry":{"type":"LineString","coordinates":[[126.77618,37.59755],[126.77641,37.59761]]}},{"type":"Feature","properties":{"class":"major","highway":"motorway_link","sidewalk":"no","lanes":0,"name":"","oneway":true},"geometry":{"type":"LineString","coordinates":[[126.77231,37.59568],[126.77379,37.59631],[126.77405,37.59644]]}},{"type":"Feature","properties":{"class":"major","highway":"motorway","sidewalk":"likely","lanes":4,"name":"수도권제1순환고속도로","oneway":true},"geometry":{"type":"LineString","coordinates":[[126.78368,37.60194],[126.78207,37.60094],[126.77925,37.59947],[126.77726,37.59845]]}},{"type":"Feature","properties":{"class":"major","highway":"motorway","sidewalk":"likely","lanes":3,"name":"인천국제공항고속도로","oneway":true},"geometry":{"type":"LineString","coordinates":[[126.77639,37.58059],[126.77769,37.58087],[126.77836,37.58101]]}},{"type":"Feature","properties":{"class":"major","highway":"motorway","sidewalk":"likely","lanes":3,"name":"인천국제공항고속도로","oneway":true},"geometry":{"type":"LineString","coordinates":[[126.77654,37.58076],[126.77184,37.57974],[126.77122,37.5796],[126.77076,37.5795],[126.77029,37.57938],[126.76991,37.57927],[126.76944,37.57912],[126.76892,37.57894],[126.7685,37.57878],[126.76801,37.57857],[126.76759,37.57838],[126.76712,37.57814],[126.76697,37.57805]]}},{"type":"Feature","properties":{"class":"major","highway":"tertiary","sidewalk":"likely","lanes":4,"name":"정서진로","oneway":false},"geometry":{"type":"LineString","coordinates":[[126.78546,37.59273],[126.78539,37.59268],[126.78498,37.59242],[126.78484,37.59233],[126.78467,37.5922],[126.78432,37.59191],[126.7841,37.59174],[126.78369,37.5914],[126.78324,37.59103],[126.78263,37.59055],[126.78167,37.5898],[126.78115,37.58938],[126.78069,37.58904],[126.78047,37.58886],[126.7803,37.58873],[126.78007,37.58856],[126.77986,37.58842],[126.7796,37.58823]]}},{"type":"Feature","properties":{"class":"major","highway":"tertiary_link","sidewalk":"likely","lanes":0,"name":"","oneway":true},"geometry":{"type":"LineString","coordinates":[[126.77962,37.58784],[126.78021,37.58747],[126.78088,37.58708],[126.78171,37.58662]]}},{"type":"Feature","properties":{"class":"major","highway":"tertiary_link","sidewalk":"likely","lanes":0,"name":"","oneway":true},"geometry":{"type":"LineString","coordinates":[[126.78,37.58818],[126.77995,37.5882],[126.77988,37.58822],[126.7798,37.58823],[126.77972,37.58824],[126.7796,37.58823]]}},{"type":"Feature","properties":{"class":"major","highway":"primary","sidewalk":"likely","lanes":0,"name":"김포대로","oneway":true},"geometry":{"type":"LineString","coordinates":[[126.78098,37.59421],[126.78082,37.5943],[126.77888,37.59543],[126.77752,37.59629],[126.77592,37.5973],[126.77468,37.59806],[126.77273,37.59931],[126.77224,37.59962],[126.77216,37.59967],[126.77186,37.59985],[126.77157,37.60006],[126.77138,37.60021],[126.77121,37.60036],[126.77101,37.60055],[126.77083,37.60076],[126.77081,37.60078],[126.77057,37.60106],[126.77038,37.6013],[126.76993,37.60182],[126.76978,37.602],[126.76965,37.60212],[126.76955,37.6022],[126.7693,37.60239],[126.76908,37.60252],[126.76885,37.60263],[126.7686,37.60274],[126.76747,37.60315]]}},{"type":"Feature","properties":{"class":"major","highway":"tertiary_link","sidewalk":"likely","lanes":0,"name":"","oneway":true},"geometry":{"type":"LineString","coordinates":[[126.78,37.58818],[126.77995,37.58823],[126.77993,37.58828],[126.77994,37.58834],[126.77998,37.58842],[126.78007,37.58856]]}},{"type":"Feature","properties":{"class":"major","highway":"tertiary_link","sidewalk":"likely","lanes":0,"name":"","oneway":true},"geometry":{"type":"LineString","coordinates":[[126.77903,37.58778],[126.77924,37.58787],[126.77934,37.58789],[126.7794,37.58789],[126.77947,37.58789],[126.7795,37.58788],[126.77954,37.58786],[126.77962,37.58784]]}},{"type":"Feature","properties":{"class":"major","highway":"tertiary","sidewalk":"likely","lanes":0,"name":"드림로","oneway":true},"geometry":{"type":"LineString","coordinates":[[126.77991,37.58791],[126.78042,37.58754],[126.78077,37.58728],[126.78101,37.58712],[126.78147,37.58679],[126.78171,37.58662],[126.7819,37.5865],[126.78221,37.58632],[126.78235,37.58625],[126.78247,37.58619],[126.78269,37.58611],[126.78296,37.58602],[126.78323,37.58594],[126.78345,37.5859],[126.78385,37.58582],[126.78424,37.58576],[126.78463,37.5857],[126.78476,37.58568],[126.78495,37.58564],[126.78508,37.5856],[126.7852,37.58554],[126.78527,37.5855],[126.78535,37.58544],[126.78542,37.58536],[126.78549,37.58528],[126.78558,37.5851]]}},{"type":"Feature","properties":{"class":"major","highway":"tertiary","sidewalk":"likely","lanes":4,"name":"드림로","oneway":false},"geometry":{"type":"LineString","coordinates":[[126.74704,37.57658],[126.75127,37.57598],[126.75183,37.57594],[126.75232,37.57593],[126.75268,37.57595],[126.7531,37.57599],[126.75353,37.57605],[126.75404,37.57614],[126.75445,37.57624],[126.755,37.57644],[126.75532,37.57657],[126.75991,37.57882],[126.76595,37.58178]]}},{"type":"Feature","properties":{"class":"major","highway":"tertiary_link","sidewalk":"likely","lanes":0,"name":"","oneway":true},"geometry":{"type":"LineString","coordinates":[[126.77946,37.58816],[126.77946,37.58809],[126.77947,37.588],[126.7795,37.58794],[126.77954,37.58788],[126.77962,37.58784]]}},{"type":"Feature","properties":{"class":"major","highway":"tertiary","sidewalk":"likely","lanes":2,"name":"정서진로","oneway":false},"geometry":{"type":"LineString","coordinates":[[126.7796,37.58823],[126.77946,37.58816],[126.77903,37.58778],[126.77857,37.5874],[126.77812,37.58705],[126.77757,37.58662],[126.77739,37.58647],[126.77721,37.58634],[126.77702,37.58622],[126.77685,37.58611],[126.77651,37.5859],[126.7762,37.5857],[126.77589,37.58547],[126.77572,37.58534],[126.77562,37.58526],[126.7756,37.58523],[126.77548,37.58513],[126.7753,37.58493],[126.7749,37.58454],[126.77482,37.58445],[126.77474,37.58438],[126.77461,37.58426],[126.77446,37.58415],[126.77419,37.58395],[126.77267,37.5828],[126.76992,37.58076],[126.76956,37.58054],[126.76888,37.58014],[126.76829,37.57971],[126.76731,37.57884],[126.76464,37.57687],[126.76331,37.57583],[126.76205,37.57495],[126.76106,37.57443],[126.76046,37.57416],[126.75999,37.574]]}},{"type":"Feature","properties":{"class":"major","highway":"tertiary","sidewalk":"likely","lanes":0,"name":"아라육로","oneway":true},"geometry":{"type":"LineString","coordinates":[[126.79095,37.6014],[126.79077,37.60146],[126.79056,37.60154],[126.7904,37.60162],[126.79024,37.60171],[126.79011,37.60178],[126.79,37.60185],[126.78987,37.60194],[126.78966,37.6021],[126.78953,37.6022],[126.78934,37.60233],[126.78916,37.60243],[126.78896,37.60255],[126.78875,37.60266],[126.78847,37.60279],[126.78839,37.60283],[126.78807,37.60296],[126.7879,37.60303],[126.78765,37.6031],[126.78754,37.60313],[126.78741,37.60315],[126.7873,37.60315],[126.78719,37.60314],[126.78709,37.60311],[126.78697,37.60307],[126.78689,37.60302],[126.7868,37.60296],[126.78661,37.60281],[126.78619,37.60247],[126.78559,37.60199],[126.78522,37.60169],[126.78498,37.6015],[126.78433,37.60107],[126.78353,37.60056],[126.78147,37.59929],[126.78141,37.59926],[126.78069,37.59881],[126.78045,37.59865],[126.78032,37.59855],[126.78017,37.59843],[126.78004,37.59829],[126.77998,37.59822],[126.77992,37.59813],[126.77985,37.59802],[126.7798,37.59795],[126.77976,37.59786],[126.77973,37.59775],[126.7797,37.59766],[126.77967,37.59752],[126.77965,37.59741],[126.77964,37.59729],[126.77964,37.59718],[126.77965,37.59708],[126.77968,37.59695],[126.77971,37.59682],[126.77975,37.5967],[126.7798,37.59658],[126.77986,37.59648],[126.77992,37.59638],[126.77997,37.59631],[126.78006,37.59619],[126.78017,37.59608],[126.78039,37.5959]]}},{"type":"Feature","properties":{"class":"major","highway":"motorway_link","sidewalk":"no","lanes":0,"name":"","oneway":true},"geometry":{"type":"LineString","coordinates":[[126.77782,37.59576],[126.77902,37.5948],[126.77932,37.59459],[126.77978,37.59428],[126.78095,37.59359],[126.78117,37.59347],[126.7813,37.59341],[126.78143,37.59337],[126.78157,37.59333],[126.78171,37.5933],[126.78185,37.59329],[126.78204,37.59328],[126.78218,37.59329],[126.78234,37.59331],[126.7825,37.59334]]}},{"type":"Feature","properties":{"class":"major","highway":"motorway_link","sidewalk":"no","lanes":3,"name":"","oneway":true},"geometry":{"type":"LineString","coordinates":[[126.7653,37.59075],[126.76747,37.5919],[126.76807,37.59236]]}},{"type":"Feature","properties":{"class":"major","highway":"motorway_link","sidewalk":"no","lanes":3,"name":"","oneway":true},"geometry":{"type":"LineString","coordinates":[[126.77011,37.59462],[126.76785,37.5937],[126.76712,37.59315]]}},{"type":"Feature","properties":{"class":"major","highway":"motorway","sidewalk":"likely","lanes":3,"name":"인천국제공항고속도로","oneway":true},"geometry":{"type":"LineString","coordinates":[[126.77985,37.58147],[126.77852,37.58118]]}},{"type":"Feature","properties":{"class":"major","highway":"motorway","sidewalk":"likely","lanes":3,"name":"인천국제공항고속도로","oneway":true},"geometry":{"type":"LineString","coordinates":[[126.78138,37.58179],[126.78074,37.58166],[126.78022,37.58155],[126.77985,37.58147]]}},{"type":"Feature","properties":{"class":"major","highway":"motorway","sidewalk":"likely","lanes":3,"name":"인천국제공항고속도로","oneway":true},"geometry":{"type":"LineString","coordinates":[[126.77852,37.58118],[126.77654,37.58076]]}},{"type":"Feature","properties":{"class":"major","highway":"motorway","sidewalk":"likely","lanes":3,"name":"인천국제공항고속도로","oneway":true},"geometry":{"type":"LineString","coordinates":[[126.77836,37.58101],[126.77977,37.58131]]}},{"type":"Feature","properties":{"class":"major","highway":"motorway","sidewalk":"likely","lanes":3,"name":"인천국제공항고속도로","oneway":true},"geometry":{"type":"LineString","coordinates":[[126.77977,37.58131],[126.78075,37.58153],[126.78129,37.58164]]}},{"type":"Feature","properties":{"class":"minor","highway":"residential","sidewalk":"unknown","lanes":0,"name":"벌말로584번길","oneway":false},"geometry":{"type":"LineString","coordinates":[[126.7798,37.5803],[126.78331,37.57823],[126.78337,37.57819]]}},{"type":"Feature","properties":{"class":"major","highway":"tertiary","sidewalk":"likely","lanes":4,"name":"드림로","oneway":true},"geometry":{"type":"LineString","coordinates":[[126.7771,37.58985],[126.77991,37.58791]]}},{"type":"Feature","properties":{"class":"major","highway":"tertiary","sidewalk":"likely","lanes":2,"name":"","oneway":false},"geometry":{"type":"LineString","coordinates":[[126.77026,37.58467],[126.77004,37.58489],[126.76997,37.585],[126.76991,37.58512],[126.76988,37.58522],[126.76986,37.58534],[126.76987,37.58546],[126.76989,37.58557],[126.76992,37.58568],[126.77001,37.58582],[126.77067,37.5869],[126.77076,37.58697],[126.77094,37.58696],[126.77244,37.58622],[126.77241,37.58614]]}},{"type":"Feature","properties":{"class":"major","highway":"tertiary","sidewalk":"likely","lanes":2,"name":"","oneway":false},"geometry":{"type":"LineString","coordinates":[[126.77288,37.58254],[126.77026,37.58467]]}},{"type":"Feature","properties":{"class":"minor","highway":"unclassified","sidewalk":"unknown","lanes":0,"name":"","oneway":false},"geometry":{"type":"LineString","coordinates":[[126.77511,37.58059],[126.77499,37.5807]]}},{"type":"Feature","properties":{"class":"major","highway":"tertiary","sidewalk":"likely","lanes":2,"name":"","oneway":false},"geometry":{"type":"LineString","coordinates":[[126.77499,37.5807],[126.77288,37.58254]]}},{"type":"Feature","properties":{"class":"minor","highway":"unclassified","sidewalk":"unknown","lanes":0,"name":"","oneway":false},"geometry":{"type":"LineString","coordinates":[[126.77526,37.58021],[126.77511,37.58059]]}},{"type":"Feature","properties":{"class":"major","highway":"tertiary_link","sidewalk":"likely","lanes":1,"name":"","oneway":true},"geometry":{"type":"LineString","coordinates":[[126.76672,37.58215],[126.76732,37.5825],[126.76763,37.58264],[126.76787,37.58273],[126.76807,37.5828],[126.76824,37.5829]]}},{"type":"Feature","properties":{"class":"major","highway":"motorway","sidewalk":"likely","lanes":3,"name":"인천국제공항고속도로","oneway":true},"geometry":{"type":"LineString","coordinates":[[126.76691,37.57787],[126.76722,37.57804],[126.76759,37.57823],[126.76793,37.57839],[126.76835,37.57858],[126.76888,37.57878],[126.76938,37.57895],[126.76991,37.57913],[126.77045,37.57929],[126.77095,37.57942],[126.77141,37.57953],[126.77185,37.57963],[126.77639,37.58059]]}},{"type":"Feature","properties":{"class":"alley","highway":"service","sidewalk":"unknown","lanes":1,"name":"","oneway":false},"geometry":{"type":"LineString","coordinates":[[126.76777,37.57892],[126.76796,37.57907],[126.76819,37.57924],[126.76837,37.57937],[126.76866,37.57957],[126.76881,37.57967],[126.76888,37.57971],[126.76894,37.57976],[126.76905,37.57986],[126.7691,37.57991],[126.76916,37.57996],[126.76931,37.58005],[126.76945,37.58014],[126.7695,37.58017],[126.76954,37.5802],[126.76962,37.58027],[126.76978,37.58041],[126.76989,37.58052],[126.76997,37.58058],[126.77018,37.58074],[126.77056,37.58102],[126.77082,37.5812],[126.77115,37.58145],[126.77143,37.58167],[126.77161,37.58181],[126.77179,37.58195],[126.7721,37.58219],[126.77228,37.58234],[126.77239,37.58243],[126.77243,37.58247],[126.77247,37.58252],[126.77253,37.5826],[126.77259,37.58266],[126.77266,37.58272],[126.77273,37.58276],[126.77283,37.58279],[126.77291,37.58282],[126.77296,37.58285],[126.77303,37.5829],[126.7732,37.58304],[126.77332,37.58313],[126.77356,37.5833],[126.77385,37.5835],[126.77413,37.58372],[126.77451,37.584],[126.77486,37.58427],[126.77536,37.58465],[126.77575,37.58494],[126.77583,37.58501],[126.77588,37.58507],[126.77592,37.5851],[126.77603,37.58517],[126.77638,37.58542],[126.77666,37.58562],[126.7769,37.5858],[126.77717,37.58602],[126.77746,37.58625],[126.77762,37.58639],[126.77771,37.58647],[126.7778,37.58655],[126.77797,37.58679],[126.77805,37.58692],[126.77812,37.58705]]}},{"type":"Feature","properties":{"class":"major","highway":"tertiary_link","sidewalk":"likely","lanes":1,"name":"","oneway":true},"geometry":{"type":"LineString","coordinates":[[126.76824,37.5829],[126.76807,37.58289],[126.768,37.5829],[126.76796,37.58292],[126.76793,37.58297],[126.76792,37.58302],[126.76793,37.5831]]}},{"type":"Feature","properties":{"class":"major","highway":"tertiary","sidewalk":"likely","lanes":2,"name":"","oneway":false},"geometry":{"type":"LineString","coordinates":[[126.76824,37.5829],[126.76858,37.58304],[126.77013,37.58381],[126.77042,37.58395],[126.77098,37.58441],[126.77134,37.58481],[126.77241,37.58614]]}},{"type":"Feature","properties":{"class":"major","highway":"motorway_link","sidewalk":"no","lanes":0,"name":"","oneway":true},"geometry":{"type":"LineString","coordinates":[[126.77518,37.59698],[126.77549,37.59719]]}},{"type":"Feature","properties":{"class":"major","highway":"motorway_link","sidewalk":"no","lanes":0,"name":"","oneway":true},"geometry":{"type":"LineString","coordinates":[[126.77641,37.59761],[126.77659,37.5977],[126.77674,37.59776],[126.77686,37.5978],[126.77707,37.59784],[126.77724,37.59784],[126.77737,37.59782],[126.77752,37.59776],[126.77765,37.59768],[126.77772,37.5976],[126.7778,37.59748],[126.77783,37.59738],[126.77783,37.59726],[126.77781,37.59716],[126.77776,37.59707],[126.77766,37.59697],[126.77758,37.59691],[126.77745,37.59685],[126.77732,37.59681],[126.77719,37.5968],[126.77706,37.59681],[126.7769,37.59684],[126.77673,37.59692],[126.7763,37.59718],[126.77592,37.5973]]}},{"type":"Feature","properties":{"class":"minor","highway":"unclassified","sidewalk":"unknown","lanes":1,"name":"","oneway":false},"geometry":{"type":"LineString","coordinates":[[126.78072,37.58346],[126.78063,37.5835],[126.78053,37.58351],[126.78048,37.5835],[126.78043,37.58343],[126.78038,37.58342],[126.78032,37.58345],[126.78028,37.5835],[126.78029,37.58372],[126.78002,37.58393],[126.77993,37.58394],[126.77974,37.58392],[126.7796,37.58394],[126.7794,37.58399]]}},{"type":"Feature","properties":{"class":"alley","highway":"service","sidewalk":"unknown","lanes":1,"name":"평리길","oneway":false},"geometry":{"type":"LineString","coordinates":[[126.77499,37.5807],[126.7757,37.58083],[126.77581,37.58086],[126.77588,37.58091],[126.77596,37.58098],[126.77604,37.5811],[126.77615,37.58123],[126.77638,37.58152],[126.77655,37.58176],[126.77681,37.58209],[126.7769,37.5822],[126.77697,37.5823],[126.77706,37.58245],[126.77716,37.58261],[126.77721,37.58268],[126.77726,37.58275],[126.77738,37.58289],[126.77745,37.58296],[126.77749,37.58303],[126.77753,37.58311],[126.77756,37.58319],[126.77759,37.58329],[126.7776,37.58335],[126.7776,37.58343],[126.77757,37.58361],[126.77755,37.58383],[126.77754,37.58395],[126.77754,37.58404],[126.77756,37.58414],[126.7776,37.58424],[126.77766,37.58436],[126.77776,37.58464],[126.77792,37.585],[126.77796,37.58508],[126.77808,37.58535],[126.77815,37.58547],[126.77825,37.58569],[126.77829,37.58575],[126.77833,37.58581],[126.77839,37.58589],[126.77858,37.58612],[126.77881,37.58639]]}},{"type":"Feature","properties":{"class":"minor","highway":"unclassified","sidewalk":"unknown","lanes":1,"name":"","oneway":false},"geometry":{"type":"LineString","coordinates":[[126.7794,37.58399],[126.77877,37.58414]]}},{"type":"Feature","properties":{"class":"alley","highway":"service","sidewalk":"unknown","lanes":0,"name":"평리길","oneway":false},"geometry":{"type":"LineString","coordinates":[[126.77717,37.58602],[126.77815,37.58547]]}},{"type":"Feature","properties":{"class":"minor","highway":"unclassified","sidewalk":"unknown","lanes":0,"name":"","oneway":false},"geometry":{"type":"LineString","coordinates":[[126.77742,37.58359],[126.77611,37.58198]]}},{"type":"Feature","properties":{"class":"alley","highway":"service","sidewalk":"unknown","lanes":0,"name":"","oneway":false},"geometry":{"type":"LineString","coordinates":[[126.77655,37.58176],[126.77611,37.58198],[126.7758,37.58214],[126.77548,37.5823],[126.77518,37.58246],[126.77485,37.58263],[126.77425,37.58294],[126.77407,37.58303],[126.77386,37.58313],[126.77356,37.5833]]}},{"type":"Feature","properties":{"class":"minor","highway":"unclassified","sidewalk":"unknown","lanes":0,"name":"","oneway":false},"geometry":{"type":"LineString","coordinates":[[126.77776,37.58464],[126.77878,37.5846],[126.77866,37.58417]]}},{"type":"Feature","properties":{"class":"minor","highway":"unclassified","sidewalk":"unknown","lanes":0,"name":"","oneway":false},"geometry":{"type":"LineString","coordinates":[[126.77536,37.58465],[126.77742,37.58359],[126.77757,37.58361]]}},{"type":"Feature","properties":{"class":"alley","highway":"service","sidewalk":"unknown","lanes":0,"name":"김포대로319번길","oneway":false},"geometry":{"type":"LineString","coordinates":[[126.7662,37.58709],[126.76494,37.58774],[126.76421,37.58811],[126.76379,37.58833],[126.7635,37.58849],[126.76322,37.58865]]}},{"type":"Feature","properties":{"class":"minor","highway":"unclassified","sidewalk":"unknown","lanes":1,"name":"","oneway":false},"geometry":{"type":"LineString","coordinates":[[126.77877,37.58414],[126.77866,37.58417],[126.77766,37.58436]]}},{"type":"Feature","properties":{"class":"minor","highway":"unclassified","sidewalk":"unknown","lanes":0,"name":"김포대로319번길","oneway":false},"geometry":{"type":"LineString","coordinates":[[126.7667,37.59141],[126.76687,37.59132],[126.76741,37.59105],[126.76799,37.59075],[126.76848,37.59049]]}},{"type":"Feature","properties":{"class":"major","highway":"tertiary","sidewalk":"likely","lanes":0,"name":"수기로","oneway":false},"geometry":{"type":"LineString","coordinates":[[126.76747,37.60315],[126.7674,37.60303],[126.76734,37.60295],[126.76729,37.60288],[126.76726,37.60283],[126.76721,37.60278],[126.76715,37.60272],[126.76702,37.60261],[126.76681,37.60243],[126.7667,37.60232],[126.76658,37.60219],[126.76625,37.60188],[126.76614,37.60179],[126.76605,37.6017],[126.76596,37.6016],[126.7659,37.60152],[126.76584,37.60141],[126.7658,37.60132],[126.76578,37.60124],[126.76577,37.60116],[126.76577,37.60102],[126.76576,37.60065],[126.76577,37.60048],[126.76578,37.60016],[126.7658,37.59982],[126.76579,37.59936],[126.76578,37.59893],[126.76579,37.59864],[126.76579,37.59853],[126.76579,37.59834],[126.76578,37.59808],[126.76578,37.59789],[126.76576,37.59773],[126.7657,37.59742],[126.76562,37.59705],[126.76555,37.59675],[126.76548,37.59652],[126.76539,37.59629],[126.76528,37.59602],[126.76515,37.59578],[126.765,37.59554],[126.76479,37.59528],[126.76457,37.59504],[126.76429,37.59475],[126.76385,37.59429]]}},{"type":"Feature","properties":{"class":"minor","highway":"residential","sidewalk":"unknown","lanes":0,"name":"수기로","oneway":false},"geometry":{"type":"LineString","coordinates":[[126.7657,37.59742],[126.76594,37.59738],[126.76613,37.59734],[126.76626,37.5973],[126.76638,37.59724],[126.76649,37.59716],[126.76744,37.59644],[126.76813,37.5959],[126.76905,37.59515]]}},{"type":"Feature","properties":{"class":"major","highway":"tertiary","sidewalk":"likely","lanes":0,"name":"은행영사정로","oneway":false},"geometry":{"type":"LineString","coordinates":[[126.78361,37.60374],[126.78356,37.60361],[126.78347,37.60346],[126.78337,37.60332],[126.78327,37.60322],[126.78318,37.60313],[126.78304,37.60302],[126.78292,37.60293],[126.7828,37.60286],[126.78267,37.60279],[126.78252,37.60273],[126.78239,37.60268],[126.7822,37.60262],[126.7818,37.60256],[126.78138,37.6025],[126.78098,37.60244],[126.78053,37.60237],[126.78014,37.60231],[126.77981,37.60228],[126.7796,37.60226],[126.77938,37.60226],[126.77916,37.60227],[126.77893,37.6023],[126.77872,37.60234],[126.77848,37.60239],[126.77802,37.60251],[126.77703,37.60278],[126.77687,37.60282],[126.77664,37.60286],[126.77643,37.60288],[126.77618,37.6029],[126.77593,37.6029],[126.77574,37.60288],[126.77547,37.60283],[126.77526,37.60278],[126.7751,37.60274],[126.77495,37.60268],[126.77454,37.60252],[126.77429,37.60241],[126.77401,37.60229],[126.77371,37.60214],[126.77348,37.60202],[126.77334,37.60194],[126.77317,37.60184],[126.7731,37.60178],[126.77297,37.60167],[126.77287,37.60156],[126.77278,37.60146],[126.77266,37.60131],[126.77254,37.60116],[126.77247,37.60105],[126.77242,37.60095],[126.7724,37.60087],[126.77236,37.60073],[126.77234,37.60062],[126.77232,37.60056],[126.77229,37.6005],[126.77225,37.60042],[126.77219,37.60031],[126.77206,37.60011],[126.77186,37.59985]]}},{"type":"Feature","properties":{"class":"major","highway":"primary_link","sidewalk":"likely","lanes":0,"name":"","oneway":true},"geometry":{"type":"LineString","coordinates":[[126.78237,37.59371],[126.78228,37.59374],[126.7822,37.59377],[126.78191,37.59391],[126.78084,37.59447],[126.77979,37.595],[126.77936,37.59523],[126.77888,37.59543]]}},{"type":"Feature","properties":{"class":"minor","highway":"unclassified","sidewalk":"unknown","lanes":0,"name":"김포대로319번길","oneway":false},"geometry":{"type":"LineString","coordinates":[[126.76562,37.59197],[126.76581,37.59188]]}},{"type":"Feature","properties":{"class":"minor","highway":"residential","sidewalk":"unknown","lanes":0,"name":"","oneway":false},"geometry":{"type":"LineString","coordinates":[[126.76528,37.59215],[126.76562,37.59197]]}},{"type":"Feature","properties":{"class":"minor","highway":"unclassified","sidewalk":"unknown","lanes":0,"name":"김포대로319번길","oneway":false},"geometry":{"type":"LineString","coordinates":[[126.76848,37.59049],[126.76864,37.59041]]}},{"type":"Feature","properties":{"class":"minor","highway":"unclassified","sidewalk":"unknown","lanes":0,"name":"김포대로319번길","oneway":false},"geometry":{"type":"LineString","coordinates":[[126.76581,37.59188],[126.7667,37.59141]]}},{"type":"Feature","properties":{"class":"minor","highway":"unclassified","sidewalk":"unknown","lanes":0,"name":"김포대로319번길","oneway":false},"geometry":{"type":"LineString","coordinates":[[126.77161,37.58887],[126.77242,37.58844],[126.77308,37.58811],[126.77371,37.58778]]}},{"type":"Feature","properties":{"class":"alley","highway":"service","sidewalk":"unknown","lanes":0,"name":"당산길","oneway":false},"geometry":{"type":"LineString","coordinates":[[126.77371,37.58778],[126.77394,37.58806],[126.7743,37.58849],[126.7747,37.58897],[126.77487,37.5892],[126.77507,37.58943]]}},{"type":"Feature","properties":{"class":"minor","highway":"unclassified","sidewalk":"unknown","lanes":0,"name":"","oneway":false},"geometry":{"type":"LineString","coordinates":[[126.78027,37.58298],[126.77996,37.58265]]}},{"type":"Feature","properties":{"class":"minor","highway":"unclassified","sidewalk":"unknown","lanes":0,"name":"","oneway":false},"geometry":{"type":"LineString","coordinates":[[126.77526,37.58021],[126.77523,37.58009],[126.77495,37.57975],[126.77494,37.57963]]}},{"type":"Feature","properties":{"class":"major","highway":"tertiary","sidewalk":"likely","lanes":2,"name":"평리길","oneway":false},"geometry":{"type":"LineString","coordinates":[[126.77111,37.57983],[126.7713,37.57991],[126.77152,37.57998],[126.77209,37.58002],[126.77444,37.58057],[126.77499,37.5807]]}},{"type":"Feature","properties":{"class":"alley","highway":"service","sidewalk":"unknown","lanes":0,"name":"김포대로320번길","oneway":false},"geometry":{"type":"LineString","coordinates":[[126.77224,37.59962],[126.77232,37.59972],[126.77256,37.60003],[126.77269,37.60021],[126.77284,37.60041],[126.773,37.60063],[126.77315,37.60083],[126.77327,37.60098],[126.77336,37.60109],[126.77345,37.60118],[126.77357,37.60128],[126.77371,37.6014],[126.77383,37.60148],[126.77394,37.60155],[126.77404,37.60162],[126.77418,37.60169],[126.77437,37.60178],[126.77459,37.60188],[126.77491,37.60202],[126.77516,37.60212],[126.77528,37.60216],[126.77541,37.60219],[126.77555,37.60222],[126.77564,37.60224],[126.77593,37.60227],[126.7761,37.60228],[126.77629,37.60228],[126.77652,37.60227],[126.77663,37.60226],[126.7768,37.60223],[126.77705,37.60216],[126.77818,37.60187],[126.7785,37.60179],[126.7788,37.60171],[126.77889,37.6017],[126.77897,37.60168],[126.77915,37.60167],[126.77945,37.60166],[126.7796,37.60167],[126.77974,37.60169],[126.78024,37.60173],[126.7807,37.60178],[126.78109,37.60182],[126.78128,37.60184],[126.78138,37.60186],[126.78143,37.60187],[126.78147,37.6019],[126.7815,37.60194],[126.7815,37.60199],[126.7815,37.60202],[126.78151,37.60206],[126.78153,37.60208],[126.78157,37.6021]]}},{"type":"Feature","properties":{"class":"major","highway":"tertiary","sidewalk":"likely","lanes":1,"name":"인향로","oneway":false},"geometry":{"type":"LineString","coordinates":[[126.76604,37.59332],[126.7662,37.59345],[126.76633,37.59353],[126.76649,37.59363],[126.76691,37.59387],[126.76744,37.59418],[126.76809,37.59458],[126.76888,37.59505],[126.76905,37.59515],[126.76948,37.59541],[126.76976,37.59559],[126.76992,37.5957],[126.77002,37.59577],[126.77011,37.59584],[126.7702,37.59593],[126.77026,37.59602],[126.77031,37.59608],[126.77036,37.59619],[126.77041,37.59632],[126.77047,37.5965],[126.77061,37.59694],[126.77071,37.59725],[126.77084,37.59764]]}},{"type":"Feature","properties":{"class":"major","highway":"tertiary","sidewalk":"likely","lanes":0,"name":"인향로","oneway":false},"geometry":{"type":"LineString","coordinates":[[126.77186,37.59985],[126.77178,37.59973],[126.77157,37.59944],[126.7715,37.59932],[126.77142,37.59918],[126.77128,37.59892],[126.77119,37.59877],[126.77116,37.5987],[126.77112,37.59861],[126.77103,37.59831],[126.77084,37.59764]]}},{"type":"Feature","properties":{"class":"minor","highway":"residential","sidewalk":"unknown","lanes":0,"name":"인향로24번길","oneway":false},"geometry":{"type":"LineString","coordinates":[[126.76795,37.59982],[126.76787,37.59991],[126.76782,37.59995],[126.76774,37.60001],[126.76744,37.60022],[126.76732,37.6003],[126.76727,37.60034],[126.76725,37.60038],[126.76726,37.60041],[126.76729,37.60048],[126.76734,37.60054],[126.76742,37.60064],[126.76747,37.60073],[126.76751,37.60079],[126.76757,37.60083],[126.76763,37.60086],[126.76769,37.60089],[126.76774,37.60089],[126.7678,37.60088]]}},{"type":"Feature","properties":{"class":"alley","highway":"service","sidewalk":"unknown","lanes":0,"name":"","oneway":false},"geometry":{"type":"LineString","coordinates":[[126.76923,37.59894],[126.7687,37.59866],[126.76872,37.59844],[126.7693,37.59763],[126.76936,37.59749],[126.76939,37.59731],[126.76937,37.59712],[126.76932,37.59696],[126.76925,37.59683],[126.76919,37.59675],[126.76862,37.59634],[126.76813,37.5959]]}},{"type":"Feature","properties":{"class":"alley","highway":"service","sidewalk":"unknown","lanes":0,"name":"","oneway":false},"geometry":{"type":"LineString","coordinates":[[126.76813,37.5959],[126.76783,37.59557],[126.76755,37.59537],[126.76739,37.59529],[126.76717,37.59521],[126.76699,37.59518],[126.76679,37.59517],[126.76662,37.59516],[126.76645,37.5951],[126.76633,37.59502],[126.76627,37.59492],[126.76624,37.59479],[126.76618,37.59468],[126.76609,37.59458],[126.76544,37.59409],[126.7652,37.59397],[126.76488,37.59368]]}},{"type":"Feature","properties":{"class":"minor","highway":"residential","sidewalk":"unknown","lanes":0,"name":"수기로","oneway":false},"geometry":{"type":"LineString","coordinates":[[126.76795,37.59982],[126.76743,37.59982],[126.7669,37.59982],[126.76656,37.59982],[126.7658,37.59982]]}},{"type":"Feature","properties":{"class":"minor","highway":"residential","sidewalk":"unknown","lanes":0,"name":"인향로24번길","oneway":false},"geometry":{"type":"LineString","coordinates":[[126.77084,37.59764],[126.77074,37.59769],[126.77065,37.59775],[126.77048,37.5979],[126.77028,37.59809],[126.76988,37.59846],[126.76968,37.59863],[126.76955,37.59873],[126.76939,37.59884],[126.76923,37.59894],[126.76868,37.59932],[126.76865,37.59934],[126.7681,37.59972],[126.76795,37.59982]]}},{"type":"Feature","properties":{"class":"major","highway":"tertiary","sidewalk":"likely","lanes":2,"name":"김포대로320번길","oneway":true},"geometry":{"type":"LineString","coordinates":[[126.77216,37.59967],[126.77244,37.60005],[126.77271,37.60043],[126.77288,37.60068],[126.7731,37.60095],[126.7732,37.60109],[126.7733,37.6012],[126.7734,37.60131],[126.77354,37.60142],[126.77364,37.6015],[126.7738,37.60161],[126.77394,37.6017],[126.77407,37.60178],[126.77424,37.60186],[126.77449,37.60197],[126.77485,37.60212],[126.77513,37.60222],[126.77536,37.60229],[126.77553,37.60233],[126.77561,37.60235],[126.77592,37.60238],[126.77613,37.60239],[126.77634,37.60239],[126.77654,37.60237],[126.77669,37.60235],[126.77687,37.60231],[126.77712,37.60225],[126.77756,37.60214],[126.77806,37.60201],[126.77846,37.60191],[126.77867,37.60186],[126.77886,37.60182],[126.77906,37.6018],[126.77933,37.60178],[126.7795,37.60178],[126.7797,37.60179],[126.77999,37.60183],[126.78029,37.60186],[126.78081,37.60193]]}},{"type":"Feature","properties":{"class":"major","highway":"motorway_link","sidewalk":"no","lanes":3,"name":"","oneway":true},"geometry":{"type":"LineString","coordinates":[[126.76807,37.59236],[126.76849,37.5927],[126.76881,37.59303],[126.76935,37.59359],[126.77026,37.5945]]}},{"type":"Feature","properties":{"class":"major","highway":"motorway_link","sidewalk":"no","lanes":3,"name":"","oneway":true},"geometry":{"type":"LineString","coordinates":[[126.76712,37.59315],[126.76641,37.5926],[126.76583,37.59175],[126.76516,37.59082]]}},{"type":"Feature","properties":{"class":"alley","highway":"service","sidewalk":"unknown","lanes":0,"name":"수기로","oneway":false},"geometry":{"type":"LineString","coordinates":[[126.76343,37.59886],[126.76369,37.59882],[126.76385,37.59879],[126.76396,37.59878],[126.76406,37.59878],[126.76417,37.59878],[126.76429,37.5988]]}},{"type":"Feature","properties":{"class":"minor","highway":"residential","sidewalk":"unknown","lanes":0,"name":"수기로","oneway":false},"geometry":{"type":"LineString","coordinates":[[126.76429,37.5988],[126.7644,37.59881],[126.76463,37.59882],[126.76499,37.59882],[126.76509,37.59882],[126.76522,37.5988],[126.76539,37.59875],[126.76558,37.59869],[126.76569,37.59866],[126.76579,37.59864]]}},{"type":"Feature","properties":{"class":"major","highway":"primary","sidewalk":"likely","lanes":0,"name":"김포대로","oneway":true},"geometry":{"type":"LineString","coordinates":[[126.76605,37.60352],[126.76628,37.60346],[126.76648,37.60339],[126.7669,37.60323],[126.7674,37.60303],[126.76851,37.60262],[126.76876,37.60251],[126.76899,37.6024],[126.76926,37.60225],[126.76945,37.60211],[126.76973,37.60186],[126.76983,37.60174],[126.77,37.60155],[126.77049,37.60098],[126.77082,37.60059],[126.77106,37.60033],[126.77113,37.60026],[126.77119,37.6002],[126.77132,37.60009],[126.77161,37.59986],[126.77178,37.59973],[126.77203,37.59956],[126.77281,37.59905],[126.77284,37.59902],[126.7744,37.59806],[126.77572,37.59723],[126.77696,37.59646],[126.77866,37.59536],[126.78069,37.59419],[126.78086,37.59408]]}},{"type":"Feature","properties":{"class":"major","highway":"tertiary","sidewalk":"likely","lanes":4,"name":"드림로","oneway":true},"geometry":{"type":"LineString","coordinates":[[126.7703,37.58683],[126.77034,37.5869],[126.77048,37.58713],[126.77061,37.58737],[126.77089,37.58785],[126.77118,37.58834],[126.77135,37.58862],[126.77149,37.58886],[126.77168,37.58913],[126.77177,37.58925],[126.77188,37.58937],[126.77207,37.58957],[126.77222,37.5897],[126.77241,37.58984],[126.77261,37.58998],[126.7728,37.59009],[126.77296,37.59017],[126.77321,37.59028],[126.77343,37.59036],[126.77376,37.59045],[126.77401,37.5905],[126.77423,37.59054],[126.77453,37.59056],[126.77486,37.59056],[126.77506,37.59055],[126.77523,37.59054],[126.77543,37.59051],[126.77573,37.59045],[126.77595,37.59038],[126.77622,37.5903],[126.77648,37.59019],[126.77672,37.59007],[126.7769,37.58997],[126.7771,37.58985]]}},{"type":"Feature","properties":{"class":"alley","highway":"service","sidewalk":"unknown","lanes":0,"name":"김포대로319번길","oneway":false},"geometry":{"type":"LineString","coordinates":[[126.77167,37.59884],[126.77177,37.59881],[126.77187,37.59877],[126.77197,37.59873],[126.77212,37.59868],[126.77222,37.59864],[126.7723,37.59859],[126.77236,37.59856],[126.77244,37.59848]]}},{"type":"Feature","properties":{"class":"alley","highway":"service","sidewalk":"unknown","lanes":0,"name":"김포대로319번길","oneway":false},"geometry":{"type":"LineString","coordinates":[[126.77167,37.59884],[126.77163,37.59867],[126.77161,37.59856],[126.77158,37.59845],[126.77155,37.59832],[126.7715,37.59814],[126.7714,37.59783],[126.7713,37.59753],[126.77119,37.59719],[126.77111,37.59696],[126.77104,37.59674],[126.77098,37.59656],[126.7709,37.59631],[126.77088,37.59624],[126.77086,37.59615],[126.77082,37.596],[126.77079,37.59593],[126.77074,37.59581],[126.77068,37.59573],[126.77061,37.59563],[126.77053,37.59555],[126.77047,37.5955],[126.77025,37.59536],[126.77001,37.59521],[126.76973,37.59503],[126.76921,37.59472],[126.76896,37.59456],[126.76873,37.59442],[126.76849,37.59429],[126.76823,37.59414]]}},{"type":"Feature","properties":{"class":"alley","highway":"service","sidewalk":"unknown","lanes":0,"name":"김포대로319번길","oneway":false},"geometry":{"type":"LineString","coordinates":[[126.76823,37.59414],[126.76768,37.59382],[126.76711,37.59347],[126.76672,37.59322],[126.76661,37.59314],[126.76652,37.59307],[126.76643,37.59298],[126.76629,37.59282],[126.7661,37.59257],[126.76584,37.59222],[126.76572,37.59207],[126.76562,37.59197]]}},{"type":"Feature","properties":{"class":"alley","highway":"service","sidewalk":"unknown","lanes":0,"name":"김포대로319번길","oneway":false},"geometry":{"type":"LineString","coordinates":[[126.76963,37.59453],[126.77024,37.59422]]}},{"type":"Feature","properties":{"class":"alley","highway":"service","sidewalk":"unknown","lanes":0,"name":"당산길","oneway":false},"geometry":{"type":"LineString","coordinates":[[126.77326,37.59263],[126.774,37.59225],[126.77436,37.59207],[126.7747,37.59189],[126.77508,37.59169],[126.77553,37.59147],[126.77592,37.59126],[126.77636,37.59104]]}},{"type":"Feature","properties":{"class":"alley","highway":"service","sidewalk":"unknown","lanes":0,"name":"당산길","oneway":false},"geometry":{"type":"LineString","coordinates":[[126.77622,37.59575],[126.77642,37.59577],[126.77655,37.59578],[126.77667,37.59578],[126.77688,37.59577],[126.77707,37.59576],[126.77723,37.59573],[126.77742,37.59568],[126.77759,37.59562],[126.77781,37.59553],[126.77795,37.59545],[126.77812,37.59534],[126.77824,37.59525],[126.77839,37.59513],[126.77852,37.59503],[126.77865,37.59491],[126.77892,37.59468],[126.77897,37.59463],[126.77906,37.59456],[126.77911,37.5945],[126.77913,37.59447],[126.77913,37.59443],[126.77909,37.59437],[126.77899,37.59424],[126.77855,37.5937],[126.77821,37.59328],[126.77791,37.59292],[126.77769,37.59264],[126.77741,37.5923],[126.77706,37.59187],[126.7767,37.59144],[126.77636,37.59104]]}},{"type":"Feature","properties":{"class":"alley","highway":"service","sidewalk":"unknown","lanes":0,"name":"당산길","oneway":false},"geometry":{"type":"LineString","coordinates":[[126.77508,37.59398],[126.77575,37.59364],[126.77638,37.59331],[126.77704,37.59297],[126.77769,37.59264],[126.77792,37.59253],[126.77819,37.59238],[126.77876,37.59209],[126.77906,37.59193],[126.77933,37.5918],[126.77959,37.59167],[126.77987,37.59152]]}},{"type":"Feature","properties":{"class":"alley","highway":"service","sidewalk":"unknown","lanes":0,"name":"","oneway":false},"geometry":{"type":"LineString","coordinates":[[126.7766,37.58863],[126.77672,37.58872],[126.77678,37.58879],[126.77682,37.58884],[126.77686,37.58892],[126.77689,37.58899],[126.77691,37.58907],[126.77694,37.58917],[126.77696,37.58922],[126.77699,37.58926],[126.77702,37.5893],[126.77708,37.58936],[126.7772,37.58947],[126.77809,37.59016],[126.77846,37.59044],[126.77871,37.59063],[126.77897,37.59084],[126.77925,37.59105],[126.77952,37.59125],[126.77987,37.59152],[126.78012,37.59171],[126.7804,37.59192],[126.78065,37.59211],[126.78088,37.59229],[126.78096,37.59235],[126.78101,37.59238],[126.78107,37.59241],[126.7812,37.59247],[126.7813,37.59252],[126.78137,37.59257],[126.78173,37.59284],[126.78195,37.59299],[126.78203,37.59305],[126.78207,37.59309],[126.7821,37.59312],[126.78212,37.59323]]}},{"type":"Feature","properties":{"class":"alley","highway":"service","sidewalk":"unknown","lanes":0,"name":"당산길","oneway":false},"geometry":{"type":"LineString","coordinates":[[126.77576,37.59031],[126.77568,37.5902],[126.77559,37.59009],[126.77539,37.58984],[126.77507,37.58943]]}},{"type":"Feature","properties":{"class":"alley","highway":"service","sidewalk":"unknown","lanes":0,"name":"당산길","oneway":false},"geometry":{"type":"LineString","coordinates":[[126.77596,37.59056],[126.77576,37.59031]]}},{"type":"Feature","properties":{"class":"alley","highway":"service","sidewalk":"unknown","lanes":0,"name":"","oneway":false},"geometry":{"type":"LineString","coordinates":[[126.76896,37.59276],[126.76862,37.59249]]}},{"type":"Feature","properties":{"class":"alley","highway":"service","sidewalk":"unknown","lanes":0,"name":"","oneway":true},"geometry":{"type":"LineString","coordinates":[[126.76881,37.59303],[126.76889,37.59298],[126.76895,37.59293],[126.76897,37.59288],[126.76897,37.59282],[126.76896,37.59276]]}},{"type":"Feature","properties":{"class":"alley","highway":"service","sidewalk":"unknown","lanes":0,"name":"","oneway":true},"geometry":{"type":"LineString","coordinates":[[126.76896,37.59276],[126.76911,37.59286],[126.76917,37.5929],[126.76932,37.59303],[126.76934,37.59306],[126.76935,37.5931],[126.76935,37.5932],[126.76933,37.59338],[126.76932,37.59345],[126.76932,37.59349],[126.76933,37.59353],[126.76935,37.59359]]}},{"type":"Feature","properties":{"class":"alley","highway":"service","sidewalk":"unknown","lanes":0,"name":"","oneway":true},"geometry":{"type":"LineString","coordinates":[[126.76911,37.59286],[126.76922,37.59279],[126.76947,37.59303],[126.76935,37.5931]]}},{"type":"Feature","properties":{"class":"alley","highway":"service","sidewalk":"unknown","lanes":0,"name":"","oneway":true},"geometry":{"type":"LineString","coordinates":[[126.76895,37.59293],[126.76904,37.59289],[126.76911,37.59286]]}},{"type":"Feature","properties":{"class":"alley","highway":"service","sidewalk":"unknown","lanes":0,"name":"","oneway":false},"geometry":{"type":"LineString","coordinates":[[126.76922,37.59279],[126.76916,37.59274],[126.7691,37.5927]]}},{"type":"Feature","properties":{"class":"alley","highway":"service","sidewalk":"unknown","lanes":0,"name":"","oneway":true},"geometry":{"type":"LineString","coordinates":[[126.76889,37.59298],[126.76895,37.59303],[126.76935,37.5932]]}},{"type":"Feature","properties":{"class":"alley","highway":"service","sidewalk":"unknown","lanes":0,"name":"","oneway":true},"geometry":{"type":"LineString","coordinates":[[126.76895,37.59303],[126.76916,37.59327],[126.76932,37.59345]]}},{"type":"Feature","properties":{"class":"major","highway":"tertiary","sidewalk":"likely","lanes":0,"name":"태리로","oneway":false},"geometry":{"type":"LineString","coordinates":[[126.75353,37.59749],[126.75371,37.59725],[126.75386,37.59707],[126.75398,37.59695],[126.75412,37.59685],[126.75424,37.59677],[126.75449,37.59663],[126.75471,37.59652],[126.75512,37.59632],[126.7553,37.59624],[126.75547,37.59616],[126.75618,37.59586],[126.75635,37.59578],[126.75648,37.59574],[126.75663,37.5957],[126.75687,37.59565],[126.75713,37.59561],[126.75778,37.59551],[126.75894,37.59533],[126.75949,37.59521],[126.75977,37.59512],[126.76007,37.59501],[126.76051,37.59484],[126.76076,37.5947],[126.76104,37.59454],[126.7614,37.59432],[126.76212,37.5939],[126.76301,37.59337],[126.76387,37.59285],[126.76424,37.59264],[126.76445,37.59251],[126.76463,37.59241],[126.76474,37.59234],[126.76514,37.59213]]}},{"type":"Feature","properties":{"class":"major","highway":"tertiary","sidewalk":"likely","lanes":0,"name":"수기로","oneway":false},"geometry":{"type":"LineString","coordinates":[[126.76039,37.5906],[126.76161,37.59189],[126.76173,37.592],[126.7624,37.59272],[126.76301,37.59337],[126.76385,37.59429]]}},{"type":"Feature","properties":{"class":"alley","highway":"service","sidewalk":"unknown","lanes":0,"name":"","oneway":false},"geometry":{"type":"LineString","coordinates":[[126.76423,37.5906],[126.76396,37.59077]]}},{"type":"Feature","properties":{"class":"alley","highway":"service","sidewalk":"unknown","lanes":0,"name":"","oneway":false},"geometry":{"type":"LineString","coordinates":[[126.76396,37.59077],[126.76386,37.59084]]}},{"type":"Feature","properties":{"class":"alley","highway":"service","sidewalk":"unknown","lanes":0,"name":"","oneway":false},"geometry":{"type":"LineString","coordinates":[[126.76428,37.59056],[126.76423,37.5906]]}},{"type":"Feature","properties":{"class":"major","highway":"tertiary","sidewalk":"likely","lanes":0,"name":"인향로","oneway":false},"geometry":{"type":"LineString","coordinates":[[126.76604,37.59332],[126.76579,37.59298],[126.76551,37.59261],[126.7652,37.5922],[126.76514,37.59213],[126.76491,37.59187],[126.76466,37.59158],[126.76457,37.59148],[126.76448,37.59139],[126.7643,37.59123],[126.76386,37.59084],[126.76331,37.59033],[126.7627,37.58976],[126.76227,37.58936]]}},{"type":"Feature","properties":{"class":"minor","highway":"residential","sidewalk":"unknown","lanes":0,"name":"","oneway":false},"geometry":{"type":"LineString","coordinates":[[126.76915,37.6003],[126.76957,37.5998],[126.76991,37.5994]]}},{"type":"Feature","properties":{"class":"alley","highway":"service","sidewalk":"unknown","lanes":0,"name":"김포대로","oneway":false},"geometry":{"type":"LineString","coordinates":[[126.77281,37.59905],[126.77292,37.59882],[126.77297,37.59875],[126.77302,37.59868],[126.7731,37.59861],[126.77322,37.5985],[126.77332,37.59837],[126.77339,37.59827],[126.77344,37.59818],[126.77349,37.59805],[126.77353,37.59791],[126.77354,37.59779],[126.77353,37.59769],[126.77352,37.59756],[126.77348,37.5974],[126.77343,37.59728],[126.7734,37.5972],[126.77334,37.59712],[126.77327,37.59703],[126.77316,37.5969],[126.77308,37.59682],[126.77294,37.59671],[126.77282,37.59661],[126.77267,37.59652],[126.77251,37.59643],[126.77226,37.5963],[126.77192,37.59612],[126.77176,37.59603],[126.77158,37.59591],[126.77151,37.59589],[126.77143,37.59589]]}},{"type":"Feature","properties":{"class":"alley","highway":"service","sidewalk":"unknown","lanes":0,"name":"김포대로329번길","oneway":false},"geometry":{"type":"LineString","coordinates":[[126.77113,37.60026],[126.77103,37.60014],[126.77095,37.60007],[126.77085,37.6],[126.77073,37.5999],[126.77065,37.59985],[126.77057,37.59982],[126.7705,37.5998],[126.77034,37.59976],[126.77027,37.59975],[126.77018,37.59974]]}},{"type":"Feature","properties":{"class":"alley","highway":"service","sidewalk":"unknown","lanes":0,"name":"","oneway":false},"geometry":{"type":"LineString","coordinates":[[126.77065,37.59985],[126.77078,37.5998],[126.77095,37.59975]]}},{"type":"Feature","properties":{"class":"alley","highway":"service","sidewalk":"unknown","lanes":0,"name":"김포대로329번길","oneway":false},"geometry":{"type":"LineString","coordinates":[[126.77027,37.59975],[126.77032,37.59966],[126.77039,37.59959],[126.77042,37.59957],[126.77045,37.59957],[126.77049,37.59955],[126.77061,37.59946]]}},{"type":"Feature","properties":{"class":"alley","highway":"service","sidewalk":"unknown","lanes":0,"name":"","oneway":false},"geometry":{"type":"LineString","coordinates":[[126.77011,37.60018],[126.77014,37.60016],[126.77018,37.60014],[126.77024,37.60013],[126.77028,37.60011],[126.77032,37.60009],[126.77036,37.60005],[126.77043,37.59995],[126.7705,37.5998]]}},{"type":"Feature","properties":{"class":"alley","highway":"service","sidewalk":"unknown","lanes":0,"name":"김포대로320번길","oneway":false},"geometry":{"type":"LineString","coordinates":[[126.77232,37.59972],[126.77271,37.59949],[126.77301,37.59931],[126.77322,37.59919],[126.77334,37.59912],[126.77342,37.59909],[126.77351,37.59906],[126.77363,37.59903],[126.77376,37.59901],[126.77401,37.59898],[126.77435,37.59897],[126.77487,37.59895],[126.77551,37.59894],[126.77598,37.59893],[126.77626,37.59893],[126.77649,37.59894],[126.77681,37.59895],[126.77702,37.59898],[126.77707,37.59899],[126.77711,37.59903],[126.77718,37.59913],[126.77755,37.5997],[126.77772,37.59996]]}},{"type":"Feature","properties":{"class":"alley","highway":"service","sidewalk":"unknown","lanes":0,"name":"김포대로320번길","oneway":false},"geometry":{"type":"LineString","coordinates":[[126.77435,37.59897],[126.77447,37.59917],[126.77464,37.59943],[126.77488,37.59979],[126.7751,37.60013],[126.77532,37.60044],[126.7755,37.60073],[126.7756,37.60087]]}},{"type":"Feature","properties":{"class":"minor","highway":"residential","sidewalk":"unknown","lanes":0,"name":"김포대로319번길","oneway":true},"geometry":{"type":"LineString","coordinates":[[126.77167,37.59884],[126.77171,37.59902],[126.77174,37.59915],[126.77179,37.59927],[126.77184,37.59935],[126.7719,37.59943],[126.77203,37.59956]]}},{"type":"Feature","properties":{"class":"minor","highway":"residential","sidewalk":"unknown","lanes":0,"name":"","oneway":false},"geometry":{"type":"LineString","coordinates":[[126.77128,37.59892],[126.77167,37.59884]]}},{"type":"Feature","properties":{"class":"alley","highway":"service","sidewalk":"unknown","lanes":0,"name":"김포대로319번길","oneway":false},"geometry":{"type":"LineString","coordinates":[[126.76562,37.59197],[126.76544,37.59176],[126.76521,37.59148],[126.76508,37.59132],[126.76497,37.59121],[126.76484,37.59107],[126.76471,37.59094],[126.76452,37.59076],[126.76428,37.59056],[126.76418,37.59047],[126.76385,37.59017],[126.7633,37.58966],[126.76294,37.58931],[126.76259,37.58898]]}},{"type":"Feature","properties":{"class":"alley","highway":"service","sidewalk":"unknown","lanes":0,"name":"김포대로319번길","oneway":false},"geometry":{"type":"LineString","coordinates":[[126.76282,37.58886],[126.76259,37.58898]]}},{"type":"Feature","properties":{"class":"alley","highway":"service","sidewalk":"unknown","lanes":0,"name":"김포대로319번길","oneway":false},"geometry":{"type":"LineString","coordinates":[[126.76322,37.58865],[126.76282,37.58886]]}},{"type":"Feature","properties":{"class":"minor","highway":"unclassified","sidewalk":"unknown","lanes":0,"name":"김포대로319번길","oneway":false},"geometry":{"type":"LineString","coordinates":[[126.76864,37.59041],[126.76903,37.5902],[126.76954,37.58993],[126.77007,37.58966],[126.77072,37.58932],[126.77139,37.58898]]}},{"type":"Feature","properties":{"class":"minor","highway":"unclassified","sidewalk":"unknown","lanes":0,"name":"김포대로319번길","oneway":false},"geometry":{"type":"LineString","coordinates":[[126.77139,37.58898],[126.77161,37.58887]]}},{"type":"Feature","properties":{"class":"minor","highway":"unclassified","sidewalk":"unknown","lanes":0,"name":"당산길","oneway":false},"geometry":{"type":"LineString","coordinates":[[126.77371,37.58778],[126.77392,37.58768],[126.77436,37.58745],[126.77479,37.58723]]}},{"type":"Feature","properties":{"class":"alley","highway":"service","sidewalk":"unknown","lanes":0,"name":"당산길","oneway":false},"geometry":{"type":"LineString","coordinates":[[126.77244,37.58622],[126.77305,37.58697],[126.77337,37.58735],[126.77355,37.58758],[126.77371,37.58778]]}},{"type":"Feature","properties":{"class":"alley","highway":"service","sidewalk":"unknown","lanes":0,"name":"김포대로319번길","oneway":false},"geometry":{"type":"LineString","coordinates":[[126.76921,37.59472],[126.76963,37.59453]]}},{"type":"Feature","properties":{"class":"alley","highway":"service","sidewalk":"unknown","lanes":0,"name":"김포대로319번길","oneway":false},"geometry":{"type":"LineString","coordinates":[[126.77024,37.59422],[126.77039,37.59413],[126.77069,37.59397],[126.77086,37.59387],[126.77105,37.59378],[126.77149,37.59355],[126.77191,37.59334],[126.77252,37.59302],[126.77282,37.59286],[126.77326,37.59263]]}},{"type":"Feature","properties":{"class":"alley","highway":"service","sidewalk":"unknown","lanes":0,"name":"김포대로319번길","oneway":false},"geometry":{"type":"LineString","coordinates":[[126.77143,37.59589],[126.77137,37.5959],[126.77128,37.59592],[126.7712,37.59596],[126.77107,37.59602],[126.77086,37.59615]]}},{"type":"Feature","properties":{"class":"alley","highway":"service","sidewalk":"unknown","lanes":0,"name":"김포대로319번길","oneway":false},"geometry":{"type":"LineString","coordinates":[[126.77143,37.59589],[126.77151,37.59585],[126.77158,37.59583],[126.77165,37.59579]]}},{"type":"Feature","properties":{"class":"alley","highway":"service","sidewalk":"unknown","lanes":0,"name":"김포대로319번길","oneway":false},"geometry":{"type":"LineString","coordinates":[[126.77165,37.59579],[126.7724,37.59539]]}},{"type":"Feature","properties":{"class":"alley","highway":"service","sidewalk":"unknown","lanes":0,"name":"김포대로319번길","oneway":false},"geometry":{"type":"LineString","coordinates":[[126.7724,37.59539],[126.77246,37.59535],[126.77281,37.59516],[126.77337,37.59486],[126.77392,37.59459],[126.77414,37.59448],[126.77434,37.59437],[126.77469,37.59419],[126.77488,37.59408],[126.77508,37.59398]]}},{"type":"Feature","properties":{"class":"alley","highway":"service","sidewalk":"unknown","lanes":0,"name":"김포대로319번길","oneway":false},"geometry":{"type":"LineString","coordinates":[[126.77622,37.59575],[126.77625,37.5957],[126.77629,37.59566],[126.77634,37.59562],[126.77645,37.59555],[126.77684,37.59535],[126.77722,37.59515],[126.77757,37.59497],[126.77829,37.5946],[126.77864,37.59442],[126.77882,37.59433],[126.77899,37.59424]]}},{"type":"Feature","properties":{"class":"alley","highway":"service","sidewalk":"unknown","lanes":0,"name":"김포대로319번길","oneway":false},"geometry":{"type":"LineString","coordinates":[[126.77246,37.59535],[126.77264,37.59544],[126.77272,37.59548],[126.77281,37.5955],[126.77295,37.59554],[126.77305,37.59556],[126.77314,37.59559],[126.77335,37.59565],[126.77355,37.5957],[126.77366,37.59572],[126.77382,37.59574],[126.77404,37.59575],[126.77421,37.59575],[126.77438,37.59574],[126.77466,37.59573],[126.7751,37.59571],[126.77531,37.5957],[126.77549,37.59569],[126.77565,37.59569],[126.77578,37.59569],[126.77588,37.5957],[126.77597,37.59571],[126.77622,37.59575]]}},{"type":"Feature","properties":{"class":"alley","highway":"service","sidewalk":"unknown","lanes":0,"name":"평리길","oneway":false},"geometry":{"type":"LineString","coordinates":[[126.77507,37.58943],[126.77585,37.58903],[126.7766,37.58863]]}},{"type":"Feature","properties":{"class":"alley","highway":"service","sidewalk":"unknown","lanes":0,"name":"","oneway":false},"geometry":{"type":"LineString","coordinates":[[126.7792,37.59474],[126.77923,37.59475],[126.77926,37.59474],[126.7794,37.59466],[126.77984,37.59444],[126.78005,37.59433],[126.78019,37.59427],[126.7803,37.59423],[126.78044,37.5942],[126.78069,37.59419]]}},{"type":"Feature","properties":{"class":"alley","highway":"service","sidewalk":"unknown","lanes":0,"name":"","oneway":false},"geometry":{"type":"LineString","coordinates":[[126.77897,37.59463],[126.77907,37.59467]]}},{"type":"Feature","properties":{"class":"alley","highway":"service","sidewalk":"unknown","lanes":0,"name":"","oneway":false},"geometry":{"type":"LineString","coordinates":[[126.77907,37.59467],[126.7792,37.59474]]}},{"type":"Feature","properties":{"class":"alley","highway":"service","sidewalk":"unknown","lanes":0,"name":"","oneway":false},"geometry":{"type":"LineString","coordinates":[[126.77636,37.59104],[126.77656,37.59094],[126.77679,37.59082],[126.77721,37.5906],[126.77765,37.59038],[126.77789,37.59026],[126.77809,37.59016]]}},{"type":"Feature","properties":{"class":"alley","highway":"service","sidewalk":"unknown","lanes":0,"name":"당산길","oneway":false},"geometry":{"type":"LineString","coordinates":[[126.77636,37.59104],[126.77617,37.59081],[126.77596,37.59056]]}},{"type":"Feature","properties":{"class":"alley","highway":"service","sidewalk":"unknown","lanes":0,"name":"당산길","oneway":false},"geometry":{"type":"LineString","coordinates":[[126.77899,37.59424],[126.77942,37.59403],[126.77976,37.59386],[126.78017,37.59364],[126.78068,37.59337],[126.78121,37.59311],[126.78145,37.59299],[126.7816,37.59291],[126.78173,37.59284]]}},{"type":"Feature","properties":{"class":"alley","highway":"service","sidewalk":"unknown","lanes":0,"name":"당산길","oneway":false},"geometry":{"type":"LineString","coordinates":[[126.77313,37.59043],[126.77276,37.59062],[126.77202,37.59099],[126.77136,37.59133],[126.7707,37.59167],[126.77035,37.59185],[126.77003,37.59202],[126.76948,37.5923],[126.7694,37.59234],[126.76937,37.59236],[126.76935,37.59239],[126.76933,37.59244],[126.76931,37.59249],[126.76928,37.59258]]}},{"type":"Feature","properties":{"class":"alley","highway":"service","sidewalk":"unknown","lanes":0,"name":"당산길","oneway":false},"geometry":{"type":"LineString","coordinates":[[126.77507,37.58943],[126.77467,37.58963],[126.77425,37.58984],[126.77385,37.59006],[126.77343,37.59027]]}},{"type":"Feature","properties":{"class":"alley","highway":"service","sidewalk":"unknown","lanes":0,"name":"당산길","oneway":false},"geometry":{"type":"LineString","coordinates":[[126.77343,37.59027],[126.77313,37.59043]]}},{"type":"Feature","properties":{"class":"minor","highway":"residential","sidewalk":"unknown","lanes":0,"name":"수기로","oneway":false},"geometry":{"type":"LineString","coordinates":[[126.76385,37.59429],[126.76434,37.59399],[126.76488,37.59368],[126.76495,37.59363],[126.76502,37.59361],[126.76515,37.59357],[126.76557,37.59346],[126.76578,37.5934],[126.76604,37.59332]]}},{"type":"Feature","properties":{"class":"alley","highway":"service","sidewalk":"unknown","lanes":0,"name":"수기로","oneway":false},"geometry":{"type":"LineString","coordinates":[[126.76579,37.59853],[126.76571,37.5985],[126.76566,37.59847],[126.76563,37.59843],[126.76555,37.59832],[126.76546,37.59822],[126.76535,37.59809],[126.76484,37.59835]]}},{"type":"Feature","properties":{"class":"alley","highway":"service","sidewalk":"unknown","lanes":0,"name":"","oneway":false},"geometry":{"type":"LineString","coordinates":[[126.76259,37.58898],[126.76241,37.58884],[126.76228,37.58874],[126.76213,37.5886]]}},{"type":"Feature","properties":{"class":"alley","highway":"service","sidewalk":"unknown","lanes":0,"name":"인향로24번길","oneway":false},"geometry":{"type":"LineString","coordinates":[[126.76787,37.59991],[126.76812,37.60005],[126.76805,37.60014]]}},{"type":"Feature","properties":{"class":"minor","highway":"residential","sidewalk":"unknown","lanes":0,"name":"인향로24번길","oneway":false},"geometry":{"type":"LineString","coordinates":[[126.76915,37.6003],[126.7686,37.6],[126.7682,37.59979],[126.7681,37.59972]]}},{"type":"Feature","properties":{"class":"minor","highway":"residential","sidewalk":"unknown","lanes":0,"name":"인향로24번길","oneway":false},"geometry":{"type":"LineString","coordinates":[[126.76868,37.59932],[126.76931,37.59966],[126.76957,37.5998]]}},{"type":"Feature","properties":{"class":"alley","highway":"service","sidewalk":"unknown","lanes":0,"name":"인향로24번길","oneway":false},"geometry":{"type":"LineString","coordinates":[[126.76988,37.59846],[126.76997,37.59854],[126.77001,37.59861],[126.77002,37.59864],[126.77002,37.59868],[126.77001,37.59872],[126.76997,37.59878],[126.76984,37.59891],[126.76974,37.59902],[126.76968,37.5991],[126.76961,37.59921],[126.76952,37.59936],[126.76947,37.59945],[126.76942,37.59952],[126.76931,37.59966]]}},{"type":"Feature","properties":{"class":"minor","highway":"residential","sidewalk":"unknown","lanes":0,"name":"","oneway":false},"geometry":{"type":"LineString","coordinates":[[126.7652,37.5922],[126.76528,37.59215]]}},{"type":"Feature","properties":{"class":"alley","highway":"service","sidewalk":"unknown","lanes":0,"name":"평리길","oneway":false},"geometry":{"type":"LineString","coordinates":[[126.77792,37.585],[126.77811,37.58497],[126.77822,37.58496],[126.7783,37.58496],[126.77834,37.58497],[126.77837,37.58498],[126.77839,37.58501],[126.77842,37.58505]]}},{"type":"Feature","properties":{"class":"alley","highway":"service","sidewalk":"unknown","lanes":0,"name":"평리길","oneway":false},"geometry":{"type":"LineString","coordinates":[[126.77808,37.58535],[126.77824,37.58533],[126.77835,37.58532],[126.77849,37.58532],[126.77859,37.58531],[126.77872,37.58531],[126.7789,37.58528],[126.77899,37.58526],[126.77904,37.58526],[126.77909,37.58526],[126.77913,37.58527],[126.77915,37.5853],[126.77917,37.58535]]}},{"type":"Feature","properties":{"class":"alley","highway":"service","sidewalk":"unknown","lanes":0,"name":"","oneway":false},"geometry":{"type":"LineString","coordinates":[[126.77588,37.58507],[126.77562,37.58526]]}},{"type":"Feature","properties":{"class":"major","highway":"tertiary","sidewalk":"likely","lanes":0,"name":"드림로","oneway":true},"geometry":{"type":"LineString","coordinates":[[126.77717,37.58992],[126.77692,37.59005],[126.77673,37.59015],[126.7766,37.59022],[126.77647,37.59029],[126.77627,37.59037],[126.77601,37.59046],[126.77572,37.59054],[126.77538,37.5906],[126.77512,37.59063],[126.7749,37.59064],[126.77469,37.59064],[126.77447,37.59064],[126.77414,37.5906],[126.77393,37.59057],[126.77367,37.59052],[126.77336,37.59043],[126.77311,37.59033],[126.77287,37.59022],[126.77268,37.59012],[126.77245,37.58998],[126.77229,37.58987],[126.77212,37.58973],[126.77196,37.58959],[126.77182,37.58944],[126.77165,37.58924],[126.77153,37.58909],[126.77131,37.58873],[126.771,37.58821],[126.77076,37.58783],[126.77051,37.58736],[126.77021,37.58686]]}},{"type":"Feature","properties":{"class":"major","highway":"tertiary","sidewalk":"likely","lanes":0,"name":"드림로","oneway":true},"geometry":{"type":"LineString","coordinates":[[126.78571,37.58514],[126.78561,37.58531],[126.78551,37.58544],[126.78539,37.58555],[126.78528,37.58562],[126.78513,37.58569],[126.785,37.58572],[126.78476,37.58577],[126.78419,37.58586],[126.78365,37.58595],[126.78339,37.586],[126.78311,37.58607],[126.78281,37.58618],[126.78251,37.58631],[126.78222,37.58646],[126.78176,37.58672],[126.78121,37.58709],[126.78093,37.58728],[126.78046,37.58761],[126.77999,37.58797]]}},{"type":"Feature","properties":{"class":"major","highway":"tertiary","sidewalk":"likely","lanes":0,"name":"드림로","oneway":true},"geometry":{"type":"LineString","coordinates":[[126.77999,37.58797],[126.77717,37.58992]]}},{"type":"Feature","properties":{"class":"major","highway":"tertiary","sidewalk":"likely","lanes":0,"name":"드림로","oneway":true},"geometry":{"type":"LineString","coordinates":[[126.77021,37.58686],[126.76992,37.58637],[126.76965,37.58589],[126.76951,37.58564],[126.76935,37.58537],[126.76905,37.58485],[126.76882,37.58445],[126.7687,37.58425],[126.76858,37.58405],[126.76843,37.58383],[126.76829,37.58365],[126.76812,37.58344],[126.76796,37.58325],[126.76774,37.58303],[126.76744,37.58277],[126.76694,37.58239],[126.7662,37.58195],[126.76595,37.58178]]}},{"type":"Feature","properties":{"class":"major","highway":"tertiary","sidewalk":"likely","lanes":4,"name":"드림로","oneway":true},"geometry":{"type":"LineString","coordinates":[[126.76595,37.58178],[126.76628,37.5819],[126.76672,37.58215],[126.76712,37.58242],[126.7674,37.58264],[126.76757,37.58277],[126.76776,37.58294],[126.76793,37.5831],[126.76819,37.5834],[126.76833,37.58356],[126.76846,37.58373],[126.76857,37.58389],[126.76874,37.58414],[126.76887,37.58436],[126.76908,37.58473],[126.76939,37.58525],[126.76979,37.58595],[126.77006,37.58642],[126.77021,37.58668],[126.7703,37.58683]]}},{"type":"Feature","properties":{"class":"major","highway":"motorway_link","sidewalk":"no","lanes":0,"name":"","oneway":true},"geometry":{"type":"LineString","coordinates":[[126.77011,37.59462],[126.7679,37.59367],[126.76716,37.59311],[126.76647,37.59258],[126.76516,37.59082]]}},{"type":"Feature","properties":{"class":"major","highway":"motorway_link","sidewalk":"no","lanes":0,"name":"","oneway":true},"geometry":{"type":"LineString","coordinates":[[126.7653,37.59075],[126.76742,37.59192],[126.76803,37.5924],[126.76844,37.59272],[126.77026,37.5945]]}},{"type":"Feature","properties":{"class":"alley","highway":"service","sidewalk":"unknown","lanes":0,"name":"","oneway":false},"geometry":{"type":"LineString","coordinates":[[126.76687,37.59132],[126.76695,37.59143],[126.76699,37.59147],[126.76704,37.59152],[126.76709,37.59155],[126.76719,37.59161],[126.76734,37.59169],[126.76749,37.59177],[126.76758,37.59183],[126.76765,37.59188],[126.76773,37.59194],[126.76779,37.59199],[126.76783,37.59202],[126.76786,37.59203],[126.76789,37.59204],[126.76792,37.59204],[126.76797,37.59202],[126.76806,37.59197],[126.76815,37.59192],[126.76821,37.59191],[126.76825,37.5919],[126.76829,37.59191],[126.76834,37.59192],[126.7684,37.59197],[126.76857,37.5921],[126.76869,37.5922],[126.76886,37.59233],[126.76899,37.59243],[126.76913,37.59253],[126.76916,37.59254],[126.76921,37.59256],[126.76928,37.59258],[126.76932,37.5926],[126.7694,37.59267],[126.76946,37.59273],[126.76953,37.5928],[126.76964,37.59292],[126.76972,37.593],[126.76981,37.5931],[126.76985,37.59316],[126.76987,37.59321],[126.76988,37.59326],[126.76989,37.59332],[126.7699,37.59341],[126.76989,37.59361],[126.76989,37.59376],[126.7699,37.5938],[126.76991,37.59384],[126.76993,37.59388],[126.76996,37.59392],[126.77,37.59396],[126.77006,37.59401],[126.77011,37.59404],[126.77015,37.59405],[126.77021,37.59407],[126.77027,37.59407],[126.77031,37.59408],[126.77035,37.5941],[126.77039,37.59413]]}},{"type":"Feature","properties":{"class":"major","highway":"tertiary","sidewalk":"yes","lanes":0,"name":"아라육로","oneway":true},"geometry":{"type":"LineString","coordinates":[[126.78286,37.59453],[126.78088,37.59569],[126.78066,37.59581],[126.78055,37.59588],[126.78045,37.59596],[126.7803,37.59609],[126.7802,37.59619],[126.78008,37.59632],[126.77999,37.59645],[126.77993,37.59656],[126.77989,37.59664],[126.77985,37.59673],[126.7798,37.59691],[126.77978,37.597],[126.77977,37.59709],[126.77976,37.59719],[126.77976,37.59732],[126.77978,37.59745],[126.7798,37.5976],[126.77983,37.59772],[126.77987,37.59783],[126.77989,37.5979],[126.77995,37.59801],[126.78001,37.59811],[126.7801,37.59824],[126.78016,37.59831],[126.78022,37.59838],[126.78031,37.59845],[126.78039,37.59852],[126.78047,37.59858],[126.78085,37.59884],[126.78146,37.59921],[126.78151,37.59925],[126.78176,37.5994],[126.78312,37.60024],[126.78409,37.60084],[126.78434,37.601],[126.78462,37.60118],[126.78503,37.60146],[126.78595,37.60218],[126.78678,37.60284],[126.7869,37.60293],[126.78698,37.60298],[126.78706,37.60302],[126.78714,37.60305],[126.78723,37.60307],[126.78732,37.60308],[126.7874,37.60307],[126.78748,37.60306],[126.78757,37.60304],[126.78767,37.60302],[126.78787,37.60296],[126.78813,37.60286],[126.78833,37.60277],[126.78836,37.60276],[126.78841,37.60274],[126.78851,37.60269],[126.78876,37.60257],[126.78901,37.60244],[126.78928,37.60228],[126.78941,37.6022],[126.78949,37.60214],[126.78968,37.602],[126.78985,37.60187],[126.78993,37.60181],[126.79002,37.60176],[126.79015,37.60169],[126.79031,37.6016],[126.79049,37.60151],[126.79065,37.60145],[126.79077,37.6014],[126.79104,37.60131]]}},{"type":"Feature","properties":{"class":"alley","highway":"service","sidewalk":"unknown","lanes":0,"name":"","oneway":false},"geometry":{"type":"LineString","coordinates":[[126.78218,37.59388],[126.78222,37.59394],[126.78223,37.59396],[126.78223,37.59398],[126.78222,37.594],[126.78217,37.59403],[126.78209,37.59408],[126.78196,37.59415],[126.78185,37.59422],[126.78177,37.59426],[126.7817,37.59431],[126.78154,37.59442],[126.78141,37.5945],[126.78117,37.59465],[126.78089,37.59481],[126.78068,37.59493],[126.78054,37.59501],[126.78042,37.59506],[126.78012,37.59521],[126.77984,37.59533],[126.7797,37.59539],[126.77963,37.59543],[126.77953,37.59549],[126.77944,37.59554],[126.77931,37.59563],[126.7792,37.59571],[126.77914,37.59577],[126.77906,37.59585],[126.77894,37.59597],[126.77887,37.59604],[126.77883,37.59609],[126.77876,37.59618],[126.7787,37.59628],[126.77865,37.59635],[126.77862,37.59643],[126.77858,37.59651],[126.77853,37.59665],[126.77848,37.59678],[126.77847,37.59684],[126.77846,37.59689],[126.77845,37.59695],[126.77843,37.59705],[126.77841,37.59714],[126.77841,37.59725],[126.7784,37.59732],[126.7784,37.59739],[126.77841,37.59746],[126.77842,37.59754],[126.77844,37.59764],[126.77848,37.59777],[126.7785,37.59786],[126.77852,37.59791],[126.77856,37.59799],[126.77862,37.59812],[126.77866,37.5982],[126.77873,37.5983],[126.77877,37.59837],[126.77883,37.59845],[126.77892,37.59855],[126.77898,37.59861],[126.77902,37.59865],[126.7791,37.59872],[126.77925,37.59885],[126.77931,37.5989],[126.77938,37.59895],[126.77945,37.599],[126.77961,37.59909],[126.77971,37.59914],[126.77974,37.59917],[126.77977,37.59919],[126.7798,37.59921],[126.77984,37.59925],[126.77989,37.59929],[126.77994,37.59931],[126.78001,37.59932],[126.78007,37.59934],[126.78012,37.59935],[126.78017,37.59937],[126.78022,37.59939],[126.78036,37.59946],[126.78051,37.59953],[126.78063,37.59958],[126.78075,37.59963],[126.78083,37.59967],[126.78104,37.59978],[126.78121,37.59988],[126.78145,37.60001],[126.78165,37.60012],[126.78202,37.60033],[126.78224,37.60046],[126.78243,37.60057],[126.78278,37.60079],[126.7832,37.60105],[126.78356,37.60127],[126.78364,37.60132],[126.78374,37.60139],[126.78388,37.60149],[126.78394,37.60154],[126.78398,37.60158],[126.78417,37.60174],[126.78427,37.60183],[126.78431,37.60187],[126.78432,37.6019],[126.78433,37.60193],[126.78434,37.60197],[126.78433,37.60201],[126.78432,37.60203]]}},{"type":"Feature","properties":{"class":"alley","highway":"service","sidewalk":"unknown","lanes":0,"name":"","oneway":false},"geometry":{"type":"LineString","coordinates":[[126.77871,37.59958],[126.77872,37.59957],[126.77879,37.59959],[126.77894,37.59966],[126.779,37.59969],[126.77902,37.5997],[126.77904,37.59971],[126.77907,37.5997],[126.77915,37.59968]]}},{"type":"Feature","properties":{"class":"alley","highway":"service","sidewalk":"unknown","lanes":0,"name":"","oneway":false},"geometry":{"type":"LineString","coordinates":[[126.77781,37.60009],[126.77784,37.60006],[126.77787,37.60003],[126.77789,37.60001],[126.77792,37.6],[126.77803,37.59995],[126.77846,37.59979],[126.77855,37.59975],[126.77858,37.59973],[126.77861,37.59971]]}},{"type":"Feature","properties":{"class":"alley","highway":"service","sidewalk":"unknown","lanes":0,"name":"","oneway":false},"geometry":{"type":"LineString","coordinates":[[126.77861,37.59971],[126.77871,37.59958]]}},{"type":"Feature","properties":{"class":"alley","highway":"service","sidewalk":"unknown","lanes":0,"name":"","oneway":false},"geometry":{"type":"LineString","coordinates":[[126.77977,37.59936],[126.77989,37.59929]]}},{"type":"Feature","properties":{"class":"alley","highway":"service","sidewalk":"unknown","lanes":0,"name":"","oneway":false},"geometry":{"type":"LineString","coordinates":[[126.77915,37.59968],[126.77977,37.59936]]}},{"type":"Feature","properties":{"class":"alley","highway":"service","sidewalk":"unknown","lanes":0,"name":"김포대로320번길","oneway":false},"geometry":{"type":"LineString","coordinates":[[126.77772,37.59996],[126.77776,37.60003]]}},{"type":"Feature","properties":{"class":"alley","highway":"service","sidewalk":"unknown","lanes":0,"name":"","oneway":false},"geometry":{"type":"LineString","coordinates":[[126.76888,37.59505],[126.76894,37.59499]]}},{"type":"Feature","properties":{"class":"alley","highway":"service","sidewalk":"unknown","lanes":0,"name":"","oneway":false},"geometry":{"type":"LineString","coordinates":[[126.76914,37.59476],[126.76916,37.59475],[126.76921,37.59472]]}},{"type":"Feature","properties":{"class":"alley","highway":"service","sidewalk":"unknown","lanes":0,"name":"","oneway":false},"geometry":{"type":"LineString","coordinates":[[126.76894,37.59499],[126.76914,37.59476]]}},{"type":"Feature","properties":{"class":"minor","highway":"unclassified","sidewalk":"unknown","lanes":0,"name":"","oneway":false},"geometry":{"type":"LineString","coordinates":[[126.76434,37.59399],[126.76393,37.59352],[126.76468,37.59307],[126.76424,37.59264]]}},{"type":"Feature","properties":{"class":"alley","highway":"service","sidewalk":"unknown","lanes":0,"name":"","oneway":false},"geometry":{"type":"LineString","coordinates":[[126.77774,37.58077],[126.77762,37.58064],[126.77751,37.58051],[126.77729,37.58024]]}},{"type":"Feature","properties":{"class":"alley","highway":"service","sidewalk":"unknown","lanes":0,"name":"","oneway":false},"geometry":{"type":"LineString","coordinates":[[126.77751,37.58051],[126.77777,37.58037],[126.77808,37.58016],[126.7785,37.57991],[126.7789,37.57967],[126.77925,37.57946]]}},{"type":"Feature","properties":{"class":"alley","highway":"service","sidewalk":"unknown","lanes":0,"name":"","oneway":false},"geometry":{"type":"LineString","coordinates":[[126.77777,37.58037],[126.7782,37.58082]]}},{"type":"Feature","properties":{"class":"alley","highway":"service","sidewalk":"unknown","lanes":0,"name":"","oneway":false},"geometry":{"type":"LineString","coordinates":[[126.7785,37.57991],[126.77918,37.5807]]}},{"type":"Feature","properties":{"class":"alley","highway":"service","sidewalk":"unknown","lanes":0,"name":"","oneway":false},"geometry":{"type":"LineString","coordinates":[[126.77875,37.5819],[126.77894,37.58183],[126.7791,37.58182],[126.77922,37.58182],[126.77933,37.58183],[126.77942,37.58188],[126.7795,37.58191],[126.77954,37.58191],[126.77959,37.58191],[126.77969,37.58191],[126.77974,37.58191],[126.78007,37.58186],[126.78062,37.58179]]}},{"type":"Feature","properties":{"class":"alley","highway":"service","sidewalk":"unknown","lanes":0,"name":"","oneway":false},"geometry":{"type":"LineString","coordinates":[[126.77969,37.58191],[126.77968,37.58202],[126.77972,37.5822]]}},{"type":"Feature","properties":{"class":"alley","highway":"service","sidewalk":"unknown","lanes":0,"name":"","oneway":false},"geometry":{"type":"LineString","coordinates":[[126.76656,37.59982],[126.76656,37.60007],[126.76661,37.60034],[126.76666,37.60056],[126.76665,37.60075],[126.76665,37.60077],[126.76664,37.60079],[126.76662,37.60079],[126.76658,37.6008]]}},{"type":"Feature","properties":{"class":"alley","highway":"service","sidewalk":"unknown","lanes":0,"name":"","oneway":true},"geometry":{"type":"LineString","coordinates":[[126.7785,37.59848],[126.77866,37.59857],[126.77895,37.59885],[126.77918,37.59914]]}}]}