{"type":"FeatureCollection","features":[{"type":"Feature","properties":{"class":"minor","highway":"unclassified","sidewalk":"unknown","lanes":0,"name":"해포길","oneway":false},"geometry":{"type":"LineString","coordinates":[[126.86079,37.60982],[126.86075,37.60977],[126.86069,37.60972],[126.86059,37.6096],[126.86053,37.60964],[126.86039,37.60968],[126.86027,37.60965],[126.85975,37.60924],[126.85956,37.60907],[126.8589,37.60873],[126.85852,37.60823],[126.85826,37.60806],[126.85798,37.60749],[126.85787,37.60739],[126.85504,37.60482],[126.85495,37.60465],[126.85419,37.60397],[126.85418,37.60396],[126.85321,37.60311],[126.85219,37.60218],[126.85205,37.60206],[126.85184,37.60187],[126.85123,37.60123],[126.85079,37.60112],[126.85048,37.60077],[126.85,37.60032],[126.84934,37.59962],[126.84921,37.59907],[126.84902,37.59869],[126.84856,37.59783]]}},{"type":"Feature","properties":{"class":"minor","highway":"unclassified","sidewalk":"unknown","lanes":0,"name":"","oneway":false},"geometry":{"type":"LineString","coordinates":[[126.8479,37.60009],[126.84828,37.59993]]}},{"type":"Feature","properties":{"class":"major","highway":"trunk","sidewalk":"likely","lanes":5,"name":"자유로","oneway":true},"geometry":{"type":"LineString","coordinates":[[126.83644,37.5917],[126.83714,37.5912],[126.83761,37.59093],[126.83854,37.59039],[126.83879,37.59025],[126.84067,37.5892],[126.8423,37.58825],[126.84319,37.58774],[126.84644,37.58585],[126.84908,37.58433],[126.8518,37.58276],[126.85321,37.58195],[126.85408,37.58146]]}},{"type":"Feature","properties":{"class":"major","highway":"trunk_link","sidewalk":"likely","lanes":0,"name":"","oneway":true},"geometry":{"type":"LineString","coordinates":[[126.83879,37.59025],[126.83922,37.58982],[126.83992,37.5893],[126.84029,37.58905],[126.84056,37.5889],[126.84077,37.58878],[126.84095,37.58868],[126.84119,37.58853],[126.84146,37.5884],[126.84181,37.58823],[126.84226,37.58805],[126.84253,37.58794],[126.84319,37.58774]]}},{"type":"Feature","properties":{"class":"major","highway":"trunk_link","sidewalk":"likely","lanes":0,"name":"","oneway":false},"geometry":{"type":"LineString","coordinates":[[126.84119,37.58928],[126.84133,37.58942],[126.84163,37.58971]]}},{"type":"Feature","properties":{"class":"major","highway":"trunk_link","sidewalk":"likely","lanes":0,"name":"","oneway":true},"geometry":{"type":"LineString","coordinates":[[126.84375,37.58762],[126.84321,37.58808],[126.84285,37.58834],[126.84248,37.58866],[126.84221,37.58888],[126.84195,37.58907],[126.84168,37.58923],[126.84133,37.58942],[126.84119,37.5895],[126.84075,37.58977],[126.84028,37.58998],[126.83971,37.59021],[126.83902,37.5905],[126.83802,37.59091]]}},{"type":"Feature","properties":{"class":"minor","highway":"unclassified","sidewalk":"unknown","lanes":0,"name":"강매로","oneway":false},"geometry":{"type":"LineString","coordinates":[[126.84396,37.59834],[126.84388,37.59843],[126.84379,37.59855],[126.84359,37.59881],[126.84342,37.59896],[126.84335,37.59911],[126.8432,37.59954],[126.84291,37.60022],[126.84286,37.6005],[126.84288,37.60071],[126.84343,37.60224],[126.84345,37.60245],[126.8434,37.60265],[126.84333,37.60275],[126.8432,37.60294],[126.84304,37.60309],[126.84263,37.60329],[126.84246,37.60338],[126.84239,37.60351],[126.84243,37.60467],[126.84247,37.60484],[126.84255,37.60501],[126.84274,37.60527],[126.8431,37.60575],[126.8432,37.60648],[126.84335,37.60692]]}},{"type":"Feature","properties":{"class":"alley","highway":"service","sidewalk":"unknown","lanes":0,"name":"대덕로","oneway":false},"geometry":{"type":"LineString","coordinates":[[126.83871,37.59088],[126.83883,37.59082],[126.83905,37.59072],[126.84135,37.58988],[126.84145,37.58983],[126.84163,37.58971],[126.8418,37.58959],[126.84194,37.58946],[126.84289,37.58854],[126.84318,37.58831],[126.84346,37.58813],[126.8443,37.58761],[126.84539,37.58695],[126.84611,37.58651],[126.84621,37.58646],[126.84633,37.58643],[126.84652,37.58642],[126.84697,37.58636],[126.84705,37.58633],[126.84722,37.5862],[126.84731,37.58616],[126.85009,37.58456],[126.85048,37.58435],[126.85076,37.58424],[126.85093,37.58416],[126.85121,37.58401],[126.85589,37.58137],[126.85597,37.58134],[126.85602,37.58133],[126.85607,37.58134],[126.8561,37.58135],[126.85613,37.58138],[126.85709,37.58243],[126.85719,37.5826]]}},{"type":"Feature","properties":{"class":"major","highway":"tertiary","sidewalk":"likely","lanes":1,"name":"대덕로","oneway":false},"geometry":{"type":"LineString","coordinates":[[126.86456,37.59409],[126.86441,37.59402],[126.86428,37.59397],[126.8641,37.59387],[126.86392,37.59372],[126.86357,37.59337],[126.86323,37.5931],[126.86295,37.59293],[126.86262,37.59269],[126.86233,37.59245],[126.86182,37.59204],[126.86163,37.59188],[126.86143,37.59172],[126.86098,37.59126],[126.86088,37.59101],[126.8608,37.59057],[126.86063,37.59031],[126.86041,37.59009],[126.86016,37.58984],[126.85983,37.58951],[126.85891,37.58863],[126.85863,37.58836],[126.85831,37.58805],[126.85781,37.58754],[126.85695,37.58667],[126.85681,37.58646],[126.85663,37.5861],[126.85651,37.58561],[126.85649,37.58509],[126.85646,37.58442],[126.85648,37.58417],[126.85658,37.58384],[126.85719,37.5826]]}},{"type":"Feature","properties":{"class":"alley","highway":"service","sidewalk":"unknown","lanes":0,"name":"","oneway":false},"geometry":{"type":"LineString","coordinates":[[126.84321,37.59644],[126.84319,37.59636],[126.84297,37.59617],[126.84322,37.5959]]}},{"type":"Feature","properties":{"class":"alley","highway":"service","sidewalk":"unknown","lanes":0,"name":"","oneway":false},"geometry":{"type":"LineString","coordinates":[[126.84319,37.59636],[126.84381,37.59633],[126.84393,37.59632]]}},{"type":"Feature","properties":{"class":"alley","highway":"service","sidewalk":"unknown","lanes":0,"name":"","oneway":false},"geometry":{"type":"LineString","coordinates":[[126.84321,37.59644],[126.84322,37.59646]]}},{"type":"Feature","properties":{"class":"alley","highway":"service","sidewalk":"unknown","lanes":0,"name":"","oneway":false},"geometry":{"type":"LineString","coordinates":[[126.84379,37.59645],[126.8438,37.5964],[126.84381,37.59633],[126.84378,37.59605]]}},{"type":"Feature","properties":{"class":"alley","highway":"service","sidewalk":"unknown","lanes":0,"name":"","oneway":false},"geometry":{"type":"LineString","coordinates":[[126.84153,37.59641],[126.8418,37.59641],[126.84319,37.59636]]}},{"type":"Feature","properties":{"class":"alley","highway":"service","sidewalk":"unknown","lanes":0,"name":"","oneway":false},"geometry":{"type":"LineString","coordinates":[[126.8418,37.59641],[126.84179,37.5958],[126.84283,37.59578],[126.84319,37.5959],[126.84322,37.5959],[126.84394,37.59585],[126.84446,37.59629],[126.84393,37.59632]]}},{"type":"Feature","properties":{"class":"major","highway":"trunk_link","sidewalk":"likely","lanes":0,"name":"육갑문","oneway":false},"geometry":{"type":"LineString","coordinates":[[126.84085,37.58887],[126.84119,37.58928]]}},{"type":"Feature","properties":{"class":"major","highway":"trunk_link","sidewalk":"likely","lanes":0,"name":"","oneway":false},"geometry":{"type":"LineString","coordinates":[[126.84077,37.58878],[126.84085,37.58887]]}},{"type":"Feature","properties":{"class":"minor","highway":"unclassified","sidewalk":"unknown","lanes":0,"name":"","oneway":false},"geometry":{"type":"LineString","coordinates":[[126.84921,37.59907],[126.85013,37.60018]]}},{"type":"Feature","properties":{"class":"minor","highway":"unclassified","sidewalk":"unknown","lanes":0,"name":"","oneway":false},"geometry":{"type":"LineString","coordinates":[[126.83871,37.59088],[126.83717,37.59179],[126.8369,37.59195],[126.83654,37.59221],[126.83606,37.5926],[126.83562,37.59301],[126.83532,37.59336],[126.83512,37.59363],[126.83491,37.59397],[126.83476,37.59428],[126.83458,37.59478],[126.83449,37.59509],[126.83442,37.59556],[126.83441,37.59571],[126.83444,37.59585],[126.8345,37.596],[126.83456,37.59611],[126.83465,37.5962],[126.83477,37.59627],[126.83492,37.59634],[126.83513,37.5964],[126.83537,37.59648],[126.83573,37.59655],[126.83605,37.59661],[126.8365,37.59667],[126.8368,37.59668],[126.84322,37.59646],[126.84379,37.59645],[126.84547,37.59639],[126.84595,37.59643],[126.84624,37.59647],[126.84649,37.59653],[126.84672,37.5966],[126.84698,37.59669],[126.84726,37.59681],[126.84755,37.59696],[126.84786,37.59718],[126.84817,37.59744],[126.84834,37.59764],[126.84856,37.59783]]}},{"type":"Feature","properties":{"class":"alley","highway":"service","sidewalk":"unknown","lanes":0,"name":"","oneway":false},"geometry":{"type":"LineString","coordinates":[[126.84539,37.58695],[126.84685,37.58854],[126.84799,37.58979],[126.84869,37.59056],[126.84916,37.59108],[126.84957,37.59146],[126.84978,37.59164],[126.84997,37.59181],[126.85039,37.59214],[126.85063,37.59228]]}},{"type":"Feature","properties":{"class":"major","highway":"trunk","sidewalk":"likely","lanes":3,"name":"제2자유로","oneway":true},"geometry":{"type":"LineString","coordinates":[[126.8506,37.59976],[126.85249,37.59904],[126.8544,37.59837],[126.85569,37.5979],[126.85662,37.59756]]}},{"type":"Feature","properties":{"class":"major","highway":"trunk","sidewalk":"likely","lanes":3,"name":"제2자유로","oneway":true},"geometry":{"type":"LineString","coordinates":[[126.86063,37.59633],[126.85759,37.59736],[126.85733,37.59745]]}},{"type":"Feature","properties":{"class":"major","highway":"trunk_link","sidewalk":"likely","lanes":1,"name":"","oneway":true},"geometry":{"type":"LineString","coordinates":[[126.8575,37.59725],[126.85812,37.59695],[126.85875,37.59673],[126.85919,37.59654],[126.85998,37.59616],[126.86027,37.59601],[126.86037,37.59593],[126.86041,37.59582],[126.86059,37.59587],[126.86096,37.59581],[126.8615,37.5957],[126.86196,37.59559],[126.86247,37.59546],[126.86323,37.59521],[126.86394,37.59505]]}},{"type":"Feature","properties":{"class":"major","highway":"trunk_link","sidewalk":"likely","lanes":1,"name":"","oneway":true},"geometry":{"type":"LineString","coordinates":[[126.86382,37.59524],[126.86317,37.59555],[126.86264,37.59575],[126.86199,37.59604],[126.86106,37.59647],[126.86093,37.59651],[126.8608,37.59655],[126.86048,37.59662],[126.85981,37.59677],[126.85916,37.59693],[126.85876,37.59705],[126.8581,37.59727],[126.85759,37.59736]]}},{"type":"Feature","properties":{"class":"major","highway":"trunk_link","sidewalk":"likely","lanes":1,"name":"","oneway":false},"geometry":{"type":"LineString","coordinates":[[126.86093,37.59651],[126.86041,37.59582],[126.86008,37.5954],[126.85996,37.59516],[126.85991,37.59505],[126.85987,37.59488],[126.85988,37.59467],[126.85996,37.59448],[126.86011,37.5943],[126.86029,37.59414],[126.86132,37.59329],[126.86233,37.59245]]}},{"type":"Feature","properties":{"class":"major","highway":"trunk","sidewalk":"likely","lanes":3,"name":"제2자유로","oneway":true},"geometry":{"type":"LineString","coordinates":[[126.84719,37.60098],[126.8506,37.59976]]}},{"type":"Feature","properties":{"class":"minor","highway":"unclassified","sidewalk":"unknown","lanes":0,"name":"강매로","oneway":false},"geometry":{"type":"LineString","coordinates":[[126.83149,37.59843],[126.83157,37.59846],[126.83178,37.59844],[126.83254,37.59843],[126.83419,37.5984],[126.83462,37.59843],[126.835,37.59842],[126.83527,37.59836],[126.83539,37.59835],[126.83679,37.5983],[126.83746,37.59828],[126.83923,37.59823],[126.83988,37.59821],[126.84121,37.59817],[126.84175,37.59815],[126.84327,37.59811],[126.8434,37.59811]]}},{"type":"Feature","properties":{"class":"minor","highway":"unclassified","sidewalk":"unknown","lanes":0,"name":"강매로","oneway":false},"geometry":{"type":"LineString","coordinates":[[126.84396,37.59834],[126.84413,37.59834],[126.84455,37.5984],[126.84472,37.59846],[126.84487,37.59855],[126.84519,37.59883],[126.84543,37.59901],[126.8456,37.59911],[126.84581,37.59918],[126.84654,37.59938],[126.84707,37.59946],[126.84729,37.59952],[126.84756,37.59972],[126.84772,37.60012]]}},{"type":"Feature","properties":{"class":"minor","highway":"unclassified","sidewalk":"unknown","lanes":0,"name":"","oneway":false},"geometry":{"type":"LineString","coordinates":[[126.8434,37.59811],[126.84354,37.59811],[126.84368,37.59811],[126.84376,37.59812],[126.84382,37.59814],[126.84388,37.59817],[126.84392,37.5982],[126.84394,37.59824],[126.84396,37.59834]]}},{"type":"Feature","properties":{"class":"minor","highway":"residential","sidewalk":"unknown","lanes":0,"name":"해포길","oneway":false},"geometry":{"type":"LineString","coordinates":[[126.85223,37.59112],[126.85267,37.5911],[126.85293,37.59104],[126.85318,37.59095],[126.85347,37.59079],[126.85364,37.5907],[126.85371,37.59066],[126.85411,37.59048],[126.85451,37.59039],[126.85464,37.59035],[126.85505,37.5902],[126.85538,37.59009],[126.85555,37.59004],[126.85598,37.59037],[126.8562,37.59031],[126.85673,37.59031],[126.85688,37.59031],[126.85703,37.5903],[126.85761,37.59004],[126.85793,37.58996],[126.85983,37.58951]]}},{"type":"Feature","properties":{"class":"minor","highway":"residential","sidewalk":"unknown","lanes":0,"name":"해포길","oneway":false},"geometry":{"type":"LineString","coordinates":[[126.85598,37.59037],[126.85535,37.59107],[126.85517,37.59118],[126.85473,37.59116],[126.85458,37.59116],[126.85424,37.59121],[126.85385,37.59115]]}},{"type":"Feature","properties":{"class":"major","highway":"trunk_link","sidewalk":"likely","lanes":0,"name":"","oneway":true},"geometry":{"type":"LineString","coordinates":[[126.84761,37.58544],[126.84748,37.58566],[126.84734,37.58599],[126.84731,37.58616]]}},{"type":"Feature","properties":{"class":"alley","highway":"service","sidewalk":"unknown","lanes":0,"name":"","oneway":false},"geometry":{"type":"LineString","coordinates":[[126.84705,37.58633],[126.8472,37.58648],[126.84737,37.58665],[126.84814,37.58747],[126.84834,37.58771],[126.84856,37.58798],[126.84944,37.58897],[126.85012,37.58973]]}},{"type":"Feature","properties":{"class":"minor","highway":"unclassified","sidewalk":"unknown","lanes":0,"name":"","oneway":false},"geometry":{"type":"LineString","coordinates":[[126.85364,37.59885],[126.85385,37.59898],[126.85396,37.59894],[126.85435,37.59877],[126.85482,37.59857],[126.85517,37.59842],[126.85559,37.5983],[126.85624,37.59817],[126.85757,37.59786],[126.85759,37.59778]]}},{"type":"Feature","properties":{"class":"minor","highway":"unclassified","sidewalk":"unknown","lanes":0,"name":"","oneway":false},"geometry":{"type":"LineString","coordinates":[[126.85759,37.59778],[126.85767,37.59759]]}},{"type":"Feature","properties":{"class":"minor","highway":"unclassified","sidewalk":"unknown","lanes":0,"name":"항공대학로","oneway":false},"geometry":{"type":"LineString","coordinates":[[126.85757,37.59786],[126.85786,37.59789],[126.8581,37.59795],[126.85894,37.59854],[126.85936,37.59886],[126.85951,37.599],[126.8596,37.59922],[126.85961,37.59931],[126.85955,37.59965],[126.85945,37.60019],[126.85949,37.60052],[126.85961,37.6008],[126.86026,37.60143],[126.86053,37.60169],[126.861,37.60221],[126.86107,37.60233],[126.86115,37.6027],[126.86133,37.60345],[126.86165,37.60382],[126.86202,37.6042],[126.86228,37.60438],[126.86265,37.60455],[126.86298,37.60473],[126.86328,37.60506],[126.86336,37.60518]]}},{"type":"Feature","properties":{"class":"minor","highway":"unclassified","sidewalk":"unknown","lanes":0,"name":"항공대학로","oneway":false},"geometry":{"type":"LineString","coordinates":[[126.86159,37.60344],[126.86153,37.60326],[126.86139,37.60264],[126.8613,37.60226],[126.86119,37.60205],[126.86111,37.60197],[126.86046,37.60128],[126.85976,37.60059],[126.85971,37.60042],[126.85973,37.60001],[126.85979,37.59966],[126.85988,37.59921],[126.85976,37.59892],[126.85961,37.59875],[126.85817,37.59774],[126.85791,37.59755],[126.85785,37.5975]]}},{"type":"Feature","properties":{"class":"minor","highway":"unclassified","sidewalk":"unknown","lanes":0,"name":"","oneway":false},"geometry":{"type":"LineString","coordinates":[[126.85319,37.59818],[126.85321,37.59807]]}},{"type":"Feature","properties":{"class":"minor","highway":"unclassified","sidewalk":"unknown","lanes":0,"name":"","oneway":false},"geometry":{"type":"LineString","coordinates":[[126.85314,37.59835],[126.85319,37.59818]]}},{"type":"Feature","properties":{"class":"minor","highway":"unclassified","sidewalk":"unknown","lanes":0,"name":"","oneway":false},"geometry":{"type":"LineString","coordinates":[[126.85331,37.59867],[126.85322,37.59861],[126.85314,37.59846],[126.85314,37.59835]]}},{"type":"Feature","properties":{"class":"minor","highway":"unclassified","sidewalk":"unknown","lanes":0,"name":"","oneway":false},"geometry":{"type":"LineString","coordinates":[[126.85364,37.59885],[126.85331,37.59867]]}},{"type":"Feature","properties":{"class":"minor","highway":"unclassified","sidewalk":"unknown","lanes":0,"name":"","oneway":false},"geometry":{"type":"LineString","coordinates":[[126.85321,37.59807],[126.85355,37.59806],[126.85396,37.59795],[126.85526,37.59749],[126.85584,37.59729],[126.85623,37.59715],[126.85676,37.59714],[126.85709,37.59687],[126.85713,37.59687]]}},{"type":"Feature","properties":{"class":"minor","highway":"unclassified","sidewalk":"unknown","lanes":0,"name":"","oneway":false},"geometry":{"type":"LineString","coordinates":[[126.85728,37.59686],[126.85753,37.59709],[126.85756,37.59712]]}},{"type":"Feature","properties":{"class":"minor","highway":"unclassified","sidewalk":"unknown","lanes":0,"name":"","oneway":false},"geometry":{"type":"LineString","coordinates":[[126.85728,37.59686],[126.85785,37.59622],[126.85799,37.59616],[126.85812,37.59614],[126.85855,37.59615],[126.85881,37.59613],[126.85908,37.59607],[126.85916,37.59602],[126.8593,37.59589],[126.8594,37.59582],[126.85967,37.5957],[126.86008,37.5954],[126.86062,37.59509],[126.86108,37.59487],[126.86181,37.59473],[126.86258,37.5946],[126.86357,37.59429],[126.86427,37.59414],[126.86441,37.59402]]}},{"type":"Feature","properties":{"class":"minor","highway":"unclassified","sidewalk":"unknown","lanes":0,"name":"","oneway":false},"geometry":{"type":"LineString","coordinates":[[126.85781,37.59744],[126.85785,37.5975],[126.85775,37.59754],[126.85767,37.59759]]}},{"type":"Feature","properties":{"class":"minor","highway":"unclassified","sidewalk":"unknown","lanes":0,"name":"","oneway":false},"geometry":{"type":"LineString","coordinates":[[126.85756,37.59712],[126.85781,37.59744]]}},{"type":"Feature","properties":{"class":"minor","highway":"unclassified","sidewalk":"unknown","lanes":0,"name":"","oneway":false},"geometry":{"type":"LineString","coordinates":[[126.85048,37.59702],[126.85064,37.59701],[126.85087,37.59702],[126.85091,37.59715],[126.8514,37.59709],[126.85168,37.5972],[126.85227,37.59755],[126.85259,37.59783],[126.85276,37.59795],[126.85296,37.59805],[126.85321,37.59807]]}},{"type":"Feature","properties":{"class":"minor","highway":"unclassified","sidewalk":"unknown","lanes":0,"name":"","oneway":false},"geometry":{"type":"LineString","coordinates":[[126.85087,37.59702],[126.85088,37.59685],[126.85103,37.59655],[126.85148,37.59609],[126.85157,37.59586],[126.85199,37.59532],[126.85213,37.59485],[126.85223,37.5941],[126.85229,37.59384],[126.85248,37.59393],[126.85295,37.59417],[126.85352,37.59441],[126.85426,37.59466],[126.85478,37.59485],[126.85547,37.59503],[126.85588,37.59491],[126.8569,37.59511],[126.85708,37.59529],[126.85723,37.59542],[126.85767,37.59549],[126.85911,37.5956],[126.85927,37.59561],[126.85953,37.59544],[126.85967,37.59535],[126.85996,37.59516]]}},{"type":"Feature","properties":{"class":"minor","highway":"residential","sidewalk":"unknown","lanes":0,"name":"대덕로200번길","oneway":false},"geometry":{"type":"LineString","coordinates":[[126.86163,37.59188],[126.86114,37.59166],[126.86094,37.59162],[126.86077,37.59158],[126.86022,37.5914],[126.85995,37.59136],[126.85943,37.59145],[126.85907,37.59136],[126.85816,37.59176],[126.85735,37.59201],[126.8568,37.59209],[126.85609,37.59239],[126.85583,37.59226],[126.85541,37.59254],[126.85509,37.59266],[126.85484,37.59266],[126.85465,37.5926],[126.85457,37.59257],[126.85433,37.59249],[126.85405,37.59229],[126.85378,37.59218],[126.8536,37.59218],[126.8528,37.59241],[126.85237,37.59245],[126.85197,37.59242]]}},{"type":"Feature","properties":{"class":"major","highway":"trunk","sidewalk":"likely","lanes":3,"name":"제2자유로","oneway":true},"geometry":{"type":"LineString","coordinates":[[126.85687,37.59763],[126.85581,37.59802],[126.85436,37.59854],[126.85258,37.59914],[126.85066,37.59986]]}},{"type":"Feature","properties":{"class":"major","highway":"trunk","sidewalk":"likely","lanes":3,"name":"제2자유로","oneway":true},"geometry":{"type":"LineString","coordinates":[[126.85733,37.59745],[126.85687,37.59763]]}},{"type":"Feature","properties":{"class":"major","highway":"trunk","sidewalk":"likely","lanes":3,"name":"제2자유로","oneway":true},"geometry":{"type":"LineString","coordinates":[[126.85712,37.59738],[126.8575,37.59725],[126.86053,37.59621]]}},{"type":"Feature","properties":{"class":"major","highway":"trunk","sidewalk":"likely","lanes":3,"name":"제2자유로","oneway":true},"geometry":{"type":"LineString","coordinates":[[126.85662,37.59756],[126.85712,37.59738]]}},{"type":"Feature","properties":{"class":"major","highway":"trunk","sidewalk":"likely","lanes":5,"name":"자유로","oneway":true},"geometry":{"type":"LineString","coordinates":[[126.86258,37.57683],[126.8622,37.57704],[126.86103,37.5777],[126.8604,37.57807],[126.85996,37.57832],[126.85984,37.57839],[126.85955,37.57856],[126.85883,37.57897],[126.85845,37.57919],[126.85753,37.57971],[126.85726,37.57987],[126.85703,37.58001]]}},{"type":"Feature","properties":{"class":"major","highway":"trunk","sidewalk":"likely","lanes":3,"name":"제2자유로","oneway":true},"geometry":{"type":"LineString","coordinates":[[126.85066,37.59986],[126.84726,37.6011]]}},{"type":"Feature","properties":{"class":"major","highway":"motorway","sidewalk":"likely","lanes":2,"name":"수원문산고속도로","oneway":true},"geometry":{"type":"LineString","coordinates":[[126.85463,37.58668],[126.85425,37.58736],[126.85283,37.58961],[126.85205,37.59111],[126.85158,37.59214],[126.85135,37.59264],[126.85119,37.59312],[126.85114,37.59374],[126.85123,37.59448],[126.85143,37.59567]]}},{"type":"Feature","properties":{"class":"major","highway":"motorway","sidewalk":"likely","lanes":2,"name":"수원문산고속도로","oneway":true},"geometry":{"type":"LineString","coordinates":[[126.85143,37.59567],[126.8514,37.59644],[126.85134,37.59696],[126.85123,37.59747],[126.85103,37.59819],[126.85062,37.59929],[126.84964,37.60213],[126.84938,37.60332]]}},{"type":"Feature","properties":{"class":"major","highway":"motorway","sidewalk":"likely","lanes":2,"name":"수원문산고속도로","oneway":false},"geometry":{"type":"LineString","coordinates":[[126.84923,37.60332],[126.84951,37.60209],[126.85049,37.59929],[126.85091,37.59815],[126.85112,37.59744],[126.85121,37.59694],[126.85127,37.59639],[126.85129,37.59564]]}},{"type":"Feature","properties":{"class":"major","highway":"motorway","sidewalk":"likely","lanes":2,"name":"수원문산고속도로","oneway":true},"geometry":{"type":"LineString","coordinates":[[126.85129,37.59564],[126.85115,37.59451],[126.85105,37.59373],[126.85107,37.59324],[126.85122,37.59267],[126.85142,37.59222],[126.85195,37.59109],[126.8527,37.58958],[126.85451,37.58664]]}},{"type":"Feature","properties":{"class":"major","highway":"motorway_link","sidewalk":"likely","lanes":2,"name":"","oneway":true},"geometry":{"type":"LineString","coordinates":[[126.85374,37.58342],[126.85342,37.58318],[126.85289,37.58285],[126.85176,37.5822],[126.85139,37.58204],[126.85117,37.58198],[126.85091,37.58194],[126.85071,37.58196],[126.8505,37.58206],[126.85038,37.58218],[126.8503,37.58231],[126.85026,37.58245],[126.85027,37.58257],[126.85034,37.58272],[126.85044,37.58283],[126.85054,37.5829],[126.85071,37.58296],[126.85087,37.58298],[126.85099,37.58298],[126.85108,37.58297]]}},{"type":"Feature","properties":{"class":"major","highway":"motorway_link","sidewalk":"likely","lanes":0,"name":"","oneway":true},"geometry":{"type":"LineString","coordinates":[[126.85108,37.58297],[126.8518,37.58276]]}},{"type":"Feature","properties":{"class":"major","highway":"motorway_link","sidewalk":"likely","lanes":0,"name":"","oneway":true},"geometry":{"type":"LineString","coordinates":[[126.85421,37.58175],[126.85405,37.58184],[126.85382,37.58201],[126.85368,37.58217],[126.85362,37.58227],[126.85356,37.58237]]}},{"type":"Feature","properties":{"class":"major","highway":"motorway_link","sidewalk":"likely","lanes":2,"name":"","oneway":true},"geometry":{"type":"LineString","coordinates":[[126.85356,37.58237],[126.8535,37.5825],[126.85347,37.58264],[126.85347,37.58283],[126.85354,37.58299],[126.85363,37.58312],[126.85386,37.58335]]}},{"type":"Feature","properties":{"class":"major","highway":"motorway","sidewalk":"likely","lanes":2,"name":"수원문산고속도로","oneway":true},"geometry":{"type":"LineString","coordinates":[[126.85451,37.58664],[126.85463,37.58639],[126.85473,37.58607],[126.85478,37.58574],[126.85478,37.58533],[126.8547,37.58492],[126.8546,37.58455],[126.85441,37.58419],[126.85417,37.58384],[126.85374,37.58342]]}},{"type":"Feature","properties":{"class":"major","highway":"motorway","sidewalk":"likely","lanes":2,"name":"수원문산고속도로","oneway":true},"geometry":{"type":"LineString","coordinates":[[126.85386,37.58335],[126.85425,37.58377],[126.85453,37.58418],[126.85471,37.58454],[126.85482,37.5849],[126.85489,37.58532],[126.8549,37.58553],[126.8549,37.58571],[126.85485,37.58609],[126.85474,37.58644],[126.85463,37.58668]]}},{"type":"Feature","properties":{"class":"major","highway":"tertiary","sidewalk":"likely","lanes":2,"name":"으뜸로","oneway":false},"geometry":{"type":"LineString","coordinates":[[126.85756,37.58214],[126.85768,37.582],[126.85796,37.5817],[126.85803,37.58162],[126.8581,37.58156],[126.85817,37.58149],[126.85905,37.5809],[126.85968,37.5805],[126.85986,37.5804],[126.85997,37.58033],[126.86007,37.58028],[126.86057,37.58],[126.86085,37.57983],[126.86109,37.57971],[126.86149,37.57952],[126.86226,37.57924],[126.86239,37.5792],[126.86332,37.57901],[126.86382,37.57894],[126.8643,37.57889],[126.8644,37.57889],[126.86448,37.57889],[126.86525,37.57889],[126.86604,37.57889],[126.86675,37.57891],[126.86744,37.57893],[126.86755,37.57893],[126.86764,37.57894],[126.86804,37.57895],[126.86867,37.57904],[126.86934,37.57927],[126.86998,37.57958],[126.87009,37.57965],[126.87049,37.5799],[126.87055,37.57994],[126.87068,37.58004],[126.87079,37.58013],[126.87104,37.58032],[126.87113,37.58039],[126.87155,37.58078],[126.87173,37.58104]]}},{"type":"Feature","properties":{"class":"major","highway":"tertiary","sidewalk":"likely","lanes":1,"name":"대덕산로","oneway":false},"geometry":{"type":"LineString","coordinates":[[126.85997,37.58033],[126.86005,37.58041],[126.86047,37.5809],[126.86053,37.58096],[126.8606,37.58102],[126.86073,37.58113],[126.86115,37.58131],[126.86141,37.58132],[126.86159,37.58132],[126.86224,37.58118],[126.86253,37.58113],[126.86261,37.58111],[126.86269,37.58109],[126.8636,37.58087],[126.86435,37.58069],[126.86444,37.58067],[126.86453,37.58065],[126.86528,37.58051],[126.86576,37.58045],[126.86593,37.58043],[126.86627,37.58044],[126.86655,37.58048],[126.86675,37.58052],[126.86705,37.58061],[126.86714,37.58064],[126.86721,37.58065],[126.86729,37.58067],[126.86811,37.58095],[126.8682,37.58097],[126.86837,37.58103],[126.86845,37.58106],[126.86871,37.58116]]}},{"type":"Feature","properties":{"class":"alley","highway":"service","sidewalk":"unknown","lanes":0,"name":"","oneway":true},"geometry":{"type":"LineString","coordinates":[[126.85492,37.58154],[126.85443,37.58177],[126.85431,37.58182],[126.85413,37.5819],[126.85394,37.58207],[126.85366,37.58248],[126.85353,37.58258],[126.85331,37.58266],[126.85312,37.58276],[126.85301,37.58282],[126.85275,37.5829],[126.85244,37.58294],[126.85215,37.58291],[126.85195,37.58301],[126.8515,37.58323],[126.85123,37.5833]]}},{"type":"Feature","properties":{"class":"alley","highway":"service","sidewalk":"unknown","lanes":0,"name":"","oneway":true},"geometry":{"type":"LineString","coordinates":[[126.85495,37.58134],[126.85492,37.58154]]}},{"type":"Feature","properties":{"class":"alley","highway":"service","sidewalk":"unknown","lanes":0,"name":"","oneway":true},"geometry":{"type":"LineString","coordinates":[[126.85443,37.58164],[126.85431,37.58182]]}},{"type":"Feature","properties":{"class":"minor","highway":"residential","sidewalk":"unknown","lanes":0,"name":"","oneway":false},"geometry":{"type":"LineString","coordinates":[[126.85197,37.59242],[126.85103,37.59224]]}},{"type":"Feature","properties":{"class":"minor","highway":"unclassified","sidewalk":"unknown","lanes":0,"name":"","oneway":false},"geometry":{"type":"LineString","coordinates":[[126.85103,37.59224],[126.85079,37.59226],[126.85063,37.59228],[126.85052,37.59231],[126.85035,37.59238],[126.8502,37.59245],[126.84996,37.59256],[126.84989,37.59259],[126.84968,37.59266],[126.84951,37.59267],[126.83743,37.59278],[126.83726,37.59278],[126.83718,37.59277]]}},{"type":"Feature","properties":{"class":"minor","highway":"unclassified","sidewalk":"unknown","lanes":0,"name":"대덕로200번길","oneway":false},"geometry":{"type":"LineString","coordinates":[[126.85509,37.59266],[126.85524,37.59288],[126.85538,37.5931],[126.85542,37.59343],[126.8555,37.59361],[126.85542,37.59388],[126.85528,37.59406],[126.85518,37.59415],[126.85504,37.59429],[126.85492,37.59442]]}},{"type":"Feature","properties":{"class":"minor","highway":"residential","sidewalk":"unknown","lanes":0,"name":"대덕로200번길","oneway":false},"geometry":{"type":"LineString","coordinates":[[126.85583,37.59226],[126.85576,37.59218],[126.8557,37.59197],[126.85569,37.59181],[126.85538,37.5915],[126.85517,37.59118]]}},{"type":"Feature","properties":{"class":"minor","highway":"residential","sidewalk":"unknown","lanes":0,"name":"해포길","oneway":false},"geometry":{"type":"LineString","coordinates":[[126.85569,37.59181],[126.85578,37.5916],[126.85595,37.59148],[126.85607,37.59133],[126.85611,37.59113],[126.85607,37.5909],[126.85642,37.59061],[126.85659,37.5905],[126.8568,37.59043],[126.85688,37.59031]]}},{"type":"Feature","properties":{"class":"minor","highway":"residential","sidewalk":"unknown","lanes":0,"name":"해포길","oneway":false},"geometry":{"type":"LineString","coordinates":[[126.85555,37.59004],[126.85582,37.58995],[126.85606,37.58986],[126.85646,37.58966],[126.85673,37.58951]]}},{"type":"Feature","properties":{"class":"minor","highway":"residential","sidewalk":"unknown","lanes":0,"name":"대덕로200번길","oneway":false},"geometry":{"type":"LineString","coordinates":[[126.85465,37.5926],[126.85468,37.59246],[126.85457,37.59217],[126.85433,37.59182],[126.85464,37.59159],[126.85491,37.59136],[126.85473,37.59116]]}},{"type":"Feature","properties":{"class":"minor","highway":"residential","sidewalk":"unknown","lanes":0,"name":"해포길","oneway":false},"geometry":{"type":"LineString","coordinates":[[126.85473,37.59116],[126.85411,37.59048],[126.85396,37.5902],[126.8537,37.59001],[126.85358,37.58985],[126.85338,37.58961],[126.85334,37.58953]]}},{"type":"Feature","properties":{"class":"minor","highway":"residential","sidewalk":"unknown","lanes":0,"name":"해포길","oneway":false},"geometry":{"type":"LineString","coordinates":[[126.85358,37.58985],[126.8537,37.58973],[126.85371,37.58957],[126.85373,37.5894],[126.85367,37.58922],[126.8535,37.58908],[126.85424,37.58776],[126.85502,37.58778]]}},{"type":"Feature","properties":{"class":"minor","highway":"unclassified","sidewalk":"unknown","lanes":0,"name":"","oneway":false},"geometry":{"type":"LineString","coordinates":[[126.85123,37.60123],[126.85151,37.60103],[126.8517,37.60078],[126.85213,37.60014],[126.85244,37.59973]]}},{"type":"Feature","properties":{"class":"minor","highway":"unclassified","sidewalk":"unknown","lanes":0,"name":"","oneway":false},"geometry":{"type":"LineString","coordinates":[[126.84828,37.59993],[126.84875,37.59977],[126.84912,37.59971],[126.84934,37.59962]]}},{"type":"Feature","properties":{"class":"minor","highway":"unclassified","sidewalk":"unknown","lanes":0,"name":"","oneway":false},"geometry":{"type":"LineString","coordinates":[[126.85314,37.59846],[126.85299,37.59847],[126.85259,37.59868],[126.85214,37.59887],[126.85125,37.59924],[126.85025,37.59951],[126.85057,37.60002],[126.85013,37.60018],[126.85048,37.60077]]}},{"type":"Feature","properties":{"class":"minor","highway":"unclassified","sidewalk":"unknown","lanes":0,"name":"","oneway":false},"geometry":{"type":"LineString","coordinates":[[126.85223,37.59112],[126.85214,37.59138],[126.85218,37.59154],[126.85182,37.59211],[126.8516,37.59257],[126.85162,37.59285],[126.85161,37.59317],[126.8517,37.59337],[126.85216,37.59367],[126.85229,37.59384]]}},{"type":"Feature","properties":{"class":"minor","highway":"unclassified","sidewalk":"unknown","lanes":0,"name":"","oneway":false},"geometry":{"type":"LineString","coordinates":[[126.8517,37.59337],[126.85148,37.59352],[126.85147,37.59409],[126.85161,37.5948],[126.85156,37.59486]]}},{"type":"Feature","properties":{"class":"minor","highway":"unclassified","sidewalk":"unknown","lanes":0,"name":"","oneway":false},"geometry":{"type":"LineString","coordinates":[[126.85156,37.59486],[126.85105,37.59488]]}},{"type":"Feature","properties":{"class":"minor","highway":"unclassified","sidewalk":"unknown","lanes":0,"name":"","oneway":false},"geometry":{"type":"LineString","coordinates":[[126.85105,37.59488],[126.85096,37.59483],[126.85088,37.59409],[126.85087,37.59353],[126.85092,37.59302],[126.85086,37.59286],[126.85087,37.59256],[126.85087,37.5925],[126.85079,37.59226]]}},{"type":"Feature","properties":{"class":"minor","highway":"unclassified","sidewalk":"unknown","lanes":0,"name":"","oneway":false},"geometry":{"type":"LineString","coordinates":[[126.85048,37.59702],[126.8499,37.59707],[126.84937,37.59718],[126.84869,37.59735],[126.84864,37.5976],[126.84856,37.59783]]}},{"type":"Feature","properties":{"class":"minor","highway":"unclassified","sidewalk":"unknown","lanes":0,"name":"","oneway":false},"geometry":{"type":"LineString","coordinates":[[126.84869,37.59735],[126.84855,37.59739]]}},{"type":"Feature","properties":{"class":"minor","highway":"unclassified","sidewalk":"unknown","lanes":0,"name":"","oneway":false},"geometry":{"type":"LineString","coordinates":[[126.84856,37.59783],[126.84857,37.5976],[126.84855,37.59739]]}},{"type":"Feature","properties":{"class":"minor","highway":"residential","sidewalk":"unknown","lanes":0,"name":"강매로","oneway":false},"geometry":{"type":"LineString","coordinates":[[126.84379,37.59855],[126.84406,37.59864],[126.84445,37.5987],[126.84519,37.59883]]}},{"type":"Feature","properties":{"class":"minor","highway":"residential","sidewalk":"unknown","lanes":0,"name":"강매로","oneway":false},"geometry":{"type":"LineString","coordinates":[[126.84519,37.59883],[126.8451,37.59889],[126.84478,37.59901],[126.8443,37.599],[126.84419,37.59914],[126.84335,37.59911]]}},{"type":"Feature","properties":{"class":"minor","highway":"residential","sidewalk":"unknown","lanes":0,"name":"강매로","oneway":false},"geometry":{"type":"LineString","coordinates":[[126.8451,37.59889],[126.84525,37.59905],[126.84519,37.59919],[126.84509,37.5993],[126.84484,37.59931],[126.84478,37.59901]]}},{"type":"Feature","properties":{"class":"minor","highway":"residential","sidewalk":"unknown","lanes":0,"name":"강매로","oneway":false},"geometry":{"type":"LineString","coordinates":[[126.8432,37.59954],[126.84331,37.59964],[126.84341,37.59974],[126.84355,37.59979]]}},{"type":"Feature","properties":{"class":"alley","highway":"service","sidewalk":"unknown","lanes":0,"name":"","oneway":false},"geometry":{"type":"LineString","coordinates":[[126.85333,37.58793],[126.85012,37.58973],[126.84869,37.59056],[126.8453,37.59248],[126.84525,37.59249],[126.84521,37.59248],[126.84519,37.59246],[126.84347,37.59053],[126.84346,37.5905],[126.84346,37.59047],[126.84349,37.59044],[126.84685,37.58854],[126.84744,37.58821],[126.84786,37.58798],[126.84834,37.58771],[126.85169,37.58581]]}},{"type":"Feature","properties":{"class":"alley","highway":"service","sidewalk":"unknown","lanes":0,"name":"","oneway":false},"geometry":{"type":"LineString","coordinates":[[126.85058,37.58456],[126.85062,37.58461],[126.85111,37.58516],[126.85169,37.58581],[126.85341,37.58771],[126.85343,37.58775],[126.85343,37.58779],[126.85342,37.58783],[126.8534,37.58787],[126.85333,37.58793]]}},{"type":"Feature","properties":{"class":"alley","highway":"service","sidewalk":"unknown","lanes":0,"name":"","oneway":false},"geometry":{"type":"LineString","coordinates":[[126.84944,37.58897],[126.84905,37.58919],[126.84898,37.58923],[126.84826,37.58963],[126.84799,37.58979]]}},{"type":"Feature","properties":{"class":"alley","highway":"service","sidewalk":"unknown","lanes":0,"name":"","oneway":false},"geometry":{"type":"LineString","coordinates":[[126.84826,37.58963],[126.84779,37.5891],[126.84778,37.58908],[126.8478,37.58906],[126.84849,37.58867]]}},{"type":"Feature","properties":{"class":"alley","highway":"service","sidewalk":"unknown","lanes":0,"name":"","oneway":false},"geometry":{"type":"LineString","coordinates":[[126.84843,37.5886],[126.84849,37.58867],[126.84886,37.5891],[126.84898,37.58923]]}},{"type":"Feature","properties":{"class":"alley","highway":"service","sidewalk":"unknown","lanes":0,"name":"","oneway":false},"geometry":{"type":"LineString","coordinates":[[126.84886,37.5891],[126.84854,37.58926]]}},{"type":"Feature","properties":{"class":"alley","highway":"service","sidewalk":"unknown","lanes":0,"name":"","oneway":false},"geometry":{"type":"LineString","coordinates":[[126.84786,37.58798],[126.84797,37.58811],[126.84798,37.58811],[126.848,37.58811],[126.84816,37.58802]]}},{"type":"Feature","properties":{"class":"alley","highway":"service","sidewalk":"unknown","lanes":0,"name":"","oneway":false},"geometry":{"type":"LineString","coordinates":[[126.84711,37.58786],[126.84744,37.58821],[126.84773,37.58852]]}},{"type":"Feature","properties":{"class":"alley","highway":"service","sidewalk":"unknown","lanes":0,"name":"","oneway":false},"geometry":{"type":"LineString","coordinates":[[126.84905,37.58919],[126.84946,37.58965],[126.84946,37.58967],[126.84945,37.58969],[126.84879,37.59008],[126.84876,37.59008],[126.84872,37.59006],[126.84837,37.58967],[126.84835,37.58966],[126.84833,37.58966],[126.8483,37.58966],[126.84828,37.58966],[126.84826,37.58963]]}},{"type":"Feature","properties":{"class":"alley","highway":"service","sidewalk":"unknown","lanes":0,"name":"","oneway":false},"geometry":{"type":"LineString","coordinates":[[126.8472,37.58648],[126.85054,37.58459],[126.85058,37.58456],[126.85059,37.58455],[126.85071,37.58444],[126.8508,37.58437],[126.85084,37.58435]]}},{"type":"Feature","properties":{"class":"alley","highway":"service","sidewalk":"unknown","lanes":0,"name":"","oneway":false},"geometry":{"type":"LineString","coordinates":[[126.85111,37.58516],[126.85127,37.58507],[126.85135,37.58503],[126.85198,37.58469],[126.85203,37.58466],[126.85275,37.58427],[126.8528,37.58423],[126.85281,37.58418],[126.85281,37.58413],[126.85279,37.58409],[126.85235,37.5836],[126.85231,37.58358],[126.85225,37.58357],[126.85221,37.58359],[126.8516,37.58395],[126.85154,37.58401],[126.85151,37.58407],[126.85152,37.58415],[126.85164,37.58429],[126.85165,37.58432],[126.85163,37.58435],[126.85157,37.58438],[126.85111,37.58466],[126.8511,37.58467],[126.8511,37.58469],[126.85109,37.58471],[126.85111,37.58473],[126.85114,37.58477],[126.85135,37.58503]]}},{"type":"Feature","properties":{"class":"alley","highway":"service","sidewalk":"unknown","lanes":0,"name":"","oneway":false},"geometry":{"type":"LineString","coordinates":[[126.85062,37.58461],[126.85114,37.58477]]}},{"type":"Feature","properties":{"class":"alley","highway":"service","sidewalk":"unknown","lanes":0,"name":"","oneway":false},"geometry":{"type":"LineString","coordinates":[[126.8508,37.58437],[126.8511,37.58469]]}},{"type":"Feature","properties":{"class":"alley","highway":"service","sidewalk":"unknown","lanes":0,"name":"","oneway":false},"geometry":{"type":"LineString","coordinates":[[126.85203,37.58466],[126.85172,37.58429],[126.8517,37.58428],[126.85167,37.58428],[126.85164,37.58429]]}},{"type":"Feature","properties":{"class":"alley","highway":"service","sidewalk":"unknown","lanes":0,"name":"","oneway":false},"geometry":{"type":"LineString","coordinates":[[126.85198,37.58469],[126.85217,37.5849],[126.8522,37.58491],[126.85221,37.58491],[126.85235,37.58492],[126.8524,37.58491],[126.85245,37.58489],[126.85316,37.58449]]}},{"type":"Feature","properties":{"class":"alley","highway":"service","sidewalk":"unknown","lanes":0,"name":"","oneway":false},"geometry":{"type":"LineString","coordinates":[[126.85127,37.58507],[126.85147,37.58526],[126.8515,37.58528],[126.85154,37.58528],[126.8522,37.58491]]}},{"type":"Feature","properties":{"class":"minor","highway":"unclassified","sidewalk":"unknown","lanes":0,"name":"대덕로200번길","oneway":false},"geometry":{"type":"LineString","coordinates":[[126.85484,37.59466],[126.85478,37.59485]]}},{"type":"Feature","properties":{"class":"minor","highway":"unclassified","sidewalk":"unknown","lanes":0,"name":"대덕로200번길","oneway":false},"geometry":{"type":"LineString","coordinates":[[126.85492,37.59442],[126.85484,37.59466]]}},{"type":"Feature","properties":{"class":"minor","highway":"residential","sidewalk":"unknown","lanes":0,"name":"","oneway":false},"geometry":{"type":"LineString","coordinates":[[126.85803,37.58162],[126.8581,37.58169],[126.85835,37.58195],[126.85898,37.58197],[126.8593,37.58201]]}},{"type":"Feature","properties":{"class":"major","highway":"tertiary","sidewalk":"likely","lanes":1,"name":"으뜸로","oneway":false},"geometry":{"type":"LineString","coordinates":[[126.85719,37.5826],[126.85729,37.58245],[126.85756,37.58214]]}},{"type":"Feature","properties":{"class":"major","highway":"tertiary","sidewalk":"likely","lanes":1,"name":"대덕산로","oneway":false},"geometry":{"type":"LineString","coordinates":[[126.85942,37.5797],[126.85945,37.57974],[126.8599,37.58024],[126.85997,37.58033]]}},{"type":"Feature","properties":{"class":"minor","highway":"residential","sidewalk":"unknown","lanes":0,"name":"","oneway":false},"geometry":{"type":"LineString","coordinates":[[126.85433,37.59182],[126.85396,37.59209],[126.85378,37.59218]]}},{"type":"Feature","properties":{"class":"minor","highway":"residential","sidewalk":"unknown","lanes":0,"name":"대덕로200번길","oneway":false},"geometry":{"type":"LineString","coordinates":[[126.85491,37.59136],[126.85517,37.59118]]}},{"type":"Feature","properties":{"class":"minor","highway":"residential","sidewalk":"unknown","lanes":0,"name":"","oneway":false},"geometry":{"type":"LineString","coordinates":[[126.85364,37.5907],[126.85353,37.59057]]}},{"type":"Feature","properties":{"class":"minor","highway":"residential","sidewalk":"unknown","lanes":0,"name":"","oneway":false},"geometry":{"type":"LineString","coordinates":[[126.85473,37.59056],[126.85464,37.59035],[126.85454,37.59015],[126.85436,37.58986],[126.85417,37.5896]]}},{"type":"Feature","properties":{"class":"minor","highway":"unclassified","sidewalk":"unknown","lanes":0,"name":"해포길","oneway":false},"geometry":{"type":"LineString","coordinates":[[126.85267,37.5911],[126.85264,37.59104],[126.85305,37.59077]]}},{"type":"Feature","properties":{"class":"minor","highway":"unclassified","sidewalk":"unknown","lanes":0,"name":"","oneway":false},"geometry":{"type":"LineString","coordinates":[[126.85504,37.59429],[126.85516,37.5943],[126.85523,37.59425],[126.85518,37.59415]]}},{"type":"Feature","properties":{"class":"minor","highway":"unclassified","sidewalk":"unknown","lanes":0,"name":"","oneway":false},"geometry":{"type":"LineString","coordinates":[[126.85528,37.59406],[126.85536,37.59407],[126.85553,37.59397],[126.85552,37.59389],[126.85559,37.59385]]}},{"type":"Feature","properties":{"class":"major","highway":"trunk_link","sidewalk":"likely","lanes":0,"name":"","oneway":true},"geometry":{"type":"LineString","coordinates":[[126.85845,37.57919],[126.85833,37.57934],[126.85814,37.57946],[126.85787,37.57962],[126.85594,37.58079],[126.85564,37.58096],[126.85532,37.58113],[126.85495,37.58134],[126.85462,37.58152],[126.85443,37.58164],[126.85421,37.58175]]}},{"type":"Feature","properties":{"class":"major","highway":"trunk_link","sidewalk":"likely","lanes":0,"name":"","oneway":true},"geometry":{"type":"LineString","coordinates":[[126.85421,37.58175],[126.85389,37.58179]]}},{"type":"Feature","properties":{"class":"alley","highway":"service","sidewalk":"unknown","lanes":0,"name":"","oneway":false},"geometry":{"type":"LineString","coordinates":[[126.84346,37.5905],[126.84193,37.59137]]}},{"type":"Feature","properties":{"class":"minor","highway":"residential","sidewalk":"unknown","lanes":1,"name":"청초로","oneway":false},"geometry":{"type":"LineString","coordinates":[[126.85803,37.58162],[126.85795,37.58154],[126.85739,37.58092],[126.85735,37.58087],[126.85742,37.58083],[126.85834,37.58026],[126.85927,37.57971],[126.8593,37.57969]]}},{"type":"Feature","properties":{"class":"major","highway":"trunk","sidewalk":"likely","lanes":2,"name":"자유로","oneway":true},"geometry":{"type":"LineString","coordinates":[[126.85703,37.58001],[126.85589,37.58071],[126.8557,37.58081],[126.85464,37.58136]]}},{"type":"Feature","properties":{"class":"major","highway":"trunk","sidewalk":"likely","lanes":2,"name":"자유로","oneway":true},"geometry":{"type":"LineString","coordinates":[[126.85408,37.58146],[126.85555,37.58064],[126.85574,37.58053],[126.85674,37.5799]]}},{"type":"Feature","properties":{"class":"major","highway":"trunk_link","sidewalk":"likely","lanes":0,"name":"","oneway":true},"geometry":{"type":"LineString","coordinates":[[126.85321,37.58195],[126.8554,37.58051],[126.8556,37.58041],[126.85722,37.57958]]}},{"type":"Feature","properties":{"class":"major","highway":"trunk","sidewalk":"likely","lanes":5,"name":"자유로","oneway":true},"geometry":{"type":"LineString","coordinates":[[126.85464,37.58136],[126.85389,37.58179],[126.85325,37.58215],[126.85123,37.5833],[126.84919,37.58448],[126.84761,37.58544],[126.84693,37.58578],[126.84525,37.58677],[126.84375,37.58762],[126.8431,37.58798],[126.84191,37.58866],[126.84103,37.58917],[126.83995,37.5898],[126.83802,37.59091],[126.83729,37.59135],[126.83659,37.59181],[126.83611,37.59219],[126.83569,37.59257],[126.83531,37.59296],[126.83501,37.59331],[126.83455,37.59389],[126.83343,37.59542]]}}]}