{"type":"FeatureCollection","features":[{"type":"Feature","properties":{"class":"minor","highway":"unclassified","sidewalk":"unknown","lanes":0,"name":"해포길","oneway":false},"geometry":{"type":"LineString","coordinates":[[126.86079,37.60982],[126.86075,37.60977],[126.86069,37.60972],[126.86059,37.6096],[126.86053,37.60964],[126.86039,37.60968],[126.86027,37.60965],[126.85975,37.60924],[126.85956,37.60907],[126.8589,37.60873],[126.85852,37.60823],[126.85826,37.60806],[126.85798,37.60749],[126.85787,37.60739],[126.85504,37.60482],[126.85495,37.60465],[126.85419,37.60397],[126.85418,37.60396],[126.85321,37.60311],[126.85219,37.60218],[126.85205,37.60206],[126.85184,37.60187],[126.85123,37.60123],[126.85079,37.60112],[126.85048,37.60077],[126.85,37.60032],[126.84934,37.59962],[126.84921,37.59907],[126.84902,37.59869],[126.84856,37.59783]]}},{"type":"Feature","properties":{"class":"minor","highway":"unclassified","sidewalk":"unknown","lanes":0,"name":"","oneway":false},"geometry":{"type":"LineString","coordinates":[[126.8479,37.60009],[126.84828,37.59993]]}},{"type":"Feature","properties":{"class":"minor","highway":"residential","sidewalk":"unknown","lanes":0,"name":"강매로","oneway":false},"geometry":{"type":"LineString","coordinates":[[126.84335,37.60692],[126.84374,37.60758],[126.84381,37.6077],[126.84411,37.60792],[126.84443,37.60802],[126.84467,37.6082],[126.84485,37.60847],[126.84501,37.60913],[126.84556,37.60926],[126.84563,37.60958],[126.84568,37.60976],[126.84582,37.61006],[126.84585,37.61037],[126.84588,37.61058]]}},{"type":"Feature","properties":{"class":"major","highway":"trunk","sidewalk":"likely","lanes":3,"name":"제2자유로","oneway":true},"geometry":{"type":"LineString","coordinates":[[126.83885,37.60383],[126.83926,37.6037],[126.8402,37.60346],[126.84171,37.60299],[126.84277,37.6026]]}},{"type":"Feature","properties":{"class":"minor","highway":"unclassified","sidewalk":"unknown","lanes":0,"name":"강매로","oneway":false},"geometry":{"type":"LineString","coordinates":[[126.84396,37.59834],[126.84388,37.59843],[126.84379,37.59855],[126.84359,37.59881],[126.84342,37.59896],[126.84335,37.59911],[126.8432,37.59954],[126.84291,37.60022],[126.84286,37.6005],[126.84288,37.60071],[126.84343,37.60224],[126.84345,37.60245],[126.8434,37.60265],[126.84333,37.60275],[126.8432,37.60294],[126.84304,37.60309],[126.84263,37.60329],[126.84246,37.60338],[126.84239,37.60351],[126.84243,37.60467],[126.84247,37.60484],[126.84255,37.60501],[126.84274,37.60527],[126.8431,37.60575],[126.8432,37.60648],[126.84335,37.60692]]}},{"type":"Feature","properties":{"class":"alley","highway":"service","sidewalk":"unknown","lanes":0,"name":"","oneway":true},"geometry":{"type":"LineString","coordinates":[[126.85486,37.60935],[126.85475,37.60894],[126.85481,37.60858],[126.8547,37.60818],[126.85472,37.60807],[126.85473,37.60798],[126.85467,37.60777],[126.85395,37.60715],[126.85392,37.60709],[126.85393,37.60703],[126.8542,37.60682],[126.85429,37.60679],[126.85438,37.60679],[126.85448,37.60686],[126.85582,37.60804],[126.85583,37.60813],[126.8558,37.60819],[126.85502,37.60875],[126.85498,37.60887],[126.85492,37.60897],[126.85486,37.60935]]}},{"type":"Feature","properties":{"class":"major","highway":"trunk_link","sidewalk":"likely","lanes":1,"name":"","oneway":true},"geometry":{"type":"LineString","coordinates":[[126.84111,37.60712],[126.84074,37.60677],[126.84007,37.6062],[126.83982,37.60583],[126.83932,37.60501],[126.83875,37.60414]]}},{"type":"Feature","properties":{"class":"major","highway":"trunk_link","sidewalk":"likely","lanes":1,"name":"","oneway":true},"geometry":{"type":"LineString","coordinates":[[126.84005,37.60364],[126.83971,37.60379],[126.83915,37.60398],[126.83755,37.6044],[126.83608,37.60474],[126.83602,37.60479],[126.83601,37.6049]]}},{"type":"Feature","properties":{"class":"major","highway":"trunk_link","sidewalk":"likely","lanes":0,"name":"","oneway":false},"geometry":{"type":"LineString","coordinates":[[126.84094,37.60599],[126.84124,37.60595],[126.84131,37.60596],[126.84137,37.60603],[126.8414,37.60612],[126.84141,37.60645],[126.84151,37.60666],[126.84189,37.60714]]}},{"type":"Feature","properties":{"class":"major","highway":"trunk","sidewalk":"likely","lanes":3,"name":"권율대로","oneway":true},"geometry":{"type":"LineString","coordinates":[[126.84053,37.60621],[126.84037,37.60602]]}},{"type":"Feature","properties":{"class":"major","highway":"trunk","sidewalk":"likely","lanes":3,"name":"권율대로","oneway":true},"geometry":{"type":"LineString","coordinates":[[126.84129,37.60712],[126.84053,37.60621]]}},{"type":"Feature","properties":{"class":"minor","highway":"unclassified","sidewalk":"unknown","lanes":0,"name":"","oneway":false},"geometry":{"type":"LineString","coordinates":[[126.84921,37.59907],[126.85013,37.60018]]}},{"type":"Feature","properties":{"class":"major","highway":"trunk","sidewalk":"likely","lanes":3,"name":"제2자유로","oneway":true},"geometry":{"type":"LineString","coordinates":[[126.84719,37.60098],[126.8506,37.59976]]}},{"type":"Feature","properties":{"class":"major","highway":"trunk_link","sidewalk":"likely","lanes":2,"name":"","oneway":true},"geometry":{"type":"LineString","coordinates":[[126.84007,37.6062],[126.83992,37.60625],[126.83924,37.60641],[126.83867,37.60649],[126.83816,37.60648],[126.83772,37.60639],[126.83728,37.60625],[126.8371,37.60618],[126.83683,37.60601],[126.83657,37.60579],[126.83632,37.60553],[126.83617,37.60533],[126.83603,37.60511],[126.83597,37.60501]]}},{"type":"Feature","properties":{"class":"major","highway":"trunk_link","sidewalk":"likely","lanes":1,"name":"","oneway":true},"geometry":{"type":"LineString","coordinates":[[126.83582,37.60464],[126.83601,37.6049],[126.83623,37.60528],[126.83639,37.6055],[126.83663,37.60576],[126.83688,37.60597],[126.83713,37.60613],[126.83728,37.60621],[126.83752,37.60629],[126.83782,37.60638],[126.83818,37.60644],[126.83855,37.60645],[126.83885,37.60642],[126.83924,37.60637],[126.83985,37.60622],[126.84007,37.6062]]}},{"type":"Feature","properties":{"class":"minor","highway":"unclassified","sidewalk":"unknown","lanes":0,"name":"","oneway":false},"geometry":{"type":"LineString","coordinates":[[126.84783,37.60103],[126.84753,37.60114],[126.84731,37.60131],[126.84684,37.60147],[126.84686,37.60164]]}},{"type":"Feature","properties":{"class":"minor","highway":"unclassified","sidewalk":"unknown","lanes":0,"name":"강매로","oneway":false},"geometry":{"type":"LineString","coordinates":[[126.84772,37.60012],[126.84776,37.60065],[126.84783,37.60103],[126.8479,37.60126],[126.84811,37.60165],[126.84856,37.60202],[126.84893,37.60219],[126.84974,37.60274],[126.85002,37.60294],[126.85015,37.60311],[126.85018,37.60331]]}},{"type":"Feature","properties":{"class":"minor","highway":"unclassified","sidewalk":"unknown","lanes":0,"name":"강매로","oneway":false},"geometry":{"type":"LineString","coordinates":[[126.84396,37.59834],[126.84413,37.59834],[126.84455,37.5984],[126.84472,37.59846],[126.84487,37.59855],[126.84519,37.59883],[126.84543,37.59901],[126.8456,37.59911],[126.84581,37.59918],[126.84654,37.59938],[126.84707,37.59946],[126.84729,37.59952],[126.84756,37.59972],[126.84772,37.60012]]}},{"type":"Feature","properties":{"class":"minor","highway":"unclassified","sidewalk":"unknown","lanes":0,"name":"","oneway":false},"geometry":{"type":"LineString","coordinates":[[126.84174,37.60492],[126.84176,37.60537],[126.84205,37.60587],[126.84234,37.60646],[126.84256,37.60717],[126.84249,37.60741],[126.84252,37.60811],[126.84358,37.6094],[126.8442,37.61014],[126.84389,37.61031],[126.84309,37.60941],[126.84248,37.60934]]}},{"type":"Feature","properties":{"class":"minor","highway":"unclassified","sidewalk":"unknown","lanes":0,"name":"","oneway":false},"geometry":{"type":"LineString","coordinates":[[126.85321,37.60311],[126.85361,37.60291],[126.8542,37.60256],[126.85434,37.60248],[126.85459,37.60236],[126.85506,37.60219],[126.85522,37.60208],[126.8556,37.60168],[126.85554,37.60153],[126.85552,37.6015],[126.8555,37.60132],[126.85543,37.60132],[126.85471,37.60157],[126.8542,37.60164]]}},{"type":"Feature","properties":{"class":"minor","highway":"unclassified","sidewalk":"unknown","lanes":0,"name":"항공대학로","oneway":false},"geometry":{"type":"LineString","coordinates":[[126.86159,37.60344],[126.86153,37.60326],[126.86139,37.60264],[126.8613,37.60226],[126.86119,37.60205],[126.86111,37.60197],[126.86046,37.60128],[126.85976,37.60059],[126.85971,37.60042],[126.85973,37.60001],[126.85979,37.59966],[126.85988,37.59921],[126.85976,37.59892],[126.85961,37.59875],[126.85817,37.59774],[126.85791,37.59755],[126.85785,37.5975]]}},{"type":"Feature","properties":{"class":"major","highway":"trunk","sidewalk":"likely","lanes":3,"name":"제2자유로","oneway":true},"geometry":{"type":"LineString","coordinates":[[126.84726,37.6011],[126.84638,37.60141],[126.84571,37.60164],[126.84471,37.60202],[126.84363,37.60242]]}},{"type":"Feature","properties":{"class":"major","highway":"trunk","sidewalk":"likely","lanes":3,"name":"제2자유로","oneway":true},"geometry":{"type":"LineString","coordinates":[[126.84279,37.60273],[126.84181,37.60308],[126.84065,37.60346],[126.84005,37.60364],[126.83898,37.60392],[126.83806,37.60412],[126.83714,37.60429],[126.83643,37.60439],[126.83543,37.60453],[126.83454,37.60461],[126.83384,37.60466],[126.83311,37.6047],[126.83284,37.6047],[126.83137,37.60471],[126.83059,37.60467],[126.82982,37.60463],[126.82921,37.60457],[126.82841,37.60453],[126.82763,37.60452],[126.82697,37.60453],[126.82639,37.60455]]}},{"type":"Feature","properties":{"class":"major","highway":"trunk","sidewalk":"likely","lanes":3,"name":"제2자유로","oneway":true},"geometry":{"type":"LineString","coordinates":[[126.84277,37.6026],[126.8436,37.6023]]}},{"type":"Feature","properties":{"class":"major","highway":"trunk","sidewalk":"likely","lanes":3,"name":"제2자유로","oneway":true},"geometry":{"type":"LineString","coordinates":[[126.8436,37.6023],[126.84465,37.6019],[126.84719,37.60098]]}},{"type":"Feature","properties":{"class":"major","highway":"trunk","sidewalk":"likely","lanes":3,"name":"제2자유로","oneway":true},"geometry":{"type":"LineString","coordinates":[[126.84363,37.60242],[126.84279,37.60273]]}},{"type":"Feature","properties":{"class":"major","highway":"trunk_link","sidewalk":"likely","lanes":1,"name":"","oneway":true},"geometry":{"type":"LineString","coordinates":[[126.83962,37.60482],[126.83981,37.605],[126.84023,37.60537],[126.84082,37.60587],[126.84094,37.60599],[126.84102,37.60612],[126.84128,37.60654],[126.84163,37.6071]]}},{"type":"Feature","properties":{"class":"major","highway":"trunk","sidewalk":"likely","lanes":3,"name":"권율대로","oneway":true},"geometry":{"type":"LineString","coordinates":[[126.84037,37.60602],[126.83944,37.60495]]}},{"type":"Feature","properties":{"class":"major","highway":"trunk","sidewalk":"likely","lanes":3,"name":"제2자유로","oneway":true},"geometry":{"type":"LineString","coordinates":[[126.85066,37.59986],[126.84726,37.6011]]}},{"type":"Feature","properties":{"class":"major","highway":"motorway","sidewalk":"likely","lanes":2,"name":"수원문산고속도로","oneway":false},"geometry":{"type":"LineString","coordinates":[[126.84324,37.60364],[126.84526,37.6042]]}},{"type":"Feature","properties":{"class":"major","highway":"motorway","sidewalk":"likely","lanes":2,"name":"수원문산고속도로","oneway":false},"geometry":{"type":"LineString","coordinates":[[126.83828,37.60194],[126.83879,37.6022],[126.83936,37.60241],[126.83992,37.60259],[126.84059,37.60282]]}},{"type":"Feature","properties":{"class":"major","highway":"motorway","sidewalk":"likely","lanes":2,"name":"수원문산고속도로","oneway":false},"geometry":{"type":"LineString","coordinates":[[126.84059,37.60282],[126.84324,37.60364]]}},{"type":"Feature","properties":{"class":"major","highway":"motorway","sidewalk":"likely","lanes":2,"name":"수원문산고속도로","oneway":false},"geometry":{"type":"LineString","coordinates":[[126.84526,37.6042],[126.84575,37.6044],[126.84617,37.60456],[126.84662,37.60475],[126.84706,37.60495],[126.84899,37.60608]]}},{"type":"Feature","properties":{"class":"major","highway":"motorway","sidewalk":"likely","lanes":2,"name":"수원문산고속도로","oneway":false},"geometry":{"type":"LineString","coordinates":[[126.84899,37.60608],[126.84929,37.60628],[126.84961,37.60653],[126.85014,37.60704],[126.85055,37.60743],[126.85324,37.61056]]}},{"type":"Feature","properties":{"class":"major","highway":"motorway","sidewalk":"likely","lanes":2,"name":"수원문산고속도로","oneway":true},"geometry":{"type":"LineString","coordinates":[[126.84938,37.60332],[126.84935,37.60404],[126.84943,37.60483],[126.84954,37.60539],[126.84966,37.60575],[126.84973,37.60595],[126.8498,37.60612],[126.8499,37.60634],[126.85013,37.60677],[126.85055,37.60743]]}},{"type":"Feature","properties":{"class":"major","highway":"motorway","sidewalk":"likely","lanes":2,"name":"수원문산고속도로","oneway":true},"geometry":{"type":"LineString","coordinates":[[126.85143,37.59567],[126.8514,37.59644],[126.85134,37.59696],[126.85123,37.59747],[126.85103,37.59819],[126.85062,37.59929],[126.84964,37.60213],[126.84938,37.60332]]}},{"type":"Feature","properties":{"class":"major","highway":"motorway","sidewalk":"likely","lanes":2,"name":"수원문산고속도로","oneway":false},"geometry":{"type":"LineString","coordinates":[[126.85311,37.61063],[126.85185,37.60921],[126.85051,37.60765],[126.85005,37.60724],[126.84961,37.60686],[126.84925,37.60655],[126.84878,37.60622]]}},{"type":"Feature","properties":{"class":"major","highway":"motorway","sidewalk":"likely","lanes":2,"name":"수원문산고속도로","oneway":false},"geometry":{"type":"LineString","coordinates":[[126.84878,37.60622],[126.84702,37.60521],[126.84646,37.60494],[126.84579,37.60466],[126.84515,37.60442]]}},{"type":"Feature","properties":{"class":"major","highway":"motorway","sidewalk":"likely","lanes":2,"name":"수원문산고속도로","oneway":false},"geometry":{"type":"LineString","coordinates":[[126.84515,37.60442],[126.84311,37.60374]]}},{"type":"Feature","properties":{"class":"major","highway":"motorway","sidewalk":"likely","lanes":2,"name":"수원문산고속도로","oneway":false},"geometry":{"type":"LineString","coordinates":[[126.84047,37.6029],[126.83942,37.60257],[126.83885,37.60235],[126.83831,37.60209]]}},{"type":"Feature","properties":{"class":"major","highway":"motorway","sidewalk":"likely","lanes":2,"name":"수원문산고속도로","oneway":false},"geometry":{"type":"LineString","coordinates":[[126.84311,37.60374],[126.84047,37.6029]]}},{"type":"Feature","properties":{"class":"major","highway":"motorway","sidewalk":"likely","lanes":2,"name":"수원문산고속도로","oneway":true},"geometry":{"type":"LineString","coordinates":[[126.85185,37.60921],[126.85038,37.60785],[126.84982,37.60736],[126.84963,37.60718],[126.8495,37.60699]]}},{"type":"Feature","properties":{"class":"major","highway":"motorway","sidewalk":"likely","lanes":2,"name":"수원문산고속도로","oneway":true},"geometry":{"type":"LineString","coordinates":[[126.8495,37.60699],[126.84941,37.60674],[126.84935,37.60646],[126.84931,37.60616],[126.84929,37.6059]]}},{"type":"Feature","properties":{"class":"major","highway":"motorway","sidewalk":"likely","lanes":2,"name":"수원문산고속도로","oneway":false},"geometry":{"type":"LineString","coordinates":[[126.84929,37.6059],[126.84927,37.60513],[126.84922,37.60428],[126.84922,37.60368],[126.84923,37.60332]]}},{"type":"Feature","properties":{"class":"major","highway":"motorway","sidewalk":"likely","lanes":2,"name":"수원문산고속도로","oneway":false},"geometry":{"type":"LineString","coordinates":[[126.84923,37.60332],[126.84951,37.60209],[126.85049,37.59929],[126.85091,37.59815],[126.85112,37.59744],[126.85121,37.59694],[126.85127,37.59639],[126.85129,37.59564]]}},{"type":"Feature","properties":{"class":"major","highway":"trunk","sidewalk":"likely","lanes":3,"name":"권율대로","oneway":true},"geometry":{"type":"LineString","coordinates":[[126.83964,37.60499],[126.84051,37.60599]]}},{"type":"Feature","properties":{"class":"major","highway":"trunk","sidewalk":"likely","lanes":3,"name":"권율대로","oneway":true},"geometry":{"type":"LineString","coordinates":[[126.84067,37.60618],[126.84147,37.60711]]}},{"type":"Feature","properties":{"class":"major","highway":"trunk","sidewalk":"likely","lanes":3,"name":"권율대로","oneway":true},"geometry":{"type":"LineString","coordinates":[[126.84051,37.60599],[126.84067,37.60618]]}},{"type":"Feature","properties":{"class":"minor","highway":"unclassified","sidewalk":"unknown","lanes":0,"name":"강매로","oneway":false},"geometry":{"type":"LineString","coordinates":[[126.84335,37.60692],[126.84256,37.60717],[126.84249,37.60717]]}},{"type":"Feature","properties":{"class":"minor","highway":"unclassified","sidewalk":"unknown","lanes":0,"name":"","oneway":false},"geometry":{"type":"LineString","coordinates":[[126.84772,37.60012],[126.8479,37.60009]]}},{"type":"Feature","properties":{"class":"minor","highway":"unclassified","sidewalk":"unknown","lanes":0,"name":"강매로","oneway":false},"geometry":{"type":"LineString","coordinates":[[126.84168,37.6049],[126.84174,37.60492],[126.84193,37.60503],[126.84221,37.60518],[126.84241,37.60524],[126.84274,37.60527]]}},{"type":"Feature","properties":{"class":"minor","highway":"unclassified","sidewalk":"unknown","lanes":0,"name":"","oneway":false},"geometry":{"type":"LineString","coordinates":[[126.84149,37.60488],[126.84168,37.6049]]}},{"type":"Feature","properties":{"class":"minor","highway":"unclassified","sidewalk":"unknown","lanes":0,"name":"해포길","oneway":false},"geometry":{"type":"LineString","coordinates":[[126.85419,37.60397],[126.85474,37.60354],[126.85559,37.60295]]}},{"type":"Feature","properties":{"class":"minor","highway":"unclassified","sidewalk":"unknown","lanes":0,"name":"","oneway":false},"geometry":{"type":"LineString","coordinates":[[126.85495,37.60465],[126.85522,37.60445],[126.85586,37.60401],[126.85611,37.60379],[126.85639,37.60355],[126.85644,37.6035],[126.85665,37.60336]]}},{"type":"Feature","properties":{"class":"minor","highway":"unclassified","sidewalk":"unknown","lanes":0,"name":"","oneway":false},"geometry":{"type":"LineString","coordinates":[[126.85123,37.60123],[126.85151,37.60103],[126.8517,37.60078],[126.85213,37.60014],[126.85244,37.59973]]}},{"type":"Feature","properties":{"class":"minor","highway":"unclassified","sidewalk":"unknown","lanes":0,"name":"","oneway":false},"geometry":{"type":"LineString","coordinates":[[126.85314,37.59846],[126.85299,37.59847],[126.85259,37.59868],[126.85214,37.59887],[126.85125,37.59924],[126.85025,37.59951],[126.85057,37.60002],[126.85013,37.60018],[126.85048,37.60077]]}},{"type":"Feature","properties":{"class":"minor","highway":"unclassified","sidewalk":"unknown","lanes":0,"name":"","oneway":false},"geometry":{"type":"LineString","coordinates":[[126.85018,37.60331],[126.85035,37.60334],[126.85101,37.60398]]}},{"type":"Feature","properties":{"class":"minor","highway":"unclassified","sidewalk":"unknown","lanes":0,"name":"","oneway":false},"geometry":{"type":"LineString","coordinates":[[126.85018,37.60331],[126.85024,37.60383],[126.85038,37.60415]]}},{"type":"Feature","properties":{"class":"minor","highway":"residential","sidewalk":"unknown","lanes":0,"name":"강매로","oneway":false},"geometry":{"type":"LineString","coordinates":[[126.84333,37.60275],[126.8437,37.6029],[126.84399,37.60291],[126.84401,37.60304],[126.84409,37.60314],[126.84436,37.60334],[126.84453,37.60336]]}},{"type":"Feature","properties":{"class":"minor","highway":"residential","sidewalk":"unknown","lanes":0,"name":"","oneway":false},"geometry":{"type":"LineString","coordinates":[[126.84399,37.60291],[126.84427,37.60284],[126.84436,37.60298]]}},{"type":"Feature","properties":{"class":"minor","highway":"residential","sidewalk":"unknown","lanes":0,"name":"강매로216번길","oneway":false},"geometry":{"type":"LineString","coordinates":[[126.84485,37.60847],[126.84499,37.60837],[126.84518,37.60815],[126.84529,37.6079],[126.84527,37.60769],[126.84511,37.60751],[126.84497,37.60738],[126.8448,37.6073],[126.84466,37.60721],[126.84459,37.60717],[126.84433,37.60702],[126.84414,37.60691],[126.8438,37.60678],[126.84355,37.6067],[126.84338,37.60663],[126.8432,37.60648]]}},{"type":"Feature","properties":{"class":"minor","highway":"residential","sidewalk":"unknown","lanes":0,"name":"강매로216번길","oneway":false},"geometry":{"type":"LineString","coordinates":[[126.84466,37.60721],[126.84496,37.60715],[126.84516,37.60697],[126.84551,37.60688],[126.84553,37.6065],[126.84553,37.60635]]}},{"type":"Feature","properties":{"class":"minor","highway":"residential","sidewalk":"unknown","lanes":0,"name":"강매로216번길","oneway":false},"geometry":{"type":"LineString","coordinates":[[126.84553,37.60741],[126.8455,37.6072],[126.84571,37.60717],[126.84584,37.60703],[126.84596,37.60701],[126.84602,37.60677],[126.84606,37.60659]]}},{"type":"Feature","properties":{"class":"minor","highway":"residential","sidewalk":"unknown","lanes":0,"name":"강매로216번길","oneway":false},"geometry":{"type":"LineString","coordinates":[[126.84596,37.60701],[126.84618,37.60704],[126.84639,37.60699],[126.8465,37.60692]]}},{"type":"Feature","properties":{"class":"minor","highway":"unclassified","sidewalk":"unknown","lanes":0,"name":"","oneway":false},"geometry":{"type":"LineString","coordinates":[[126.85639,37.60355],[126.85616,37.60319],[126.85604,37.60273],[126.85601,37.60243]]}},{"type":"Feature","properties":{"class":"minor","highway":"unclassified","sidewalk":"unknown","lanes":0,"name":"","oneway":false},"geometry":{"type":"LineString","coordinates":[[126.85434,37.60248],[126.85399,37.60208]]}},{"type":"Feature","properties":{"class":"minor","highway":"unclassified","sidewalk":"unknown","lanes":0,"name":"","oneway":false},"geometry":{"type":"LineString","coordinates":[[126.85205,37.60206],[126.85219,37.60194],[126.8522,37.60187],[126.85217,37.6018]]}},{"type":"Feature","properties":{"class":"minor","highway":"unclassified","sidewalk":"unknown","lanes":0,"name":"","oneway":false},"geometry":{"type":"LineString","coordinates":[[126.85013,37.60018],[126.85072,37.60078],[126.85123,37.60123]]}},{"type":"Feature","properties":{"class":"major","highway":"trunk_link","sidewalk":"likely","lanes":0,"name":"강매로","oneway":true},"geometry":{"type":"LineString","coordinates":[[126.84089,37.60713],[126.84047,37.60667],[126.8402,37.60647],[126.84009,37.60639],[126.8399,37.60636],[126.83977,37.60637],[126.83924,37.60641]]}},{"type":"Feature","properties":{"class":"major","highway":"trunk_link","sidewalk":"likely","lanes":2,"name":"","oneway":false},"geometry":{"type":"LineString","coordinates":[[126.84007,37.6062],[126.84094,37.60599]]}}]}