{"type":"FeatureCollection","features":[{"type":"Feature","properties":{"class":"alley","highway":"service","sidewalk":"unknown","lanes":0,"name":"","oneway":false},"geometry":{"type":"LineString","coordinates":[[126.87923,37.60448],[126.87926,37.60452],[126.87929,37.60452],[126.87931,37.60452],[126.87934,37.60451],[126.87952,37.60441],[126.87954,37.60439],[126.87957,37.60437],[126.87962,37.60434],[126.87969,37.60431],[126.87978,37.60429],[126.87987,37.60427],[126.87995,37.60427],[126.88001,37.60428]]}},{"type":"Feature","properties":{"class":"major","highway":"secondary","sidewalk":"likely","lanes":0,"name":"봉산터널","oneway":true},"geometry":{"type":"LineString","coordinates":[[126.90336,37.6017],[126.90292,37.60197],[126.89956,37.60459]]}},{"type":"Feature","properties":{"class":"major","highway":"secondary","sidewalk":"likely","lanes":0,"name":"봉산터널","oneway":true},"geometry":{"type":"LineString","coordinates":[[126.89926,37.6045],[126.89938,37.60441],[126.9032,37.60156]]}},{"type":"Feature","properties":{"class":"major","highway":"secondary","sidewalk":"likely","lanes":1,"name":"봉산로","oneway":false},"geometry":{"type":"LineString","coordinates":[[126.89356,37.61494],[126.89357,37.61499],[126.89361,37.61535],[126.89362,37.61552],[126.89364,37.61564],[126.89364,37.61598],[126.89353,37.61724],[126.89354,37.6176],[126.89363,37.61786],[126.89438,37.6188],[126.89448,37.61901],[126.89447,37.61907],[126.89446,37.61921],[126.89368,37.62042]]}},{"type":"Feature","properties":{"class":"major","highway":"primary","sidewalk":"likely","lanes":2,"name":"덕양로","oneway":true},"geometry":{"type":"LineString","coordinates":[[126.89956,37.60459],[126.89936,37.60479],[126.8992,37.60504],[126.89901,37.60539],[126.89888,37.60572],[126.89878,37.60598],[126.89866,37.60639]]}},{"type":"Feature","properties":{"class":"major","highway":"primary","sidewalk":"likely","lanes":2,"name":"","oneway":false},"geometry":{"type":"LineString","coordinates":[[126.89376,37.61394],[126.8933,37.61423]]}},{"type":"Feature","properties":{"class":"major","highway":"primary","sidewalk":"likely","lanes":2,"name":"덕양로","oneway":false},"geometry":{"type":"LineString","coordinates":[[126.89231,37.61507],[126.89204,37.61532],[126.89171,37.61567],[126.89134,37.61614],[126.89117,37.6164],[126.89103,37.6167],[126.89077,37.61729],[126.89063,37.61765],[126.89054,37.61795],[126.89036,37.61823],[126.89011,37.61863],[126.88983,37.61904],[126.88935,37.61954],[126.88876,37.61998],[126.88806,37.62045],[126.88724,37.62078],[126.88635,37.621],[126.88477,37.62131],[126.88397,37.62147],[126.88187,37.6219],[126.88128,37.62201]]}},{"type":"Feature","properties":{"class":"major","highway":"primary","sidewalk":"likely","lanes":2,"name":"생태터널","oneway":false},"geometry":{"type":"LineString","coordinates":[[126.89748,37.61148],[126.89695,37.61194]]}},{"type":"Feature","properties":{"class":"major","highway":"primary","sidewalk":"likely","lanes":2,"name":"덕양로","oneway":false},"geometry":{"type":"LineString","coordinates":[[126.89695,37.61194],[126.89662,37.61218],[126.89605,37.6126],[126.89564,37.61284],[126.89376,37.61394]]}},{"type":"Feature","properties":{"class":"minor","highway":"unclassified","sidewalk":"unknown","lanes":0,"name":"화랑로286번길","oneway":false},"geometry":{"type":"LineString","coordinates":[[126.88135,37.62228],[126.88152,37.62243],[126.88168,37.62252],[126.88185,37.62257],[126.88231,37.62245],[126.88309,37.62236],[126.88337,37.62234],[126.88384,37.62238],[126.8843,37.62228],[126.88451,37.62223],[126.88476,37.6222],[126.88516,37.6222],[126.88581,37.6223],[126.88608,37.6223],[126.88637,37.62221],[126.88666,37.62208],[126.88724,37.62169],[126.88779,37.62147],[126.88867,37.62121],[126.88896,37.62108],[126.88956,37.62069],[126.88994,37.62055],[126.89015,37.62047],[126.89017,37.62044],[126.89028,37.6204],[126.89044,37.62028],[126.89061,37.6201],[126.89084,37.61979],[126.89108,37.6194],[126.89129,37.61914],[126.8916,37.61892],[126.89174,37.61883],[126.89186,37.61868],[126.89193,37.61841],[126.89195,37.6182]]}},{"type":"Feature","properties":{"class":"minor","highway":"unclassified","sidewalk":"unknown","lanes":0,"name":"화랑로286번길","oneway":false},"geometry":{"type":"LineString","coordinates":[[126.8843,37.62228],[126.88421,37.62215],[126.88462,37.62163],[126.88477,37.62131],[126.88493,37.6206],[126.8851,37.62022],[126.88536,37.62013],[126.88574,37.6195],[126.88626,37.61886]]}},{"type":"Feature","properties":{"class":"minor","highway":"unclassified","sidewalk":"unknown","lanes":0,"name":"화랑로286번길","oneway":false},"geometry":{"type":"LineString","coordinates":[[126.88397,37.62147],[126.88389,37.62121],[126.88386,37.62105],[126.88391,37.62071],[126.88411,37.62043],[126.88417,37.62017],[126.88398,37.61966],[126.88392,37.61949],[126.8836,37.61955],[126.8834,37.61929],[126.88334,37.61896],[126.88302,37.61869],[126.88248,37.61875],[126.88248,37.61916],[126.88258,37.61939],[126.8826,37.61989],[126.88231,37.62011],[126.88224,37.6203],[126.88245,37.62071],[126.88225,37.62121],[126.88189,37.62132],[126.88187,37.6219]]}},{"type":"Feature","properties":{"class":"minor","highway":"unclassified","sidewalk":"unknown","lanes":0,"name":"봉산로","oneway":false},"geometry":{"type":"LineString","coordinates":[[126.89195,37.6182],[126.89169,37.61801],[126.89123,37.618],[126.89092,37.61797],[126.89063,37.61765],[126.89028,37.61732],[126.88991,37.61704],[126.88964,37.61673],[126.88939,37.61664],[126.88872,37.61667],[126.88848,37.61664],[126.88827,37.6165]]}},{"type":"Feature","properties":{"class":"minor","highway":"unclassified","sidewalk":"unknown","lanes":0,"name":"봉산로","oneway":false},"geometry":{"type":"LineString","coordinates":[[126.89195,37.6182],[126.89279,37.61786],[126.89294,37.61773],[126.893,37.61759],[126.89325,37.616],[126.89311,37.61558],[126.893,37.61539],[126.89274,37.61518],[126.89261,37.61515],[126.89246,37.61505],[126.89233,37.61496],[126.89219,37.61486],[126.89206,37.61479],[126.8915,37.61477]]}},{"type":"Feature","properties":{"class":"minor","highway":"unclassified","sidewalk":"unknown","lanes":0,"name":"봉산로","oneway":false},"geometry":{"type":"LineString","coordinates":[[126.89315,37.6176],[126.89326,37.6176],[126.89354,37.6176]]}},{"type":"Feature","properties":{"class":"minor","highway":"unclassified","sidewalk":"unknown","lanes":0,"name":"봉산로","oneway":false},"geometry":{"type":"LineString","coordinates":[[126.89325,37.616],[126.89351,37.61599]]}},{"type":"Feature","properties":{"class":"minor","highway":"unclassified","sidewalk":"unknown","lanes":0,"name":"봉산로","oneway":false},"geometry":{"type":"LineString","coordinates":[[126.89362,37.61552],[126.89384,37.61517],[126.89398,37.61496],[126.89402,37.61482],[126.89406,37.61476],[126.89408,37.61465],[126.89407,37.61453],[126.89411,37.6145],[126.89419,37.61445],[126.89453,37.61433],[126.89465,37.61428],[126.89471,37.61424],[126.89478,37.61416],[126.89482,37.6141],[126.89495,37.6139],[126.89516,37.6138]]}},{"type":"Feature","properties":{"class":"minor","highway":"unclassified","sidewalk":"unknown","lanes":0,"name":"봉산로","oneway":false},"geometry":{"type":"LineString","coordinates":[[126.89264,37.61216],[126.8923,37.61223],[126.89183,37.61247],[126.89155,37.61252],[126.89105,37.61251],[126.89076,37.61261],[126.89055,37.61293],[126.8906,37.61306],[126.89089,37.61336],[126.8909,37.61357],[126.89114,37.61371]]}},{"type":"Feature","properties":{"class":"minor","highway":"unclassified","sidewalk":"unknown","lanes":0,"name":"봉산로","oneway":false},"geometry":{"type":"LineString","coordinates":[[126.89257,37.61152],[126.8923,37.61153],[126.89115,37.61064]]}},{"type":"Feature","properties":{"class":"major","highway":"secondary","sidewalk":"likely","lanes":1,"name":"","oneway":false},"geometry":{"type":"LineString","coordinates":[[126.89354,37.61474],[126.89355,37.61483],[126.89356,37.61494]]}},{"type":"Feature","properties":{"class":"minor","highway":"residential","sidewalk":"unknown","lanes":0,"name":"봉산로","oneway":false},"geometry":{"type":"LineString","coordinates":[[126.89326,37.60976],[126.89309,37.60989],[126.89301,37.60997],[126.89271,37.61032],[126.89252,37.6108],[126.89255,37.61118],[126.89257,37.61152],[126.89257,37.61177],[126.89264,37.61216],[126.89271,37.61249],[126.89292,37.61282],[126.89316,37.61308]]}},{"type":"Feature","properties":{"class":"major","highway":"primary","sidewalk":"likely","lanes":2,"name":"덕양로","oneway":false},"geometry":{"type":"LineString","coordinates":[[126.89866,37.60639],[126.89863,37.60881],[126.89862,37.60932],[126.89854,37.60975],[126.89837,37.6102],[126.89812,37.61067],[126.89786,37.61105],[126.89748,37.61148]]}},{"type":"Feature","properties":{"class":"major","highway":"primary","sidewalk":"likely","lanes":2,"name":"덕양로","oneway":true},"geometry":{"type":"LineString","coordinates":[[126.89866,37.60639],[126.89865,37.60602],[126.89865,37.60588],[126.8987,37.60569],[126.89878,37.60547],[126.89882,37.60535],[126.89893,37.60504],[126.89906,37.60476],[126.89926,37.6045]]}},{"type":"Feature","properties":{"class":"major","highway":"tertiary","sidewalk":"likely","lanes":2,"name":"꽃마을로","oneway":false},"geometry":{"type":"LineString","coordinates":[[126.8898,37.60134],[126.88992,37.6013],[126.89086,37.60095],[126.89093,37.60093]]}},{"type":"Feature","properties":{"class":"major","highway":"tertiary","sidewalk":"likely","lanes":1,"name":"향동1로","oneway":false},"geometry":{"type":"LineString","coordinates":[[126.89637,37.60331],[126.89627,37.60332],[126.89548,37.60336],[126.89539,37.60337],[126.89531,37.60337],[126.89498,37.60339],[126.89421,37.60346],[126.89414,37.60347],[126.89405,37.60348],[126.89349,37.60355],[126.89343,37.60356]]}},{"type":"Feature","properties":{"class":"major","highway":"tertiary","sidewalk":"likely","lanes":1,"name":"향동1로","oneway":false},"geometry":{"type":"LineString","coordinates":[[126.89315,37.60361],[126.89311,37.60362],[126.89289,37.60368],[126.89282,37.60369],[126.89274,37.60371],[126.89257,37.60378],[126.89216,37.60392],[126.8921,37.60393],[126.89203,37.60396],[126.89155,37.60412],[126.8914,37.60417]]}},{"type":"Feature","properties":{"class":"major","highway":"tertiary","sidewalk":"likely","lanes":1,"name":"","oneway":false},"geometry":{"type":"LineString","coordinates":[[126.89343,37.60356],[126.89315,37.60361]]}},{"type":"Feature","properties":{"class":"major","highway":"tertiary","sidewalk":"likely","lanes":1,"name":"꽃마을로","oneway":false},"geometry":{"type":"LineString","coordinates":[[126.89141,37.59923],[126.89138,37.59927],[126.8913,37.59933],[126.89123,37.5994],[126.89112,37.59949],[126.89097,37.5997],[126.89083,37.59997],[126.8908,37.60007],[126.89078,37.60013],[126.89077,37.6003],[126.89078,37.60036],[126.89083,37.60059],[126.89091,37.60087],[126.89093,37.60093],[126.89097,37.60099],[126.89112,37.60117],[126.89137,37.60134],[126.89157,37.60146],[126.89162,37.60149],[126.89192,37.60163],[126.89228,37.60168],[126.89235,37.60169],[126.89243,37.6017],[126.89251,37.60171]]}},{"type":"Feature","properties":{"class":"major","highway":"tertiary","sidewalk":"likely","lanes":1,"name":"","oneway":false},"geometry":{"type":"LineString","coordinates":[[126.89251,37.60171],[126.89286,37.6017]]}},{"type":"Feature","properties":{"class":"major","highway":"tertiary","sidewalk":"likely","lanes":1,"name":"꽃마을로","oneway":false},"geometry":{"type":"LineString","coordinates":[[126.89286,37.6017],[126.89293,37.60169],[126.89299,37.60169],[126.89307,37.60167],[126.89319,37.60164],[126.89346,37.60156],[126.89382,37.60137],[126.89395,37.60129],[126.89403,37.60124],[126.89411,37.60119],[126.89429,37.60107],[126.89472,37.6008],[126.8948,37.60075]]}},{"type":"Feature","properties":{"class":"minor","highway":"residential","sidewalk":"unknown","lanes":0,"name":"","oneway":false},"geometry":{"type":"LineString","coordinates":[[126.89181,37.59896],[126.89187,37.59901],[126.89261,37.59957],[126.8928,37.59975],[126.89298,37.60009],[126.89301,37.60014],[126.89302,37.60018],[126.89307,37.60033],[126.89308,37.60052],[126.89306,37.60084],[126.89299,37.60162],[126.89299,37.60169]]}},{"type":"Feature","properties":{"class":"minor","highway":"residential","sidewalk":"unknown","lanes":0,"name":"향기5로","oneway":false},"geometry":{"type":"LineString","coordinates":[[126.89647,37.60421],[126.89655,37.60422],[126.8971,37.60423],[126.89759,37.60435],[126.89795,37.60465],[126.89823,37.60507],[126.89835,37.60537],[126.8984,37.60568],[126.89837,37.60602],[126.89835,37.60605],[126.89819,37.60633],[126.89796,37.60661],[126.89756,37.60711],[126.89746,37.60722],[126.89735,37.60733],[126.89713,37.60755],[126.89684,37.60768],[126.89676,37.60772],[126.89627,37.60795],[126.8962,37.60798],[126.89563,37.60824],[126.89548,37.6083],[126.89535,37.60831],[126.89529,37.60832],[126.89496,37.60833],[126.89459,37.60841],[126.89437,37.6086],[126.89424,37.60877],[126.89407,37.60921],[126.89386,37.60939],[126.89365,37.6095],[126.8934,37.60959],[126.89325,37.60964]]}},{"type":"Feature","properties":{"class":"alley","highway":"service","sidewalk":"unknown","lanes":0,"name":"","oneway":false},"geometry":{"type":"LineString","coordinates":[[126.87516,37.61698],[126.87564,37.61684],[126.87599,37.61675],[126.87621,37.6167],[126.87699,37.61653],[126.87771,37.61635],[126.87775,37.61634],[126.87784,37.61632],[126.87835,37.61621],[126.87838,37.6162],[126.87853,37.61617],[126.87895,37.61608],[126.87939,37.61602],[126.8796,37.61601],[126.87961,37.61602],[126.87969,37.61618],[126.87979,37.61627],[126.87997,37.61642],[126.88017,37.61657],[126.88024,37.61665],[126.88034,37.6168],[126.88038,37.6169],[126.88046,37.61705],[126.88054,37.61724],[126.88055,37.61726],[126.88059,37.61732],[126.88061,37.61737],[126.88062,37.61744],[126.88063,37.61765],[126.88064,37.61773],[126.88065,37.61778],[126.88068,37.61781],[126.88072,37.61785],[126.88076,37.61787],[126.88081,37.61789],[126.88085,37.61789],[126.8809,37.61789],[126.88098,37.61788],[126.88119,37.61784],[126.88127,37.61783],[126.88134,37.61782],[126.88144,37.6178],[126.88153,37.6178],[126.88158,37.61779],[126.88159,37.61775],[126.88162,37.61767],[126.88166,37.61759],[126.88169,37.61752],[126.88174,37.61744],[126.8818,37.61738],[126.88188,37.61732],[126.88197,37.61726],[126.88207,37.61721],[126.88215,37.61719],[126.88224,37.61718],[126.88332,37.61704],[126.88339,37.61704],[126.88343,37.61706],[126.88346,37.61707],[126.88347,37.61708],[126.88351,37.61713],[126.88354,37.61718],[126.88357,37.61723],[126.88359,37.61725],[126.88362,37.61726],[126.88366,37.61726],[126.88403,37.61719]]}},{"type":"Feature","properties":{"class":"alley","highway":"service","sidewalk":"unknown","lanes":0,"name":"","oneway":false},"geometry":{"type":"LineString","coordinates":[[126.88055,37.61726],[126.88056,37.61733],[126.88054,37.61739],[126.88052,37.61747],[126.8805,37.61754],[126.88048,37.61757],[126.88046,37.61761],[126.88043,37.61766],[126.88041,37.61773],[126.8804,37.61777],[126.88039,37.61781],[126.88039,37.61784],[126.88038,37.61788],[126.88037,37.61791],[126.88035,37.61793],[126.88032,37.61794]]}},{"type":"Feature","properties":{"class":"alley","highway":"service","sidewalk":"unknown","lanes":0,"name":"","oneway":false},"geometry":{"type":"LineString","coordinates":[[126.88054,37.61724],[126.88049,37.61726],[126.88046,37.61727],[126.88043,37.6173],[126.8804,37.61733],[126.88037,37.61736],[126.88032,37.61747]]}},{"type":"Feature","properties":{"class":"alley","highway":"service","sidewalk":"unknown","lanes":0,"name":"","oneway":false},"geometry":{"type":"LineString","coordinates":[[126.88038,37.6169],[126.88034,37.61693],[126.88031,37.61698],[126.88027,37.61704],[126.88023,37.6171],[126.8802,37.61714],[126.88019,37.61715],[126.88015,37.61719],[126.88008,37.61725],[126.88004,37.61728],[126.88002,37.61731],[126.88,37.61734],[126.87999,37.61738],[126.87998,37.61742],[126.88,37.61747],[126.88001,37.6175],[126.88001,37.61752],[126.88011,37.61765]]}},{"type":"Feature","properties":{"class":"alley","highway":"service","sidewalk":"unknown","lanes":0,"name":"","oneway":false},"geometry":{"type":"LineString","coordinates":[[126.8802,37.61714],[126.88014,37.6171],[126.8801,37.61706],[126.88008,37.61702],[126.88008,37.61698],[126.88009,37.61694],[126.88011,37.61689]]}},{"type":"Feature","properties":{"class":"alley","highway":"service","sidewalk":"unknown","lanes":0,"name":"","oneway":false},"geometry":{"type":"LineString","coordinates":[[126.88158,37.61779],[126.88163,37.61781],[126.88168,37.61783],[126.88175,37.61784],[126.88183,37.61784],[126.88224,37.6178],[126.88232,37.61778],[126.88236,37.61776]]}},{"type":"Feature","properties":{"class":"alley","highway":"service","sidewalk":"unknown","lanes":0,"name":"","oneway":false},"geometry":{"type":"LineString","coordinates":[[126.87961,37.61602],[126.87967,37.616],[126.87972,37.616],[126.87976,37.61599],[126.87983,37.61599],[126.87993,37.61598],[126.88002,37.61597],[126.88009,37.61596],[126.88015,37.61595],[126.88022,37.61593],[126.88028,37.61591],[126.88033,37.61588],[126.88038,37.61585],[126.8804,37.61582],[126.88042,37.61578],[126.88045,37.61568],[126.88047,37.61563],[126.88048,37.61558],[126.8805,37.61556],[126.88052,37.61555],[126.88055,37.61554],[126.88057,37.61555],[126.88061,37.61557],[126.88063,37.61559],[126.88074,37.61571],[126.88102,37.61601]]}},{"type":"Feature","properties":{"class":"alley","highway":"service","sidewalk":"unknown","lanes":0,"name":"","oneway":false},"geometry":{"type":"LineString","coordinates":[[126.88074,37.61571],[126.88073,37.61601],[126.88072,37.61604],[126.88071,37.61607],[126.88069,37.61608],[126.88067,37.61609],[126.88062,37.61611],[126.88054,37.61612],[126.8805,37.61613],[126.88047,37.61614],[126.88044,37.61615],[126.88041,37.61617],[126.88037,37.61618],[126.88033,37.61619],[126.88016,37.61622]]}},{"type":"Feature","properties":{"class":"alley","highway":"service","sidewalk":"unknown","lanes":0,"name":"","oneway":false},"geometry":{"type":"LineString","coordinates":[[126.87677,37.6099],[126.87681,37.60985],[126.87683,37.60983],[126.87688,37.6098],[126.87691,37.60978],[126.87695,37.60974],[126.87702,37.60969],[126.87706,37.60965],[126.87712,37.60961],[126.87718,37.60957],[126.87726,37.60952],[126.87734,37.6095],[126.87744,37.60946],[126.87754,37.60943],[126.87763,37.6094],[126.87772,37.60939],[126.87775,37.6094],[126.87778,37.60935],[126.8778,37.60933],[126.87783,37.6093],[126.87787,37.60929],[126.8779,37.60929],[126.87793,37.6093],[126.87796,37.60931],[126.87797,37.60934],[126.87799,37.60936],[126.87801,37.60938],[126.87803,37.6094],[126.87807,37.60941],[126.8781,37.60941],[126.87814,37.60941],[126.87817,37.6094],[126.87821,37.60938],[126.87827,37.60935],[126.87833,37.60932],[126.87868,37.6091],[126.87883,37.60902],[126.8789,37.60899],[126.879,37.60895],[126.87916,37.60887],[126.87925,37.60884],[126.87931,37.60881],[126.87938,37.60877],[126.87961,37.60862],[126.8797,37.60856],[126.87973,37.60854],[126.87974,37.60854],[126.87981,37.60852],[126.87987,37.60851],[126.87993,37.60851],[126.87999,37.60852],[126.88015,37.60855],[126.88019,37.60857],[126.8804,37.60869],[126.88047,37.60874],[126.88058,37.6088],[126.88065,37.60883],[126.88069,37.60885],[126.88075,37.60886],[126.8808,37.60887],[126.88088,37.60887],[126.88101,37.60886],[126.88125,37.60887],[126.88131,37.60889],[126.88135,37.60893],[126.88138,37.60896],[126.88139,37.60902],[126.8814,37.60907],[126.8814,37.60913],[126.88139,37.60916],[126.88138,37.60919],[126.88137,37.60924],[126.88133,37.6093],[126.88128,37.60935],[126.88123,37.60938]]}},{"type":"Feature","properties":{"class":"alley","highway":"service","sidewalk":"unknown","lanes":0,"name":"","oneway":false},"geometry":{"type":"LineString","coordinates":[[126.88125,37.60887],[126.88155,37.60885],[126.88183,37.60884],[126.88198,37.60884],[126.88208,37.60886],[126.88211,37.60887],[126.88214,37.60888],[126.88218,37.60891],[126.88219,37.60895]]}},{"type":"Feature","properties":{"class":"alley","highway":"service","sidewalk":"unknown","lanes":0,"name":"","oneway":false},"geometry":{"type":"LineString","coordinates":[[126.87812,37.61253],[126.87815,37.61251],[126.8796,37.61178],[126.87967,37.61175],[126.87973,37.61174],[126.87977,37.61174],[126.87984,37.61177],[126.88008,37.61188],[126.88013,37.6119],[126.88022,37.61194],[126.88031,37.61198],[126.88037,37.61202],[126.88045,37.61207],[126.88051,37.61213],[126.88051,37.6122],[126.88051,37.61226]]}},{"type":"Feature","properties":{"class":"alley","highway":"service","sidewalk":"unknown","lanes":0,"name":"","oneway":false},"geometry":{"type":"LineString","coordinates":[[126.87965,37.61022],[126.87963,37.61036],[126.87971,37.61049],[126.88001,37.61096],[126.88017,37.61121],[126.88031,37.61114],[126.88035,37.61106],[126.88038,37.61101],[126.88039,37.61099],[126.88041,37.61097],[126.88057,37.61085],[126.88063,37.61081],[126.88068,37.61079],[126.88072,37.61077],[126.88078,37.61073],[126.88084,37.61068],[126.88091,37.6106],[126.88096,37.61055]]}},{"type":"Feature","properties":{"class":"alley","highway":"service","sidewalk":"unknown","lanes":0,"name":"","oneway":false},"geometry":{"type":"LineString","coordinates":[[126.87928,37.61095],[126.87933,37.61099],[126.87937,37.61102],[126.87942,37.61105],[126.87945,37.61106],[126.87948,37.61106],[126.87951,37.61107],[126.87957,37.61108],[126.87962,37.61108],[126.87968,37.61107],[126.87977,37.61105],[126.88001,37.61096]]}},{"type":"Feature","properties":{"class":"alley","highway":"service","sidewalk":"unknown","lanes":0,"name":"","oneway":false},"geometry":{"type":"LineString","coordinates":[[126.88091,37.6106],[126.88034,37.61035]]}},{"type":"Feature","properties":{"class":"alley","highway":"service","sidewalk":"unknown","lanes":0,"name":"","oneway":false},"geometry":{"type":"LineString","coordinates":[[126.88039,37.61099],[126.87996,37.61034],[126.87982,37.61025],[126.87965,37.61022],[126.87957,37.61008],[126.87943,37.61002]]}},{"type":"Feature","properties":{"class":"alley","highway":"service","sidewalk":"unknown","lanes":0,"name":"","oneway":false},"geometry":{"type":"LineString","coordinates":[[126.87943,37.60997],[126.87936,37.60951],[126.87927,37.60941],[126.87935,37.60934],[126.87971,37.60923],[126.87992,37.60936],[126.88027,37.60955],[126.88045,37.60959]]}},{"type":"Feature","properties":{"class":"alley","highway":"service","sidewalk":"unknown","lanes":0,"name":"","oneway":false},"geometry":{"type":"LineString","coordinates":[[126.88013,37.6119],[126.88057,37.61132]]}},{"type":"Feature","properties":{"class":"alley","highway":"service","sidewalk":"unknown","lanes":0,"name":"","oneway":false},"geometry":{"type":"LineString","coordinates":[[126.88051,37.61226],[126.88045,37.61235],[126.88015,37.61281],[126.88008,37.61292],[126.88042,37.61308],[126.8805,37.61311],[126.88065,37.61314],[126.88076,37.61314],[126.88094,37.61313],[126.88124,37.61305]]}},{"type":"Feature","properties":{"class":"alley","highway":"service","sidewalk":"unknown","lanes":0,"name":"","oneway":false},"geometry":{"type":"LineString","coordinates":[[126.88042,37.61308],[126.88031,37.6132],[126.8802,37.61333],[126.88015,37.61335],[126.8801,37.61337]]}},{"type":"Feature","properties":{"class":"alley","highway":"service","sidewalk":"unknown","lanes":0,"name":"","oneway":false},"geometry":{"type":"LineString","coordinates":[[126.87815,37.61251],[126.87832,37.61276],[126.8784,37.61289],[126.87843,37.61292],[126.87854,37.613],[126.87897,37.61325],[126.87902,37.61327],[126.87906,37.61329],[126.8791,37.6133],[126.87914,37.6133],[126.8792,37.6133],[126.87926,37.61329],[126.87985,37.61318],[126.87995,37.61306],[126.88018,37.61317],[126.88,37.61342],[126.87933,37.61357],[126.87926,37.61329]]}},{"type":"Feature","properties":{"class":"alley","highway":"service","sidewalk":"unknown","lanes":0,"name":"","oneway":false},"geometry":{"type":"LineString","coordinates":[[126.88198,37.61277],[126.88214,37.61267],[126.88184,37.61235]]}},{"type":"Feature","properties":{"class":"alley","highway":"service","sidewalk":"unknown","lanes":0,"name":"","oneway":false},"geometry":{"type":"LineString","coordinates":[[126.88125,37.61418],[126.88124,37.61412],[126.88125,37.61407],[126.88127,37.61404],[126.88156,37.61359]]}},{"type":"Feature","properties":{"class":"alley","highway":"service","sidewalk":"unknown","lanes":0,"name":"","oneway":false},"geometry":{"type":"LineString","coordinates":[[126.88127,37.61783],[126.8813,37.61811]]}},{"type":"Feature","properties":{"class":"alley","highway":"service","sidewalk":"unknown","lanes":0,"name":"","oneway":false},"geometry":{"type":"LineString","coordinates":[[126.88346,37.61707],[126.88339,37.61685]]}},{"type":"Feature","properties":{"class":"alley","highway":"service","sidewalk":"unknown","lanes":0,"name":"","oneway":false},"geometry":{"type":"LineString","coordinates":[[126.88403,37.61719],[126.88412,37.61716],[126.88416,37.61713],[126.8842,37.6171],[126.88422,37.61705],[126.88423,37.61701],[126.88423,37.61697],[126.88422,37.61691],[126.88419,37.61682]]}},{"type":"Feature","properties":{"class":"alley","highway":"service","sidewalk":"unknown","lanes":0,"name":"","oneway":false},"geometry":{"type":"LineString","coordinates":[[126.88076,37.61314],[126.88074,37.6134]]}},{"type":"Feature","properties":{"class":"alley","highway":"service","sidewalk":"unknown","lanes":0,"name":"","oneway":false},"geometry":{"type":"LineString","coordinates":[[126.881,37.61241],[126.88088,37.61249],[126.88079,37.61274]]}},{"type":"Feature","properties":{"class":"alley","highway":"service","sidewalk":"unknown","lanes":0,"name":"","oneway":false},"geometry":{"type":"LineString","coordinates":[[126.88099,37.60934],[126.88105,37.60933],[126.8811,37.60932],[126.88114,37.6093],[126.88117,37.60926],[126.8812,37.60921],[126.88121,37.60916],[126.88139,37.60916]]}},{"type":"Feature","properties":{"class":"major","highway":"secondary","sidewalk":"likely","lanes":1,"name":"향기로","oneway":false},"geometry":{"type":"LineString","coordinates":[[126.89199,37.59523],[126.89205,37.59532],[126.89216,37.59548],[126.89236,37.59576],[126.89243,37.5959],[126.8925,37.59606],[126.89257,37.5963],[126.89263,37.5965],[126.89266,37.5968],[126.89267,37.59703],[126.89267,37.59713],[126.89268,37.59723],[126.89267,37.59733],[126.89266,37.59797],[126.89266,37.59803],[126.89267,37.59814],[126.89268,37.59827],[126.89269,37.59834],[126.8927,37.5984],[126.89274,37.59849],[126.89284,37.59868],[126.89308,37.59901],[126.89339,37.59938],[126.89369,37.59967],[126.89374,37.59973],[126.89379,37.59978],[126.894,37.59999],[126.89439,37.60035],[126.89475,37.60069],[126.8948,37.60075],[126.89486,37.6008],[126.89574,37.60171],[126.89598,37.60202],[126.8961,37.60225],[126.89624,37.60251],[126.89628,37.60272],[126.89633,37.60296],[126.89636,37.60325],[126.89637,37.60331],[126.89637,37.60337],[126.89647,37.60421],[126.89651,37.60463],[126.89648,37.60504],[126.89645,37.6052],[126.89644,37.60528],[126.89641,37.60539],[126.89634,37.60561],[126.89621,37.60591],[126.89617,37.60601],[126.89602,37.60623],[126.89585,37.60639],[126.89559,37.60657],[126.89548,37.60666],[126.89531,37.6068],[126.89479,37.60706],[126.89456,37.60716],[126.89446,37.60721]]}},{"type":"Feature","properties":{"class":"major","highway":"primary","sidewalk":"likely","lanes":3,"name":"향동로","oneway":false},"geometry":{"type":"LineString","coordinates":[[126.8898,37.60134],[126.88984,37.60141],[126.89074,37.603],[126.8914,37.60417],[126.89143,37.60423],[126.89189,37.60505],[126.89266,37.60643],[126.89282,37.60677],[126.89288,37.60695],[126.89296,37.6072],[126.89308,37.60761],[126.89311,37.60772],[126.89313,37.60788],[126.89319,37.60877],[126.89323,37.60932],[126.89325,37.60964]]}},{"type":"Feature","properties":{"class":"minor","highway":"residential","sidewalk":"unknown","lanes":0,"name":"향기5로","oneway":false},"geometry":{"type":"LineString","coordinates":[[126.89446,37.60721],[126.89452,37.60729],[126.89485,37.60774],[126.8949,37.6078],[126.89525,37.60828],[126.89529,37.60832]]}},{"type":"Feature","properties":{"class":"minor","highway":"residential","sidewalk":"unknown","lanes":0,"name":"","oneway":false},"geometry":{"type":"LineString","coordinates":[[126.89301,37.60014],[126.89305,37.60012],[126.89324,37.60001],[126.89367,37.59977],[126.89374,37.59973]]}},{"type":"Feature","properties":{"class":"minor","highway":"residential","sidewalk":"unknown","lanes":0,"name":"","oneway":false},"geometry":{"type":"LineString","coordinates":[[126.89324,37.60001],[126.89327,37.60005],[126.89426,37.60103],[126.89429,37.60107]]}},{"type":"Feature","properties":{"class":"alley","highway":"service","sidewalk":"unknown","lanes":0,"name":"","oneway":false},"geometry":{"type":"LineString","coordinates":[[126.89627,37.60795],[126.89631,37.60799],[126.89634,37.60803],[126.89641,37.60813]]}},{"type":"Feature","properties":{"class":"alley","highway":"service","sidewalk":"unknown","lanes":0,"name":"","oneway":false},"geometry":{"type":"LineString","coordinates":[[126.89485,37.60774],[126.8949,37.60772],[126.89492,37.60771],[126.89515,37.60761]]}},{"type":"Feature","properties":{"class":"alley","highway":"service","sidewalk":"unknown","lanes":0,"name":"","oneway":false},"geometry":{"type":"LineString","coordinates":[[126.89676,37.60772],[126.89674,37.60768],[126.89672,37.60766],[126.89663,37.60754]]}},{"type":"Feature","properties":{"class":"alley","highway":"service","sidewalk":"unknown","lanes":0,"name":"","oneway":false},"geometry":{"type":"LineString","coordinates":[[126.89663,37.60754],[126.89711,37.60732],[126.89744,37.60694],[126.89746,37.60686],[126.89745,37.60675],[126.89743,37.60669],[126.89734,37.60666],[126.89676,37.60647],[126.89682,37.60636],[126.89662,37.6063]]}},{"type":"Feature","properties":{"class":"alley","highway":"service","sidewalk":"unknown","lanes":0,"name":"","oneway":false},"geometry":{"type":"LineString","coordinates":[[126.89734,37.60666],[126.8974,37.60654],[126.89682,37.60636]]}},{"type":"Feature","properties":{"class":"alley","highway":"service","sidewalk":"unknown","lanes":0,"name":"","oneway":false},"geometry":{"type":"LineString","coordinates":[[126.89663,37.60754],[126.89619,37.60774],[126.89581,37.60721],[126.89573,37.60712]]}},{"type":"Feature","properties":{"class":"alley","highway":"service","sidewalk":"unknown","lanes":0,"name":"","oneway":false},"geometry":{"type":"LineString","coordinates":[[126.89581,37.60721],[126.89608,37.60709]]}},{"type":"Feature","properties":{"class":"alley","highway":"service","sidewalk":"unknown","lanes":0,"name":"","oneway":false},"geometry":{"type":"LineString","coordinates":[[126.89573,37.60712],[126.89563,37.60699],[126.89587,37.60688],[126.89596,37.60701],[126.89573,37.60712]]}},{"type":"Feature","properties":{"class":"minor","highway":"residential","sidewalk":"unknown","lanes":0,"name":"","oneway":false},"geometry":{"type":"LineString","coordinates":[[126.89235,37.60169],[126.89235,37.60162],[126.8924,37.60112],[126.89211,37.60098],[126.89192,37.60083],[126.89181,37.60074],[126.89177,37.60068],[126.89174,37.60063],[126.89172,37.60058],[126.8917,37.60052],[126.89165,37.60033],[126.89166,37.60006],[126.89173,37.59989],[126.89184,37.59974],[126.89137,37.59938],[126.8913,37.59933]]}},{"type":"Feature","properties":{"class":"minor","highway":"residential","sidewalk":"unknown","lanes":0,"name":"향기4로","oneway":false},"geometry":{"type":"LineString","coordinates":[[126.8948,37.60075],[126.89488,37.60069],[126.89522,37.60041],[126.8954,37.60024],[126.89557,37.6001],[126.89563,37.60005],[126.89623,37.59954],[126.89637,37.59951],[126.89713,37.59953],[126.89782,37.59955],[126.89858,37.59951],[126.89893,37.59951]]}},{"type":"Feature","properties":{"class":"minor","highway":"residential","sidewalk":"unknown","lanes":0,"name":"꽃내음1길","oneway":false},"geometry":{"type":"LineString","coordinates":[[126.88938,37.59799],[126.88914,37.5982],[126.88901,37.59839],[126.88892,37.59859],[126.88889,37.59877],[126.88889,37.59892],[126.88893,37.59908],[126.88916,37.59954],[126.88955,37.60031]]}},{"type":"Feature","properties":{"class":"minor","highway":"residential","sidewalk":"unknown","lanes":0,"name":"꽃내음1길","oneway":true},"geometry":{"type":"LineString","coordinates":[[126.88973,37.59827],[126.88955,37.59844],[126.88941,37.59861],[126.88938,37.5987],[126.88936,37.5988],[126.88937,37.5989],[126.88939,37.599],[126.8895,37.59924],[126.88959,37.5994],[126.88998,37.60016]]}},{"type":"Feature","properties":{"class":"minor","highway":"residential","sidewalk":"unknown","lanes":0,"name":"꽃내음1길","oneway":false},"geometry":{"type":"LineString","coordinates":[[126.88955,37.60031],[126.88991,37.60019],[126.88998,37.60016],[126.89025,37.60004],[126.89031,37.59996],[126.89038,37.59988],[126.89044,37.59976],[126.89051,37.5996],[126.89071,37.59929],[126.8909,37.59907]]}},{"type":"Feature","properties":{"class":"minor","highway":"residential","sidewalk":"unknown","lanes":0,"name":"꽃내음1길","oneway":false},"geometry":{"type":"LineString","coordinates":[[126.88955,37.60031],[126.88975,37.60068],[126.89071,37.60038],[126.89078,37.60036]]}},{"type":"Feature","properties":{"class":"minor","highway":"residential","sidewalk":"unknown","lanes":0,"name":"꽃내음2길","oneway":false},"geometry":{"type":"LineString","coordinates":[[126.89137,37.60134],[126.89131,37.60136],[126.89043,37.60174],[126.8906,37.60205],[126.89106,37.60287],[126.89157,37.60379],[126.89191,37.60369],[126.89232,37.60356],[126.89271,37.60344],[126.89231,37.60244],[126.89231,37.60206],[126.89234,37.60177],[126.89235,37.60169]]}},{"type":"Feature","properties":{"class":"minor","highway":"residential","sidewalk":"unknown","lanes":0,"name":"꽃내음2길","oneway":false},"geometry":{"type":"LineString","coordinates":[[126.8906,37.60205],[126.89096,37.60191],[126.89124,37.60179],[126.89137,37.60184],[126.8919,37.60199],[126.89231,37.60206]]}},{"type":"Feature","properties":{"class":"minor","highway":"residential","sidewalk":"unknown","lanes":0,"name":"꽃내음2길","oneway":true},"geometry":{"type":"LineString","coordinates":[[126.89232,37.60356],[126.89185,37.6026]]}},{"type":"Feature","properties":{"class":"minor","highway":"residential","sidewalk":"unknown","lanes":0,"name":"꽃내음2길","oneway":false},"geometry":{"type":"LineString","coordinates":[[126.89106,37.60287],[126.89141,37.60275],[126.89185,37.6026],[126.89231,37.60244]]}},{"type":"Feature","properties":{"class":"minor","highway":"residential","sidewalk":"unknown","lanes":0,"name":"꽃내음2길","oneway":true},"geometry":{"type":"LineString","coordinates":[[126.89122,37.60241],[126.8914,37.60235],[126.89176,37.60223],[126.89186,37.60208],[126.8919,37.60199]]}},{"type":"Feature","properties":{"class":"minor","highway":"residential","sidewalk":"unknown","lanes":0,"name":"꽃내음2길","oneway":true},"geometry":{"type":"LineString","coordinates":[[126.89096,37.60191],[126.89122,37.60241],[126.89141,37.60275],[126.89191,37.60369]]}},{"type":"Feature","properties":{"class":"minor","highway":"residential","sidewalk":"unknown","lanes":0,"name":"꽃내음3길","oneway":false},"geometry":{"type":"LineString","coordinates":[[126.89283,37.604],[126.89282,37.60438],[126.89283,37.60477],[126.89286,37.60512],[126.89288,37.6054],[126.89292,37.60554],[126.89321,37.60598],[126.89285,37.60612],[126.89236,37.60527]]}},{"type":"Feature","properties":{"class":"minor","highway":"residential","sidewalk":"unknown","lanes":0,"name":"꽃내음3길","oneway":true},"geometry":{"type":"LineString","coordinates":[[126.89204,37.60466],[126.89282,37.60438]]}},{"type":"Feature","properties":{"class":"minor","highway":"residential","sidewalk":"unknown","lanes":0,"name":"꽃내음3길","oneway":true},"geometry":{"type":"LineString","coordinates":[[126.89283,37.60477],[126.89218,37.60496]]}},{"type":"Feature","properties":{"class":"minor","highway":"residential","sidewalk":"unknown","lanes":0,"name":"꽃내음3길","oneway":true},"geometry":{"type":"LineString","coordinates":[[126.89236,37.60527],[126.89286,37.60512]]}},{"type":"Feature","properties":{"class":"minor","highway":"residential","sidewalk":"unknown","lanes":0,"name":"꽃내음3길","oneway":false},"geometry":{"type":"LineString","coordinates":[[126.89282,37.60369],[126.89283,37.60375],[126.89283,37.604]]}},{"type":"Feature","properties":{"class":"minor","highway":"residential","sidewalk":"unknown","lanes":0,"name":"꽃내음3길","oneway":false},"geometry":{"type":"LineString","coordinates":[[126.89236,37.60527],[126.89218,37.60496],[126.89204,37.60466],[126.89188,37.60433],[126.89226,37.60419],[126.89283,37.604]]}},{"type":"Feature","properties":{"class":"minor","highway":"residential","sidewalk":"unknown","lanes":0,"name":"꽃내음3길","oneway":false},"geometry":{"type":"LineString","coordinates":[[126.89226,37.60419],[126.89213,37.60398],[126.8921,37.60393]]}},{"type":"Feature","properties":{"class":"major","highway":"primary_link","sidewalk":"likely","lanes":1,"name":"덕양로","oneway":true},"geometry":{"type":"LineString","coordinates":[[126.89231,37.61485],[126.8928,37.61443],[126.89312,37.61415],[126.89329,37.61403],[126.89348,37.61391]]}},{"type":"Feature","properties":{"class":"major","highway":"primary_link","sidewalk":"likely","lanes":1,"name":"덕양로","oneway":true},"geometry":{"type":"LineString","coordinates":[[126.8935,37.61428],[126.89333,37.6144],[126.89315,37.61455],[126.89302,37.61465],[126.89257,37.61504]]}},{"type":"Feature","properties":{"class":"major","highway":"primary","sidewalk":"likely","lanes":2,"name":"덕양로","oneway":false},"geometry":{"type":"LineString","coordinates":[[126.8933,37.61423],[126.89288,37.61457],[126.89246,37.61494]]}},{"type":"Feature","properties":{"class":"major","highway":"primary","sidewalk":"likely","lanes":2,"name":"","oneway":false},"geometry":{"type":"LineString","coordinates":[[126.89246,37.61494],[126.89231,37.61507]]}},{"type":"Feature","properties":{"class":"major","highway":"primary_link","sidewalk":"likely","lanes":1,"name":"덕양로","oneway":true},"geometry":{"type":"LineString","coordinates":[[126.89348,37.61391],[126.89369,37.61378],[126.89385,37.61369],[126.89395,37.61363],[126.89526,37.61285],[126.89564,37.61284]]}},{"type":"Feature","properties":{"class":"major","highway":"primary_link","sidewalk":"likely","lanes":1,"name":"덕양로","oneway":true},"geometry":{"type":"LineString","coordinates":[[126.89564,37.61284],[126.89547,37.61308],[126.89433,37.61378],[126.89391,37.61403],[126.89368,37.61416],[126.8935,37.61428]]}},{"type":"Feature","properties":{"class":"major","highway":"primary","sidewalk":"likely","lanes":1,"name":"봉산로","oneway":false},"geometry":{"type":"LineString","coordinates":[[126.89325,37.60964],[126.89326,37.60976],[126.89332,37.61093],[126.89336,37.61198],[126.89337,37.61212],[126.89337,37.61226],[126.89343,37.6132],[126.89345,37.61356],[126.89347,37.61376],[126.89348,37.61391]]}},{"type":"Feature","properties":{"class":"major","highway":"secondary","sidewalk":"likely","lanes":1,"name":"봉산로","oneway":false},"geometry":{"type":"LineString","coordinates":[[126.8935,37.61428],[126.89352,37.61454],[126.89353,37.61462],[126.89354,37.61474]]}},{"type":"Feature","properties":{"class":"alley","highway":"service","sidewalk":"unknown","lanes":0,"name":"","oneway":false},"geometry":{"type":"LineString","coordinates":[[126.89515,37.60761],[126.8952,37.60759]]}},{"type":"Feature","properties":{"class":"alley","highway":"service","sidewalk":"unknown","lanes":0,"name":"","oneway":false},"geometry":{"type":"LineString","coordinates":[[126.89641,37.60813],[126.89648,37.60822]]}},{"type":"Feature","properties":{"class":"alley","highway":"service","sidewalk":"unknown","lanes":0,"name":"","oneway":false},"geometry":{"type":"LineString","coordinates":[[126.89745,37.60675],[126.89756,37.60674],[126.89762,37.60673],[126.89764,37.60669],[126.89762,37.60665],[126.89756,37.60661]]}},{"type":"Feature","properties":{"class":"alley","highway":"service","sidewalk":"unknown","lanes":0,"name":"","oneway":false},"geometry":{"type":"LineString","coordinates":[[126.89644,37.60528],[126.89637,37.60527],[126.89631,37.60527],[126.89582,37.60523],[126.89531,37.60518],[126.89502,37.60509],[126.89476,37.60495],[126.89454,37.60481],[126.89407,37.60436],[126.89416,37.60429]]}},{"type":"Feature","properties":{"class":"alley","highway":"service","sidewalk":"unknown","lanes":0,"name":"","oneway":false},"geometry":{"type":"LineString","coordinates":[[126.89416,37.60429],[126.89426,37.60423],[126.89436,37.60416],[126.89461,37.60438],[126.89442,37.60452],[126.89416,37.60429]]}},{"type":"Feature","properties":{"class":"alley","highway":"service","sidewalk":"unknown","lanes":0,"name":"","oneway":false},"geometry":{"type":"LineString","coordinates":[[126.89426,37.60423],[126.89436,37.60433]]}},{"type":"Feature","properties":{"class":"alley","highway":"service","sidewalk":"unknown","lanes":0,"name":"","oneway":false},"geometry":{"type":"LineString","coordinates":[[126.8958,37.60499],[126.89582,37.60523],[126.89575,37.60539],[126.89562,37.60558],[126.89533,37.60582],[126.89499,37.6061]]}},{"type":"Feature","properties":{"class":"alley","highway":"service","sidewalk":"unknown","lanes":0,"name":"","oneway":false},"geometry":{"type":"LineString","coordinates":[[126.89524,37.605],[126.8958,37.60499],[126.89597,37.60498]]}},{"type":"Feature","properties":{"class":"alley","highway":"service","sidewalk":"unknown","lanes":0,"name":"","oneway":false},"geometry":{"type":"LineString","coordinates":[[126.89597,37.60498],[126.89617,37.60496],[126.89617,37.60512],[126.89598,37.60511],[126.89597,37.60498]]}},{"type":"Feature","properties":{"class":"alley","highway":"service","sidewalk":"unknown","lanes":0,"name":"","oneway":false},"geometry":{"type":"LineString","coordinates":[[126.89546,37.60593],[126.89533,37.60582],[126.8952,37.60571]]}},{"type":"Feature","properties":{"class":"alley","highway":"service","sidewalk":"unknown","lanes":0,"name":"","oneway":false},"geometry":{"type":"LineString","coordinates":[[126.8952,37.60571],[126.89502,37.60557],[126.89521,37.60544],[126.89539,37.60558],[126.8952,37.60571]]}},{"type":"Feature","properties":{"class":"alley","highway":"service","sidewalk":"unknown","lanes":0,"name":"","oneway":false},"geometry":{"type":"LineString","coordinates":[[126.89546,37.60593],[126.89565,37.60609],[126.89583,37.60594],[126.89563,37.60578],[126.89546,37.60593]]}},{"type":"Feature","properties":{"class":"alley","highway":"service","sidewalk":"unknown","lanes":0,"name":"","oneway":false},"geometry":{"type":"LineString","coordinates":[[126.89525,37.60629],[126.89511,37.60619],[126.89499,37.6061],[126.8949,37.60603],[126.89477,37.60592],[126.89445,37.60619],[126.8946,37.6063],[126.89479,37.60643],[126.89493,37.60654],[126.89525,37.60629]]}},{"type":"Feature","properties":{"class":"alley","highway":"service","sidewalk":"unknown","lanes":0,"name":"","oneway":false},"geometry":{"type":"LineString","coordinates":[[126.89525,37.60629],[126.89529,37.60633],[126.89529,37.60638],[126.89527,37.60642]]}},{"type":"Feature","properties":{"class":"alley","highway":"service","sidewalk":"unknown","lanes":0,"name":"","oneway":false},"geometry":{"type":"LineString","coordinates":[[126.8949,37.60603],[126.8946,37.6063]]}},{"type":"Feature","properties":{"class":"alley","highway":"service","sidewalk":"unknown","lanes":0,"name":"","oneway":false},"geometry":{"type":"LineString","coordinates":[[126.89511,37.60619],[126.89479,37.60643]]}},{"type":"Feature","properties":{"class":"alley","highway":"service","sidewalk":"unknown","lanes":0,"name":"","oneway":false},"geometry":{"type":"LineString","coordinates":[[126.89414,37.60347],[126.89414,37.60351],[126.89414,37.60354],[126.89415,37.60374],[126.89416,37.60382]]}},{"type":"Feature","properties":{"class":"alley","highway":"service","sidewalk":"unknown","lanes":0,"name":"","oneway":false},"geometry":{"type":"LineString","coordinates":[[126.89416,37.60382],[126.89417,37.60389],[126.89421,37.60396]]}},{"type":"Feature","properties":{"class":"alley","highway":"service","sidewalk":"unknown","lanes":0,"name":"","oneway":false},"geometry":{"type":"LineString","coordinates":[[126.89415,37.60374],[126.89448,37.60372]]}},{"type":"Feature","properties":{"class":"alley","highway":"service","sidewalk":"unknown","lanes":0,"name":"","oneway":false},"geometry":{"type":"LineString","coordinates":[[126.89414,37.60347],[126.89413,37.60342],[126.89413,37.6034],[126.89412,37.60327],[126.89412,37.60322],[126.89412,37.60315],[126.89409,37.60308]]}},{"type":"Feature","properties":{"class":"alley","highway":"service","sidewalk":"unknown","lanes":0,"name":"","oneway":false},"geometry":{"type":"LineString","coordinates":[[126.89409,37.60308],[126.89402,37.603],[126.89398,37.60289]]}},{"type":"Feature","properties":{"class":"alley","highway":"service","sidewalk":"unknown","lanes":0,"name":"","oneway":false},"geometry":{"type":"LineString","coordinates":[[126.89412,37.60327],[126.89367,37.60331]]}},{"type":"Feature","properties":{"class":"alley","highway":"service","sidewalk":"unknown","lanes":0,"name":"","oneway":false},"geometry":{"type":"LineString","coordinates":[[126.89412,37.60322],[126.89439,37.60319]]}},{"type":"Feature","properties":{"class":"alley","highway":"service","sidewalk":"unknown","lanes":0,"name":"","oneway":false},"geometry":{"type":"LineString","coordinates":[[126.89403,37.60124],[126.89408,37.60129],[126.89412,37.60133],[126.89423,37.60143],[126.89438,37.60151]]}},{"type":"Feature","properties":{"class":"alley","highway":"service","sidewalk":"unknown","lanes":0,"name":"","oneway":false},"geometry":{"type":"LineString","coordinates":[[126.89438,37.60151],[126.89444,37.60156],[126.89448,37.60162]]}},{"type":"Feature","properties":{"class":"alley","highway":"service","sidewalk":"unknown","lanes":0,"name":"","oneway":false},"geometry":{"type":"LineString","coordinates":[[126.89557,37.6001],[126.89554,37.60007],[126.89552,37.60005],[126.89543,37.59998],[126.8953,37.59992]]}},{"type":"Feature","properties":{"class":"minor","highway":"residential","sidewalk":"unknown","lanes":0,"name":"꽃내음2길","oneway":false},"geometry":{"type":"LineString","coordinates":[[126.89191,37.60369],[126.89207,37.60389],[126.8921,37.60393]]}},{"type":"Feature","properties":{"class":"major","highway":"primary_link","sidewalk":"likely","lanes":1,"name":"덕양로","oneway":true},"geometry":{"type":"LineString","coordinates":[[126.89245,37.61514],[126.89232,37.61527],[126.89204,37.61532]]}},{"type":"Feature","properties":{"class":"major","highway":"primary_link","sidewalk":"likely","lanes":1,"name":"","oneway":true},"geometry":{"type":"LineString","coordinates":[[126.89257,37.61504],[126.89245,37.61514]]}},{"type":"Feature","properties":{"class":"major","highway":"primary_link","sidewalk":"likely","lanes":1,"name":"덕양로","oneway":true},"geometry":{"type":"LineString","coordinates":[[126.89204,37.61532],[126.89203,37.61513],[126.89217,37.61499]]}},{"type":"Feature","properties":{"class":"major","highway":"primary_link","sidewalk":"likely","lanes":1,"name":"","oneway":true},"geometry":{"type":"LineString","coordinates":[[126.89217,37.61499],[126.89231,37.61485]]}},{"type":"Feature","properties":{"class":"major","highway":"secondary","sidewalk":"likely","lanes":2,"name":"향기로","oneway":false},"geometry":{"type":"LineString","coordinates":[[126.89446,37.60721],[126.89437,37.60724],[126.89325,37.60767],[126.89311,37.60772]]}},{"type":"Feature","properties":{"class":"minor","highway":"residential","sidewalk":"unknown","lanes":0,"name":"꽃마을로","oneway":false},"geometry":{"type":"LineString","coordinates":[[126.89093,37.60093],[126.891,37.6009],[126.8917,37.60064],[126.89174,37.60063]]}},{"type":"Feature","properties":{"class":"minor","highway":"unclassified","sidewalk":"unknown","lanes":0,"name":"화랑로286번길","oneway":false},"geometry":{"type":"LineString","coordinates":[[126.89017,37.62044],[126.89018,37.62032],[126.89016,37.6202],[126.88935,37.61954]]}},{"type":"Feature","properties":{"class":"minor","highway":"unclassified","sidewalk":"unknown","lanes":0,"name":"","oneway":false},"geometry":{"type":"LineString","coordinates":[[126.89261,37.61515],[126.89243,37.61528],[126.89209,37.61561],[126.89173,37.61605],[126.89137,37.61656]]}},{"type":"Feature","properties":{"class":"minor","highway":"unclassified","sidewalk":"unknown","lanes":0,"name":"화랑로286번길","oneway":false},"geometry":{"type":"LineString","coordinates":[[126.88574,37.6195],[126.88527,37.61922],[126.88525,37.619],[126.88514,37.61893]]}},{"type":"Feature","properties":{"class":"minor","highway":"unclassified","sidewalk":"unknown","lanes":0,"name":"화랑로286번길","oneway":false},"geometry":{"type":"LineString","coordinates":[[126.88398,37.61966],[126.88419,37.61952],[126.88444,37.61943],[126.88489,37.61908],[126.88514,37.61893],[126.88557,37.61857]]}},{"type":"Feature","properties":{"class":"minor","highway":"unclassified","sidewalk":"unknown","lanes":0,"name":"","oneway":false},"geometry":{"type":"LineString","coordinates":[[126.89283,37.61794],[126.89286,37.61797],[126.89268,37.61838]]}},{"type":"Feature","properties":{"class":"minor","highway":"unclassified","sidewalk":"unknown","lanes":0,"name":"","oneway":false},"geometry":{"type":"LineString","coordinates":[[126.88876,37.61998],[126.88842,37.61983]]}},{"type":"Feature","properties":{"class":"minor","highway":"residential","sidewalk":"unknown","lanes":0,"name":"","oneway":false},"geometry":{"type":"LineString","coordinates":[[126.89311,37.60772],[126.89294,37.60781],[126.89194,37.60835]]}},{"type":"Feature","properties":{"class":"minor","highway":"residential","sidewalk":"unknown","lanes":0,"name":"","oneway":false},"geometry":{"type":"LineString","coordinates":[[126.89282,37.60677],[126.89266,37.60685],[126.89236,37.60692],[126.89216,37.60694],[126.89185,37.60691],[126.89156,37.60686],[126.89138,37.60683],[126.8912,37.60681],[126.89099,37.60683],[126.89078,37.60686],[126.8906,37.60696]]}},{"type":"Feature","properties":{"class":"major","highway":"primary","sidewalk":"likely","lanes":3,"name":"향동로","oneway":false},"geometry":{"type":"LineString","coordinates":[[126.88812,37.59834],[126.88833,37.59868],[126.88887,37.59966],[126.88931,37.60047],[126.8898,37.60134]]}},{"type":"Feature","properties":{"class":"major","highway":"primary","sidewalk":"likely","lanes":1,"name":"봉산로","oneway":false},"geometry":{"type":"LineString","coordinates":[[126.89348,37.61391],[126.8935,37.61428]]}},{"type":"Feature","properties":{"class":"minor","highway":"residential","sidewalk":"unknown","lanes":0,"name":"꽃내음2길","oneway":false},"geometry":{"type":"LineString","coordinates":[[126.89271,37.60344],[126.8928,37.60364],[126.89282,37.60369]]}},{"type":"Feature","properties":{"class":"minor","highway":"residential","sidewalk":"unknown","lanes":0,"name":"","oneway":false},"geometry":{"type":"LineString","coordinates":[[126.89735,37.60733],[126.89741,37.60738],[126.89735,37.60752],[126.89729,37.60767],[126.89733,37.60778],[126.89784,37.60848]]}},{"type":"Feature","properties":{"class":"minor","highway":"residential","sidewalk":"unknown","lanes":0,"name":"","oneway":false},"geometry":{"type":"LineString","coordinates":[[126.89741,37.60738],[126.89746,37.60722]]}},{"type":"Feature","properties":{"class":"minor","highway":"unclassified","sidewalk":"unknown","lanes":0,"name":"","oneway":false},"geometry":{"type":"LineString","coordinates":[[126.89398,37.61496],[126.89412,37.61505],[126.89427,37.61515],[126.89472,37.61519]]}},{"type":"Feature","properties":{"class":"minor","highway":"unclassified","sidewalk":"unknown","lanes":0,"name":"","oneway":false},"geometry":{"type":"LineString","coordinates":[[126.89472,37.61519],[126.89483,37.61516],[126.89495,37.61523],[126.89484,37.6153],[126.89472,37.61519]]}},{"type":"Feature","properties":{"class":"minor","highway":"unclassified","sidewalk":"unknown","lanes":0,"name":"","oneway":false},"geometry":{"type":"LineString","coordinates":[[126.89447,37.61907],[126.89454,37.61909],[126.89472,37.61905],[126.89507,37.61883]]}},{"type":"Feature","properties":{"class":"minor","highway":"unclassified","sidewalk":"unknown","lanes":0,"name":"","oneway":false},"geometry":{"type":"LineString","coordinates":[[126.88081,37.62034],[126.88057,37.62021],[126.88042,37.61994]]}},{"type":"Feature","properties":{"class":"minor","highway":"unclassified","sidewalk":"unknown","lanes":0,"name":"화랑로286번길","oneway":false},"geometry":{"type":"LineString","coordinates":[[126.88248,37.61875],[126.88238,37.61871],[126.88229,37.61868]]}},{"type":"Feature","properties":{"class":"minor","highway":"unclassified","sidewalk":"unknown","lanes":0,"name":"","oneway":false},"geometry":{"type":"LineString","coordinates":[[126.88302,37.61869],[126.88299,37.61855]]}},{"type":"Feature","properties":{"class":"minor","highway":"unclassified","sidewalk":"unknown","lanes":0,"name":"봉산로","oneway":false},"geometry":{"type":"LineString","coordinates":[[126.89351,37.61599],[126.89364,37.61598]]}},{"type":"Feature","properties":{"class":"minor","highway":"unclassified","sidewalk":"unknown","lanes":0,"name":"봉산로","oneway":false},"geometry":{"type":"LineString","coordinates":[[126.893,37.61759],[126.89315,37.6176]]}},{"type":"Feature","properties":{"class":"minor","highway":"unclassified","sidewalk":"unknown","lanes":0,"name":"","oneway":false},"geometry":{"type":"LineString","coordinates":[[126.89279,37.61786],[126.89283,37.61794]]}},{"type":"Feature","properties":{"class":"minor","highway":"residential","sidewalk":"unknown","lanes":0,"name":"봉산로","oneway":false},"geometry":{"type":"LineString","coordinates":[[126.89337,37.61226],[126.89321,37.61224],[126.89264,37.61216]]}},{"type":"Feature","properties":{"class":"minor","highway":"unclassified","sidewalk":"unknown","lanes":0,"name":"봉산로","oneway":false},"geometry":{"type":"LineString","coordinates":[[126.89337,37.61226],[126.89351,37.61227],[126.89361,37.61238],[126.89366,37.61328],[126.89373,37.61339],[126.8938,37.61345],[126.89431,37.61323],[126.89546,37.61256],[126.89549,37.61243]]}},{"type":"Feature","properties":{"class":"major","highway":"primary_link","sidewalk":"likely","lanes":0,"name":"","oneway":true},"geometry":{"type":"LineString","coordinates":[[126.89312,37.61415],[126.89322,37.61401],[126.89328,37.61389],[126.89332,37.61381],[126.89336,37.61375],[126.89339,37.61367],[126.89345,37.61356]]}},{"type":"Feature","properties":{"class":"major","highway":"primary_link","sidewalk":"likely","lanes":0,"name":"","oneway":true},"geometry":{"type":"LineString","coordinates":[[126.89345,37.61356],[126.89353,37.61363],[126.89361,37.61365],[126.89372,37.61368],[126.89385,37.61369]]}},{"type":"Feature","properties":{"class":"major","highway":"primary_link","sidewalk":"likely","lanes":0,"name":"","oneway":true},"geometry":{"type":"LineString","coordinates":[[126.89353,37.61462],[126.89345,37.61457],[126.89336,37.61454],[126.89324,37.61454],[126.89315,37.61455]]}},{"type":"Feature","properties":{"class":"major","highway":"primary_link","sidewalk":"likely","lanes":0,"name":"","oneway":true},"geometry":{"type":"LineString","coordinates":[[126.89391,37.61403],[126.89381,37.61412],[126.89374,37.6142],[126.89369,37.61428],[126.89364,37.61438],[126.89359,37.61447],[126.89353,37.61462]]}}]}