{"type":"FeatureCollection","features":[{"type":"Feature","properties":{"class":"major","highway":"primary","sidewalk":"likely","lanes":4,"name":"평창문화로","oneway":true},"geometry":{"type":"LineString","coordinates":[[126.98059,37.61187],[126.98018,37.61186],[126.97981,37.61177],[126.9796,37.61171],[126.97928,37.61159],[126.97897,37.61145],[126.97883,37.61131]]}},{"type":"Feature","properties":{"class":"minor","highway":"residential","sidewalk":"unknown","lanes":0,"name":"평창길","oneway":false},"geometry":{"type":"LineString","coordinates":[[126.97835,37.6111],[126.97832,37.61123],[126.97834,37.61153],[126.97851,37.61213],[126.97856,37.61246],[126.9784,37.61293],[126.97832,37.61306],[126.97831,37.61308],[126.97814,37.61344],[126.97744,37.61407],[126.97727,37.61425],[126.97717,37.61444],[126.97712,37.61486],[126.9771,37.61502],[126.97702,37.61551]]}},{"type":"Feature","properties":{"class":"minor","highway":"residential","sidewalk":"unknown","lanes":0,"name":"평창32길","oneway":false},"geometry":{"type":"LineString","coordinates":[[126.97814,37.61344],[126.97787,37.61337],[126.97767,37.61335],[126.9775,37.61322],[126.97738,37.61315],[126.97723,37.61317],[126.97707,37.61317],[126.9769,37.61308],[126.97688,37.61307],[126.97674,37.61274],[126.97653,37.6126],[126.97627,37.61238],[126.97623,37.61235],[126.97613,37.61225],[126.97586,37.61223],[126.97567,37.6123],[126.97501,37.61256]]}},{"type":"Feature","properties":{"class":"minor","highway":"residential","sidewalk":"unknown","lanes":0,"name":"평창44길","oneway":false},"geometry":{"type":"LineString","coordinates":[[126.97814,37.61344],[126.97832,37.61409],[126.97837,37.61477],[126.97838,37.61488],[126.97848,37.61539]]}},{"type":"Feature","properties":{"class":"major","highway":"trunk","sidewalk":"likely","lanes":0,"name":"내부순환로","oneway":true},"geometry":{"type":"LineString","coordinates":[[126.9921,37.6099],[126.98595,37.60916],[126.98222,37.60867],[126.97961,37.60835],[126.97697,37.60801],[126.97572,37.60773],[126.97449,37.60735],[126.97377,37.60702]]}},{"type":"Feature","properties":{"class":"minor","highway":"residential","sidewalk":"unknown","lanes":1,"name":"평창40길","oneway":false},"geometry":{"type":"LineString","coordinates":[[126.97851,37.61213],[126.97886,37.6119],[126.97976,37.61191],[126.97977,37.61191],[126.98002,37.61199],[126.98082,37.61234],[126.98176,37.61272],[126.98213,37.61281]]}},{"type":"Feature","properties":{"class":"major","highway":"tertiary","sidewalk":"yes","lanes":2,"name":"북악산로","oneway":false},"geometry":{"type":"LineString","coordinates":[[126.97532,37.59964],[126.97538,37.59964],[126.97546,37.59964],[126.97556,37.59965],[126.97564,37.59968],[126.97569,37.59971],[126.97573,37.59977],[126.97575,37.59983],[126.97575,37.59991],[126.97573,37.60006],[126.97573,37.60018],[126.97573,37.60041],[126.97575,37.60063],[126.97576,37.60086],[126.97577,37.60092],[126.97581,37.60099],[126.97585,37.60105],[126.97591,37.60109],[126.97599,37.60112],[126.97609,37.60113],[126.97623,37.60112],[126.9764,37.60107],[126.97655,37.60101],[126.97689,37.60079],[126.97695,37.60075],[126.97702,37.60073],[126.97711,37.60073],[126.97716,37.60075],[126.97725,37.6008],[126.97734,37.60089],[126.97742,37.60099],[126.97753,37.60124],[126.97758,37.60133],[126.97764,37.6014],[126.97772,37.60142],[126.9778,37.60142],[126.97787,37.60137],[126.97796,37.60132],[126.97808,37.6012],[126.97823,37.60108],[126.97835,37.60103],[126.97847,37.60099],[126.97861,37.60101],[126.97876,37.60106],[126.979,37.60115],[126.97914,37.60118],[126.97985,37.60127],[126.98,37.60129],[126.98047,37.60133],[126.98082,37.60139],[126.98095,37.60144],[126.98105,37.6015],[126.9812,37.60161],[126.9814,37.60176],[126.98155,37.60187],[126.98215,37.60217],[126.98252,37.60241],[126.98259,37.60251],[126.98261,37.60263],[126.98255,37.60296],[126.98254,37.60354],[126.98257,37.60391],[126.98263,37.60409],[126.98264,37.60429],[126.98264,37.60445],[126.98268,37.60454],[126.98279,37.60466],[126.98296,37.60479],[126.98333,37.60497],[126.98344,37.60499],[126.98354,37.605],[126.98365,37.60498],[126.98375,37.60494],[126.98383,37.60487],[126.98388,37.6048],[126.98403,37.60448],[126.98414,37.60429],[126.98426,37.60421],[126.98434,37.6042],[126.98455,37.6042],[126.98488,37.60428],[126.98515,37.60437],[126.98522,37.60439],[126.98529,37.60445],[126.98536,37.60458],[126.98541,37.60502],[126.98546,37.60569],[126.98544,37.60591],[126.98541,37.606],[126.9853,37.6061],[126.98519,37.60622],[126.98514,37.60627],[126.98512,37.60635],[126.9851,37.6064],[126.98509,37.60652],[126.98515,37.60666],[126.98525,37.60681],[126.98532,37.60688],[126.9856,37.6071],[126.98565,37.60714],[126.98601,37.6075],[126.98618,37.6077],[126.98626,37.60774],[126.9864,37.60776],[126.98651,37.60774],[126.98662,37.60767],[126.98665,37.60759],[126.98663,37.60748],[126.98659,37.60731],[126.98655,37.60721],[126.98656,37.60713],[126.98663,37.60705],[126.98675,37.60697],[126.98681,37.60693],[126.98689,37.60685],[126.98697,37.60675],[126.98702,37.60661],[126.98698,37.60645],[126.98698,37.60637],[126.98701,37.60631],[126.98707,37.6062],[126.98713,37.60609],[126.9873,37.60591],[126.98737,37.60587],[126.98744,37.60585],[126.9876,37.60583],[126.98774,37.60582],[126.98787,37.60578],[126.98798,37.60572],[126.98807,37.60568],[126.98821,37.60565],[126.98837,37.60562],[126.98849,37.60556],[126.98854,37.60551],[126.98857,37.60543],[126.98856,37.60531],[126.98849,37.60514],[126.98848,37.60501],[126.98853,37.60493],[126.98864,37.6049],[126.98881,37.6049],[126.98902,37.6049],[126.98914,37.60486],[126.98922,37.60482],[126.98926,37.60479],[126.98937,37.6047],[126.98944,37.60466],[126.98963,37.6046],[126.98975,37.60454],[126.9898,37.6045],[126.98986,37.60442],[126.98991,37.60433],[126.98997,37.60418],[126.98999,37.60411],[126.98998,37.60404],[126.98995,37.60395],[126.9897,37.60363],[126.98968,37.60354],[126.98968,37.60349],[126.98972,37.60344],[126.98986,37.60336],[126.99004,37.60336],[126.99037,37.60344],[126.99062,37.6035],[126.99085,37.60353],[126.99098,37.60355],[126.9911,37.60358],[126.99127,37.60365],[126.99141,37.60372],[126.99154,37.60376],[126.99167,37.60378],[126.99181,37.60377],[126.99253,37.60361],[126.99283,37.60353],[126.99302,37.60343],[126.99345,37.60316],[126.99372,37.60301],[126.99385,37.60295],[126.99395,37.60294],[126.99406,37.60294],[126.99425,37.60298],[126.99464,37.60307],[126.9948,37.60309],[126.99492,37.60309],[126.9952,37.60304],[126.99544,37.60298],[126.99566,37.6029],[126.99583,37.6028],[126.99592,37.60271],[126.99597,37.60264],[126.99603,37.60249],[126.99607,37.60242],[126.99611,37.60236],[126.99622,37.60228],[126.99672,37.60218],[126.99729,37.60208]]}},{"type":"Feature","properties":{"class":"major","highway":"trunk","sidewalk":"likely","lanes":0,"name":"내부순환로","oneway":true},"geometry":{"type":"LineString","coordinates":[[126.97393,37.60678],[126.97529,37.60722],[126.97777,37.60785],[126.98047,37.6082],[126.9826,37.60851],[126.98559,37.60889],[126.99216,37.60965]]}},{"type":"Feature","properties":{"class":"minor","highway":"residential","sidewalk":"unknown","lanes":0,"name":"평창42길","oneway":false},"geometry":{"type":"LineString","coordinates":[[126.97912,37.61457],[126.97939,37.61378],[126.97954,37.6136],[126.97975,37.61349],[126.98022,37.61333],[126.98053,37.6133],[126.98059,37.61335],[126.98085,37.61366],[126.98096,37.61371],[126.98117,37.61368],[126.98152,37.61366]]}},{"type":"Feature","properties":{"class":"minor","highway":"residential","sidewalk":"unknown","lanes":0,"name":"평창42길","oneway":false},"geometry":{"type":"LineString","coordinates":[[126.98082,37.61234],[126.98054,37.61245],[126.98038,37.61245],[126.98022,37.61239],[126.98007,37.61228],[126.97996,37.61225],[126.97958,37.61229],[126.97939,37.61231],[126.97926,37.61235],[126.97907,37.61257],[126.97889,37.61282],[126.97891,37.61291],[126.97906,37.61303],[126.97917,37.61314]]}},{"type":"Feature","properties":{"class":"minor","highway":"residential","sidewalk":"unknown","lanes":0,"name":"평창24길","oneway":false},"geometry":{"type":"LineString","coordinates":[[126.97387,37.60921],[126.97461,37.60877],[126.97508,37.60865],[126.97519,37.60865],[126.97535,37.60866],[126.97563,37.60875],[126.97565,37.60875],[126.97613,37.6089],[126.97649,37.60903],[126.97662,37.60903],[126.97671,37.60903],[126.97688,37.609],[126.97724,37.60939],[126.97766,37.60943],[126.97823,37.60926],[126.9784,37.6093],[126.97862,37.60911]]}},{"type":"Feature","properties":{"class":"minor","highway":"residential","sidewalk":"unknown","lanes":0,"name":"평창36길","oneway":false},"geometry":{"type":"LineString","coordinates":[[126.97785,37.61282],[126.97831,37.61308]]}},{"type":"Feature","properties":{"class":"minor","highway":"residential","sidewalk":"unknown","lanes":0,"name":"평창44길","oneway":false},"geometry":{"type":"LineString","coordinates":[[126.97907,37.61517],[126.97837,37.61477]]}},{"type":"Feature","properties":{"class":"minor","highway":"residential","sidewalk":"unknown","lanes":0,"name":"평창42길","oneway":false},"geometry":{"type":"LineString","coordinates":[[126.97848,37.61539],[126.97865,37.61535],[126.97891,37.61529],[126.97905,37.6152],[126.97907,37.61517],[126.97916,37.615],[126.97911,37.61464],[126.97912,37.61457],[126.97906,37.61446],[126.97893,37.61408],[126.97883,37.6138],[126.97884,37.6136],[126.97891,37.61349],[126.97902,37.61337],[126.97917,37.61314],[126.97919,37.61309],[126.97927,37.61303],[126.97956,37.61296],[126.98018,37.61287],[126.9805,37.61285],[126.98075,37.61294],[126.98089,37.61306],[126.98099,37.61312],[126.98115,37.61317],[126.98126,37.61314],[126.98154,37.61292],[126.98176,37.61272]]}},{"type":"Feature","properties":{"class":"minor","highway":"residential","sidewalk":"unknown","lanes":0,"name":"평창7길","oneway":false},"geometry":{"type":"LineString","coordinates":[[126.97769,37.61567],[126.97793,37.61617],[126.97815,37.6161]]}},{"type":"Feature","properties":{"class":"minor","highway":"residential","sidewalk":"unknown","lanes":0,"name":"평창길","oneway":false},"geometry":{"type":"LineString","coordinates":[[126.97765,37.61483],[126.97781,37.61444],[126.97744,37.61407]]}},{"type":"Feature","properties":{"class":"minor","highway":"residential","sidewalk":"unknown","lanes":1,"name":"평창7길","oneway":false},"geometry":{"type":"LineString","coordinates":[[126.97958,37.61454],[126.97957,37.61481],[126.97963,37.61498],[126.97988,37.61537],[126.97997,37.61565],[126.97996,37.61589],[126.97992,37.61602],[126.97982,37.61615],[126.9797,37.61626],[126.97952,37.61634],[126.9794,37.61637],[126.97925,37.61638],[126.97903,37.61636],[126.9787,37.61631],[126.97855,37.61633],[126.97853,37.61633],[126.97835,37.61638],[126.9782,37.61644],[126.97809,37.61652],[126.97799,37.61663],[126.97795,37.61675],[126.97795,37.61686],[126.97796,37.6171],[126.97794,37.61729],[126.9779,37.6174],[126.97784,37.61749],[126.97777,37.61756],[126.97769,37.61761],[126.9776,37.61764],[126.97752,37.61764],[126.97745,37.61763],[126.97741,37.6176],[126.97734,37.61756],[126.97726,37.61749],[126.97711,37.6174]]}},{"type":"Feature","properties":{"class":"minor","highway":"residential","sidewalk":"unknown","lanes":0,"name":"평창길","oneway":false},"geometry":{"type":"LineString","coordinates":[[126.97832,37.61306],[126.97865,37.61321],[126.97878,37.61338],[126.97891,37.61349]]}},{"type":"Feature","properties":{"class":"minor","highway":"residential","sidewalk":"unknown","lanes":0,"name":"평창36길","oneway":false},"geometry":{"type":"LineString","coordinates":[[126.97775,37.61317],[126.97785,37.61294],[126.97785,37.61282],[126.97777,37.61259],[126.97775,37.61226],[126.97775,37.61186],[126.97775,37.61176],[126.97773,37.6117],[126.9775,37.6114],[126.97748,37.61135],[126.97747,37.61129],[126.97748,37.61121],[126.9775,37.61103],[126.97752,37.61096],[126.97754,37.6109],[126.97761,37.61079]]}},{"type":"Feature","properties":{"class":"minor","highway":"residential","sidewalk":"unknown","lanes":1,"name":"평창40길","oneway":false},"geometry":{"type":"LineString","coordinates":[[126.97702,37.61551],[126.97711,37.61545],[126.9773,37.61523],[126.97753,37.61491],[126.97765,37.61483],[126.97784,37.61487],[126.97848,37.61539],[126.97871,37.61546],[126.97913,37.61557],[126.97923,37.6156],[126.97942,37.61555],[126.97955,37.61547],[126.9796,37.61536],[126.97951,37.61484],[126.97958,37.61454]]}},{"type":"Feature","properties":{"class":"minor","highway":"residential","sidewalk":"unknown","lanes":0,"name":"평창7길","oneway":false},"geometry":{"type":"LineString","coordinates":[[126.97855,37.61633],[126.9785,37.61621],[126.97837,37.61612],[126.97815,37.6161]]}},{"type":"Feature","properties":{"class":"minor","highway":"residential","sidewalk":"unknown","lanes":0,"name":"평창40길","oneway":false},"geometry":{"type":"LineString","coordinates":[[126.97848,37.61539],[126.97811,37.61602],[126.97815,37.6161]]}},{"type":"Feature","properties":{"class":"alley","highway":"service","sidewalk":"unknown","lanes":0,"name":"","oneway":false},"geometry":{"type":"LineString","coordinates":[[126.97822,37.60899],[126.97794,37.60908],[126.97778,37.60914],[126.97775,37.60921],[126.97772,37.60924],[126.97763,37.60925],[126.97756,37.60923],[126.97749,37.60916],[126.97723,37.6089],[126.97703,37.60868],[126.97669,37.60847],[126.97651,37.60839]]}},{"type":"Feature","properties":{"class":"alley","highway":"service","sidewalk":"unknown","lanes":0,"name":"","oneway":false},"geometry":{"type":"LineString","coordinates":[[126.97689,37.61048],[126.97703,37.61027],[126.97725,37.6102],[126.97785,37.61001],[126.9777,37.60973],[126.97774,37.60962]]}},{"type":"Feature","properties":{"class":"major","highway":"primary","sidewalk":"likely","lanes":4,"name":"평창문화로","oneway":false},"geometry":{"type":"LineString","coordinates":[[126.9652,37.60483],[126.96534,37.60488],[126.96538,37.6049],[126.96632,37.60531],[126.96643,37.60537],[126.96706,37.60566],[126.96709,37.60567],[126.96722,37.60573],[126.9674,37.60581],[126.96763,37.60591],[126.96796,37.60602],[126.96831,37.60613],[126.96889,37.6063],[126.96931,37.60643],[126.96937,37.60645],[126.97015,37.60667],[126.97057,37.6068],[126.97129,37.60701],[126.97158,37.60714],[126.97179,37.60726],[126.97195,37.60736],[126.97208,37.60746],[126.97228,37.60767],[126.97236,37.60777],[126.97285,37.60847],[126.97296,37.6086],[126.973,37.60865],[126.97305,37.60869],[126.97308,37.60873],[126.97312,37.60876],[126.97325,37.60886],[126.97334,37.60893],[126.97346,37.60901],[126.97364,37.60911],[126.97387,37.60921],[126.97486,37.60963],[126.97542,37.60987],[126.97581,37.61004],[126.97655,37.61034],[126.97676,37.61043],[126.97689,37.61048],[126.97761,37.61079],[126.97772,37.61084],[126.97835,37.6111],[126.97883,37.61131]]}},{"type":"Feature","properties":{"class":"major","highway":"primary","sidewalk":"likely","lanes":0,"name":"평창문화로","oneway":true},"geometry":{"type":"LineString","coordinates":[[126.97883,37.61131],[126.97943,37.61155],[126.97974,37.61161],[126.98004,37.61164],[126.98041,37.61166]]}},{"type":"Feature","properties":{"class":"minor","highway":"residential","sidewalk":"unknown","lanes":1,"name":"평창40길","oneway":false},"geometry":{"type":"LineString","coordinates":[[126.98213,37.61281],[126.98215,37.61284],[126.98218,37.61294],[126.98213,37.61302],[126.98171,37.6134],[126.98152,37.61366],[126.98151,37.61369],[126.98095,37.61408],[126.98094,37.61408],[126.98081,37.6141],[126.9806,37.61408],[126.98027,37.61393],[126.98001,37.61391],[126.97979,37.61398],[126.9797,37.61403],[126.97965,37.61412],[126.97958,37.61454]]}},{"type":"Feature","properties":{"class":"alley","highway":"service","sidewalk":"unknown","lanes":0,"name":"","oneway":false},"geometry":{"type":"LineString","coordinates":[[126.97923,37.6156],[126.97934,37.61616],[126.9794,37.61637]]}},{"type":"Feature","properties":{"class":"minor","highway":"residential","sidewalk":"unknown","lanes":0,"name":"평창30길","oneway":false},"geometry":{"type":"LineString","coordinates":[[126.97581,37.61004],[126.97575,37.61016],[126.97492,37.61085],[126.97486,37.61113],[126.97492,37.61198],[126.97493,37.61212],[126.97501,37.61256],[126.97514,37.61288],[126.97521,37.61318],[126.97504,37.61328],[126.97479,37.6133],[126.97443,37.61317],[126.97405,37.61306],[126.97385,37.61318],[126.97365,37.61321],[126.97342,37.61309],[126.9732,37.6129],[126.97302,37.61284],[126.97283,37.61287],[126.97273,37.61294],[126.97253,37.61303],[126.97238,37.61304],[126.97235,37.61304],[126.9722,37.61288],[126.9722,37.6127],[126.9722,37.6126],[126.97214,37.61233],[126.97193,37.61216],[126.97147,37.61199],[126.97115,37.61182],[126.97105,37.61162],[126.97104,37.61141],[126.97106,37.6113],[126.97094,37.61119],[126.97056,37.61117],[126.97007,37.61117]]}},{"type":"Feature","properties":{"class":"minor","highway":"residential","sidewalk":"unknown","lanes":0,"name":"평창20길","oneway":false},"geometry":{"type":"LineString","coordinates":[[126.97195,37.60736],[126.97168,37.60761],[126.9716,37.60774],[126.97162,37.60789],[126.97205,37.6083],[126.97211,37.60853],[126.97221,37.60922],[126.97216,37.60936],[126.97198,37.60954],[126.97143,37.60991],[126.97092,37.61037],[126.9707,37.61058],[126.97007,37.61117],[126.96965,37.61136],[126.96956,37.6114],[126.96946,37.61149],[126.96945,37.61166]]}},{"type":"Feature","properties":{"class":"major","highway":"trunk","sidewalk":"likely","lanes":3,"name":"내부순환로","oneway":true},"geometry":{"type":"LineString","coordinates":[[126.95654,37.59574],[126.95698,37.59567],[126.95734,37.59564],[126.95944,37.59566],[126.96055,37.59575],[126.96111,37.59586],[126.96153,37.59597],[126.96207,37.59616],[126.96247,37.59632],[126.96331,37.59677],[126.96399,37.59721],[126.96505,37.59816],[126.967,37.60017],[126.96726,37.60042],[126.96831,37.60155],[126.96987,37.60354],[126.97091,37.60471],[126.97152,37.60532],[126.97218,37.60581]]}},{"type":"Feature","properties":{"class":"major","highway":"trunk","sidewalk":"likely","lanes":3,"name":"내부순환로","oneway":true},"geometry":{"type":"LineString","coordinates":[[126.97196,37.60602],[126.97131,37.60551],[126.97065,37.60489],[126.9695,37.60383],[126.96673,37.60093],[126.96383,37.59817],[126.96231,37.59695],[126.96183,37.59658],[126.96128,37.59629],[126.96068,37.59606],[126.95995,37.59594],[126.9585,37.59585],[126.95751,37.5958],[126.95702,37.59582],[126.95655,37.5959]]}},{"type":"Feature","properties":{"class":"minor","highway":"residential","sidewalk":"unknown","lanes":0,"name":"세검정로7나길","oneway":false},"geometry":{"type":"LineString","coordinates":[[126.9607,37.60273],[126.96055,37.60274],[126.96037,37.60278],[126.96025,37.60284],[126.96017,37.60298],[126.96014,37.60307],[126.95999,37.60348],[126.9599,37.60373],[126.95979,37.60398],[126.95972,37.60416],[126.95957,37.6043],[126.95945,37.60442],[126.95932,37.60447],[126.95916,37.60447],[126.95902,37.60443],[126.95894,37.60433],[126.95895,37.60421],[126.95901,37.60411],[126.95912,37.60404],[126.95923,37.60399],[126.95933,37.6039],[126.95938,37.6038],[126.9594,37.60372],[126.95942,37.60363],[126.95943,37.60348],[126.95944,37.60345],[126.95945,37.60326],[126.95946,37.60306]]}},{"type":"Feature","properties":{"class":"minor","highway":"residential","sidewalk":"no","lanes":0,"name":"세검정로7길","oneway":false},"geometry":{"type":"LineString","coordinates":[[126.96056,37.60404],[126.96055,37.60387],[126.96053,37.60373],[126.96051,37.60361],[126.96054,37.60343],[126.96056,37.60339],[126.96064,37.60323],[126.96073,37.60305],[126.9607,37.60274],[126.9607,37.60273],[126.96072,37.60261],[126.96082,37.60256],[126.96084,37.60231],[126.96086,37.60222],[126.96088,37.60214],[126.96092,37.60199],[126.96106,37.60186]]}},{"type":"Feature","properties":{"class":"minor","highway":"residential","sidewalk":"unknown","lanes":0,"name":"세검정로7길","oneway":false},"geometry":{"type":"LineString","coordinates":[[126.96053,37.60373],[126.9599,37.60373]]}},{"type":"Feature","properties":{"class":"major","highway":"primary","sidewalk":"likely","lanes":0,"name":"세검정로","oneway":false},"geometry":{"type":"LineString","coordinates":[[126.95946,37.60098],[126.95955,37.60101],[126.95966,37.60106],[126.9598,37.60105],[126.95995,37.60106],[126.96012,37.60107],[126.96022,37.60107],[126.96032,37.60109],[126.9604,37.6011],[126.96047,37.60112],[126.96053,37.60115],[126.96059,37.60118],[126.96064,37.60121],[126.9607,37.60125],[126.96077,37.60131],[126.96083,37.60137],[126.96089,37.60145],[126.96093,37.60153],[126.96101,37.60172],[126.96106,37.60186],[126.96142,37.60278]]}},{"type":"Feature","properties":{"class":"minor","highway":"residential","sidewalk":"unknown","lanes":2,"name":"평창11길","oneway":false},"geometry":{"type":"LineString","coordinates":[[126.96709,37.60567],[126.96692,37.60592],[126.96689,37.60595],[126.96674,37.60617],[126.96657,37.6064],[126.96654,37.60645],[126.96642,37.60661],[126.96641,37.60674],[126.96641,37.60684],[126.96626,37.60694],[126.96605,37.60707],[126.96593,37.60714],[126.96588,37.60722],[126.96579,37.60736],[126.9656,37.60768],[126.96563,37.60779],[126.96573,37.60793],[126.96586,37.6081],[126.9659,37.60828],[126.96589,37.60836],[126.96588,37.6084],[126.96586,37.60844],[126.96583,37.60849],[126.96582,37.6086],[126.96577,37.60895],[126.96577,37.60908],[126.96581,37.60914],[126.96584,37.60918],[126.96605,37.60947],[126.96611,37.60959],[126.96622,37.60982],[126.96626,37.61],[126.96625,37.61037],[126.9664,37.61055],[126.96647,37.61068],[126.96646,37.61093],[126.96646,37.61115],[126.96649,37.61132],[126.96653,37.6114],[126.9667,37.61169],[126.96685,37.61191],[126.96711,37.61209],[126.96723,37.61237],[126.96726,37.61266],[126.9674,37.61316],[126.96759,37.61351],[126.96761,37.6137],[126.96757,37.61384],[126.96752,37.614],[126.96759,37.61414],[126.96766,37.61425],[126.96775,37.61429],[126.96789,37.61435]]}},{"type":"Feature","properties":{"class":"minor","highway":"residential","sidewalk":"unknown","lanes":0,"name":"세검정로6길","oneway":false},"geometry":{"type":"LineString","coordinates":[[126.95907,37.6008],[126.95936,37.60077],[126.95964,37.60071],[126.95978,37.60071],[126.96004,37.60075],[126.96015,37.60074],[126.96054,37.60061],[126.96107,37.60046],[126.96157,37.60029],[126.96194,37.60012],[126.96201,37.60009],[126.96211,37.60007],[126.9622,37.60007],[126.96233,37.60007],[126.96247,37.6001],[126.96257,37.60014],[126.96265,37.6002],[126.96272,37.6003],[126.96275,37.60039],[126.96277,37.60045],[126.96276,37.60051],[126.96268,37.60064],[126.96261,37.60073],[126.9625,37.60083],[126.9624,37.60091],[126.96227,37.60099],[126.96189,37.60126],[126.96175,37.60138],[126.96165,37.60149],[126.96159,37.60162],[126.96157,37.60166]]}},{"type":"Feature","properties":{"class":"minor","highway":"residential","sidewalk":"unknown","lanes":0,"name":"자하문로42길","oneway":false},"geometry":{"type":"LineString","coordinates":[[126.96277,37.60045],[126.96288,37.60037],[126.96306,37.5999],[126.96312,37.59977],[126.96314,37.59969],[126.96315,37.59961],[126.96314,37.59953],[126.96311,37.59947]]}},{"type":"Feature","properties":{"class":"minor","highway":"residential","sidewalk":"unknown","lanes":0,"name":"평창1길","oneway":false},"geometry":{"type":"LineString","coordinates":[[126.96588,37.60722],[126.96578,37.60732],[126.96572,37.60733],[126.96555,37.60738],[126.96542,37.60739],[126.9653,37.60731],[126.96494,37.60666],[126.96451,37.60595],[126.96427,37.60582],[126.96425,37.60575],[126.96416,37.60534],[126.96411,37.60529],[126.96385,37.60519],[126.9637,37.60542],[126.96351,37.60537],[126.96268,37.60512],[126.96241,37.60562],[126.96241,37.60568],[126.96246,37.60573],[126.9626,37.60581],[126.96255,37.60602],[126.96208,37.60677],[126.96211,37.60683],[126.96225,37.60701]]}},{"type":"Feature","properties":{"class":"minor","highway":"residential","sidewalk":"unknown","lanes":0,"name":"평창1길","oneway":false},"geometry":{"type":"LineString","coordinates":[[126.96351,37.60537],[126.96336,37.60566],[126.96342,37.60593]]}},{"type":"Feature","properties":{"class":"minor","highway":"residential","sidewalk":"unknown","lanes":0,"name":"평창2길","oneway":false},"geometry":{"type":"LineString","coordinates":[[126.96304,37.60645],[126.96292,37.60604],[126.96342,37.60593],[126.96425,37.60575]]}},{"type":"Feature","properties":{"class":"minor","highway":"residential","sidewalk":"unknown","lanes":0,"name":"평창3길","oneway":false},"geometry":{"type":"LineString","coordinates":[[126.96324,37.60784],[126.96323,37.60704],[126.96323,37.60668],[126.96304,37.60645]]}},{"type":"Feature","properties":{"class":"minor","highway":"residential","sidewalk":"unknown","lanes":0,"name":"평창3길","oneway":false},"geometry":{"type":"LineString","coordinates":[[126.96225,37.60701],[126.96273,37.60702],[126.96323,37.60704],[126.96418,37.60707],[126.9642,37.60672],[126.96422,37.60639],[126.96371,37.60636],[126.96342,37.60641]]}},{"type":"Feature","properties":{"class":"minor","highway":"residential","sidewalk":"unknown","lanes":0,"name":"평창3길","oneway":false},"geometry":{"type":"LineString","coordinates":[[126.96323,37.60668],[126.96355,37.6067],[126.9642,37.60672]]}},{"type":"Feature","properties":{"class":"minor","highway":"residential","sidewalk":"unknown","lanes":0,"name":"평창11길","oneway":false},"geometry":{"type":"LineString","coordinates":[[126.96284,37.6079],[126.96311,37.6079],[126.96324,37.60784],[126.96337,37.60785],[126.96359,37.60771],[126.96367,37.60782],[126.96383,37.60781],[126.96412,37.60764],[126.96498,37.60763],[126.96508,37.60777],[126.96517,37.60784],[126.96528,37.60782],[126.96541,37.60767],[126.9656,37.60744],[126.96572,37.60733],[126.96579,37.60736]]}},{"type":"Feature","properties":{"class":"minor","highway":"residential","sidewalk":"unknown","lanes":0,"name":"평창14길","oneway":false},"geometry":{"type":"LineString","coordinates":[[126.9678,37.61044],[126.96761,37.61076],[126.96754,37.6108],[126.96748,37.61076],[126.96745,37.61063],[126.96745,37.61049],[126.96755,37.61027],[126.96761,37.61009],[126.96757,37.6099],[126.96727,37.60926],[126.96714,37.60919],[126.96703,37.60913],[126.96676,37.60906],[126.96673,37.60904],[126.96662,37.60898],[126.96633,37.60881],[126.96622,37.6086],[126.96611,37.60846],[126.96589,37.60836]]}},{"type":"Feature","properties":{"class":"minor","highway":"residential","sidewalk":"unknown","lanes":0,"name":"평창21길","oneway":false},"geometry":{"type":"LineString","coordinates":[[126.96828,37.61256],[126.96808,37.61255],[126.96791,37.61241],[126.96788,37.61233],[126.96791,37.61186],[126.96792,37.61161],[126.96811,37.61136],[126.96815,37.61124],[126.96809,37.61111],[126.96793,37.61096],[126.96785,37.61085],[126.96785,37.61068],[126.96787,37.61053],[126.9678,37.61044],[126.96795,37.61019],[126.96814,37.60985],[126.9685,37.60958],[126.96861,37.60951],[126.96877,37.60951],[126.96899,37.60957],[126.96911,37.60962],[126.96926,37.60964],[126.96939,37.60957],[126.96954,37.60937],[126.9699,37.60883],[126.96998,37.60875],[126.97011,37.6087],[126.9702,37.60869],[126.97031,37.60867],[126.97049,37.60869],[126.9706,37.60874],[126.9707,37.60882],[126.97078,37.60894],[126.97086,37.60922],[126.97095,37.60939],[126.97101,37.60961],[126.97101,37.6098],[126.97099,37.61014],[126.97092,37.61037]]}},{"type":"Feature","properties":{"class":"minor","highway":"residential","sidewalk":"unknown","lanes":0,"name":"평창23길","oneway":false},"geometry":{"type":"LineString","coordinates":[[126.96908,37.61163],[126.96914,37.61123],[126.96902,37.61107],[126.96891,37.61099],[126.96879,37.61091],[126.96875,37.61078],[126.96878,37.61053],[126.9689,37.61044],[126.96897,37.61041],[126.96928,37.61046],[126.96949,37.61054],[126.96949,37.61062],[126.96944,37.61099],[126.96948,37.6111],[126.96951,37.61124],[126.96957,37.61129],[126.96965,37.61136]]}},{"type":"Feature","properties":{"class":"minor","highway":"residential","sidewalk":"unknown","lanes":0,"name":"평창23길","oneway":false},"geometry":{"type":"LineString","coordinates":[[126.96949,37.61054],[126.96961,37.6105],[126.96969,37.61039],[126.96957,37.6102],[126.96967,37.61007],[126.97001,37.60994],[126.97023,37.60987],[126.97028,37.60985],[126.97036,37.60932]]}},{"type":"Feature","properties":{"class":"minor","highway":"residential","sidewalk":"unknown","lanes":0,"name":"세검정로9길","oneway":true},"geometry":{"type":"LineString","coordinates":[[126.95876,37.60683],[126.95906,37.60667],[126.95935,37.60656],[126.95963,37.60637],[126.95984,37.60604],[126.95995,37.60584],[126.96006,37.60565],[126.96028,37.60523],[126.96029,37.6052],[126.96041,37.605],[126.9605,37.60487],[126.9608,37.60452],[126.96103,37.60426],[126.96127,37.60421]]}},{"type":"Feature","properties":{"class":"minor","highway":"residential","sidewalk":"unknown","lanes":0,"name":"진흥로22가길","oneway":false},"geometry":{"type":"LineString","coordinates":[[126.96019,37.60527],[126.95968,37.60507],[126.95943,37.60501],[126.95939,37.60508],[126.95915,37.60512],[126.959,37.60535],[126.95891,37.60541],[126.95869,37.60533],[126.95878,37.6052],[126.95823,37.60495]]}},{"type":"Feature","properties":{"class":"minor","highway":"residential","sidewalk":"unknown","lanes":1,"name":"평창길","oneway":false},"geometry":{"type":"LineString","coordinates":[[126.9652,37.60483],[126.96509,37.60498],[126.96497,37.6051],[126.96482,37.60523],[126.96481,37.60524],[126.96465,37.60535],[126.96453,37.60543],[126.96444,37.60552],[126.96436,37.60565],[126.96431,37.60579],[126.96427,37.60582],[126.96421,37.60587],[126.96411,37.60594],[126.96398,37.60604],[126.96385,37.60614],[126.96366,37.60626],[126.96349,37.60637],[126.96342,37.60641],[126.96304,37.60645],[126.96289,37.60652],[126.96225,37.60701],[126.96191,37.60725],[126.9615,37.6076]]}},{"type":"Feature","properties":{"class":"minor","highway":"residential","sidewalk":"unknown","lanes":0,"name":"평창15길","oneway":false},"geometry":{"type":"LineString","coordinates":[[126.96448,37.6109],[126.96451,37.61073],[126.96483,37.61048],[126.96502,37.6104],[126.96515,37.61029],[126.96526,37.61025],[126.96548,37.61026],[126.96562,37.61017],[126.96575,37.61014],[126.96583,37.61016]]}},{"type":"Feature","properties":{"class":"minor","highway":"residential","sidewalk":"unknown","lanes":0,"name":"평창15길","oneway":false},"geometry":{"type":"LineString","coordinates":[[126.96457,37.61136],[126.96471,37.61129],[126.9649,37.61139],[126.96519,37.61164],[126.96537,37.61182],[126.96561,37.61173],[126.96583,37.61161],[126.96597,37.61175],[126.96596,37.6118],[126.96582,37.61189],[126.96575,37.6119],[126.96561,37.61173]]}},{"type":"Feature","properties":{"class":"minor","highway":"residential","sidewalk":"unknown","lanes":0,"name":"평창12길","oneway":false},"geometry":{"type":"LineString","coordinates":[[126.96692,37.60592],[126.96746,37.6061],[126.96742,37.60621],[126.9673,37.60649],[126.9672,37.60664],[126.96708,37.60672],[126.96703,37.60675],[126.96674,37.60682],[126.96651,37.60687],[126.96638,37.60696],[126.96619,37.60704],[126.96605,37.60707]]}},{"type":"Feature","properties":{"class":"minor","highway":"residential","sidewalk":"unknown","lanes":0,"name":"평창8길","oneway":false},"geometry":{"type":"LineString","coordinates":[[126.96534,37.60488],[126.9656,37.60447],[126.96585,37.60425],[126.96629,37.6041],[126.96649,37.60406],[126.96669,37.60391],[126.96677,37.60385],[126.96691,37.60382],[126.96709,37.60372],[126.96729,37.60362],[126.96747,37.60347],[126.96792,37.60309],[126.96825,37.60289],[126.96832,37.60284],[126.96843,37.60275],[126.96864,37.60265],[126.96874,37.60265],[126.96905,37.6028],[126.96921,37.60281],[126.96934,37.60286]]}},{"type":"Feature","properties":{"class":"minor","highway":"residential","sidewalk":"unknown","lanes":0,"name":"평창20길","oneway":false},"geometry":{"type":"LineString","coordinates":[[126.9707,37.61058],[126.97159,37.61097]]}},{"type":"Feature","properties":{"class":"minor","highway":"residential","sidewalk":"unknown","lanes":0,"name":"평창길","oneway":false},"geometry":{"type":"LineString","coordinates":[[126.96843,37.61301],[126.96833,37.61274],[126.96828,37.61256],[126.96837,37.61168]]}},{"type":"Feature","properties":{"class":"minor","highway":"residential","sidewalk":"unknown","lanes":0,"name":"평창길","oneway":false},"geometry":{"type":"LineString","coordinates":[[126.96988,37.61247],[126.96997,37.61249],[126.97084,37.61269]]}},{"type":"Feature","properties":{"class":"minor","highway":"residential","sidewalk":"unknown","lanes":0,"name":"평창25길","oneway":false},"geometry":{"type":"LineString","coordinates":[[126.97104,37.61141],[126.97137,37.61133]]}},{"type":"Feature","properties":{"class":"minor","highway":"residential","sidewalk":"unknown","lanes":0,"name":"평창11길","oneway":false},"geometry":{"type":"LineString","coordinates":[[126.96577,37.60908],[126.96633,37.60881]]}},{"type":"Feature","properties":{"class":"minor","highway":"residential","sidewalk":"unknown","lanes":0,"name":"","oneway":false},"geometry":{"type":"LineString","coordinates":[[126.96583,37.61161],[126.96559,37.61138]]}},{"type":"Feature","properties":{"class":"minor","highway":"residential","sidewalk":"unknown","lanes":0,"name":"평창13길","oneway":false},"geometry":{"type":"LineString","coordinates":[[126.96328,37.60855],[126.96357,37.60833],[126.96367,37.60835],[126.96416,37.60876],[126.96445,37.60867],[126.96456,37.60834],[126.9645,37.60825],[126.96441,37.6082],[126.96416,37.60818],[126.9641,37.60814],[126.96405,37.60805],[126.96406,37.60799],[126.96431,37.60784],[126.96474,37.60787],[126.9648,37.60792],[126.9648,37.60798],[126.96481,37.60809],[126.96502,37.60818],[126.96519,37.60802],[126.96528,37.60792],[126.96542,37.60785],[126.96563,37.60779]]}},{"type":"Feature","properties":{"class":"minor","highway":"residential","sidewalk":"unknown","lanes":1,"name":"평창5길","oneway":false},"geometry":{"type":"LineString","coordinates":[[126.96365,37.61139],[126.9638,37.6115],[126.96442,37.61173],[126.96448,37.6119],[126.96447,37.61223],[126.96445,37.61231],[126.96453,37.61241],[126.96462,37.61243],[126.96482,37.6124],[126.96492,37.61241],[126.96496,37.61246],[126.96538,37.61351],[126.96535,37.61356],[126.9652,37.61372],[126.96517,37.61382],[126.96518,37.61385],[126.96522,37.61391]]}},{"type":"Feature","properties":{"class":"minor","highway":"residential","sidewalk":"unknown","lanes":0,"name":"평창길","oneway":false},"geometry":{"type":"LineString","coordinates":[[126.96491,37.60557],[126.96521,37.60556],[126.96525,37.60589]]}},{"type":"Feature","properties":{"class":"minor","highway":"residential","sidewalk":"unknown","lanes":0,"name":"평창11길","oneway":false},"geometry":{"type":"LineString","coordinates":[[126.96498,37.60763],[126.96496,37.60754],[126.96447,37.60717]]}},{"type":"Feature","properties":{"class":"alley","highway":"service","sidewalk":"unknown","lanes":0,"name":"","oneway":false},"geometry":{"type":"LineString","coordinates":[[126.97019,37.60766],[126.96948,37.60791],[126.96937,37.60772],[126.96992,37.60753],[126.96983,37.60738]]}},{"type":"Feature","properties":{"class":"minor","highway":"residential","sidewalk":"unknown","lanes":0,"name":"평창12길","oneway":false},"geometry":{"type":"LineString","coordinates":[[126.96674,37.60682],[126.96699,37.60749],[126.96683,37.60754]]}},{"type":"Feature","properties":{"class":"minor","highway":"residential","sidewalk":"unknown","lanes":1,"name":"평창4길","oneway":false},"geometry":{"type":"LineString","coordinates":[[126.9622,37.60802],[126.96219,37.6081],[126.96219,37.6083],[126.9622,37.60841],[126.96223,37.60849],[126.96228,37.60855],[126.96235,37.60859],[126.9626,37.60876],[126.96273,37.60888],[126.96319,37.60961],[126.96328,37.60975],[126.96333,37.60994],[126.96334,37.61015],[126.9633,37.61032],[126.96326,37.6104],[126.96319,37.61048],[126.96284,37.61077],[126.96274,37.61084],[126.9627,37.61094],[126.96268,37.61102],[126.96272,37.61119],[126.963,37.61163],[126.96315,37.61179],[126.96331,37.61189],[126.96348,37.61197],[126.96377,37.61209],[126.96388,37.61217],[126.96393,37.61225],[126.96393,37.61236],[126.96378,37.61255],[126.96373,37.61265],[126.96374,37.61274],[126.96376,37.61278],[126.96455,37.61326],[126.96465,37.61336],[126.96468,37.61346],[126.96461,37.61362],[126.96442,37.61379],[126.96435,37.61393],[126.96439,37.61401],[126.96448,37.61405]]}},{"type":"Feature","properties":{"class":"minor","highway":"residential","sidewalk":"unknown","lanes":0,"name":"평창11길","oneway":false},"geometry":{"type":"LineString","coordinates":[[126.965,37.60864],[126.96563,37.60864],[126.96573,37.6085],[126.96586,37.60844]]}},{"type":"Feature","properties":{"class":"minor","highway":"residential","sidewalk":"unknown","lanes":0,"name":"평창16길","oneway":false},"geometry":{"type":"LineString","coordinates":[[126.96567,37.6111],[126.96579,37.61101],[126.96618,37.61095],[126.96624,37.61094],[126.96646,37.61093]]}},{"type":"Feature","properties":{"class":"alley","highway":"service","sidewalk":"unknown","lanes":0,"name":"평창11길","oneway":false},"geometry":{"type":"LineString","coordinates":[[126.96625,37.60668],[126.96592,37.60659],[126.96586,37.60661],[126.96567,37.60655]]}},{"type":"Feature","properties":{"class":"minor","highway":"residential","sidewalk":"unknown","lanes":0,"name":"평창11길","oneway":false},"geometry":{"type":"LineString","coordinates":[[126.9663,37.60563],[126.96645,37.60569],[126.9667,37.60588],[126.96689,37.60595]]}},{"type":"Feature","properties":{"class":"alley","highway":"service","sidewalk":"unknown","lanes":0,"name":"평창문화로","oneway":false},"geometry":{"type":"LineString","coordinates":[[126.96931,37.60643],[126.96909,37.60655],[126.96827,37.60673],[126.96824,37.60678]]}},{"type":"Feature","properties":{"class":"minor","highway":"residential","sidewalk":"unknown","lanes":0,"name":"평창5길","oneway":false},"geometry":{"type":"LineString","coordinates":[[126.96374,37.61274],[126.96446,37.61245],[126.96453,37.61241]]}},{"type":"Feature","properties":{"class":"minor","highway":"residential","sidewalk":"unknown","lanes":0,"name":"평창11길","oneway":false},"geometry":{"type":"LineString","coordinates":[[126.96654,37.60645],[126.96639,37.60641],[126.96625,37.60668],[126.96605,37.60707]]}},{"type":"Feature","properties":{"class":"minor","highway":"residential","sidewalk":"unknown","lanes":0,"name":"평창12길","oneway":false},"geometry":{"type":"LineString","coordinates":[[126.96745,37.60696],[126.9674,37.60681],[126.96707,37.60676],[126.96708,37.60672]]}},{"type":"Feature","properties":{"class":"minor","highway":"residential","sidewalk":"unknown","lanes":0,"name":"평창15길","oneway":false},"geometry":{"type":"LineString","coordinates":[[126.96618,37.61095],[126.96619,37.61086],[126.96608,37.61064],[126.96591,37.61038],[126.96583,37.61016]]}},{"type":"Feature","properties":{"class":"minor","highway":"residential","sidewalk":"unknown","lanes":0,"name":"평창21길","oneway":false},"geometry":{"type":"LineString","coordinates":[[126.97095,37.60939],[126.97117,37.60893],[126.97103,37.60842],[126.97126,37.60781],[126.97088,37.60767],[126.97083,37.60765],[126.97075,37.60768],[126.97067,37.60785]]}},{"type":"Feature","properties":{"class":"minor","highway":"residential","sidewalk":"unknown","lanes":0,"name":"평창8길","oneway":false},"geometry":{"type":"LineString","coordinates":[[126.96832,37.60284],[126.96828,37.60263],[126.96835,37.60252],[126.96845,37.6024],[126.9685,37.60236],[126.96875,37.60217],[126.96882,37.60205],[126.96883,37.60199],[126.96895,37.60202]]}},{"type":"Feature","properties":{"class":"minor","highway":"residential","sidewalk":"unknown","lanes":0,"name":"평창11길","oneway":false},"geometry":{"type":"LineString","coordinates":[[126.9664,37.60635],[126.96656,37.60609],[126.96626,37.60598],[126.9663,37.60563]]}},{"type":"Feature","properties":{"class":"minor","highway":"residential","sidewalk":"unknown","lanes":0,"name":"평창12길","oneway":false},"geometry":{"type":"LineString","coordinates":[[126.96651,37.60687],[126.96653,37.60695],[126.96647,37.60707],[126.96654,37.60736],[126.96671,37.60766],[126.96686,37.60791]]}},{"type":"Feature","properties":{"class":"minor","highway":"residential","sidewalk":"unknown","lanes":0,"name":"평창8길","oneway":false},"geometry":{"type":"LineString","coordinates":[[126.96773,37.60227],[126.9679,37.60215],[126.96788,37.60222],[126.96794,37.60228],[126.96814,37.60246],[126.96793,37.60262]]}},{"type":"Feature","properties":{"class":"minor","highway":"residential","sidewalk":"unknown","lanes":0,"name":"평창11길","oneway":false},"geometry":{"type":"LineString","coordinates":[[126.96484,37.6095],[126.96502,37.60939],[126.9652,37.60936],[126.96532,37.60937],[126.9655,37.60912],[126.96581,37.60914]]}},{"type":"Feature","properties":{"class":"minor","highway":"residential","sidewalk":"unknown","lanes":0,"name":"평창11길","oneway":false},"geometry":{"type":"LineString","coordinates":[[126.96657,37.6064],[126.96684,37.60648],[126.96691,37.60666],[126.96703,37.60675]]}},{"type":"Feature","properties":{"class":"minor","highway":"residential","sidewalk":"unknown","lanes":0,"name":"평창15길","oneway":false},"geometry":{"type":"LineString","coordinates":[[126.96495,37.61073],[126.96519,37.61082],[126.96535,37.61056],[126.96583,37.61016],[126.96581,37.60995],[126.9659,37.60968],[126.96605,37.60947]]}},{"type":"Feature","properties":{"class":"minor","highway":"residential","sidewalk":"unknown","lanes":0,"name":"평창길","oneway":false},"geometry":{"type":"LineString","coordinates":[[126.96472,37.60584],[126.96462,37.6057],[126.96488,37.60566],[126.96491,37.60559],[126.96491,37.60557],[126.96489,37.60541],[126.96482,37.60523]]}},{"type":"Feature","properties":{"class":"minor","highway":"residential","sidewalk":"unknown","lanes":0,"name":"평창11길","oneway":false},"geometry":{"type":"LineString","coordinates":[[126.96605,37.60947],[126.96617,37.6096],[126.96634,37.60965],[126.96658,37.60959],[126.96705,37.6099],[126.96725,37.6101],[126.96741,37.61016]]}},{"type":"Feature","properties":{"class":"alley","highway":"service","sidewalk":"unknown","lanes":0,"name":"평창12길","oneway":false},"geometry":{"type":"LineString","coordinates":[[126.96863,37.60766],[126.96843,37.60713],[126.96844,37.60701],[126.96824,37.60678],[126.96789,37.60668],[126.96774,37.60645],[126.96772,37.60631],[126.96742,37.60621]]}},{"type":"Feature","properties":{"class":"minor","highway":"residential","sidewalk":"unknown","lanes":0,"name":"평창15길","oneway":false},"geometry":{"type":"LineString","coordinates":[[126.96519,37.61164],[126.96559,37.61138],[126.9657,37.61121],[126.96567,37.6111],[126.96554,37.61101],[126.96544,37.61103],[126.96538,37.61114],[126.96559,37.61138]]}},{"type":"Feature","properties":{"class":"minor","highway":"residential","sidewalk":"unknown","lanes":0,"name":"평창17길","oneway":false},"geometry":{"type":"LineString","coordinates":[[126.9667,37.61169],[126.96658,37.61174],[126.96623,37.61294],[126.96642,37.61337],[126.96654,37.61331],[126.96672,37.613],[126.9668,37.61283],[126.96726,37.61266]]}},{"type":"Feature","properties":{"class":"minor","highway":"residential","sidewalk":"unknown","lanes":0,"name":"평창8길","oneway":false},"geometry":{"type":"LineString","coordinates":[[126.96819,37.60164],[126.96819,37.6017],[126.96806,37.60174],[126.96804,37.60179],[126.96807,37.602],[126.96816,37.60209],[126.96835,37.60227],[126.9685,37.60236]]}},{"type":"Feature","properties":{"class":"minor","highway":"residential","sidewalk":"unknown","lanes":0,"name":"평창8길","oneway":false},"geometry":{"type":"LineString","coordinates":[[126.96825,37.60289],[126.96793,37.60262],[126.96776,37.60245]]}},{"type":"Feature","properties":{"class":"minor","highway":"residential","sidewalk":"unknown","lanes":0,"name":"세검정로6길","oneway":false},"geometry":{"type":"LineString","coordinates":[[126.96157,37.60166],[126.96135,37.60168]]}},{"type":"Feature","properties":{"class":"minor","highway":"residential","sidewalk":"unknown","lanes":0,"name":"세검정로6길","oneway":false},"geometry":{"type":"LineString","coordinates":[[126.96135,37.60168],[126.96101,37.60172]]}},{"type":"Feature","properties":{"class":"minor","highway":"residential","sidewalk":"unknown","lanes":0,"name":"평창25길","oneway":false},"geometry":{"type":"LineString","coordinates":[[126.97137,37.61133],[126.97156,37.61166],[126.9718,37.61174],[126.97198,37.61147],[126.97217,37.61159],[126.97242,37.61136],[126.97265,37.61141],[126.97281,37.61103],[126.97299,37.61085],[126.97324,37.61088],[126.97331,37.61079],[126.97356,37.61039],[126.9739,37.61046],[126.97422,37.61039],[126.97427,37.61037],[126.9743,37.61033],[126.97486,37.60963]]}},{"type":"Feature","properties":{"class":"minor","highway":"residential","sidewalk":"unknown","lanes":0,"name":"평창25길","oneway":false},"geometry":{"type":"LineString","coordinates":[[126.97172,37.61075],[126.97159,37.61097],[126.97137,37.61133]]}},{"type":"Feature","properties":{"class":"minor","highway":"residential","sidewalk":"unknown","lanes":0,"name":"평창22길","oneway":false},"geometry":{"type":"LineString","coordinates":[[126.97007,37.61117],[126.9704,37.61161],[126.97048,37.612],[126.97096,37.61233],[126.9713,37.61256],[126.97144,37.61273],[126.97138,37.61303],[126.9717,37.61305],[126.97187,37.61307],[126.97197,37.61321],[126.97213,37.61346]]}},{"type":"Feature","properties":{"class":"minor","highway":"residential","sidewalk":"unknown","lanes":0,"name":"","oneway":false},"geometry":{"type":"LineString","coordinates":[[126.96041,37.605],[126.96085,37.60513]]}},{"type":"Feature","properties":{"class":"minor","highway":"residential","sidewalk":"unknown","lanes":0,"name":"","oneway":false},"geometry":{"type":"LineString","coordinates":[[126.95995,37.60584],[126.9602,37.60599],[126.96018,37.60603],[126.96038,37.60615]]}},{"type":"Feature","properties":{"class":"minor","highway":"residential","sidewalk":"unknown","lanes":0,"name":"세검정로6다길","oneway":false},"geometry":{"type":"LineString","coordinates":[[126.96157,37.60166],[126.96183,37.60174],[126.96198,37.60176],[126.96252,37.60164],[126.96278,37.60157],[126.96306,37.60149]]}},{"type":"Feature","properties":{"class":"minor","highway":"residential","sidewalk":"unknown","lanes":0,"name":"세검정로6길","oneway":false},"geometry":{"type":"LineString","coordinates":[[126.96268,37.60064],[126.96281,37.60077],[126.96304,37.60102],[126.9631,37.60108],[126.9632,37.60116],[126.9633,37.60119],[126.96336,37.60117],[126.96344,37.60112],[126.96372,37.6011],[126.96378,37.60113],[126.96384,37.60124],[126.96384,37.60131]]}},{"type":"Feature","properties":{"class":"minor","highway":"residential","sidewalk":"unknown","lanes":0,"name":"세검정로6나길","oneway":false},"geometry":{"type":"LineString","coordinates":[[126.9624,37.60091],[126.96257,37.60108],[126.9626,37.60122],[126.96305,37.60121],[126.96305,37.60126],[126.96305,37.60136],[126.96306,37.60149],[126.96313,37.60146],[126.9633,37.60143],[126.96357,37.60134]]}},{"type":"Feature","properties":{"class":"minor","highway":"residential","sidewalk":"unknown","lanes":0,"name":"세검정로6다길","oneway":false},"geometry":{"type":"LineString","coordinates":[[126.96252,37.60164],[126.96259,37.60175],[126.96257,37.60194],[126.96269,37.60204],[126.96283,37.60197],[126.96294,37.60188],[126.96311,37.60169]]}},{"type":"Feature","properties":{"class":"minor","highway":"residential","sidewalk":"unknown","lanes":0,"name":"세검정로6다길","oneway":false},"geometry":{"type":"LineString","coordinates":[[126.96269,37.60204],[126.96285,37.60216]]}},{"type":"Feature","properties":{"class":"minor","highway":"residential","sidewalk":"unknown","lanes":0,"name":"세검정로6라길","oneway":false},"geometry":{"type":"LineString","coordinates":[[126.96157,37.60166],[126.96154,37.602],[126.96159,37.60234],[126.96179,37.60284],[126.96193,37.60314],[126.96195,37.60318]]}},{"type":"Feature","properties":{"class":"minor","highway":"residential","sidewalk":"unknown","lanes":0,"name":"세검정로","oneway":false},"geometry":{"type":"LineString","coordinates":[[126.96315,37.60392],[126.96319,37.60389],[126.96345,37.60388],[126.96378,37.60386],[126.96386,37.60378],[126.96381,37.60366],[126.96342,37.60356],[126.96301,37.60351],[126.96288,37.60344],[126.96288,37.60336],[126.96295,37.60331],[126.96342,37.60338]]}},{"type":"Feature","properties":{"class":"minor","highway":"residential","sidewalk":"unknown","lanes":0,"name":"세검정로","oneway":false},"geometry":{"type":"LineString","coordinates":[[126.96253,37.60356],[126.96242,37.60346],[126.96236,37.60339],[126.9625,37.60317]]}},{"type":"Feature","properties":{"class":"minor","highway":"residential","sidewalk":"unknown","lanes":0,"name":"자하문로","oneway":false},"geometry":{"type":"LineString","coordinates":[[126.96071,37.59969],[126.96038,37.59992],[126.96015,37.60007],[126.95995,37.60017],[126.95929,37.60051],[126.95865,37.5999],[126.95847,37.59976]]}},{"type":"Feature","properties":{"class":"minor","highway":"residential","sidewalk":"unknown","lanes":0,"name":"세검정로6길","oneway":false},"geometry":{"type":"LineString","coordinates":[[126.96201,37.60009],[126.96199,37.59996],[126.962,37.59987],[126.96206,37.59978],[126.96219,37.59973],[126.96225,37.59971]]}},{"type":"Feature","properties":{"class":"minor","highway":"residential","sidewalk":"unknown","lanes":0,"name":"","oneway":false},"geometry":{"type":"LineString","coordinates":[[126.96201,37.60009],[126.96202,37.60018]]}},{"type":"Feature","properties":{"class":"minor","highway":"residential","sidewalk":"unknown","lanes":0,"name":"","oneway":false},"geometry":{"type":"LineString","coordinates":[[126.96099,37.60063],[126.96114,37.60056],[126.9613,37.60047],[126.96142,37.60041],[126.96159,37.60034],[126.96193,37.60022],[126.96202,37.60018]]}},{"type":"Feature","properties":{"class":"minor","highway":"residential","sidewalk":"unknown","lanes":0,"name":"세검정로","oneway":false},"geometry":{"type":"LineString","coordinates":[[126.96047,37.60112],[126.96054,37.60097],[126.96165,37.6005]]}},{"type":"Feature","properties":{"class":"alley","highway":"service","sidewalk":"unknown","lanes":0,"name":"","oneway":false},"geometry":{"type":"LineString","coordinates":[[126.96632,37.60531],[126.96654,37.60483],[126.96668,37.6045],[126.96678,37.60425]]}},{"type":"Feature","properties":{"class":"alley","highway":"service","sidewalk":"unknown","lanes":0,"name":"","oneway":false},"geometry":{"type":"LineString","coordinates":[[126.96672,37.60499],[126.96696,37.60488]]}},{"type":"Feature","properties":{"class":"alley","highway":"service","sidewalk":"unknown","lanes":0,"name":"평창문화로","oneway":false},"geometry":{"type":"LineString","coordinates":[[126.97129,37.60701],[126.97137,37.60684],[126.97164,37.60685],[126.97208,37.60696]]}},{"type":"Feature","properties":{"class":"alley","highway":"service","sidewalk":"unknown","lanes":0,"name":"","oneway":false},"geometry":{"type":"LineString","coordinates":[[126.9673,37.60517],[126.96697,37.60531],[126.96685,37.60514],[126.96672,37.60499],[126.96654,37.60483],[126.96632,37.60477],[126.96634,37.60462],[126.9665,37.60419]]}},{"type":"Feature","properties":{"class":"alley","highway":"service","sidewalk":"unknown","lanes":0,"name":"","oneway":false},"geometry":{"type":"LineString","coordinates":[[126.96685,37.60514],[126.96719,37.605]]}},{"type":"Feature","properties":{"class":"major","highway":"primary","sidewalk":"likely","lanes":4,"name":"평창문화로","oneway":false},"geometry":{"type":"LineString","coordinates":[[126.96181,37.60346],[126.96206,37.60362],[126.96232,37.60377],[126.96247,37.60385],[126.96267,37.60393],[126.9629,37.60403],[126.96294,37.60405],[126.96371,37.60428],[126.96399,37.60437],[126.96436,37.6045],[126.9652,37.60483]]}},{"type":"Feature","properties":{"class":"major","highway":"primary_link","sidewalk":"likely","lanes":0,"name":"진흥로","oneway":true},"geometry":{"type":"LineString","coordinates":[[126.9629,37.60403],[126.96234,37.6039],[126.96216,37.60385],[126.96205,37.60384],[126.9619,37.60386],[126.96173,37.6039],[126.96162,37.60396],[126.96148,37.60402],[126.96138,37.60411],[126.96132,37.60416],[126.96127,37.60421]]}},{"type":"Feature","properties":{"class":"major","highway":"primary_link","sidewalk":"likely","lanes":0,"name":"세검정로","oneway":true},"geometry":{"type":"LineString","coordinates":[[126.96127,37.60421],[126.96132,37.60396],[126.96137,37.60379],[126.96144,37.60357],[126.96147,37.60342],[126.96147,37.60326],[126.96145,37.60305],[126.96142,37.60278]]}},{"type":"Feature","properties":{"class":"major","highway":"primary","sidewalk":"likely","lanes":0,"name":"세검정로","oneway":false},"geometry":{"type":"LineString","coordinates":[[126.96142,37.60278],[126.96148,37.60292],[126.96159,37.60322],[126.96166,37.60332],[126.96181,37.60346]]}},{"type":"Feature","properties":{"class":"major","highway":"primary","sidewalk":"likely","lanes":0,"name":"진흥로","oneway":false},"geometry":{"type":"LineString","coordinates":[[126.96127,37.60421],[126.96143,37.60395],[126.96147,37.60389],[126.96181,37.60346]]}},{"type":"Feature","properties":{"class":"major","highway":"primary","sidewalk":"likely","lanes":6,"name":"진흥로","oneway":false},"geometry":{"type":"LineString","coordinates":[[126.9567,37.60837],[126.95697,37.60826],[126.95701,37.60825],[126.95712,37.60819],[126.95725,37.60809],[126.95739,37.60799],[126.95767,37.60777],[126.95786,37.60763],[126.95805,37.60747],[126.95825,37.60732],[126.95855,37.60717],[126.95883,37.60701],[126.95891,37.60698],[126.95895,37.60696],[126.95909,37.6069],[126.95922,37.60685],[126.95948,37.60676],[126.95978,37.60663],[126.96004,37.60647],[126.96009,37.60643],[126.96029,37.60625],[126.96038,37.60615],[126.96043,37.60607],[126.96053,37.60585],[126.96085,37.60513],[126.96109,37.60463],[126.96127,37.60421]]}},{"type":"Feature","properties":{"class":"minor","highway":"residential","sidewalk":"unknown","lanes":0,"name":"진흥로22가길","oneway":false},"geometry":{"type":"LineString","coordinates":[[126.95997,37.60539],[126.9601,37.60533],[126.96019,37.60527],[126.96028,37.60523]]}},{"type":"Feature","properties":{"class":"minor","highway":"residential","sidewalk":"unknown","lanes":0,"name":"평창문화로","oneway":false},"geometry":{"type":"LineString","coordinates":[[126.9663,37.60563],[126.96643,37.60537]]}},{"type":"Feature","properties":{"class":"minor","highway":"residential","sidewalk":"unknown","lanes":0,"name":"평창길","oneway":false},"geometry":{"type":"LineString","coordinates":[[126.96453,37.61241],[126.96507,37.61167]]}},{"type":"Feature","properties":{"class":"alley","highway":"service","sidewalk":"unknown","lanes":0,"name":"평창문화로","oneway":false},"geometry":{"type":"LineString","coordinates":[[126.96983,37.60738],[126.97015,37.60667]]}},{"type":"Feature","properties":{"class":"minor","highway":"residential","sidewalk":"unknown","lanes":0,"name":"평창12길","oneway":false},"geometry":{"type":"LineString","coordinates":[[126.96703,37.60675],[126.96708,37.60691],[126.96714,37.60703]]}},{"type":"Feature","properties":{"class":"minor","highway":"residential","sidewalk":"unknown","lanes":0,"name":"평창8길","oneway":false},"geometry":{"type":"LineString","coordinates":[[126.96895,37.60202],[126.96906,37.60221],[126.9692,37.60221]]}},{"type":"Feature","properties":{"class":"alley","highway":"service","sidewalk":"unknown","lanes":0,"name":"","oneway":false},"geometry":{"type":"LineString","coordinates":[[126.96925,37.60589],[126.96938,37.60581],[126.96943,37.60575],[126.96982,37.60534]]}},{"type":"Feature","properties":{"class":"alley","highway":"service","sidewalk":"unknown","lanes":0,"name":"","oneway":false},"geometry":{"type":"LineString","coordinates":[[126.96796,37.60602],[126.96848,37.60594]]}},{"type":"Feature","properties":{"class":"alley","highway":"service","sidewalk":"unknown","lanes":0,"name":"","oneway":false},"geometry":{"type":"LineString","coordinates":[[126.96889,37.6063],[126.96859,37.60597],[126.96848,37.60594]]}},{"type":"Feature","properties":{"class":"minor","highway":"residential","sidewalk":"unknown","lanes":1,"name":"진흥로25길","oneway":false},"geometry":{"type":"LineString","coordinates":[[126.9593,37.60696],[126.95939,37.60709],[126.95951,37.60728],[126.95958,37.60749],[126.95971,37.60756],[126.95973,37.60767],[126.95971,37.60782],[126.95969,37.60791],[126.95997,37.60824],[126.95999,37.60826],[126.96003,37.60826],[126.96005,37.60825],[126.96011,37.60821],[126.96016,37.60809],[126.96018,37.608],[126.96022,37.60797],[126.9603,37.60787]]}},{"type":"Feature","properties":{"class":"minor","highway":"residential","sidewalk":"unknown","lanes":1,"name":"평창길","oneway":false},"geometry":{"type":"LineString","coordinates":[[126.9615,37.6076],[126.96187,37.60781],[126.9622,37.60802]]}},{"type":"Feature","properties":{"class":"minor","highway":"residential","sidewalk":"unknown","lanes":1,"name":"평창길","oneway":false},"geometry":{"type":"LineString","coordinates":[[126.9615,37.6076],[126.96136,37.60778]]}},{"type":"Feature","properties":{"class":"minor","highway":"residential","sidewalk":"unknown","lanes":1,"name":"평창길","oneway":false},"geometry":{"type":"LineString","coordinates":[[126.96136,37.60778],[126.9614,37.6079],[126.96144,37.60798],[126.96151,37.60819],[126.96152,37.60833],[126.96154,37.60845],[126.96155,37.60853],[126.96155,37.6086],[126.96151,37.60875],[126.96141,37.6088],[126.96116,37.60885],[126.96107,37.60886],[126.96098,37.60893],[126.96095,37.609],[126.96098,37.60909],[126.96104,37.6092],[126.96108,37.6095],[126.9611,37.60959],[126.96111,37.60966],[126.96108,37.6098],[126.96103,37.60987],[126.96096,37.60992],[126.96088,37.60993]]}},{"type":"Feature","properties":{"class":"minor","highway":"residential","sidewalk":"unknown","lanes":1,"name":"평창길","oneway":false},"geometry":{"type":"LineString","coordinates":[[126.9622,37.60802],[126.96237,37.60808],[126.96271,37.6082],[126.96298,37.60832],[126.96313,37.60842],[126.96328,37.60855],[126.96348,37.60879],[126.96394,37.60925],[126.96413,37.6095],[126.96419,37.60963],[126.96423,37.60981],[126.96423,37.61],[126.96424,37.61037],[126.96422,37.61056],[126.96413,37.6107],[126.96397,37.61086],[126.96361,37.61123],[126.96358,37.61128],[126.96365,37.61139],[126.96375,37.61139],[126.9639,37.61139],[126.96421,37.61137],[126.96451,37.61134],[126.96457,37.61136],[126.96465,37.61138],[126.9648,37.61144],[126.96496,37.61157],[126.96507,37.61167],[126.9652,37.6118],[126.96535,37.61198],[126.96542,37.61208],[126.9656,37.61248],[126.96569,37.61273],[126.96578,37.61306],[126.96579,37.61325],[126.96576,37.6134],[126.9657,37.61351],[126.96574,37.6136],[126.96583,37.61366],[126.96598,37.61366],[126.96612,37.61373],[126.96615,37.61378],[126.96618,37.61387],[126.9662,37.61392],[126.96625,37.61395],[126.9663,37.61397],[126.96636,37.61398],[126.96641,37.61397],[126.96661,37.61386],[126.96677,37.61377],[126.96684,37.61374],[126.96691,37.61373],[126.96697,37.61374],[126.96703,37.61375],[126.96708,37.61379],[126.96713,37.61385],[126.96728,37.61403],[126.96747,37.61426],[126.96754,37.61434]]}},{"type":"Feature","properties":{"class":"minor","highway":"residential","sidewalk":"unknown","lanes":1,"name":"평창길","oneway":false},"geometry":{"type":"LineString","coordinates":[[126.96754,37.61434],[126.9676,37.61437],[126.96765,37.61438],[126.96769,37.61439],[126.96771,37.61439],[126.96775,37.61439],[126.96779,37.6144],[126.96783,37.61439],[126.96789,37.61435],[126.96799,37.61424],[126.96806,37.61412],[126.96813,37.61396],[126.96811,37.61366],[126.96813,37.61315],[126.96817,37.61307],[126.96825,37.61301],[126.96836,37.61302],[126.96843,37.61301],[126.96861,37.61301],[126.96871,37.61295],[126.9688,37.61249],[126.96889,37.6118],[126.96896,37.61171],[126.96904,37.61165],[126.96908,37.61163],[126.96913,37.61161],[126.96925,37.61162],[126.96945,37.61166],[126.96965,37.61173],[126.96982,37.61181],[126.9699,37.61191],[126.96993,37.61201],[126.9699,37.61231],[126.96988,37.61247],[126.96984,37.61273],[126.96985,37.61281],[126.96992,37.61286],[126.97028,37.61295],[126.97049,37.61302],[126.97059,37.61309],[126.97059,37.61318],[126.97047,37.61342]]}},{"type":"Feature","properties":{"class":"minor","highway":"residential","sidewalk":"unknown","lanes":0,"name":"세검정로","oneway":false},"geometry":{"type":"LineString","coordinates":[[126.96247,37.60385],[126.96253,37.60356]]}},{"type":"Feature","properties":{"class":"minor","highway":"residential","sidewalk":"unknown","lanes":0,"name":"세검정로","oneway":false},"geometry":{"type":"LineString","coordinates":[[126.96294,37.60405],[126.96305,37.60398]]}},{"type":"Feature","properties":{"class":"minor","highway":"residential","sidewalk":"unknown","lanes":0,"name":"세검정로","oneway":false},"geometry":{"type":"LineString","coordinates":[[126.96305,37.60398],[126.96315,37.60392]]}},{"type":"Feature","properties":{"class":"alley","highway":"service","sidewalk":"unknown","lanes":0,"name":"","oneway":false},"geometry":{"type":"LineString","coordinates":[[126.96624,37.61094],[126.96626,37.61105],[126.96629,37.61118],[126.96632,37.61126]]}},{"type":"Feature","properties":{"class":"alley","highway":"service","sidewalk":"unknown","lanes":0,"name":"","oneway":false},"geometry":{"type":"LineString","coordinates":[[126.96708,37.60412],[126.9671,37.6042],[126.96707,37.60427]]}},{"type":"Feature","properties":{"class":"alley","highway":"service","sidewalk":"unknown","lanes":0,"name":"","oneway":false},"geometry":{"type":"LineString","coordinates":[[126.96669,37.60391],[126.96681,37.60396],[126.96697,37.60405],[126.96708,37.60412],[126.96716,37.6041],[126.96732,37.60407],[126.96747,37.60407],[126.96763,37.60412],[126.96791,37.60431],[126.9681,37.60445]]}},{"type":"Feature","properties":{"class":"alley","highway":"service","sidewalk":"unknown","lanes":0,"name":"","oneway":false},"geometry":{"type":"LineString","coordinates":[[126.96132,37.60416],[126.96194,37.60432],[126.96199,37.60434],[126.96202,37.60438],[126.96203,37.60442]]}},{"type":"Feature","properties":{"class":"minor","highway":"residential","sidewalk":"unknown","lanes":0,"name":"","oneway":false},"geometry":{"type":"LineString","coordinates":[[126.96086,37.60222],[126.96056,37.60219],[126.96019,37.6022],[126.95994,37.60218],[126.95976,37.60216],[126.95957,37.60218],[126.95941,37.60219],[126.95917,37.60209]]}},{"type":"Feature","properties":{"class":"alley","highway":"service","sidewalk":"unknown","lanes":0,"name":"","oneway":false},"geometry":{"type":"LineString","coordinates":[[126.96906,37.60858],[126.96952,37.60838],[126.96963,37.60831],[126.96984,37.60822],[126.97025,37.60807]]}},{"type":"Feature","properties":{"class":"alley","highway":"service","sidewalk":"unknown","lanes":0,"name":"","oneway":false},"geometry":{"type":"LineString","coordinates":[[126.96878,37.60818],[126.96858,37.60827],[126.96859,37.6083],[126.96883,37.60866],[126.96889,37.60879],[126.96914,37.6092]]}},{"type":"Feature","properties":{"class":"alley","highway":"service","sidewalk":"unknown","lanes":0,"name":"","oneway":false},"geometry":{"type":"LineString","coordinates":[[126.96932,37.60902],[126.96907,37.60866],[126.96906,37.60861],[126.96906,37.60858],[126.96904,37.60854],[126.96878,37.60818],[126.96855,37.60786],[126.96852,37.60782],[126.96852,37.60778],[126.96854,37.60775],[126.96858,37.60771],[126.96862,37.60769],[126.96863,37.60766]]}},{"type":"Feature","properties":{"class":"minor","highway":"residential","sidewalk":"unknown","lanes":0,"name":"","oneway":false},"geometry":{"type":"LineString","coordinates":[[126.97179,37.60726],[126.97171,37.60732],[126.97164,37.60738],[126.97157,37.60742],[126.97148,37.60748],[126.97146,37.6075],[126.97143,37.60755],[126.97126,37.60781]]}},{"type":"Feature","properties":{"class":"alley","highway":"service","sidewalk":"unknown","lanes":0,"name":"","oneway":false},"geometry":{"type":"LineString","coordinates":[[126.96826,37.60827],[126.96816,37.60808],[126.96812,37.60807],[126.968,37.60808],[126.96759,37.60818],[126.96755,37.60814],[126.96752,37.60808],[126.96748,37.60787],[126.96747,37.6078],[126.96746,37.60773],[126.96747,37.6077],[126.96749,37.60767],[126.96749,37.60765],[126.96748,37.60761],[126.96741,37.60751],[126.96735,37.60743],[126.96732,37.60736],[126.96727,37.60727],[126.96714,37.60703]]}},{"type":"Feature","properties":{"class":"minor","highway":"residential","sidewalk":"unknown","lanes":0,"name":"","oneway":false},"geometry":{"type":"LineString","coordinates":[[126.9623,37.60746],[126.96228,37.60707],[126.96225,37.60701]]}},{"type":"Feature","properties":{"class":"minor","highway":"residential","sidewalk":"unknown","lanes":0,"name":"","oneway":false},"geometry":{"type":"LineString","coordinates":[[126.96273,37.60702],[126.96274,37.60753]]}},{"type":"Feature","properties":{"class":"alley","highway":"pedestrian","sidewalk":"unknown","lanes":0,"name":"","oneway":false},"geometry":{"type":"LineString","coordinates":[[126.96052,37.60086],[126.96099,37.60063]]}},{"type":"Feature","properties":{"class":"alley","highway":"pedestrian","sidewalk":"unknown","lanes":0,"name":"","oneway":false},"geometry":{"type":"LineString","coordinates":[[126.9604,37.6011],[126.96052,37.60086],[126.95983,37.60089],[126.9598,37.60105]]}},{"type":"Feature","properties":{"class":"major","highway":"tertiary","sidewalk":"yes","lanes":2,"name":"북악산로","oneway":false},"geometry":{"type":"LineString","coordinates":[[126.97059,37.59696],[126.97072,37.59688],[126.97084,37.59682],[126.9712,37.59664],[126.97138,37.59659],[126.97157,37.59654],[126.97198,37.59648],[126.97268,37.59637],[126.97273,37.59637],[126.97279,37.59638],[126.97285,37.59639],[126.97291,37.59641],[126.97297,37.59645],[126.97303,37.5965],[126.97319,37.59669],[126.97348,37.59704],[126.97355,37.59709],[126.97369,37.59717],[126.97373,37.5972],[126.97383,37.59726],[126.9741,37.59739],[126.97418,37.59745],[126.97424,37.5975],[126.97429,37.59758],[126.9743,37.59763],[126.97431,37.59767],[126.9743,37.59772],[126.97429,37.59776],[126.97423,37.59787],[126.97416,37.59796],[126.97399,37.59814],[126.97384,37.5983],[126.97375,37.59839],[126.97363,37.59848],[126.97357,37.59853],[126.97353,37.59859],[126.9735,37.59867],[126.97347,37.59877],[126.97343,37.59884],[126.97337,37.59891],[126.97323,37.59905],[126.97312,37.59917],[126.973,37.59933],[126.97286,37.59956],[126.97277,37.59969],[126.97274,37.59976],[126.97273,37.59983],[126.97274,37.59992],[126.97277,37.59999],[126.97283,37.60007],[126.9729,37.60014],[126.97298,37.60022],[126.97309,37.60032],[126.97317,37.60037],[126.97322,37.6004],[126.97328,37.60041],[126.97334,37.60042],[126.97341,37.60041],[126.97348,37.60039],[126.97362,37.60033],[126.97379,37.60023],[126.97417,37.6],[126.97442,37.59982],[126.97454,37.59976],[126.97469,37.59974],[126.97482,37.59973],[126.97501,37.59971],[126.97515,37.59968],[126.97522,37.59966],[126.97532,37.59964]]}},{"type":"Feature","properties":{"class":"alley","highway":"living_street","sidewalk":"unknown","lanes":0,"name":"","oneway":false},"geometry":{"type":"LineString","coordinates":[[126.96706,37.60566],[126.9671,37.60559],[126.96715,37.60552],[126.96728,37.60551],[126.96744,37.6055],[126.9675,37.60547],[126.96751,37.60539],[126.9675,37.6053],[126.96747,37.60518],[126.96728,37.60496]]}},{"type":"Feature","properties":{"class":"alley","highway":"living_street","sidewalk":"unknown","lanes":0,"name":"","oneway":false},"geometry":{"type":"LineString","coordinates":[[126.96747,37.60518],[126.96767,37.60519],[126.96794,37.60517],[126.96818,37.60513],[126.96834,37.60506]]}},{"type":"Feature","properties":{"class":"alley","highway":"living_street","sidewalk":"unknown","lanes":0,"name":"","oneway":false},"geometry":{"type":"LineString","coordinates":[[126.96728,37.60496],[126.9672,37.60486],[126.96723,37.60483],[126.9673,37.60482],[126.96739,37.60481],[126.96762,37.60497]]}},{"type":"Feature","properties":{"class":"alley","highway":"living_street","sidewalk":"unknown","lanes":0,"name":"","oneway":false},"geometry":{"type":"LineString","coordinates":[[126.96739,37.60481],[126.96739,37.60479],[126.96743,37.60472],[126.96749,37.60468],[126.96761,37.60468],[126.96765,37.60476],[126.9677,37.60482],[126.96785,37.60491]]}},{"type":"Feature","properties":{"class":"minor","highway":"residential","sidewalk":"unknown","lanes":0,"name":"","oneway":false},"geometry":{"type":"LineString","coordinates":[[126.96738,37.60518],[126.96716,37.60485],[126.96719,37.60479],[126.96723,37.60474],[126.96743,37.60462],[126.96751,37.60457],[126.96791,37.60431]]}},{"type":"Feature","properties":{"class":"alley","highway":"service","sidewalk":"unknown","lanes":0,"name":"","oneway":false},"geometry":{"type":"LineString","coordinates":[[126.96886,37.60592],[126.96911,37.6059],[126.96925,37.60589]]}},{"type":"Feature","properties":{"class":"alley","highway":"service","sidewalk":"unknown","lanes":0,"name":"","oneway":false},"geometry":{"type":"LineString","coordinates":[[126.96859,37.60597],[126.96886,37.60592]]}},{"type":"Feature","properties":{"class":"major","highway":"trunk","sidewalk":"likely","lanes":3,"name":"내부순환로","oneway":true},"geometry":{"type":"LineString","coordinates":[[126.97377,37.60702],[126.97332,37.60678],[126.97286,37.60654],[126.97196,37.60602]]}},{"type":"Feature","properties":{"class":"minor","highway":"residential","sidewalk":"unknown","lanes":0,"name":"평창길","oneway":false},"geometry":{"type":"LineString","coordinates":[[126.97397,37.61596],[126.97456,37.61565],[126.97505,37.61524]]}},{"type":"Feature","properties":{"class":"minor","highway":"residential","sidewalk":"unknown","lanes":0,"name":"평창길","oneway":false},"geometry":{"type":"LineString","coordinates":[[126.97495,37.61372],[126.97497,37.61446],[126.97505,37.61524]]}},{"type":"Feature","properties":{"class":"minor","highway":"residential","sidewalk":"unknown","lanes":0,"name":"평창34길","oneway":false},"geometry":{"type":"LineString","coordinates":[[126.97674,37.61274],[126.97649,37.61305],[126.97621,37.6134],[126.97602,37.6136],[126.97585,37.61375],[126.97555,37.61389],[126.97533,37.614],[126.97521,37.6142],[126.9752,37.61439],[126.9754,37.61499]]}},{"type":"Feature","properties":{"class":"minor","highway":"residential","sidewalk":"unknown","lanes":0,"name":"평창35길","oneway":false},"geometry":{"type":"LineString","coordinates":[[126.97367,37.61252],[126.97336,37.61272],[126.9732,37.6129],[126.97288,37.61318],[126.97284,37.61346],[126.973,37.61374],[126.97302,37.61376],[126.97334,37.61416],[126.97362,37.61433],[126.97374,37.61429],[126.97406,37.61424],[126.97425,37.61428],[126.97434,37.61438],[126.97433,37.61466]]}},{"type":"Feature","properties":{"class":"minor","highway":"residential","sidewalk":"unknown","lanes":0,"name":"평창7길","oneway":false},"geometry":{"type":"LineString","coordinates":[[126.97512,37.61725],[126.97527,37.6171],[126.97557,37.61678],[126.97575,37.61653]]}},{"type":"Feature","properties":{"class":"minor","highway":"residential","sidewalk":"unknown","lanes":0,"name":"평창7길","oneway":false},"geometry":{"type":"LineString","coordinates":[[126.97418,37.61504],[126.97421,37.6151],[126.97438,37.61523],[126.97455,37.61532],[126.97451,37.6155],[126.97456,37.61565],[126.97473,37.61574],[126.97487,37.61577],[126.97496,37.61578],[126.97506,37.6158],[126.97522,37.6158],[126.97533,37.6158],[126.97549,37.61588],[126.97559,37.616],[126.97561,37.61614],[126.97566,37.61636],[126.97575,37.61653],[126.97583,37.61661],[126.97601,37.61663],[126.97615,37.61663],[126.97632,37.61663],[126.9765,37.61667],[126.97653,37.61679],[126.97653,37.61687],[126.97656,37.61699],[126.97661,37.61706],[126.97678,37.61718],[126.97699,37.61728],[126.97711,37.6174]]}},{"type":"Feature","properties":{"class":"major","highway":"trunk","sidewalk":"likely","lanes":0,"name":"내부순환로","oneway":true},"geometry":{"type":"LineString","coordinates":[[126.97218,37.60581],[126.97303,37.60631],[126.97353,37.60659],[126.97393,37.60678]]}},{"type":"Feature","properties":{"class":"minor","highway":"residential","sidewalk":"unknown","lanes":1,"name":"평창6길","oneway":false},"geometry":{"type":"LineString","coordinates":[[126.97047,37.61342],[126.97037,37.61362],[126.97031,37.6138],[126.97027,37.61389],[126.97029,37.61395],[126.97035,37.614],[126.97041,37.61402],[126.97053,37.61402],[126.97063,37.614],[126.97071,37.61399],[126.97082,37.61401],[126.97091,37.61407],[126.97094,37.61413],[126.97097,37.61426],[126.97101,37.61463],[126.97101,37.61469],[126.97101,37.61475],[126.97112,37.61481],[126.97131,37.61488],[126.97144,37.61489],[126.97155,37.6149],[126.97177,37.61493],[126.97199,37.61497],[126.97263,37.61506],[126.97308,37.61513],[126.97323,37.61516],[126.97335,37.61523],[126.97343,37.61529],[126.97349,37.6154],[126.97378,37.61597],[126.97382,37.61604],[126.97388,37.61607],[126.97395,37.6161],[126.97404,37.61614],[126.97423,37.6162],[126.97458,37.61632],[126.97486,37.6164],[126.975,37.61646],[126.97507,37.61651],[126.9751,37.61656],[126.97513,37.61663],[126.97514,37.61671],[126.9751,37.61679],[126.97503,37.61691],[126.97488,37.61707],[126.97485,37.61713],[126.97488,37.6172],[126.97493,37.61724],[126.97501,37.61726],[126.97512,37.61725],[126.97572,37.61723],[126.97596,37.61721],[126.97612,37.61722],[126.97618,37.61726],[126.97621,37.61734],[126.97623,37.6174],[126.97627,37.61744],[126.97634,37.61747],[126.97645,37.61746],[126.9766,37.61742],[126.97669,37.61739],[126.97676,37.61737],[126.97685,37.61736],[126.97693,37.61737],[126.97704,37.61739],[126.97711,37.6174]]}},{"type":"Feature","properties":{"class":"minor","highway":"residential","sidewalk":"unknown","lanes":0,"name":"평창33길","oneway":false},"geometry":{"type":"LineString","coordinates":[[126.97567,37.6123],[126.97598,37.6129],[126.976,37.61307],[126.97591,37.61322],[126.97526,37.61364],[126.9751,37.61371],[126.97495,37.61372],[126.9742,37.61364],[126.97406,37.61366],[126.97389,37.61383],[126.97381,37.61392],[126.97371,37.61392],[126.97365,37.61389],[126.9736,37.61387],[126.97337,37.61361],[126.97328,37.61358],[126.97319,37.6136],[126.97302,37.61376]]}},{"type":"Feature","properties":{"class":"minor","highway":"residential","sidewalk":"unknown","lanes":0,"name":"평창31길","oneway":false},"geometry":{"type":"LineString","coordinates":[[126.97547,37.61171],[126.97606,37.61168]]}},{"type":"Feature","properties":{"class":"minor","highway":"residential","sidewalk":"unknown","lanes":0,"name":"평창26길","oneway":false},"geometry":{"type":"LineString","coordinates":[[126.97432,37.61118],[126.97464,37.61118]]}},{"type":"Feature","properties":{"class":"minor","highway":"residential","sidewalk":"unknown","lanes":0,"name":"평창31길","oneway":false},"geometry":{"type":"LineString","coordinates":[[126.97689,37.61175],[126.97627,37.61238]]}},{"type":"Feature","properties":{"class":"minor","highway":"residential","sidewalk":"unknown","lanes":0,"name":"평창25길","oneway":false},"geometry":{"type":"LineString","coordinates":[[126.97266,37.61183],[126.97265,37.61141]]}},{"type":"Feature","properties":{"class":"minor","highway":"residential","sidewalk":"unknown","lanes":0,"name":"평창30길","oneway":false},"geometry":{"type":"LineString","coordinates":[[126.97365,37.61389],[126.97365,37.61321]]}},{"type":"Feature","properties":{"class":"minor","highway":"residential","sidewalk":"unknown","lanes":0,"name":"평창7길","oneway":false},"geometry":{"type":"LineString","coordinates":[[126.97378,37.61538],[126.97418,37.61504]]}},{"type":"Feature","properties":{"class":"minor","highway":"residential","sidewalk":"unknown","lanes":0,"name":"평창32길","oneway":false},"geometry":{"type":"LineString","coordinates":[[126.97646,37.61351],[126.97658,37.61329],[126.9769,37.61308]]}},{"type":"Feature","properties":{"class":"minor","highway":"residential","sidewalk":"unknown","lanes":0,"name":"평창34길","oneway":false},"geometry":{"type":"LineString","coordinates":[[126.97621,37.6134],[126.97646,37.61351],[126.97659,37.61357],[126.977,37.61375]]}},{"type":"Feature","properties":{"class":"minor","highway":"residential","sidewalk":"unknown","lanes":0,"name":"평창25길","oneway":false},"geometry":{"type":"LineString","coordinates":[[126.9745,37.61061],[126.9744,37.61048],[126.9744,37.61042],[126.9743,37.61033]]}},{"type":"Feature","properties":{"class":"minor","highway":"residential","sidewalk":"unknown","lanes":0,"name":"평창31길","oneway":false},"geometry":{"type":"LineString","coordinates":[[126.97613,37.61225],[126.97606,37.61168],[126.97605,37.61151],[126.97633,37.61125]]}},{"type":"Feature","properties":{"class":"minor","highway":"residential","sidewalk":"unknown","lanes":0,"name":"평창31길","oneway":false},"geometry":{"type":"LineString","coordinates":[[126.97492,37.61198],[126.97548,37.61195],[126.97547,37.61171],[126.97543,37.61109],[126.97587,37.61076]]}},{"type":"Feature","properties":{"class":"minor","highway":"residential","sidewalk":"unknown","lanes":0,"name":"평창길","oneway":false},"geometry":{"type":"LineString","coordinates":[[126.97659,37.61357],[126.97653,37.61407],[126.97679,37.61435],[126.97702,37.61478],[126.97712,37.61486]]}},{"type":"Feature","properties":{"class":"minor","highway":"residential","sidewalk":"unknown","lanes":0,"name":"평창31길","oneway":false},"geometry":{"type":"LineString","coordinates":[[126.97543,37.61109],[126.97614,37.61117],[126.97633,37.61125],[126.97689,37.61175],[126.97708,37.61192],[126.97716,37.61203],[126.9769,37.61263]]}},{"type":"Feature","properties":{"class":"minor","highway":"residential","sidewalk":"unknown","lanes":0,"name":"평창34길","oneway":false},"geometry":{"type":"LineString","coordinates":[[126.97602,37.6136],[126.97612,37.61374],[126.97599,37.61413],[126.97605,37.61426],[126.97594,37.61447],[126.97553,37.61481],[126.9754,37.61499]]}},{"type":"Feature","properties":{"class":"minor","highway":"residential","sidewalk":"unknown","lanes":0,"name":"평창30길","oneway":false},"geometry":{"type":"LineString","coordinates":[[126.97138,37.61303],[126.9722,37.6127],[126.97257,37.61267],[126.97271,37.61259],[126.97317,37.6118],[126.97328,37.61184],[126.97344,37.61167]]}},{"type":"Feature","properties":{"class":"minor","highway":"residential","sidewalk":"unknown","lanes":0,"name":"평창26길","oneway":false},"geometry":{"type":"LineString","coordinates":[[126.97441,37.6121],[126.97404,37.61206],[126.97404,37.61198],[126.97403,37.6119],[126.97398,37.61188],[126.97368,37.6121],[126.97368,37.61217],[126.97376,37.61219],[126.97404,37.61198]]}},{"type":"Feature","properties":{"class":"minor","highway":"residential","sidewalk":"unknown","lanes":0,"name":"평창26길","oneway":false},"geometry":{"type":"LineString","coordinates":[[126.97487,37.61284],[126.97433,37.6125],[126.97441,37.6121],[126.97432,37.61173],[126.97423,37.61144],[126.97432,37.61118],[126.97441,37.61094],[126.97437,37.61074],[126.97425,37.61054],[126.97422,37.61039]]}},{"type":"Feature","properties":{"class":"minor","highway":"residential","sidewalk":"unknown","lanes":0,"name":"평창길","oneway":false},"geometry":{"type":"LineString","coordinates":[[126.97575,37.61653],[126.9767,37.61559]]}},{"type":"Feature","properties":{"class":"minor","highway":"residential","sidewalk":"unknown","lanes":0,"name":"평창7길","oneway":false},"geometry":{"type":"LineString","coordinates":[[126.97433,37.61466],[126.97418,37.61504]]}},{"type":"Feature","properties":{"class":"alley","highway":"service","sidewalk":"unknown","lanes":0,"name":"평창24길","oneway":false},"geometry":{"type":"LineString","coordinates":[[126.97707,37.60765],[126.97693,37.60775],[126.97679,37.608],[126.97668,37.60818],[126.97663,37.60825]]}},{"type":"Feature","properties":{"class":"alley","highway":"service","sidewalk":"unknown","lanes":0,"name":"","oneway":false},"geometry":{"type":"LineString","coordinates":[[126.97551,37.60822],[126.97554,37.60823],[126.97653,37.6082],[126.97663,37.60825]]}},{"type":"Feature","properties":{"class":"alley","highway":"service","sidewalk":"unknown","lanes":0,"name":"","oneway":false},"geometry":{"type":"LineString","coordinates":[[126.97562,37.60843],[126.97565,37.60842],[126.97651,37.60839]]}},{"type":"Feature","properties":{"class":"alley","highway":"service","sidewalk":"unknown","lanes":0,"name":"","oneway":false},"geometry":{"type":"LineString","coordinates":[[126.97567,37.60862],[126.97576,37.60861],[126.97633,37.60859]]}},{"type":"Feature","properties":{"class":"alley","highway":"service","sidewalk":"unknown","lanes":0,"name":"","oneway":false},"geometry":{"type":"LineString","coordinates":[[126.97542,37.60987],[126.97564,37.60954],[126.97573,37.6094]]}},{"type":"Feature","properties":{"class":"alley","highway":"service","sidewalk":"unknown","lanes":0,"name":"","oneway":false},"geometry":{"type":"LineString","coordinates":[[126.97725,37.6102],[126.97717,37.61002]]}},{"type":"Feature","properties":{"class":"alley","highway":"service","sidewalk":"unknown","lanes":0,"name":"평창문화로","oneway":false},"geometry":{"type":"LineString","coordinates":[[126.97655,37.61034],[126.97663,37.61023],[126.97642,37.60966],[126.97644,37.60942],[126.97662,37.60903]]}},{"type":"Feature","properties":{"class":"alley","highway":"service","sidewalk":"unknown","lanes":0,"name":"평창24길","oneway":false},"geometry":{"type":"LineString","coordinates":[[126.97663,37.60825],[126.97651,37.60839],[126.97641,37.60849],[126.97633,37.60859],[126.9763,37.60863],[126.97617,37.60877],[126.97613,37.6089]]}},{"type":"Feature","properties":{"class":"alley","highway":"service","sidewalk":"unknown","lanes":0,"name":"","oneway":false},"geometry":{"type":"LineString","coordinates":[[126.97312,37.60876],[126.97336,37.6085],[126.97353,37.60845],[126.97337,37.60787],[126.97361,37.60777],[126.97387,37.60815],[126.97438,37.60818],[126.97435,37.60827],[126.97418,37.60843],[126.97389,37.60844],[126.97366,37.60855],[126.97353,37.60845]]}},{"type":"Feature","properties":{"class":"alley","highway":"service","sidewalk":"unknown","lanes":0,"name":"평창문화로","oneway":false},"geometry":{"type":"LineString","coordinates":[[126.97208,37.60746],[126.97252,37.60732],[126.97264,37.60728],[126.97275,37.60725],[126.97299,37.60755],[126.97312,37.60761]]}},{"type":"Feature","properties":{"class":"alley","highway":"service","sidewalk":"unknown","lanes":0,"name":"","oneway":false},"geometry":{"type":"LineString","coordinates":[[126.97264,37.60728],[126.97252,37.60704]]}},{"type":"Feature","properties":{"class":"alley","highway":"service","sidewalk":"unknown","lanes":0,"name":"평창문화로","oneway":false},"geometry":{"type":"LineString","coordinates":[[126.97252,37.60732],[126.97229,37.60683],[126.97165,37.60608]]}},{"type":"Feature","properties":{"class":"alley","highway":"service","sidewalk":"unknown","lanes":0,"name":"","oneway":false},"geometry":{"type":"LineString","coordinates":[[126.97493,37.61212],[126.97474,37.61224]]}},{"type":"Feature","properties":{"class":"minor","highway":"residential","sidewalk":"unknown","lanes":0,"name":"평창길","oneway":false},"geometry":{"type":"LineString","coordinates":[[126.97047,37.61342],[126.97055,37.61344],[126.97066,37.61348],[126.97099,37.61341],[126.97114,37.61337],[126.97133,37.61339],[126.97167,37.61355],[126.97175,37.61372],[126.97176,37.61395],[126.97182,37.61402],[126.97193,37.61407],[126.9723,37.61416],[126.9725,37.61424],[126.97281,37.61447],[126.97301,37.61461],[126.97369,37.61464],[126.97433,37.61466]]}},{"type":"Feature","properties":{"class":"minor","highway":"residential","sidewalk":"unknown","lanes":0,"name":"평창길","oneway":false},"geometry":{"type":"LineString","coordinates":[[126.97433,37.61466],[126.97448,37.61472],[126.97479,37.61492],[126.9749,37.61506],[126.97491,37.61508],[126.97496,37.61523],[126.97505,37.61524],[126.97515,37.61522],[126.97528,37.61511],[126.9754,37.61499],[126.97574,37.61483],[126.97598,37.61477],[126.97622,37.61479],[126.97642,37.61491],[126.97654,37.61514],[126.9766,37.61553],[126.9767,37.61559],[126.97685,37.61564],[126.97698,37.61557],[126.97702,37.61551]]}},{"type":"Feature","properties":{"class":"alley","highway":"service","sidewalk":"unknown","lanes":0,"name":"","oneway":false},"geometry":{"type":"LineString","coordinates":[[126.97473,37.60812],[126.97494,37.60811],[126.97508,37.6081],[126.97517,37.6081],[126.97527,37.6081],[126.97537,37.60812],[126.97542,37.60814],[126.97547,37.60818],[126.97551,37.60822],[126.97558,37.60835],[126.97562,37.60843],[126.97566,37.60849],[126.97569,37.60856],[126.97567,37.60862],[126.97565,37.60875]]}},{"type":"Feature","properties":{"class":"alley","highway":"service","sidewalk":"unknown","lanes":0,"name":"","oneway":false},"geometry":{"type":"LineString","coordinates":[[126.97312,37.60903],[126.9729,37.60892]]}},{"type":"Feature","properties":{"class":"alley","highway":"service","sidewalk":"unknown","lanes":0,"name":"","oneway":false},"geometry":{"type":"LineString","coordinates":[[126.97325,37.60886],[126.97312,37.60903],[126.97312,37.60908],[126.97311,37.60913],[126.97304,37.60924],[126.97259,37.60904]]}},{"type":"Feature","properties":{"class":"minor","highway":"residential","sidewalk":"unknown","lanes":0,"name":"비봉2길","oneway":false},"geometry":{"type":"LineString","coordinates":[[126.95988,37.61419],[126.96002,37.61431],[126.96011,37.6144]]}},{"type":"Feature","properties":{"class":"minor","highway":"residential","sidewalk":"unknown","lanes":0,"name":"비봉2길","oneway":false},"geometry":{"type":"LineString","coordinates":[[126.96011,37.6144],[126.96036,37.61458],[126.96065,37.61485],[126.96098,37.61533],[126.96118,37.6154],[126.96156,37.61581]]}},{"type":"Feature","properties":{"class":"minor","highway":"residential","sidewalk":"unknown","lanes":1,"name":"평창5길","oneway":false},"geometry":{"type":"LineString","coordinates":[[126.96448,37.61405],[126.96467,37.61404],[126.96522,37.61391]]}},{"type":"Feature","properties":{"class":"minor","highway":"residential","sidewalk":"unknown","lanes":1,"name":"평창5길","oneway":false},"geometry":{"type":"LineString","coordinates":[[126.96522,37.61391],[126.96536,37.61394],[126.96565,37.61396],[126.96575,37.61401],[126.96579,37.6141],[126.9658,37.61438],[126.96584,37.61449],[126.96599,37.61457],[126.96616,37.6146],[126.96626,37.61458],[126.96649,37.61436],[126.96654,37.61434],[126.9667,37.61432],[126.96716,37.61434],[126.96754,37.61434]]}},{"type":"Feature","properties":{"class":"minor","highway":"residential","sidewalk":"unknown","lanes":0,"name":"평창25길","oneway":false},"geometry":{"type":"LineString","coordinates":[[126.97228,37.6118],[126.97217,37.61159]]}},{"type":"Feature","properties":{"class":"minor","highway":"residential","sidewalk":"unknown","lanes":0,"name":"평창17길","oneway":false},"geometry":{"type":"LineString","coordinates":[[126.96642,37.61359],[126.96654,37.61331]]}},{"type":"Feature","properties":{"class":"minor","highway":"residential","sidewalk":"unknown","lanes":0,"name":"평창6길","oneway":false},"geometry":{"type":"LineString","coordinates":[[126.97002,37.61446],[126.97035,37.614]]}},{"type":"Feature","properties":{"class":"minor","highway":"residential","sidewalk":"unknown","lanes":0,"name":"평창25길","oneway":false},"geometry":{"type":"LineString","coordinates":[[126.97211,37.6109],[126.97214,37.61115],[126.97242,37.61136]]}},{"type":"Feature","properties":{"class":"minor","highway":"residential","sidewalk":"unknown","lanes":0,"name":"평창22길","oneway":false},"geometry":{"type":"LineString","coordinates":[[126.97238,37.61304],[126.97213,37.61346]]}},{"type":"Feature","properties":{"class":"minor","highway":"residential","sidewalk":"unknown","lanes":0,"name":"평창길","oneway":false},"geometry":{"type":"LineString","coordinates":[[126.96876,37.61382],[126.96929,37.61379],[126.96945,37.61362],[126.96929,37.61322],[126.96957,37.61299],[126.96985,37.61281]]}},{"type":"Feature","properties":{"class":"minor","highway":"residential","sidewalk":"unknown","lanes":0,"name":"평창6길","oneway":false},"geometry":{"type":"LineString","coordinates":[[126.96947,37.61454],[126.96992,37.61491],[126.97011,37.61495],[126.97023,37.61485],[126.97054,37.61462],[126.97071,37.6146],[126.97084,37.61466],[126.97091,37.61473],[126.97101,37.61475]]}},{"type":"Feature","properties":{"class":"minor","highway":"residential","sidewalk":"unknown","lanes":0,"name":"평창길","oneway":false},"geometry":{"type":"LineString","coordinates":[[126.97213,37.61346],[126.97182,37.61402],[126.97157,37.61424],[126.97101,37.61475]]}}]}