{"type":"FeatureCollection","features":[{"type":"Feature","properties":{"class":"major","highway":"trunk_link","sidewalk":"likely","lanes":1,"name":"","oneway":true},"geometry":{"type":"LineString","coordinates":[[126.78382,37.60532],[126.78362,37.60542],[126.78335,37.60553],[126.78308,37.60563],[126.78281,37.60575],[126.78252,37.60589],[126.78212,37.60608],[126.78181,37.60626],[126.7815,37.60644],[126.78113,37.60665],[126.78062,37.60695],[126.78042,37.60707],[126.78016,37.60727],[126.78003,37.60738],[126.77988,37.60751],[126.7797,37.60764],[126.77957,37.60772],[126.77934,37.60786]]}},{"type":"Feature","properties":{"class":"major","highway":"trunk_link","sidewalk":"likely","lanes":0,"name":"","oneway":true},"geometry":{"type":"LineString","coordinates":[[126.7788,37.60812],[126.77903,37.60787],[126.7792,37.60769],[126.77938,37.60752],[126.77953,37.60737],[126.77999,37.60697],[126.78019,37.6068],[126.78038,37.60664],[126.78062,37.60646],[126.78085,37.60627],[126.78114,37.60606],[126.78139,37.60588],[126.78161,37.60573],[126.78191,37.60555],[126.78219,37.60538],[126.78253,37.60518],[126.78278,37.60505],[126.78349,37.60469],[126.78374,37.60458]]}},{"type":"Feature","properties":{"class":"major","highway":"trunk","sidewalk":"likely","lanes":3,"name":"김포한강로","oneway":true},"geometry":{"type":"LineString","coordinates":[[126.78361,37.60507],[126.78325,37.60522],[126.78275,37.60546],[126.78244,37.60562],[126.78217,37.60577],[126.7818,37.60599],[126.78149,37.60618],[126.78111,37.60643],[126.78075,37.6067],[126.78044,37.60692],[126.78019,37.60712],[126.77934,37.60786],[126.77897,37.60818],[126.77874,37.60836],[126.77854,37.60851],[126.77809,37.60883],[126.77789,37.60894],[126.77768,37.60909],[126.77728,37.60936],[126.77694,37.60961],[126.7764,37.60997],[126.77588,37.61028]]}},{"type":"Feature","properties":{"class":"major","highway":"trunk","sidewalk":"likely","lanes":3,"name":"김포한강로","oneway":true},"geometry":{"type":"LineString","coordinates":[[126.77588,37.61014],[126.77639,37.60983],[126.77685,37.60951],[126.77721,37.60927],[126.77741,37.60913],[126.77761,37.60899],[126.77783,37.60884],[126.77804,37.6087],[126.77845,37.60839],[126.7788,37.60812],[126.77958,37.60745],[126.78007,37.60705],[126.78035,37.60683],[126.78066,37.60661],[126.78106,37.60632],[126.78134,37.60613],[126.78155,37.606],[126.78199,37.60573],[126.78238,37.60552],[126.78266,37.60537],[126.78304,37.60519],[126.78353,37.60497]]}},{"type":"Feature","properties":{"class":"major","highway":"primary","sidewalk":"likely","lanes":0,"name":"김포대로","oneway":true},"geometry":{"type":"LineString","coordinates":[[126.78098,37.59421],[126.78082,37.5943],[126.77888,37.59543],[126.77752,37.59629],[126.77592,37.5973],[126.77468,37.59806],[126.77273,37.59931],[126.77224,37.59962],[126.77216,37.59967],[126.77186,37.59985],[126.77157,37.60006],[126.77138,37.60021],[126.77121,37.60036],[126.77101,37.60055],[126.77083,37.60076],[126.77081,37.60078],[126.77057,37.60106],[126.77038,37.6013],[126.76993,37.60182],[126.76978,37.602],[126.76965,37.60212],[126.76955,37.6022],[126.7693,37.60239],[126.76908,37.60252],[126.76885,37.60263],[126.7686,37.60274],[126.76747,37.60315]]}},{"type":"Feature","properties":{"class":"major","highway":"tertiary","sidewalk":"likely","lanes":0,"name":"수기로","oneway":false},"geometry":{"type":"LineString","coordinates":[[126.76747,37.60315],[126.7674,37.60303],[126.76734,37.60295],[126.76729,37.60288],[126.76726,37.60283],[126.76721,37.60278],[126.76715,37.60272],[126.76702,37.60261],[126.76681,37.60243],[126.7667,37.60232],[126.76658,37.60219],[126.76625,37.60188],[126.76614,37.60179],[126.76605,37.6017],[126.76596,37.6016],[126.7659,37.60152],[126.76584,37.60141],[126.7658,37.60132],[126.76578,37.60124],[126.76577,37.60116],[126.76577,37.60102],[126.76576,37.60065],[126.76577,37.60048],[126.76578,37.60016],[126.7658,37.59982],[126.76579,37.59936],[126.76578,37.59893],[126.76579,37.59864],[126.76579,37.59853],[126.76579,37.59834],[126.76578,37.59808],[126.76578,37.59789],[126.76576,37.59773],[126.7657,37.59742],[126.76562,37.59705],[126.76555,37.59675],[126.76548,37.59652],[126.76539,37.59629],[126.76528,37.59602],[126.76515,37.59578],[126.765,37.59554],[126.76479,37.59528],[126.76457,37.59504],[126.76429,37.59475],[126.76385,37.59429]]}},{"type":"Feature","properties":{"class":"major","highway":"tertiary","sidewalk":"likely","lanes":0,"name":"은행영사정로","oneway":false},"geometry":{"type":"LineString","coordinates":[[126.78361,37.60374],[126.78356,37.60361],[126.78347,37.60346],[126.78337,37.60332],[126.78327,37.60322],[126.78318,37.60313],[126.78304,37.60302],[126.78292,37.60293],[126.7828,37.60286],[126.78267,37.60279],[126.78252,37.60273],[126.78239,37.60268],[126.7822,37.60262],[126.7818,37.60256],[126.78138,37.6025],[126.78098,37.60244],[126.78053,37.60237],[126.78014,37.60231],[126.77981,37.60228],[126.7796,37.60226],[126.77938,37.60226],[126.77916,37.60227],[126.77893,37.6023],[126.77872,37.60234],[126.77848,37.60239],[126.77802,37.60251],[126.77703,37.60278],[126.77687,37.60282],[126.77664,37.60286],[126.77643,37.60288],[126.77618,37.6029],[126.77593,37.6029],[126.77574,37.60288],[126.77547,37.60283],[126.77526,37.60278],[126.7751,37.60274],[126.77495,37.60268],[126.77454,37.60252],[126.77429,37.60241],[126.77401,37.60229],[126.77371,37.60214],[126.77348,37.60202],[126.77334,37.60194],[126.77317,37.60184],[126.7731,37.60178],[126.77297,37.60167],[126.77287,37.60156],[126.77278,37.60146],[126.77266,37.60131],[126.77254,37.60116],[126.77247,37.60105],[126.77242,37.60095],[126.7724,37.60087],[126.77236,37.60073],[126.77234,37.60062],[126.77232,37.60056],[126.77229,37.6005],[126.77225,37.60042],[126.77219,37.60031],[126.77206,37.60011],[126.77186,37.59985]]}},{"type":"Feature","properties":{"class":"major","highway":"tertiary","sidewalk":"likely","lanes":0,"name":"신곡로","oneway":false},"geometry":{"type":"LineString","coordinates":[[126.77547,37.60283],[126.77534,37.6032],[126.77527,37.60351],[126.77524,37.60364],[126.77523,37.60375],[126.77523,37.60387],[126.77526,37.60424],[126.77533,37.60544],[126.77539,37.60613],[126.7754,37.60634],[126.7754,37.60641],[126.77539,37.60645],[126.77536,37.60648],[126.77532,37.60649],[126.775,37.6065],[126.77449,37.60651],[126.77396,37.60652],[126.77371,37.60653],[126.77345,37.60654],[126.7729,37.60657],[126.77276,37.60659],[126.77259,37.60662],[126.77202,37.60673],[126.77124,37.60689],[126.77066,37.607],[126.77034,37.60708],[126.77005,37.60715],[126.76986,37.6072],[126.76965,37.60725],[126.76907,37.60737],[126.7688,37.60741],[126.76862,37.60742],[126.76841,37.60742],[126.7682,37.60739],[126.76801,37.60736],[126.7678,37.60732],[126.76743,37.60725],[126.76718,37.6072],[126.76675,37.60711],[126.76654,37.60707],[126.76631,37.60702],[126.76613,37.60696],[126.76595,37.60689],[126.76576,37.6068],[126.76558,37.6067],[126.76549,37.60663],[126.76542,37.60657],[126.76521,37.60637],[126.76478,37.60598],[126.76395,37.60525],[126.76377,37.60511],[126.76355,37.60496],[126.76323,37.60475],[126.76313,37.60469],[126.76309,37.60467],[126.76303,37.60466],[126.76294,37.60464],[126.76273,37.60463],[126.76246,37.60462]]}},{"type":"Feature","properties":{"class":"major","highway":"tertiary","sidewalk":"likely","lanes":0,"name":"고송로","oneway":false},"geometry":{"type":"LineString","coordinates":[[126.77005,37.60715],[126.76948,37.60607],[126.76922,37.60558],[126.76909,37.60534],[126.76894,37.60511],[126.76862,37.60457],[126.76848,37.60436],[126.76834,37.60418],[126.76816,37.60398],[126.76795,37.60375],[126.76771,37.60347],[126.76759,37.60333],[126.76747,37.60315]]}},{"type":"Feature","properties":{"class":"alley","highway":"service","sidewalk":"unknown","lanes":0,"name":"김포대로320번길","oneway":false},"geometry":{"type":"LineString","coordinates":[[126.77224,37.59962],[126.77232,37.59972],[126.77256,37.60003],[126.77269,37.60021],[126.77284,37.60041],[126.773,37.60063],[126.77315,37.60083],[126.77327,37.60098],[126.77336,37.60109],[126.77345,37.60118],[126.77357,37.60128],[126.77371,37.6014],[126.77383,37.60148],[126.77394,37.60155],[126.77404,37.60162],[126.77418,37.60169],[126.77437,37.60178],[126.77459,37.60188],[126.77491,37.60202],[126.77516,37.60212],[126.77528,37.60216],[126.77541,37.60219],[126.77555,37.60222],[126.77564,37.60224],[126.77593,37.60227],[126.7761,37.60228],[126.77629,37.60228],[126.77652,37.60227],[126.77663,37.60226],[126.7768,37.60223],[126.77705,37.60216],[126.77818,37.60187],[126.7785,37.60179],[126.7788,37.60171],[126.77889,37.6017],[126.77897,37.60168],[126.77915,37.60167],[126.77945,37.60166],[126.7796,37.60167],[126.77974,37.60169],[126.78024,37.60173],[126.7807,37.60178],[126.78109,37.60182],[126.78128,37.60184],[126.78138,37.60186],[126.78143,37.60187],[126.78147,37.6019],[126.7815,37.60194],[126.7815,37.60199],[126.7815,37.60202],[126.78151,37.60206],[126.78153,37.60208],[126.78157,37.6021]]}},{"type":"Feature","properties":{"class":"alley","highway":"service","sidewalk":"unknown","lanes":0,"name":"장차로","oneway":false},"geometry":{"type":"LineString","coordinates":[[126.7719,37.60556],[126.77195,37.60569],[126.77196,37.60575],[126.77196,37.60582],[126.77196,37.60605],[126.77196,37.60621],[126.77194,37.60634],[126.77194,37.60642],[126.77195,37.60651],[126.77199,37.60665],[126.77202,37.60673]]}},{"type":"Feature","properties":{"class":"minor","highway":"residential","sidewalk":"unknown","lanes":0,"name":"장차로","oneway":false},"geometry":{"type":"LineString","coordinates":[[126.76945,37.60211],[126.76955,37.6022],[126.76971,37.60236],[126.77009,37.60271],[126.77024,37.60285],[126.77036,37.60299],[126.77044,37.60309],[126.77049,37.60318],[126.77053,37.60325],[126.77054,37.6033],[126.77058,37.60343],[126.77066,37.60364],[126.77067,37.60366],[126.77071,37.60379],[126.77077,37.60392],[126.77078,37.60396],[126.77081,37.60402],[126.77097,37.60429],[126.77102,37.6044],[126.77119,37.60469],[126.77124,37.60476],[126.77141,37.60499],[126.77144,37.60503],[126.77154,37.60517],[126.77163,37.60527],[126.77172,37.60537],[126.7719,37.60556]]}},{"type":"Feature","properties":{"class":"minor","highway":"residential","sidewalk":"unknown","lanes":0,"name":"인향로24번길","oneway":false},"geometry":{"type":"LineString","coordinates":[[126.76795,37.59982],[126.76787,37.59991],[126.76782,37.59995],[126.76774,37.60001],[126.76744,37.60022],[126.76732,37.6003],[126.76727,37.60034],[126.76725,37.60038],[126.76726,37.60041],[126.76729,37.60048],[126.76734,37.60054],[126.76742,37.60064],[126.76747,37.60073],[126.76751,37.60079],[126.76757,37.60083],[126.76763,37.60086],[126.76769,37.60089],[126.76774,37.60089],[126.7678,37.60088]]}},{"type":"Feature","properties":{"class":"alley","highway":"service","sidewalk":"unknown","lanes":0,"name":"장차로5번길","oneway":true},"geometry":{"type":"LineString","coordinates":[[126.76834,37.60361],[126.7682,37.60336],[126.7682,37.60334],[126.7682,37.60333],[126.76822,37.60331],[126.76831,37.60328],[126.76854,37.60319],[126.76875,37.6031],[126.76895,37.60301],[126.7692,37.60289],[126.76946,37.60275],[126.7695,37.60274],[126.76953,37.60273],[126.76955,37.60273],[126.76958,37.60274],[126.76978,37.60292]]}},{"type":"Feature","properties":{"class":"minor","highway":"residential","sidewalk":"unknown","lanes":0,"name":"신곡로3번길","oneway":false},"geometry":{"type":"LineString","coordinates":[[126.7734,37.60329],[126.77341,37.60361],[126.77344,37.60414],[126.77351,37.60507],[126.77353,37.60549]]}},{"type":"Feature","properties":{"class":"alley","highway":"service","sidewalk":"unknown","lanes":0,"name":"신곡로","oneway":false},"geometry":{"type":"LineString","coordinates":[[126.77576,37.60552],[126.77568,37.60551],[126.77561,37.6055],[126.77551,37.60549],[126.77542,37.60547],[126.77533,37.60544]]}},{"type":"Feature","properties":{"class":"major","highway":"primary_link","sidewalk":"likely","lanes":0,"name":"","oneway":true},"geometry":{"type":"LineString","coordinates":[[126.76242,37.60424],[126.76222,37.60428]]}},{"type":"Feature","properties":{"class":"major","highway":"tertiary_link","sidewalk":"likely","lanes":0,"name":"","oneway":false},"geometry":{"type":"LineString","coordinates":[[126.7724,37.60087],[126.77265,37.60077],[126.77288,37.60068]]}},{"type":"Feature","properties":{"class":"minor","highway":"residential","sidewalk":"unknown","lanes":0,"name":"","oneway":false},"geometry":{"type":"LineString","coordinates":[[126.77288,37.60217],[126.77281,37.60209],[126.77267,37.60192],[126.77242,37.60161]]}},{"type":"Feature","properties":{"class":"major","highway":"tertiary","sidewalk":"likely","lanes":0,"name":"신곡로","oneway":true},"geometry":{"type":"LineString","coordinates":[[126.76246,37.60462],[126.76198,37.60459]]}},{"type":"Feature","properties":{"class":"minor","highway":"residential","sidewalk":"unknown","lanes":0,"name":"은행영사정로5번길","oneway":false},"geometry":{"type":"LineString","coordinates":[[126.77209,37.60113],[126.77171,37.60128],[126.77166,37.60131],[126.77162,37.60135],[126.77158,37.60138],[126.77123,37.60178]]}},{"type":"Feature","properties":{"class":"minor","highway":"residential","sidewalk":"unknown","lanes":0,"name":"","oneway":false},"geometry":{"type":"LineString","coordinates":[[126.77139,37.60201],[126.77123,37.60178],[126.77105,37.60152]]}},{"type":"Feature","properties":{"class":"minor","highway":"residential","sidewalk":"unknown","lanes":0,"name":"","oneway":false},"geometry":{"type":"LineString","coordinates":[[126.76959,37.60382],[126.76954,37.60378],[126.7695,37.60375],[126.76941,37.60366],[126.76931,37.60353],[126.76912,37.60331]]}},{"type":"Feature","properties":{"class":"minor","highway":"residential","sidewalk":"unknown","lanes":0,"name":"","oneway":false},"geometry":{"type":"LineString","coordinates":[[126.7719,37.60556],[126.77226,37.60585],[126.77238,37.60596]]}},{"type":"Feature","properties":{"class":"minor","highway":"residential","sidewalk":"unknown","lanes":0,"name":"은행영사정로5번길","oneway":false},"geometry":{"type":"LineString","coordinates":[[126.77209,37.60113],[126.77181,37.60067]]}},{"type":"Feature","properties":{"class":"major","highway":"tertiary_link","sidewalk":"likely","lanes":0,"name":"","oneway":false},"geometry":{"type":"LineString","coordinates":[[126.76224,37.60442],[126.76228,37.60451],[126.7623,37.60455],[126.76234,37.60457],[126.76246,37.60462]]}},{"type":"Feature","properties":{"class":"major","highway":"primary_link","sidewalk":"likely","lanes":0,"name":"","oneway":true},"geometry":{"type":"LineString","coordinates":[[126.76211,37.60372],[126.76292,37.60363],[126.76383,37.6036],[126.76441,37.6036],[126.76522,37.60358],[126.76571,37.6036]]}},{"type":"Feature","properties":{"class":"minor","highway":"residential","sidewalk":"unknown","lanes":0,"name":"은행영사정로","oneway":false},"geometry":{"type":"LineString","coordinates":[[126.77278,37.60146],[126.77251,37.60157],[126.77242,37.60161],[126.77232,37.60165],[126.77191,37.60181],[126.77139,37.60201],[126.77117,37.60211],[126.77107,37.60215],[126.77101,37.60217],[126.77096,37.6022],[126.77091,37.60223],[126.77087,37.60226],[126.77069,37.6024],[126.77064,37.60241],[126.7706,37.60241],[126.77057,37.60239],[126.77044,37.60227]]}},{"type":"Feature","properties":{"class":"major","highway":"primary_link","sidewalk":"likely","lanes":0,"name":"","oneway":true},"geometry":{"type":"LineString","coordinates":[[126.76555,37.60375],[126.76486,37.60391],[126.76417,37.60401],[126.76242,37.60424],[126.76233,37.60431],[126.76228,37.60436],[126.76224,37.60442]]}},{"type":"Feature","properties":{"class":"major","highway":"tertiary","sidewalk":"likely","lanes":2,"name":"김포대로320번길","oneway":true},"geometry":{"type":"LineString","coordinates":[[126.77216,37.59967],[126.77244,37.60005],[126.77271,37.60043],[126.77288,37.60068],[126.7731,37.60095],[126.7732,37.60109],[126.7733,37.6012],[126.7734,37.60131],[126.77354,37.60142],[126.77364,37.6015],[126.7738,37.60161],[126.77394,37.6017],[126.77407,37.60178],[126.77424,37.60186],[126.77449,37.60197],[126.77485,37.60212],[126.77513,37.60222],[126.77536,37.60229],[126.77553,37.60233],[126.77561,37.60235],[126.77592,37.60238],[126.77613,37.60239],[126.77634,37.60239],[126.77654,37.60237],[126.77669,37.60235],[126.77687,37.60231],[126.77712,37.60225],[126.77756,37.60214],[126.77806,37.60201],[126.77846,37.60191],[126.77867,37.60186],[126.77886,37.60182],[126.77906,37.6018],[126.77933,37.60178],[126.7795,37.60178],[126.7797,37.60179],[126.77999,37.60183],[126.78029,37.60186],[126.78081,37.60193]]}},{"type":"Feature","properties":{"class":"minor","highway":"residential","sidewalk":"unknown","lanes":0,"name":"신곡로29번길","oneway":false},"geometry":{"type":"LineString","coordinates":[[126.77238,37.60596],[126.77263,37.60618],[126.7728,37.60636],[126.77284,37.60641],[126.77287,37.60646],[126.7729,37.60657]]}},{"type":"Feature","properties":{"class":"minor","highway":"residential","sidewalk":"unknown","lanes":0,"name":"신곡로29번길","oneway":false},"geometry":{"type":"LineString","coordinates":[[126.77533,37.60544],[126.77509,37.60544],[126.77481,37.60544],[126.77422,37.60546],[126.77385,37.60547],[126.77366,37.60548],[126.77353,37.60549],[126.77335,37.60554],[126.77315,37.6056],[126.77284,37.6057],[126.77275,37.60574],[126.77264,37.60579],[126.77252,37.60586],[126.77238,37.60596]]}},{"type":"Feature","properties":{"class":"minor","highway":"residential","sidewalk":"unknown","lanes":0,"name":"신곡로3번길","oneway":false},"geometry":{"type":"LineString","coordinates":[[126.77534,37.6032],[126.7743,37.60324],[126.77374,37.60328],[126.7734,37.60329],[126.7732,37.60318],[126.77288,37.60301],[126.77244,37.6028]]}},{"type":"Feature","properties":{"class":"minor","highway":"residential","sidewalk":"unknown","lanes":0,"name":"은행영사정로23번길","oneway":false},"geometry":{"type":"LineString","coordinates":[[126.77317,37.60184],[126.77304,37.60198],[126.77297,37.60206],[126.77288,37.60217],[126.77279,37.6023],[126.77268,37.60248],[126.77261,37.60259],[126.77257,37.60265],[126.77253,37.6027],[126.77244,37.6028],[126.77236,37.60287],[126.77229,37.60293],[126.77175,37.60335],[126.77195,37.60375]]}},{"type":"Feature","properties":{"class":"minor","highway":"residential","sidewalk":"unknown","lanes":0,"name":"은행영사정로5번길","oneway":false},"geometry":{"type":"LineString","coordinates":[[126.77219,37.60031],[126.77206,37.60042],[126.77195,37.60053],[126.77181,37.60067],[126.77141,37.60113],[126.77105,37.60152],[126.7709,37.60171],[126.77073,37.6019],[126.77044,37.60227],[126.77026,37.60248],[126.77015,37.60263],[126.77009,37.60271]]}},{"type":"Feature","properties":{"class":"minor","highway":"residential","sidewalk":"unknown","lanes":0,"name":"장차로13번길","oneway":false},"geometry":{"type":"LineString","coordinates":[[126.77049,37.60318],[126.77026,37.60335],[126.77001,37.60353],[126.76979,37.60368],[126.76959,37.60382],[126.76948,37.60385],[126.76889,37.60402],[126.76834,37.60418]]}},{"type":"Feature","properties":{"class":"minor","highway":"residential","sidewalk":"unknown","lanes":0,"name":"장차로5번길","oneway":false},"geometry":{"type":"LineString","coordinates":[[126.77009,37.60271],[126.76997,37.60279],[126.76989,37.60285],[126.76978,37.60292],[126.7695,37.60309],[126.76939,37.60316],[126.76929,37.60322],[126.76912,37.60331],[126.76875,37.60345],[126.76834,37.60361],[126.76795,37.60375]]}},{"type":"Feature","properties":{"class":"alley","highway":"service","sidewalk":"unknown","lanes":0,"name":"장차로31번길","oneway":false},"geometry":{"type":"LineString","coordinates":[[126.77119,37.60469],[126.77115,37.60471],[126.77087,37.60488],[126.77063,37.60504],[126.77052,37.60512],[126.77045,37.60522],[126.77039,37.60531],[126.7703,37.60545],[126.77025,37.60553],[126.77023,37.60562],[126.7702,37.60568],[126.77018,37.60571],[126.77014,37.60573]]}},{"type":"Feature","properties":{"class":"alley","highway":"service","sidewalk":"unknown","lanes":0,"name":"","oneway":false},"geometry":{"type":"LineString","coordinates":[[126.77113,37.60486],[126.77132,37.6051],[126.77149,37.60531],[126.7715,37.60533],[126.77148,37.60536],[126.77105,37.60559],[126.77046,37.6059],[126.77033,37.60574],[126.7707,37.60553],[126.77051,37.60531],[126.77056,37.60523],[126.77065,37.60514],[126.77105,37.60559]]}},{"type":"Feature","properties":{"class":"alley","highway":"service","sidewalk":"unknown","lanes":0,"name":"","oneway":false},"geometry":{"type":"LineString","coordinates":[[126.77065,37.60514],[126.77076,37.60506],[126.77091,37.60497],[126.77113,37.60486]]}},{"type":"Feature","properties":{"class":"alley","highway":"service","sidewalk":"unknown","lanes":0,"name":"","oneway":false},"geometry":{"type":"LineString","coordinates":[[126.77113,37.60486],[126.77115,37.60471]]}},{"type":"Feature","properties":{"class":"alley","highway":"service","sidewalk":"unknown","lanes":0,"name":"","oneway":false},"geometry":{"type":"LineString","coordinates":[[126.76946,37.60443],[126.76945,37.60451],[126.76946,37.60458],[126.76961,37.60495],[126.76968,37.6051],[126.76972,37.60515],[126.76976,37.60519],[126.76981,37.6052],[126.76997,37.60517],[126.76993,37.60505],[126.77,37.60503],[126.76995,37.60491],[126.77013,37.60486],[126.77024,37.60468],[126.77018,37.60464],[126.77012,37.60462],[126.77007,37.60461],[126.76982,37.60465],[126.76976,37.60447],[126.76962,37.60445],[126.76956,37.60444],[126.76951,37.60443]]}},{"type":"Feature","properties":{"class":"alley","highway":"service","sidewalk":"unknown","lanes":0,"name":"","oneway":false},"geometry":{"type":"LineString","coordinates":[[126.77024,37.60468],[126.77034,37.60451]]}},{"type":"Feature","properties":{"class":"alley","highway":"service","sidewalk":"unknown","lanes":0,"name":"","oneway":false},"geometry":{"type":"LineString","coordinates":[[126.77172,37.60537],[126.77215,37.60513],[126.7725,37.60494]]}},{"type":"Feature","properties":{"class":"major","highway":"primary","sidewalk":"likely","lanes":0,"name":"김포대로","oneway":true},"geometry":{"type":"LineString","coordinates":[[126.76605,37.60352],[126.76628,37.60346],[126.76648,37.60339],[126.7669,37.60323],[126.7674,37.60303],[126.76851,37.60262],[126.76876,37.60251],[126.76899,37.6024],[126.76926,37.60225],[126.76945,37.60211],[126.76973,37.60186],[126.76983,37.60174],[126.77,37.60155],[126.77049,37.60098],[126.77082,37.60059],[126.77106,37.60033],[126.77113,37.60026],[126.77119,37.6002],[126.77132,37.60009],[126.77161,37.59986],[126.77178,37.59973],[126.77203,37.59956],[126.77281,37.59905],[126.77284,37.59902],[126.7744,37.59806],[126.77572,37.59723],[126.77696,37.59646],[126.77866,37.59536],[126.78069,37.59419],[126.78086,37.59408]]}},{"type":"Feature","properties":{"class":"alley","highway":"service","sidewalk":"unknown","lanes":0,"name":"신곡로","oneway":false},"geometry":{"type":"LineString","coordinates":[[126.77644,37.60554],[126.7763,37.60556],[126.77614,37.60557],[126.77603,37.60556],[126.77591,37.60555],[126.77576,37.60552]]}},{"type":"Feature","properties":{"class":"alley","highway":"service","sidewalk":"unknown","lanes":0,"name":"은행영사정로51번길","oneway":false},"geometry":{"type":"LineString","coordinates":[[126.77644,37.60554],[126.77649,37.60551],[126.77652,37.60548],[126.77657,37.60543],[126.77663,37.60533],[126.77666,37.60527],[126.77668,37.60522],[126.77666,37.60513],[126.77664,37.60506],[126.77661,37.60501],[126.77657,37.60494],[126.77653,37.60488],[126.77648,37.60482],[126.77643,37.60476],[126.77638,37.60472],[126.77631,37.60467],[126.77625,37.60462],[126.77619,37.60456],[126.77612,37.60449],[126.77608,37.60443],[126.77603,37.60432],[126.77601,37.60424],[126.776,37.60415],[126.77601,37.60405],[126.77602,37.60398],[126.77603,37.60392],[126.77608,37.60375],[126.77606,37.60362],[126.77603,37.60338],[126.77598,37.60312],[126.77593,37.6029]]}},{"type":"Feature","properties":{"class":"alley","highway":"service","sidewalk":"unknown","lanes":0,"name":"은행영사정로71번길","oneway":false},"geometry":{"type":"LineString","coordinates":[[126.77708,37.60413],[126.77716,37.60411],[126.77722,37.60408],[126.77728,37.60404],[126.7775,37.60389],[126.77791,37.60364],[126.77822,37.60346],[126.77851,37.6033]]}},{"type":"Feature","properties":{"class":"alley","highway":"service","sidewalk":"unknown","lanes":0,"name":"은행영사정로71번길","oneway":false},"geometry":{"type":"LineString","coordinates":[[126.77802,37.60251],[126.77813,37.6027],[126.77826,37.60291],[126.77851,37.6033],[126.77881,37.60373],[126.77896,37.60396],[126.77909,37.60417],[126.7792,37.60434],[126.77924,37.60442],[126.77903,37.60449],[126.77896,37.60452],[126.77906,37.60469],[126.77915,37.60486],[126.77923,37.60501],[126.77925,37.6051],[126.77924,37.60514],[126.7792,37.60516],[126.77914,37.60518],[126.77904,37.60521],[126.77893,37.60526],[126.77876,37.60534],[126.77863,37.60539],[126.77853,37.60542],[126.77839,37.60545],[126.77824,37.60549],[126.77802,37.60556],[126.77788,37.60561],[126.77775,37.60564],[126.77772,37.60565],[126.77769,37.60565],[126.77766,37.60564],[126.77763,37.60563],[126.77759,37.60559],[126.77752,37.60553],[126.77737,37.6054],[126.77728,37.60531],[126.77718,37.60521],[126.77717,37.60518],[126.77716,37.60516],[126.77718,37.60514],[126.77738,37.60502]]}},{"type":"Feature","properties":{"class":"alley","highway":"service","sidewalk":"unknown","lanes":0,"name":"은행영사정로51번길","oneway":false},"geometry":{"type":"LineString","coordinates":[[126.77708,37.60413],[126.77718,37.60426],[126.77721,37.60432],[126.77723,37.60438],[126.77724,37.60453],[126.77726,37.60467],[126.77725,37.60477],[126.77727,37.60484],[126.77729,37.60489],[126.77734,37.60497],[126.77738,37.60502],[126.77746,37.60511],[126.77752,37.60516],[126.77758,37.60518],[126.77763,37.6052],[126.77769,37.6052],[126.77774,37.60522],[126.77778,37.60526]]}},{"type":"Feature","properties":{"class":"alley","highway":"service","sidewalk":"unknown","lanes":0,"name":"은행영사정로51번길","oneway":false},"geometry":{"type":"LineString","coordinates":[[126.77644,37.60554],[126.77664,37.60574],[126.77677,37.60588],[126.77689,37.60598],[126.77697,37.60604],[126.77701,37.60609],[126.77704,37.60612],[126.77707,37.60618],[126.77711,37.60628],[126.77714,37.60634],[126.77718,37.60639],[126.77723,37.60642],[126.77727,37.60645],[126.77731,37.60646],[126.77738,37.60646],[126.77742,37.60644],[126.77746,37.60642],[126.7775,37.60642],[126.77754,37.60642],[126.77758,37.60643],[126.77764,37.60646],[126.77771,37.60649]]}},{"type":"Feature","properties":{"class":"alley","highway":"service","sidewalk":"unknown","lanes":0,"name":"","oneway":false},"geometry":{"type":"LineString","coordinates":[[126.77704,37.60612],[126.77691,37.60621],[126.77684,37.60626],[126.77681,37.60628],[126.7768,37.6063],[126.77678,37.60634],[126.77677,37.60636],[126.77675,37.60638],[126.77656,37.60653],[126.77629,37.60677],[126.77617,37.60687],[126.7761,37.60691],[126.77604,37.60694],[126.77592,37.60699]]}},{"type":"Feature","properties":{"class":"alley","highway":"service","sidewalk":"unknown","lanes":0,"name":"은행영사정로51번길","oneway":false},"geometry":{"type":"LineString","coordinates":[[126.77668,37.60522],[126.77678,37.60534],[126.77685,37.60541],[126.77692,37.60546],[126.777,37.60552],[126.77708,37.60557],[126.77719,37.60563],[126.77728,37.60567],[126.7774,37.60572],[126.77746,37.60576],[126.77751,37.60579],[126.77755,37.60582],[126.77764,37.60584],[126.7778,37.6059],[126.77784,37.60592],[126.77788,37.60594],[126.77791,37.60596],[126.77796,37.606],[126.77801,37.60603],[126.77806,37.60606],[126.77812,37.60609],[126.77816,37.60612],[126.77822,37.60616],[126.77826,37.6062],[126.77832,37.60624],[126.77837,37.60627],[126.77843,37.6063],[126.77848,37.60632],[126.7786,37.60637],[126.77873,37.60643],[126.77883,37.60648],[126.77888,37.6065],[126.77894,37.60652],[126.77903,37.60653],[126.77911,37.60655],[126.77917,37.60656],[126.77923,37.60659],[126.77931,37.60663],[126.77944,37.60671],[126.77961,37.60681],[126.77967,37.60686],[126.77972,37.60691],[126.77976,37.60695],[126.77981,37.60699],[126.77985,37.60702]]}},{"type":"Feature","properties":{"class":"minor","highway":"residential","sidewalk":"unknown","lanes":0,"name":"신기신동로","oneway":false},"geometry":{"type":"LineString","coordinates":[[126.77124,37.60689],[126.77145,37.60724],[126.77155,37.60739],[126.7716,37.60744],[126.77164,37.60747],[126.77172,37.60751],[126.7718,37.60755],[126.77194,37.60761],[126.77213,37.6077],[126.77242,37.60783],[126.77274,37.60796],[126.7729,37.60803],[126.77299,37.60807],[126.77306,37.60811],[126.77312,37.60815],[126.77322,37.60822],[126.77331,37.60828],[126.77379,37.60862]]}},{"type":"Feature","properties":{"class":"major","highway":"tertiary","sidewalk":"likely","lanes":0,"name":"","oneway":false},"geometry":{"type":"LineString","coordinates":[[126.77549,37.60277],[126.77559,37.60242]]}},{"type":"Feature","properties":{"class":"major","highway":"tertiary","sidewalk":"likely","lanes":0,"name":"","oneway":false},"geometry":{"type":"LineString","coordinates":[[126.77559,37.60242],[126.77561,37.60235]]}},{"type":"Feature","properties":{"class":"major","highway":"tertiary","sidewalk":"likely","lanes":0,"name":"","oneway":false},"geometry":{"type":"LineString","coordinates":[[126.77547,37.60283],[126.77549,37.60277]]}},{"type":"Feature","properties":{"class":"alley","highway":"service","sidewalk":"unknown","lanes":0,"name":"인향로24번길","oneway":false},"geometry":{"type":"LineString","coordinates":[[126.7678,37.60088],[126.76806,37.60083],[126.76821,37.60078],[126.76835,37.60072],[126.76842,37.6007],[126.76846,37.60069],[126.76851,37.60069],[126.76857,37.60071],[126.76863,37.60076],[126.7687,37.60082],[126.76879,37.60093],[126.76889,37.60105],[126.76895,37.60113],[126.76899,37.60117],[126.76902,37.6012],[126.76906,37.60123],[126.76911,37.60125],[126.76924,37.60129],[126.76933,37.60132],[126.76937,37.60135],[126.76939,37.60138],[126.7694,37.60141],[126.76938,37.60145],[126.76932,37.60154],[126.76931,37.60158],[126.76933,37.60162],[126.76953,37.60173],[126.76973,37.60186]]}},{"type":"Feature","properties":{"class":"alley","highway":"service","sidewalk":"unknown","lanes":0,"name":"장차로","oneway":false},"geometry":{"type":"LineString","coordinates":[[126.77078,37.60396],[126.77108,37.60378],[126.77128,37.60364],[126.77142,37.60356],[126.77158,37.60346],[126.77168,37.6034],[126.77175,37.60335]]}},{"type":"Feature","properties":{"class":"alley","highway":"service","sidewalk":"unknown","lanes":0,"name":"","oneway":false},"geometry":{"type":"LineString","coordinates":[[126.77449,37.60651],[126.77449,37.60668],[126.7745,37.60674],[126.77451,37.60679],[126.77454,37.60685],[126.77457,37.60692],[126.77464,37.60701],[126.7747,37.6071],[126.77474,37.60716],[126.77475,37.60722],[126.77477,37.60728],[126.77476,37.60735],[126.77474,37.6074],[126.7747,37.60746],[126.77466,37.60751],[126.77461,37.60755],[126.77453,37.60759],[126.77444,37.60764],[126.77409,37.6078],[126.77385,37.60792],[126.7736,37.60804],[126.77351,37.60809],[126.77346,37.60812],[126.77342,37.60816],[126.77331,37.60828]]}},{"type":"Feature","properties":{"class":"minor","highway":"residential","sidewalk":"unknown","lanes":0,"name":"","oneway":false},"geometry":{"type":"LineString","coordinates":[[126.77081,37.60402],[126.77045,37.60437],[126.77042,37.60439]]}},{"type":"Feature","properties":{"class":"alley","highway":"service","sidewalk":"unknown","lanes":0,"name":"","oneway":false},"geometry":{"type":"LineString","coordinates":[[126.77042,37.60439],[126.77034,37.60451]]}},{"type":"Feature","properties":{"class":"minor","highway":"residential","sidewalk":"unknown","lanes":0,"name":"","oneway":false},"geometry":{"type":"LineString","coordinates":[[126.76915,37.6003],[126.76957,37.5998],[126.76991,37.5994]]}},{"type":"Feature","properties":{"class":"minor","highway":"residential","sidewalk":"unknown","lanes":0,"name":"","oneway":false},"geometry":{"type":"LineString","coordinates":[[126.77011,37.60018],[126.76991,37.6004],[126.76977,37.60055],[126.76973,37.60058],[126.76968,37.60058],[126.76961,37.60056],[126.76915,37.6003]]}},{"type":"Feature","properties":{"class":"minor","highway":"residential","sidewalk":"unknown","lanes":0,"name":"김포대로329번길","oneway":false},"geometry":{"type":"LineString","coordinates":[[126.7686,37.6],[126.7683,37.60031],[126.76814,37.60048],[126.76802,37.60062],[126.76792,37.60072],[126.76786,37.6008],[126.7678,37.60088]]}},{"type":"Feature","properties":{"class":"alley","highway":"service","sidewalk":"unknown","lanes":0,"name":"김포대로329번길","oneway":false},"geometry":{"type":"LineString","coordinates":[[126.77113,37.60026],[126.77103,37.60014],[126.77095,37.60007],[126.77085,37.6],[126.77073,37.5999],[126.77065,37.59985],[126.77057,37.59982],[126.7705,37.5998],[126.77034,37.59976],[126.77027,37.59975],[126.77018,37.59974]]}},{"type":"Feature","properties":{"class":"alley","highway":"service","sidewalk":"unknown","lanes":0,"name":"","oneway":false},"geometry":{"type":"LineString","coordinates":[[126.77011,37.60018],[126.77014,37.60016],[126.77018,37.60014],[126.77024,37.60013],[126.77028,37.60011],[126.77032,37.60009],[126.77036,37.60005],[126.77043,37.59995],[126.7705,37.5998]]}},{"type":"Feature","properties":{"class":"alley","highway":"service","sidewalk":"unknown","lanes":0,"name":"","oneway":false},"geometry":{"type":"LineString","coordinates":[[126.77564,37.60224],[126.77561,37.60235]]}},{"type":"Feature","properties":{"class":"alley","highway":"service","sidewalk":"unknown","lanes":0,"name":"김포대로320번길","oneway":false},"geometry":{"type":"LineString","coordinates":[[126.77435,37.59897],[126.77447,37.59917],[126.77464,37.59943],[126.77488,37.59979],[126.7751,37.60013],[126.77532,37.60044],[126.7755,37.60073],[126.7756,37.60087]]}},{"type":"Feature","properties":{"class":"major","highway":"tertiary_link","sidewalk":"likely","lanes":0,"name":"","oneway":true},"geometry":{"type":"LineString","coordinates":[[126.77225,37.60042],[126.7723,37.60043],[126.77233,37.60045],[126.77236,37.60047],[126.77244,37.6006],[126.77251,37.60073],[126.77254,37.60075],[126.77256,37.60076],[126.77259,37.60077],[126.77265,37.60077]]}},{"type":"Feature","properties":{"class":"minor","highway":"residential","sidewalk":"unknown","lanes":0,"name":"","oneway":false},"geometry":{"type":"LineString","coordinates":[[126.77242,37.60161],[126.7723,37.60145],[126.77221,37.60132],[126.77209,37.60113]]}},{"type":"Feature","properties":{"class":"minor","highway":"residential","sidewalk":"unknown","lanes":0,"name":"은행영사정로23번길","oneway":false},"geometry":{"type":"LineString","coordinates":[[126.77195,37.60375],[126.7723,37.60367],[126.77239,37.60365],[126.77253,37.60364],[126.77278,37.60362],[126.77304,37.60362],[126.77341,37.60361]]}},{"type":"Feature","properties":{"class":"alley","highway":"service","sidewalk":"unknown","lanes":0,"name":"","oneway":false},"geometry":{"type":"LineString","coordinates":[[126.77738,37.60646],[126.77736,37.60651],[126.77734,37.60656],[126.77732,37.6066],[126.7773,37.60663],[126.7773,37.60666],[126.7773,37.6067],[126.77731,37.60673],[126.77731,37.60676]]}},{"type":"Feature","properties":{"class":"alley","highway":"service","sidewalk":"unknown","lanes":0,"name":"은행영사정로51번길","oneway":false},"geometry":{"type":"LineString","coordinates":[[126.77608,37.60375],[126.77625,37.60393],[126.77635,37.60405],[126.77645,37.60413],[126.7765,37.60416],[126.77655,37.60419],[126.7766,37.6042],[126.77668,37.6042],[126.77688,37.60417],[126.77708,37.60413]]}},{"type":"Feature","properties":{"class":"alley","highway":"service","sidewalk":"unknown","lanes":0,"name":"은행영사정로51번길","oneway":false},"geometry":{"type":"LineString","coordinates":[[126.77843,37.6063],[126.77839,37.60636],[126.77836,37.60643],[126.77836,37.60645],[126.77836,37.60646],[126.77836,37.60647],[126.77838,37.6065],[126.77838,37.60651],[126.77838,37.60652],[126.77838,37.60654],[126.77833,37.60658],[126.77825,37.60665]]}},{"type":"Feature","properties":{"class":"alley","highway":"service","sidewalk":"unknown","lanes":0,"name":"은행영사정로51번길","oneway":false},"geometry":{"type":"LineString","coordinates":[[126.77944,37.60671],[126.77943,37.60677],[126.77942,37.60682],[126.77941,37.60689],[126.77939,37.60698],[126.77938,37.607],[126.77937,37.60702],[126.77934,37.60703],[126.7793,37.60705],[126.77918,37.60711],[126.77907,37.60716],[126.77898,37.60719],[126.77884,37.60725]]}},{"type":"Feature","properties":{"class":"alley","highway":"service","sidewalk":"unknown","lanes":0,"name":"은행영사정로71번길","oneway":false},"geometry":{"type":"LineString","coordinates":[[126.77924,37.60442],[126.77945,37.60434],[126.7795,37.60433],[126.77952,37.60432],[126.77954,37.60433],[126.77955,37.60435],[126.77959,37.6044],[126.77968,37.60454]]}},{"type":"Feature","properties":{"class":"alley","highway":"service","sidewalk":"unknown","lanes":0,"name":"은행영사정로71번길","oneway":false},"geometry":{"type":"LineString","coordinates":[[126.77737,37.6054],[126.77728,37.60546],[126.7772,37.60551],[126.77714,37.60555],[126.77708,37.60557]]}},{"type":"Feature","properties":{"class":"alley","highway":"service","sidewalk":"unknown","lanes":0,"name":"장차로","oneway":false},"geometry":{"type":"LineString","coordinates":[[126.77097,37.60429],[126.77124,37.60411]]}},{"type":"Feature","properties":{"class":"alley","highway":"service","sidewalk":"unknown","lanes":0,"name":"장차로","oneway":false},"geometry":{"type":"LineString","coordinates":[[126.77067,37.60366],[126.77119,37.60342]]}},{"type":"Feature","properties":{"class":"alley","highway":"service","sidewalk":"unknown","lanes":0,"name":"장차로","oneway":false},"geometry":{"type":"LineString","coordinates":[[126.77077,37.60392],[126.77064,37.60391],[126.77048,37.6039],[126.77021,37.60388],[126.7699,37.60385],[126.76976,37.60384],[126.76968,37.60383],[126.76959,37.60382]]}},{"type":"Feature","properties":{"class":"alley","highway":"service","sidewalk":"unknown","lanes":0,"name":"장차로31번길","oneway":false},"geometry":{"type":"LineString","coordinates":[[126.77014,37.60573],[126.77042,37.60608]]}},{"type":"Feature","properties":{"class":"alley","highway":"service","sidewalk":"unknown","lanes":0,"name":"고송로","oneway":false},"geometry":{"type":"LineString","coordinates":[[126.77014,37.60573],[126.77008,37.60576],[126.76997,37.60579],[126.76977,37.60589],[126.76948,37.60607]]}},{"type":"Feature","properties":{"class":"alley","highway":"service","sidewalk":"unknown","lanes":0,"name":"","oneway":false},"geometry":{"type":"LineString","coordinates":[[126.77045,37.60437],[126.7704,37.60425],[126.77033,37.60412],[126.77027,37.60398],[126.77024,37.60392],[126.77021,37.60388]]}},{"type":"Feature","properties":{"class":"alley","highway":"service","sidewalk":"unknown","lanes":0,"name":"고송로","oneway":false},"geometry":{"type":"LineString","coordinates":[[126.76922,37.60558],[126.7698,37.6054],[126.76976,37.60529],[126.76974,37.60526],[126.76971,37.60524],[126.76966,37.60522],[126.7696,37.60518],[126.76956,37.60514],[126.76953,37.60511],[126.76943,37.60493],[126.76941,37.60486],[126.76939,37.60479],[126.76938,37.60473],[126.76938,37.60462],[126.76939,37.60455],[126.7694,37.60449],[126.7694,37.60443],[126.7694,37.60437],[126.76939,37.60432],[126.76936,37.60427],[126.76933,37.60424],[126.76928,37.60421]]}},{"type":"Feature","properties":{"class":"alley","highway":"service","sidewalk":"unknown","lanes":0,"name":"고송로","oneway":false},"geometry":{"type":"LineString","coordinates":[[126.76909,37.60534],[126.76921,37.60533],[126.76927,37.60532],[126.76931,37.6053],[126.76934,37.60527],[126.76938,37.60522],[126.76941,37.60518],[126.76945,37.60515],[126.76953,37.60511]]}},{"type":"Feature","properties":{"class":"minor","highway":"residential","sidewalk":"unknown","lanes":0,"name":"신곡로3번길","oneway":false},"geometry":{"type":"LineString","coordinates":[[126.77288,37.60301],[126.7727,37.60319],[126.77237,37.60343],[126.77234,37.60345],[126.77233,37.60347],[126.77233,37.60348],[126.77239,37.60365]]}},{"type":"Feature","properties":{"class":"minor","highway":"residential","sidewalk":"unknown","lanes":0,"name":"","oneway":false},"geometry":{"type":"LineString","coordinates":[[126.7727,37.60319],[126.77297,37.60341],[126.77299,37.60343],[126.77301,37.60345],[126.77303,37.60348],[126.77303,37.60352],[126.77304,37.60362]]}},{"type":"Feature","properties":{"class":"minor","highway":"residential","sidewalk":"unknown","lanes":0,"name":"신곡로3번길","oneway":false},"geometry":{"type":"LineString","coordinates":[[126.77288,37.60301],[126.77306,37.60279],[126.77338,37.60297],[126.77344,37.603],[126.77348,37.60301],[126.77352,37.60301],[126.77429,37.60297],[126.77467,37.60296],[126.77471,37.60295],[126.77474,37.60295],[126.77475,37.60293],[126.77476,37.60292],[126.77475,37.6029],[126.77474,37.60289],[126.7744,37.60276],[126.77427,37.60271],[126.77417,37.60266],[126.77405,37.60262],[126.77399,37.6026],[126.77394,37.60259],[126.77387,37.60258],[126.77373,37.60258],[126.77369,37.60257],[126.77364,37.60255],[126.77337,37.60241],[126.77325,37.60235],[126.77288,37.60217]]}},{"type":"Feature","properties":{"class":"minor","highway":"residential","sidewalk":"unknown","lanes":0,"name":"","oneway":false},"geometry":{"type":"LineString","coordinates":[[126.77306,37.60279],[126.77337,37.60241]]}},{"type":"Feature","properties":{"class":"minor","highway":"residential","sidewalk":"unknown","lanes":0,"name":"","oneway":false},"geometry":{"type":"LineString","coordinates":[[126.7743,37.60324],[126.77429,37.60297],[126.77427,37.60271]]}},{"type":"Feature","properties":{"class":"alley","highway":"service","sidewalk":"unknown","lanes":0,"name":"신기신동로30번길","oneway":false},"geometry":{"type":"LineString","coordinates":[[126.77379,37.60862],[126.77392,37.60852],[126.77397,37.6085],[126.77402,37.60849],[126.77407,37.6085],[126.77412,37.60853],[126.77422,37.60854],[126.7743,37.60854],[126.77438,37.60853],[126.77463,37.60844],[126.77491,37.60834],[126.77505,37.60829],[126.77511,37.60827],[126.77517,37.60826],[126.77527,37.60826],[126.77537,37.60825],[126.77567,37.60829],[126.7757,37.60821],[126.7758,37.60794],[126.77584,37.60778],[126.77587,37.60766],[126.77589,37.60758],[126.77591,37.60745],[126.77593,37.60733],[126.77594,37.60725],[126.77594,37.60714],[126.77592,37.60699],[126.7759,37.60666],[126.77587,37.6064],[126.77585,37.60619],[126.77581,37.606],[126.77578,37.60589],[126.77576,37.60578],[126.77575,37.60566],[126.77576,37.60552]]}},{"type":"Feature","properties":{"class":"alley","highway":"service","sidewalk":"unknown","lanes":0,"name":"인향로24번길","oneway":false},"geometry":{"type":"LineString","coordinates":[[126.76787,37.59991],[126.76812,37.60005],[126.76805,37.60014]]}},{"type":"Feature","properties":{"class":"alley","highway":"service","sidewalk":"unknown","lanes":0,"name":"","oneway":false},"geometry":{"type":"LineString","coordinates":[[126.76742,37.60064],[126.76778,37.60052],[126.76775,37.60046],[126.76798,37.60039],[126.76814,37.60035],[126.7683,37.60031]]}},{"type":"Feature","properties":{"class":"minor","highway":"residential","sidewalk":"unknown","lanes":0,"name":"인향로24번길","oneway":false},"geometry":{"type":"LineString","coordinates":[[126.76915,37.6003],[126.7686,37.6],[126.7682,37.59979],[126.7681,37.59972]]}},{"type":"Feature","properties":{"class":"alley","highway":"service","sidewalk":"unknown","lanes":0,"name":"","oneway":false},"geometry":{"type":"LineString","coordinates":[[126.76395,37.60525],[126.76364,37.60551],[126.76364,37.60562],[126.76364,37.60566],[126.76364,37.60575],[126.76364,37.60591],[126.76363,37.60609],[126.76363,37.60649],[126.76363,37.60689],[126.76363,37.60735],[126.76363,37.6078],[126.76363,37.60802]]}},{"type":"Feature","properties":{"class":"alley","highway":"service","sidewalk":"unknown","lanes":0,"name":"","oneway":false},"geometry":{"type":"LineString","coordinates":[[126.76364,37.60551],[126.76364,37.60532],[126.76358,37.60527],[126.76256,37.60527],[126.76255,37.60608]]}},{"type":"Feature","properties":{"class":"alley","highway":"service","sidewalk":"unknown","lanes":0,"name":"","oneway":false},"geometry":{"type":"LineString","coordinates":[[126.76256,37.60527],[126.7625,37.60525],[126.76205,37.60524],[126.76205,37.60483],[126.76206,37.6048],[126.76208,37.60478],[126.76212,37.60477],[126.7625,37.60477],[126.7625,37.60525]]}},{"type":"Feature","properties":{"class":"alley","highway":"service","sidewalk":"unknown","lanes":0,"name":"","oneway":false},"geometry":{"type":"LineString","coordinates":[[126.76363,37.60609],[126.76255,37.60608],[126.76225,37.60608],[126.76163,37.60608],[126.76135,37.60607],[126.76101,37.60627],[126.761,37.60628],[126.76099,37.6063],[126.76097,37.60681],[126.76078,37.60681],[126.76043,37.6068],[126.76042,37.60663]]}},{"type":"Feature","properties":{"class":"alley","highway":"service","sidewalk":"unknown","lanes":0,"name":"","oneway":false},"geometry":{"type":"LineString","coordinates":[[126.76226,37.60649],[126.76289,37.60649],[126.76363,37.60649]]}},{"type":"Feature","properties":{"class":"alley","highway":"service","sidewalk":"unknown","lanes":0,"name":"","oneway":false},"geometry":{"type":"LineString","coordinates":[[126.76289,37.60649],[126.76289,37.60692],[126.76283,37.60692],[126.76266,37.60692],[126.76226,37.60692]]}},{"type":"Feature","properties":{"class":"alley","highway":"service","sidewalk":"unknown","lanes":0,"name":"","oneway":false},"geometry":{"type":"LineString","coordinates":[[126.76625,37.60188],[126.76605,37.60198],[126.76585,37.60206],[126.76577,37.60208],[126.76567,37.6021],[126.76554,37.6021],[126.76545,37.60209],[126.7654,37.60209],[126.76535,37.6021],[126.76527,37.60212],[126.76516,37.60216],[126.76511,37.60217],[126.76507,37.60217],[126.76498,37.60216],[126.76491,37.60216],[126.76487,37.60216],[126.76483,37.60216],[126.76478,37.60217],[126.7647,37.60219],[126.7646,37.6022],[126.76452,37.6022],[126.76443,37.60219],[126.76436,37.60217],[126.7643,37.60214],[126.76423,37.60209]]}},{"type":"Feature","properties":{"class":"alley","highway":"service","sidewalk":"unknown","lanes":0,"name":"","oneway":true},"geometry":{"type":"LineString","coordinates":[[126.77083,37.60076],[126.77092,37.60083],[126.77095,37.60086],[126.77104,37.60093],[126.77107,37.60096],[126.77109,37.60102],[126.77113,37.60107],[126.77115,37.6011],[126.77117,37.60112],[126.77117,37.60114],[126.77113,37.60118],[126.77102,37.60131],[126.77082,37.60119],[126.77072,37.60114],[126.77057,37.60106]]}},{"type":"Feature","properties":{"class":"alley","highway":"service","sidewalk":"unknown","lanes":0,"name":"","oneway":true},"geometry":{"type":"LineString","coordinates":[[126.77107,37.60096],[126.77111,37.601],[126.7712,37.60109],[126.77122,37.60111],[126.77122,37.60113],[126.77122,37.60115],[126.77121,37.60117],[126.77107,37.60133],[126.77102,37.60131]]}},{"type":"Feature","properties":{"class":"alley","highway":"service","sidewalk":"unknown","lanes":0,"name":"","oneway":true},"geometry":{"type":"LineString","coordinates":[[126.77095,37.60086],[126.77072,37.60114]]}},{"type":"Feature","properties":{"class":"alley","highway":"service","sidewalk":"unknown","lanes":0,"name":"","oneway":true},"geometry":{"type":"LineString","coordinates":[[126.77104,37.60093],[126.77082,37.60119]]}},{"type":"Feature","properties":{"class":"alley","highway":"service","sidewalk":"unknown","lanes":0,"name":"","oneway":false},"geometry":{"type":"LineString","coordinates":[[126.77124,37.60476],[126.77175,37.60442]]}},{"type":"Feature","properties":{"class":"alley","highway":"service","sidewalk":"unknown","lanes":0,"name":"","oneway":false},"geometry":{"type":"LineString","coordinates":[[126.77141,37.60499],[126.77195,37.60462],[126.7723,37.60452]]}},{"type":"Feature","properties":{"class":"alley","highway":"service","sidewalk":"unknown","lanes":0,"name":"","oneway":false},"geometry":{"type":"LineString","coordinates":[[126.76266,37.60692],[126.76265,37.60745]]}},{"type":"Feature","properties":{"class":"alley","highway":"service","sidewalk":"unknown","lanes":0,"name":"","oneway":false},"geometry":{"type":"LineString","coordinates":[[126.76283,37.60692],[126.76283,37.60745]]}},{"type":"Feature","properties":{"class":"alley","highway":"service","sidewalk":"unknown","lanes":0,"name":"","oneway":false},"geometry":{"type":"LineString","coordinates":[[126.76364,37.60566],[126.7638,37.60566],[126.76381,37.60591],[126.76364,37.60591]]}},{"type":"Feature","properties":{"class":"alley","highway":"service","sidewalk":"unknown","lanes":0,"name":"","oneway":false},"geometry":{"type":"LineString","coordinates":[[126.7638,37.60566],[126.7639,37.60567],[126.76392,37.60567],[126.76394,37.60568],[126.764,37.60576],[126.76401,37.60578],[126.76402,37.60581],[126.76401,37.60588],[126.76401,37.6059],[126.76399,37.60591],[126.76381,37.60591]]}},{"type":"Feature","properties":{"class":"major","highway":"primary_link","sidewalk":"likely","lanes":0,"name":"","oneway":true},"geometry":{"type":"LineString","coordinates":[[126.76971,37.60236],[126.76963,37.60235],[126.76958,37.60234],[126.76953,37.60234],[126.76947,37.60235],[126.7693,37.60239]]}},{"type":"Feature","properties":{"class":"alley","highway":"living_street","sidewalk":"unknown","lanes":0,"name":"은행영사정로23번길","oneway":false},"geometry":{"type":"LineString","coordinates":[[126.77195,37.60375],[126.77223,37.60438],[126.7723,37.60452],[126.7725,37.60494],[126.7728,37.60561],[126.77284,37.6057]]}},{"type":"Feature","properties":{"class":"alley","highway":"service","sidewalk":"unknown","lanes":0,"name":"","oneway":false},"geometry":{"type":"LineString","coordinates":[[126.77781,37.60009],[126.77784,37.60006],[126.77787,37.60003],[126.77789,37.60001],[126.77792,37.6],[126.77803,37.59995],[126.77846,37.59979],[126.77855,37.59975],[126.77858,37.59973],[126.77861,37.59971]]}},{"type":"Feature","properties":{"class":"alley","highway":"service","sidewalk":"unknown","lanes":0,"name":"김포대로320번길","oneway":false},"geometry":{"type":"LineString","coordinates":[[126.77563,37.60093],[126.77577,37.60112],[126.77589,37.60128],[126.77613,37.60165],[126.77627,37.60186],[126.77633,37.60195],[126.77638,37.60202],[126.77646,37.60212],[126.77649,37.60216],[126.7765,37.6022],[126.77652,37.60227]]}},{"type":"Feature","properties":{"class":"alley","highway":"service","sidewalk":"unknown","lanes":0,"name":"김포대로320번길","oneway":false},"geometry":{"type":"LineString","coordinates":[[126.7756,37.60087],[126.77563,37.60093]]}},{"type":"Feature","properties":{"class":"alley","highway":"service","sidewalk":"unknown","lanes":0,"name":"김포대로320번길","oneway":false},"geometry":{"type":"LineString","coordinates":[[126.77776,37.60003],[126.77781,37.60009],[126.77784,37.60014],[126.77792,37.60027],[126.77815,37.6006],[126.77836,37.60093],[126.77865,37.60133],[126.77879,37.60153],[126.77889,37.6017]]}},{"type":"Feature","properties":{"class":"alley","highway":"service","sidewalk":"unknown","lanes":0,"name":"김포대로320번길","oneway":false},"geometry":{"type":"LineString","coordinates":[[126.77772,37.59996],[126.77776,37.60003]]}},{"type":"Feature","properties":{"class":"alley","highway":"service","sidewalk":"unknown","lanes":0,"name":"","oneway":false},"geometry":{"type":"LineString","coordinates":[[126.77034,37.60451],[126.77022,37.6042],[126.77016,37.60405],[126.77013,37.60399],[126.7701,37.60396],[126.77006,37.60394],[126.77002,37.60394],[126.76978,37.604],[126.76984,37.60416],[126.76955,37.60423],[126.76951,37.60426],[126.76947,37.60431],[126.76946,37.60443]]}},{"type":"Feature","properties":{"class":"alley","highway":"service","sidewalk":"unknown","lanes":0,"name":"","oneway":false},"geometry":{"type":"LineString","coordinates":[[126.7694,37.60443],[126.76946,37.60443],[126.76951,37.60443]]}},{"type":"Feature","properties":{"class":"alley","highway":"service","sidewalk":"unknown","lanes":0,"name":"","oneway":false},"geometry":{"type":"LineString","coordinates":[[126.76666,37.60056],[126.76658,37.60055]]}},{"type":"Feature","properties":{"class":"alley","highway":"service","sidewalk":"unknown","lanes":0,"name":"","oneway":false},"geometry":{"type":"LineString","coordinates":[[126.76656,37.59982],[126.76656,37.60007],[126.76661,37.60034],[126.76666,37.60056],[126.76665,37.60075],[126.76665,37.60077],[126.76664,37.60079],[126.76662,37.60079],[126.76658,37.6008]]}},{"type":"Feature","properties":{"class":"major","highway":"primary","sidewalk":"likely","lanes":0,"name":"김포대로","oneway":true},"geometry":{"type":"LineString","coordinates":[[126.76747,37.60315],[126.76682,37.60341],[126.76642,37.60356],[126.76619,37.60363],[126.76597,37.60368],[126.76555,37.60375],[126.76404,37.60388],[126.76333,37.60393],[126.76266,37.60401],[126.76234,37.60405],[126.76197,37.60411],[126.76147,37.60421],[126.76013,37.60455],[126.75911,37.60475],[126.75897,37.60477],[126.75823,37.6049],[126.75754,37.60496],[126.75593,37.60504],[126.75496,37.60511]]}},{"type":"Feature","properties":{"class":"major","highway":"primary","sidewalk":"likely","lanes":0,"name":"김포대로","oneway":true},"geometry":{"type":"LineString","coordinates":[[126.75499,37.60497],[126.75522,37.60494],[126.75759,37.60482],[126.75792,37.60479],[126.75823,37.60475],[126.75895,37.60463],[126.75921,37.60459],[126.75956,37.60454],[126.76054,37.6043],[126.76152,37.60407],[126.76198,37.60397],[126.7623,37.60392],[126.7626,37.60388],[126.76329,37.6038],[126.76416,37.60374],[126.76518,37.60367],[126.76571,37.6036],[126.76605,37.60352]]}}]}