{"type":"FeatureCollection","features":[{"type":"Feature","properties":{"class":"major","highway":"motorway","sidewalk":"likely","lanes":4,"name":"수도권제1순환고속도로","oneway":true},"geometry":{"type":"LineString","coordinates":[[126.77749,37.59838],[126.7798,37.59956],[126.78224,37.60085],[126.78378,37.60185]]}},{"type":"Feature","properties":{"class":"major","highway":"motorway","sidewalk":"likely","lanes":4,"name":"수도권제1순환고속도로","oneway":true},"geometry":{"type":"LineString","coordinates":[[126.78378,37.60185],[126.78509,37.6028],[126.78601,37.60358],[126.78666,37.60418],[126.78732,37.60485],[126.79632,37.61483],[126.79775,37.61642]]}},{"type":"Feature","properties":{"class":"major","highway":"motorway","sidewalk":"likely","lanes":4,"name":"수도권제1순환고속도로","oneway":true},"geometry":{"type":"LineString","coordinates":[[126.78368,37.60194],[126.78207,37.60094],[126.77925,37.59947],[126.77726,37.59845]]}},{"type":"Feature","properties":{"class":"major","highway":"secondary","sidewalk":"likely","lanes":2,"name":"영사대교","oneway":false},"geometry":{"type":"LineString","coordinates":[[126.78665,37.60678],[126.78615,37.60701],[126.78561,37.60725],[126.78511,37.60748],[126.78458,37.60773]]}},{"type":"Feature","properties":{"class":"major","highway":"trunk","sidewalk":"likely","lanes":3,"name":"김포한강로","oneway":true},"geometry":{"type":"LineString","coordinates":[[126.79908,37.59571],[126.79873,37.59623],[126.79823,37.59709],[126.79783,37.5978],[126.79758,37.59824],[126.79736,37.59865],[126.79711,37.599],[126.79689,37.59928],[126.79669,37.59948],[126.79653,37.59964],[126.79619,37.59995],[126.79592,37.60016],[126.79524,37.60063]]}},{"type":"Feature","properties":{"class":"major","highway":"trunk","sidewalk":"likely","lanes":3,"name":"김포한강로","oneway":true},"geometry":{"type":"LineString","coordinates":[[126.79515,37.60054],[126.79515,37.60054],[126.7957,37.60016],[126.796,37.59994],[126.79636,37.5996],[126.79658,37.59938],[126.79682,37.59911],[126.79707,37.59874],[126.79729,37.59842],[126.79771,37.59773],[126.7981,37.59707],[126.79861,37.59619],[126.79882,37.59585],[126.79896,37.59565]]}},{"type":"Feature","properties":{"class":"major","highway":"secondary","sidewalk":"likely","lanes":2,"name":"금포로","oneway":false},"geometry":{"type":"LineString","coordinates":[[126.79583,37.59966],[126.7955,37.59991],[126.79528,37.60006],[126.79507,37.60021],[126.79477,37.60037],[126.7945,37.60052],[126.79415,37.60069],[126.79383,37.60083],[126.79353,37.60094],[126.79321,37.60103],[126.79286,37.60112],[126.79267,37.60116],[126.79246,37.60118],[126.79198,37.60122],[126.7919,37.60122]]}},{"type":"Feature","properties":{"class":"alley","highway":"service","sidewalk":"unknown","lanes":0,"name":"전호로2번길","oneway":false},"geometry":{"type":"LineString","coordinates":[[126.79717,37.60058],[126.79719,37.60067],[126.79719,37.60076],[126.79719,37.60084],[126.79719,37.60088],[126.79718,37.60092],[126.79715,37.60097],[126.79712,37.60101],[126.79707,37.60104],[126.79699,37.60108],[126.79677,37.60119],[126.79646,37.60136],[126.7962,37.60149],[126.7959,37.60165],[126.79566,37.60177],[126.79554,37.60182],[126.79546,37.60184],[126.79539,37.60185],[126.79506,37.60183]]}},{"type":"Feature","properties":{"class":"alley","highway":"service","sidewalk":"unknown","lanes":0,"name":"전호로26번길","oneway":false},"geometry":{"type":"LineString","coordinates":[[126.79691,37.60284],[126.79662,37.60285],[126.79639,37.60285],[126.7962,37.60286],[126.79609,37.60286],[126.79597,37.60286],[126.79593,37.60285],[126.79588,37.60284],[126.79582,37.60283],[126.79575,37.60281],[126.79566,37.60277],[126.79561,37.60274],[126.79558,37.60271],[126.79555,37.60267],[126.79553,37.60264],[126.79548,37.60254],[126.79544,37.60247],[126.7954,37.6024],[126.79534,37.60231],[126.79525,37.60218],[126.79515,37.602],[126.79506,37.60183],[126.79502,37.60177],[126.79498,37.60173],[126.79492,37.60165],[126.79478,37.6015]]}},{"type":"Feature","properties":{"class":"minor","highway":"residential","sidewalk":"unknown","lanes":0,"name":"전호로","oneway":false},"geometry":{"type":"LineString","coordinates":[[126.79658,37.59981],[126.79659,37.59988],[126.7966,37.59994],[126.7966,37.59998],[126.79659,37.60002],[126.79657,37.60007],[126.79651,37.60017],[126.79641,37.60035],[126.79636,37.60041],[126.79633,37.60045],[126.79627,37.60052],[126.79615,37.60062],[126.79588,37.60083],[126.79553,37.6011],[126.79546,37.60115],[126.79533,37.60123],[126.79521,37.6013],[126.7951,37.60136],[126.79499,37.60141],[126.79478,37.6015],[126.79437,37.60164],[126.7938,37.60182],[126.79354,37.6019],[126.79326,37.602],[126.79294,37.60211],[126.79279,37.60217],[126.7927,37.60222],[126.79261,37.60227],[126.79243,37.60237],[126.79229,37.60248],[126.79219,37.60257],[126.7921,37.60265],[126.79203,37.60273],[126.79199,37.60278],[126.79196,37.60284],[126.79192,37.60291],[126.79191,37.60299],[126.79191,37.60307],[126.79191,37.60312],[126.79191,37.6032],[126.79193,37.60329],[126.79196,37.6034],[126.79203,37.60354],[126.79213,37.60373],[126.79221,37.60391],[126.79223,37.60397],[126.79223,37.60404],[126.79222,37.60411],[126.79219,37.60421],[126.79212,37.60429],[126.7921,37.60431],[126.79205,37.60434],[126.7917,37.6045],[126.79163,37.60452],[126.79156,37.60453],[126.79146,37.60452]]}},{"type":"Feature","properties":{"class":"major","highway":"trunk_link","sidewalk":"likely","lanes":1,"name":"","oneway":true},"geometry":{"type":"LineString","coordinates":[[126.79159,37.6024],[126.79146,37.60245],[126.79135,37.60249],[126.79106,37.60256],[126.79047,37.60272],[126.79001,37.60285],[126.78939,37.60302],[126.78871,37.60319]]}},{"type":"Feature","properties":{"class":"alley","highway":"service","sidewalk":"unknown","lanes":0,"name":"전호로26번길","oneway":false},"geometry":{"type":"LineString","coordinates":[[126.79475,37.60147],[126.79463,37.60133]]}},{"type":"Feature","properties":{"class":"major","highway":"trunk_link","sidewalk":"likely","lanes":1,"name":"","oneway":true},"geometry":{"type":"LineString","coordinates":[[126.78921,37.60288],[126.78947,37.60272],[126.78958,37.60267],[126.78974,37.60259],[126.79009,37.60242],[126.79058,37.6022],[126.79107,37.60201],[126.79124,37.60189],[126.7913,37.60185],[126.79134,37.60181],[126.79137,37.60175],[126.79138,37.6017],[126.79137,37.60164],[126.79135,37.60158],[126.79131,37.60153],[126.79127,37.60149],[126.79121,37.60145],[126.79113,37.60143],[126.79104,37.60143],[126.79094,37.60144],[126.79077,37.60146]]}},{"type":"Feature","properties":{"class":"major","highway":"trunk","sidewalk":"likely","lanes":3,"name":"김포한강로","oneway":true},"geometry":{"type":"LineString","coordinates":[[126.79524,37.60063],[126.795,37.60078],[126.7948,37.60089],[126.79459,37.60099],[126.79444,37.60105],[126.79412,37.60119],[126.79375,37.60134],[126.79289,37.60166],[126.79195,37.60201]]}},{"type":"Feature","properties":{"class":"major","highway":"trunk","sidewalk":"likely","lanes":3,"name":"김포한강로","oneway":true},"geometry":{"type":"LineString","coordinates":[[126.78658,37.60386],[126.78705,37.60367]]}},{"type":"Feature","properties":{"class":"major","highway":"trunk","sidewalk":"likely","lanes":3,"name":"김포한강로","oneway":true},"geometry":{"type":"LineString","coordinates":[[126.78714,37.60378],[126.78697,37.60386]]}},{"type":"Feature","properties":{"class":"major","highway":"trunk","sidewalk":"likely","lanes":3,"name":"김포한강로","oneway":true},"geometry":{"type":"LineString","coordinates":[[126.7919,37.60192],[126.79287,37.60157],[126.79379,37.60122],[126.79416,37.60107],[126.79435,37.60098],[126.79458,37.60086],[126.79479,37.60075],[126.79502,37.60062],[126.79515,37.60054]]}},{"type":"Feature","properties":{"class":"major","highway":"trunk","sidewalk":"likely","lanes":3,"name":"김포한강로","oneway":true},"geometry":{"type":"LineString","coordinates":[[126.78667,37.60397],[126.78585,37.60424],[126.78497,37.60456]]}},{"type":"Feature","properties":{"class":"major","highway":"trunk","sidewalk":"likely","lanes":3,"name":"김포한강로","oneway":true},"geometry":{"type":"LineString","coordinates":[[126.78496,37.60443],[126.78583,37.60413],[126.78658,37.60386]]}},{"type":"Feature","properties":{"class":"major","highway":"trunk","sidewalk":"likely","lanes":3,"name":"김포한강로","oneway":true},"geometry":{"type":"LineString","coordinates":[[126.78353,37.60497],[126.78395,37.6048],[126.78415,37.60472],[126.78456,37.60457],[126.78496,37.60443]]}},{"type":"Feature","properties":{"class":"major","highway":"trunk_link","sidewalk":"likely","lanes":1,"name":"","oneway":true},"geometry":{"type":"LineString","coordinates":[[126.78636,37.60368],[126.78699,37.60356]]}},{"type":"Feature","properties":{"class":"major","highway":"trunk_link","sidewalk":"likely","lanes":1,"name":"","oneway":true},"geometry":{"type":"LineString","coordinates":[[126.78467,37.60422],[126.78559,37.60391],[126.78602,37.60377],[126.78636,37.60368]]}},{"type":"Feature","properties":{"class":"major","highway":"trunk_link","sidewalk":"likely","lanes":1,"name":"","oneway":true},"geometry":{"type":"LineString","coordinates":[[126.7867,37.60401],[126.78625,37.60423],[126.78586,37.60441],[126.78555,37.60455],[126.78514,37.60472],[126.78473,37.60492]]}},{"type":"Feature","properties":{"class":"major","highway":"trunk_link","sidewalk":"likely","lanes":1,"name":"","oneway":true},"geometry":{"type":"LineString","coordinates":[[126.78473,37.60492],[126.78443,37.60505],[126.78416,37.60518]]}},{"type":"Feature","properties":{"class":"major","highway":"tertiary","sidewalk":"likely","lanes":2,"name":"은행영사정로","oneway":false},"geometry":{"type":"LineString","coordinates":[[126.78395,37.606],[126.78399,37.60624],[126.78402,37.60641],[126.78409,37.60674],[126.78414,37.60695],[126.78419,37.60717],[126.78426,37.60744],[126.78432,37.60763],[126.78439,37.60781]]}},{"type":"Feature","properties":{"class":"major","highway":"trunk","sidewalk":"likely","lanes":3,"name":"김포한강로","oneway":true},"geometry":{"type":"LineString","coordinates":[[126.78497,37.60456],[126.78457,37.6047],[126.78416,37.60485],[126.78361,37.60507]]}},{"type":"Feature","properties":{"class":"major","highway":"trunk_link","sidewalk":"likely","lanes":1,"name":"","oneway":true},"geometry":{"type":"LineString","coordinates":[[126.78382,37.60532],[126.78362,37.60542],[126.78335,37.60553],[126.78308,37.60563],[126.78281,37.60575],[126.78252,37.60589],[126.78212,37.60608],[126.78181,37.60626],[126.7815,37.60644],[126.78113,37.60665],[126.78062,37.60695],[126.78042,37.60707],[126.78016,37.60727],[126.78003,37.60738],[126.77988,37.60751],[126.7797,37.60764],[126.77957,37.60772],[126.77934,37.60786]]}},{"type":"Feature","properties":{"class":"major","highway":"trunk_link","sidewalk":"likely","lanes":0,"name":"","oneway":true},"geometry":{"type":"LineString","coordinates":[[126.7788,37.60812],[126.77903,37.60787],[126.7792,37.60769],[126.77938,37.60752],[126.77953,37.60737],[126.77999,37.60697],[126.78019,37.6068],[126.78038,37.60664],[126.78062,37.60646],[126.78085,37.60627],[126.78114,37.60606],[126.78139,37.60588],[126.78161,37.60573],[126.78191,37.60555],[126.78219,37.60538],[126.78253,37.60518],[126.78278,37.60505],[126.78349,37.60469],[126.78374,37.60458]]}},{"type":"Feature","properties":{"class":"major","highway":"trunk","sidewalk":"likely","lanes":3,"name":"김포한강로","oneway":true},"geometry":{"type":"LineString","coordinates":[[126.78361,37.60507],[126.78325,37.60522],[126.78275,37.60546],[126.78244,37.60562],[126.78217,37.60577],[126.7818,37.60599],[126.78149,37.60618],[126.78111,37.60643],[126.78075,37.6067],[126.78044,37.60692],[126.78019,37.60712],[126.77934,37.60786],[126.77897,37.60818],[126.77874,37.60836],[126.77854,37.60851],[126.77809,37.60883],[126.77789,37.60894],[126.77768,37.60909],[126.77728,37.60936],[126.77694,37.60961],[126.7764,37.60997],[126.77588,37.61028]]}},{"type":"Feature","properties":{"class":"major","highway":"trunk","sidewalk":"likely","lanes":3,"name":"김포한강로","oneway":true},"geometry":{"type":"LineString","coordinates":[[126.77588,37.61014],[126.77639,37.60983],[126.77685,37.60951],[126.77721,37.60927],[126.77741,37.60913],[126.77761,37.60899],[126.77783,37.60884],[126.77804,37.6087],[126.77845,37.60839],[126.7788,37.60812],[126.77958,37.60745],[126.78007,37.60705],[126.78035,37.60683],[126.78066,37.60661],[126.78106,37.60632],[126.78134,37.60613],[126.78155,37.606],[126.78199,37.60573],[126.78238,37.60552],[126.78266,37.60537],[126.78304,37.60519],[126.78353,37.60497]]}},{"type":"Feature","properties":{"class":"alley","highway":"service","sidewalk":"unknown","lanes":0,"name":"","oneway":false},"geometry":{"type":"LineString","coordinates":[[126.79268,37.60457],[126.79247,37.60444],[126.79239,37.6044],[126.79231,37.60437],[126.79212,37.60429]]}},{"type":"Feature","properties":{"class":"alley","highway":"service","sidewalk":"unknown","lanes":0,"name":"","oneway":false},"geometry":{"type":"LineString","coordinates":[[126.78678,37.60672],[126.7866,37.6071],[126.78647,37.60737],[126.78642,37.60753],[126.78638,37.60771],[126.78635,37.60794],[126.7863,37.60815],[126.78628,37.60831],[126.78626,37.60857]]}},{"type":"Feature","properties":{"class":"alley","highway":"service","sidewalk":"unknown","lanes":0,"name":"전호로26번길","oneway":false},"geometry":{"type":"LineString","coordinates":[[126.79805,37.60381],[126.79827,37.60361],[126.79844,37.60346],[126.79846,37.60343],[126.79847,37.60339],[126.79845,37.60332],[126.7984,37.60323],[126.79835,37.60317],[126.79831,37.60313],[126.79824,37.60306],[126.79819,37.60301],[126.79814,37.60293],[126.79811,37.60288],[126.79807,37.60285],[126.79802,37.60283],[126.79795,37.60282],[126.79784,37.60282],[126.79773,37.60283],[126.79758,37.60284],[126.79738,37.60284],[126.79691,37.60284]]}},{"type":"Feature","properties":{"class":"alley","highway":"service","sidewalk":"unknown","lanes":0,"name":"전호로26번길","oneway":false},"geometry":{"type":"LineString","coordinates":[[126.79611,37.60348],[126.79598,37.60338],[126.79592,37.60333],[126.79589,37.6033],[126.79588,37.60327],[126.79587,37.60325],[126.79584,37.60317],[126.79581,37.60312],[126.79577,37.60304],[126.79574,37.60298],[126.79572,37.60295],[126.7957,37.60291],[126.79569,37.60287],[126.79566,37.60277]]}},{"type":"Feature","properties":{"class":"alley","highway":"service","sidewalk":"unknown","lanes":0,"name":"전호로2번길","oneway":false},"geometry":{"type":"LineString","coordinates":[[126.7962,37.60149],[126.79623,37.60153],[126.79624,37.60156],[126.79624,37.60158],[126.79623,37.60161],[126.79617,37.60166],[126.79616,37.60168],[126.79617,37.6017],[126.79625,37.60183],[126.79627,37.60184],[126.7963,37.60185],[126.79634,37.60185],[126.79637,37.60184],[126.79656,37.60177],[126.79668,37.60168],[126.79675,37.60162],[126.7968,37.60157],[126.79685,37.60153],[126.79695,37.60146],[126.79698,37.60143],[126.79702,37.60139],[126.79705,37.60137],[126.7973,37.6012],[126.79737,37.60115],[126.79739,37.60112],[126.79739,37.6011],[126.79739,37.60107],[126.79734,37.60096],[126.79733,37.60093],[126.79733,37.6009],[126.79732,37.60085],[126.79732,37.60075]]}},{"type":"Feature","properties":{"class":"alley","highway":"service","sidewalk":"unknown","lanes":0,"name":"전호로26번길","oneway":false},"geometry":{"type":"LineString","coordinates":[[126.79653,37.60342],[126.7965,37.60335],[126.79649,37.60331],[126.79648,37.60329],[126.79646,37.60327],[126.79644,37.60326],[126.79637,37.60323],[126.79633,37.60321],[126.7963,37.60319],[126.79626,37.60317],[126.79617,37.6031],[126.79613,37.60307],[126.79609,37.60304],[126.79607,37.60302],[126.79606,37.603],[126.79603,37.60296],[126.79602,37.60292],[126.79597,37.60286]]}},{"type":"Feature","properties":{"class":"alley","highway":"service","sidewalk":"unknown","lanes":0,"name":"전호로56번길","oneway":false},"geometry":{"type":"LineString","coordinates":[[126.79552,37.60202],[126.79545,37.60208],[126.79537,37.60212],[126.79525,37.60218],[126.79509,37.60222],[126.79498,37.60224],[126.79489,37.60226],[126.79477,37.60227],[126.79467,37.60227],[126.79455,37.60226],[126.79445,37.60226],[126.79431,37.60228],[126.79398,37.6023],[126.79374,37.60231],[126.79364,37.60231],[126.7936,37.60232],[126.79355,37.60233],[126.79349,37.60237],[126.79331,37.60243],[126.79317,37.60247],[126.79309,37.60249],[126.79297,37.60249],[126.79287,37.6025],[126.7928,37.6025],[126.79273,37.60251],[126.79263,37.60254],[126.79253,37.60257],[126.79242,37.60261],[126.79229,37.60267],[126.79218,37.60273],[126.79196,37.60284]]}},{"type":"Feature","properties":{"class":"major","highway":"secondary","sidewalk":"likely","lanes":2,"name":"금포로","oneway":false},"geometry":{"type":"LineString","coordinates":[[126.7916,37.6043],[126.79154,37.60441],[126.79146,37.60452],[126.79142,37.60457],[126.79133,37.60465],[126.79119,37.60474],[126.79097,37.60485],[126.79068,37.60497],[126.78932,37.60559],[126.78874,37.60585],[126.78777,37.60628],[126.78717,37.60655],[126.78678,37.60672],[126.78665,37.60678]]}},{"type":"Feature","properties":{"class":"major","highway":"motorway","sidewalk":"likely","lanes":4,"name":"수도권제1순환고속도로","oneway":true},"geometry":{"type":"LineString","coordinates":[[126.79615,37.61491],[126.78721,37.60495],[126.78654,37.60426],[126.78584,37.60364],[126.78496,37.6029],[126.78368,37.60194]]}},{"type":"Feature","properties":{"class":"major","highway":"tertiary","sidewalk":"likely","lanes":0,"name":"아라육로","oneway":true},"geometry":{"type":"LineString","coordinates":[[126.79095,37.6014],[126.79077,37.60146],[126.79056,37.60154],[126.7904,37.60162],[126.79024,37.60171],[126.79011,37.60178],[126.79,37.60185],[126.78987,37.60194],[126.78966,37.6021],[126.78953,37.6022],[126.78934,37.60233],[126.78916,37.60243],[126.78896,37.60255],[126.78875,37.60266],[126.78847,37.60279],[126.78839,37.60283],[126.78807,37.60296],[126.7879,37.60303],[126.78765,37.6031],[126.78754,37.60313],[126.78741,37.60315],[126.7873,37.60315],[126.78719,37.60314],[126.78709,37.60311],[126.78697,37.60307],[126.78689,37.60302],[126.7868,37.60296],[126.78661,37.60281],[126.78619,37.60247],[126.78559,37.60199],[126.78522,37.60169],[126.78498,37.6015],[126.78433,37.60107],[126.78353,37.60056],[126.78147,37.59929],[126.78141,37.59926],[126.78069,37.59881],[126.78045,37.59865],[126.78032,37.59855],[126.78017,37.59843],[126.78004,37.59829],[126.77998,37.59822],[126.77992,37.59813],[126.77985,37.59802],[126.7798,37.59795],[126.77976,37.59786],[126.77973,37.59775],[126.7797,37.59766],[126.77967,37.59752],[126.77965,37.59741],[126.77964,37.59729],[126.77964,37.59718],[126.77965,37.59708],[126.77968,37.59695],[126.77971,37.59682],[126.77975,37.5967],[126.7798,37.59658],[126.77986,37.59648],[126.77992,37.59638],[126.77997,37.59631],[126.78006,37.59619],[126.78017,37.59608],[126.78039,37.5959]]}},{"type":"Feature","properties":{"class":"major","highway":"tertiary","sidewalk":"likely","lanes":0,"name":"아라육로152번길","oneway":true},"geometry":{"type":"LineString","coordinates":[[126.78839,37.60283],[126.78833,37.60277],[126.78783,37.60236],[126.78649,37.60129],[126.78585,37.60081],[126.7855,37.60055],[126.7854,37.60047],[126.78532,37.60038],[126.78524,37.6003],[126.78518,37.60022],[126.78513,37.60013],[126.7851,37.60006],[126.78508,37.59997],[126.78502,37.59968],[126.78477,37.59837],[126.78477,37.59832],[126.78469,37.59794],[126.78439,37.59639],[126.78429,37.59592],[126.78418,37.59529],[126.78414,37.59508],[126.7841,37.59486],[126.78408,37.59476],[126.78406,37.5947],[126.78402,37.59459],[126.78397,37.59451],[126.78392,37.59442],[126.78386,37.59434],[126.7838,37.59428],[126.78372,37.5942],[126.78341,37.59396]]}},{"type":"Feature","properties":{"class":"minor","highway":"residential","sidewalk":"unknown","lanes":0,"name":"아라육로152번길","oneway":false},"geometry":{"type":"LineString","coordinates":[[126.78783,37.60236],[126.78789,37.60231],[126.78812,37.60212],[126.78822,37.60204],[126.78826,37.602],[126.7883,37.60198],[126.78836,37.60195],[126.78841,37.60192],[126.78845,37.60191],[126.7885,37.60189],[126.78856,37.60189],[126.78869,37.60188],[126.78902,37.60186],[126.78908,37.60185],[126.78913,37.60184],[126.78919,37.60182],[126.78925,37.60181],[126.78931,37.60178],[126.78941,37.60174],[126.79035,37.60134],[126.79063,37.60122],[126.79075,37.60117],[126.79084,37.60113],[126.79095,37.6011],[126.79108,37.60106],[126.7912,37.60103],[126.79133,37.601],[126.79146,37.60099],[126.79158,37.60097],[126.79175,37.60096],[126.79189,37.60096],[126.79207,37.60097],[126.7922,37.60097],[126.79229,37.60097],[126.7924,37.60096],[126.79252,37.60094],[126.79262,37.60092],[126.79272,37.60088],[126.79282,37.60084],[126.79299,37.60077],[126.79341,37.6006],[126.79407,37.60033],[126.79462,37.6001],[126.79478,37.60003],[126.79484,37.6],[126.79491,37.59996],[126.79495,37.59992],[126.79499,37.59988],[126.79503,37.59984],[126.79525,37.59955],[126.7953,37.59949],[126.79535,37.59943],[126.79539,37.5994],[126.79545,37.59936],[126.79552,37.59932],[126.79562,37.59929],[126.79572,37.59926],[126.79581,37.59925]]}},{"type":"Feature","properties":{"class":"major","highway":"tertiary","sidewalk":"likely","lanes":0,"name":"아라육로152번길","oneway":true},"geometry":{"type":"LineString","coordinates":[[126.78419,37.5948],[126.78439,37.59581],[126.7845,37.59638],[126.78461,37.59691],[126.78489,37.59832],[126.78498,37.59885],[126.78508,37.59941],[126.78513,37.59967],[126.78519,37.59999],[126.78521,37.60006],[126.78524,37.60014],[126.78528,37.6002],[126.78533,37.60026],[126.7854,37.60034],[126.7855,37.60043],[126.78564,37.60054],[126.78589,37.60072],[126.78593,37.60076],[126.78621,37.60097],[126.78789,37.60231],[126.78841,37.60274],[126.78847,37.60279]]}},{"type":"Feature","properties":{"class":"alley","highway":"service","sidewalk":"unknown","lanes":0,"name":"전호로2번길","oneway":false},"geometry":{"type":"LineString","coordinates":[[126.7977,37.601],[126.79758,37.60094],[126.79748,37.60088],[126.79743,37.60085],[126.79738,37.60081],[126.79732,37.60075],[126.79724,37.60065],[126.79717,37.60058],[126.79711,37.60052],[126.79705,37.60044],[126.79699,37.60035],[126.79693,37.60023],[126.79687,37.60008],[126.79681,37.59997],[126.79674,37.59986],[126.79669,37.5998],[126.79662,37.59973]]}},{"type":"Feature","properties":{"class":"major","highway":"tertiary","sidewalk":"likely","lanes":0,"name":"은행영사정로","oneway":false},"geometry":{"type":"LineString","coordinates":[[126.78361,37.60374],[126.78356,37.60361],[126.78347,37.60346],[126.78337,37.60332],[126.78327,37.60322],[126.78318,37.60313],[126.78304,37.60302],[126.78292,37.60293],[126.7828,37.60286],[126.78267,37.60279],[126.78252,37.60273],[126.78239,37.60268],[126.7822,37.60262],[126.7818,37.60256],[126.78138,37.6025],[126.78098,37.60244],[126.78053,37.60237],[126.78014,37.60231],[126.77981,37.60228],[126.7796,37.60226],[126.77938,37.60226],[126.77916,37.60227],[126.77893,37.6023],[126.77872,37.60234],[126.77848,37.60239],[126.77802,37.60251],[126.77703,37.60278],[126.77687,37.60282],[126.77664,37.60286],[126.77643,37.60288],[126.77618,37.6029],[126.77593,37.6029],[126.77574,37.60288],[126.77547,37.60283],[126.77526,37.60278],[126.7751,37.60274],[126.77495,37.60268],[126.77454,37.60252],[126.77429,37.60241],[126.77401,37.60229],[126.77371,37.60214],[126.77348,37.60202],[126.77334,37.60194],[126.77317,37.60184],[126.7731,37.60178],[126.77297,37.60167],[126.77287,37.60156],[126.77278,37.60146],[126.77266,37.60131],[126.77254,37.60116],[126.77247,37.60105],[126.77242,37.60095],[126.7724,37.60087],[126.77236,37.60073],[126.77234,37.60062],[126.77232,37.60056],[126.77229,37.6005],[126.77225,37.60042],[126.77219,37.60031],[126.77206,37.60011],[126.77186,37.59985]]}},{"type":"Feature","properties":{"class":"alley","highway":"service","sidewalk":"unknown","lanes":0,"name":"김포대로320번길","oneway":false},"geometry":{"type":"LineString","coordinates":[[126.77224,37.59962],[126.77232,37.59972],[126.77256,37.60003],[126.77269,37.60021],[126.77284,37.60041],[126.773,37.60063],[126.77315,37.60083],[126.77327,37.60098],[126.77336,37.60109],[126.77345,37.60118],[126.77357,37.60128],[126.77371,37.6014],[126.77383,37.60148],[126.77394,37.60155],[126.77404,37.60162],[126.77418,37.60169],[126.77437,37.60178],[126.77459,37.60188],[126.77491,37.60202],[126.77516,37.60212],[126.77528,37.60216],[126.77541,37.60219],[126.77555,37.60222],[126.77564,37.60224],[126.77593,37.60227],[126.7761,37.60228],[126.77629,37.60228],[126.77652,37.60227],[126.77663,37.60226],[126.7768,37.60223],[126.77705,37.60216],[126.77818,37.60187],[126.7785,37.60179],[126.7788,37.60171],[126.77889,37.6017],[126.77897,37.60168],[126.77915,37.60167],[126.77945,37.60166],[126.7796,37.60167],[126.77974,37.60169],[126.78024,37.60173],[126.7807,37.60178],[126.78109,37.60182],[126.78128,37.60184],[126.78138,37.60186],[126.78143,37.60187],[126.78147,37.6019],[126.7815,37.60194],[126.7815,37.60199],[126.7815,37.60202],[126.78151,37.60206],[126.78153,37.60208],[126.78157,37.6021]]}},{"type":"Feature","properties":{"class":"alley","highway":"service","sidewalk":"unknown","lanes":0,"name":"전호로26번길","oneway":false},"geometry":{"type":"LineString","coordinates":[[126.79478,37.6015],[126.79475,37.60147]]}},{"type":"Feature","properties":{"class":"alley","highway":"service","sidewalk":"unknown","lanes":0,"name":"전호로26번길","oneway":false},"geometry":{"type":"LineString","coordinates":[[126.79463,37.60133],[126.7946,37.60129]]}},{"type":"Feature","properties":{"class":"major","highway":"secondary","sidewalk":"likely","lanes":2,"name":"","oneway":false},"geometry":{"type":"LineString","coordinates":[[126.7915,37.60161],[126.79151,37.60168],[126.79159,37.6024],[126.79161,37.6026],[126.79162,37.60284]]}},{"type":"Feature","properties":{"class":"minor","highway":"unclassified","sidewalk":"unknown","lanes":0,"name":"금포로","oneway":false},"geometry":{"type":"LineString","coordinates":[[126.79174,37.60283],[126.79162,37.60284]]}},{"type":"Feature","properties":{"class":"major","highway":"secondary","sidewalk":"likely","lanes":2,"name":"금포로","oneway":false},"geometry":{"type":"LineString","coordinates":[[126.79162,37.60284],[126.79164,37.60315],[126.79168,37.6037],[126.79168,37.60388],[126.79169,37.60397],[126.79167,37.60407],[126.79165,37.6042],[126.7916,37.6043]]}},{"type":"Feature","properties":{"class":"minor","highway":"unclassified","sidewalk":"unknown","lanes":0,"name":"","oneway":false},"geometry":{"type":"LineString","coordinates":[[126.79178,37.60284],[126.79174,37.60283]]}},{"type":"Feature","properties":{"class":"major","highway":"trunk_link","sidewalk":"likely","lanes":1,"name":"","oneway":true},"geometry":{"type":"LineString","coordinates":[[126.78416,37.60518],[126.78409,37.6052],[126.78391,37.60528],[126.78382,37.60532]]}},{"type":"Feature","properties":{"class":"major","highway":"trunk_link","sidewalk":"likely","lanes":1,"name":"","oneway":true},"geometry":{"type":"LineString","coordinates":[[126.78403,37.60445],[126.78415,37.60441],[126.78467,37.60422]]}},{"type":"Feature","properties":{"class":"minor","highway":"unclassified","sidewalk":"unknown","lanes":0,"name":"","oneway":false},"geometry":{"type":"LineString","coordinates":[[126.79189,37.6029],[126.79178,37.60284]]}},{"type":"Feature","properties":{"class":"minor","highway":"unclassified","sidewalk":"unknown","lanes":0,"name":"","oneway":false},"geometry":{"type":"LineString","coordinates":[[126.79192,37.60291],[126.79189,37.6029]]}},{"type":"Feature","properties":{"class":"major","highway":"tertiary","sidewalk":"likely","lanes":2,"name":"김포대로320번길","oneway":true},"geometry":{"type":"LineString","coordinates":[[126.77216,37.59967],[126.77244,37.60005],[126.77271,37.60043],[126.77288,37.60068],[126.7731,37.60095],[126.7732,37.60109],[126.7733,37.6012],[126.7734,37.60131],[126.77354,37.60142],[126.77364,37.6015],[126.7738,37.60161],[126.77394,37.6017],[126.77407,37.60178],[126.77424,37.60186],[126.77449,37.60197],[126.77485,37.60212],[126.77513,37.60222],[126.77536,37.60229],[126.77553,37.60233],[126.77561,37.60235],[126.77592,37.60238],[126.77613,37.60239],[126.77634,37.60239],[126.77654,37.60237],[126.77669,37.60235],[126.77687,37.60231],[126.77712,37.60225],[126.77756,37.60214],[126.77806,37.60201],[126.77846,37.60191],[126.77867,37.60186],[126.77886,37.60182],[126.77906,37.6018],[126.77933,37.60178],[126.7795,37.60178],[126.7797,37.60179],[126.77999,37.60183],[126.78029,37.60186],[126.78081,37.60193]]}},{"type":"Feature","properties":{"class":"major","highway":"tertiary","sidewalk":"likely","lanes":2,"name":"김포대로320번길","oneway":true},"geometry":{"type":"LineString","coordinates":[[126.78335,37.60296],[126.78346,37.6031],[126.78356,37.60325],[126.78363,37.60338],[126.78368,37.60352],[126.78375,37.60369],[126.78378,37.60382],[126.78381,37.60399],[126.78383,37.60415],[126.78383,37.6042],[126.78385,37.6044],[126.78383,37.60454]]}},{"type":"Feature","properties":{"class":"major","highway":"tertiary","sidewalk":"likely","lanes":2,"name":"김포대로320번길","oneway":true},"geometry":{"type":"LineString","coordinates":[[126.78081,37.60193],[126.78161,37.60205],[126.78187,37.6021],[126.78202,37.60214],[126.78218,37.60219],[126.78239,37.60228],[126.7825,37.60233],[126.78262,37.60239],[126.78273,37.60245],[126.78287,37.60254],[126.78301,37.60264],[126.78315,37.60277],[126.78335,37.60296]]}},{"type":"Feature","properties":{"class":"minor","highway":"unclassified","sidewalk":"unknown","lanes":2,"name":"금포로","oneway":false},"geometry":{"type":"LineString","coordinates":[[126.79658,37.59981],[126.7965,37.5999],[126.79644,37.59997],[126.79624,37.60017],[126.79606,37.60034],[126.79589,37.60049],[126.79565,37.60069],[126.79544,37.60085],[126.79524,37.601],[126.79512,37.60107],[126.79501,37.60112],[126.79488,37.60118],[126.7946,37.60129],[126.79389,37.60154],[126.7931,37.6018],[126.79285,37.60189],[126.79262,37.60199],[126.79246,37.60208],[126.7923,37.60217],[126.79212,37.60232],[126.79198,37.60244],[126.7919,37.60253],[126.79184,37.60262],[126.79181,37.60267],[126.79177,37.60274],[126.79174,37.60283]]}},{"type":"Feature","properties":{"class":"major","highway":"trunk","sidewalk":"likely","lanes":5,"name":"자유로","oneway":true},"geometry":{"type":"LineString","coordinates":[[126.7416,37.64723],[126.75108,37.64314],[126.75255,37.6425],[126.75409,37.64179],[126.7575,37.64012],[126.75928,37.63931],[126.76054,37.63864],[126.76138,37.63811],[126.76186,37.6379],[126.76503,37.63609],[126.77349,37.6314],[126.77754,37.62917],[126.78089,37.62731],[126.78175,37.62684],[126.78955,37.62253],[126.79406,37.62],[126.80395,37.61449],[126.80474,37.61396],[126.80663,37.61265],[126.80736,37.61209],[126.80802,37.61153],[126.80976,37.60999],[126.81164,37.60813],[126.81196,37.60784],[126.81222,37.60764],[126.81252,37.60742],[126.81283,37.60723],[126.81317,37.60705],[126.81352,37.60689],[126.81393,37.60674],[126.81437,37.6066],[126.81481,37.60646],[126.8158,37.60619],[126.81699,37.60589]]}},{"type":"Feature","properties":{"class":"minor","highway":"residential","sidewalk":"unknown","lanes":0,"name":"","oneway":false},"geometry":{"type":"LineString","coordinates":[[126.78627,37.59816],[126.78637,37.59834],[126.78642,37.59843],[126.78652,37.5986],[126.78661,37.59874],[126.78671,37.5989],[126.78676,37.59896],[126.78683,37.59905],[126.78689,37.59913],[126.78698,37.59923],[126.78706,37.59932],[126.78716,37.59941],[126.78732,37.59956],[126.78738,37.5996],[126.7879,37.60002]]}},{"type":"Feature","properties":{"class":"major","highway":"trunk","sidewalk":"likely","lanes":3,"name":"김포한강로","oneway":true},"geometry":{"type":"LineString","coordinates":[[126.79137,37.60221],[126.79015,37.60266],[126.78871,37.60319],[126.78793,37.60348],[126.78714,37.60378]]}},{"type":"Feature","properties":{"class":"major","highway":"trunk","sidewalk":"likely","lanes":3,"name":"김포한강로","oneway":true},"geometry":{"type":"LineString","coordinates":[[126.79195,37.60201],[126.79137,37.60221]]}},{"type":"Feature","properties":{"class":"major","highway":"trunk","sidewalk":"likely","lanes":3,"name":"김포한강로","oneway":true},"geometry":{"type":"LineString","coordinates":[[126.78705,37.60367],[126.78774,37.60341],[126.78921,37.60288],[126.79002,37.60258],[126.79136,37.60209]]}},{"type":"Feature","properties":{"class":"major","highway":"trunk","sidewalk":"likely","lanes":3,"name":"김포한강로","oneway":true},"geometry":{"type":"LineString","coordinates":[[126.79136,37.60209],[126.7919,37.60192]]}},{"type":"Feature","properties":{"class":"major","highway":"trunk_link","sidewalk":"likely","lanes":1,"name":"","oneway":true},"geometry":{"type":"LineString","coordinates":[[126.78699,37.60356],[126.78774,37.60341]]}},{"type":"Feature","properties":{"class":"alley","highway":"service","sidewalk":"unknown","lanes":0,"name":"은행영사정로159번길","oneway":false},"geometry":{"type":"LineString","coordinates":[[126.78067,37.60723],[126.78072,37.6072],[126.7808,37.60718],[126.78091,37.60718],[126.78101,37.60717],[126.78108,37.60717],[126.78117,37.60715],[126.78143,37.60711],[126.78161,37.60708],[126.78177,37.60707],[126.78184,37.60706],[126.7819,37.60706],[126.78213,37.60705],[126.78222,37.60704],[126.78229,37.60702],[126.78239,37.60699],[126.78245,37.60697],[126.78251,37.60696],[126.7826,37.60697],[126.78279,37.60699],[126.78302,37.60703],[126.78321,37.60707],[126.78342,37.60713],[126.78355,37.60715],[126.78366,37.60717],[126.78378,37.60718],[126.78387,37.60718],[126.78407,37.60717],[126.78419,37.60717]]}},{"type":"Feature","properties":{"class":"alley","highway":"service","sidewalk":"unknown","lanes":0,"name":"은행영사정로","oneway":false},"geometry":{"type":"LineString","coordinates":[[126.7826,37.60697],[126.78264,37.60686],[126.78265,37.60675],[126.78266,37.60669],[126.78268,37.60664],[126.78271,37.60659],[126.78276,37.60651],[126.78282,37.60645],[126.7829,37.60641],[126.78298,37.60635],[126.78302,37.60632],[126.78306,37.60626],[126.78309,37.6062],[126.78312,37.60615],[126.78317,37.60609],[126.78322,37.60603],[126.78325,37.606],[126.78329,37.606],[126.78334,37.60599],[126.78352,37.60601],[126.78367,37.60601],[126.78382,37.60601],[126.78395,37.606]]}},{"type":"Feature","properties":{"class":"alley","highway":"service","sidewalk":"unknown","lanes":0,"name":"은행영사정로159번길","oneway":false},"geometry":{"type":"LineString","coordinates":[[126.78409,37.60674],[126.78406,37.60684],[126.78405,37.60691],[126.78404,37.60698],[126.78405,37.60706],[126.78407,37.60717],[126.78415,37.60744],[126.7842,37.60757],[126.78422,37.60763],[126.78425,37.60768],[126.7843,37.60774],[126.78439,37.60781]]}},{"type":"Feature","properties":{"class":"major","highway":"tertiary","sidewalk":"likely","lanes":0,"name":"","oneway":true},"geometry":{"type":"LineString","coordinates":[[126.79135,37.60142],[126.79125,37.60139],[126.79117,37.60137],[126.79111,37.60137],[126.79102,37.60138],[126.79095,37.6014]]}},{"type":"Feature","properties":{"class":"major","highway":"tertiary","sidewalk":"likely","lanes":0,"name":"","oneway":true},"geometry":{"type":"LineString","coordinates":[[126.79104,37.60131],[126.79116,37.60127],[126.79126,37.60125],[126.79141,37.60122]]}},{"type":"Feature","properties":{"class":"major","highway":"secondary","sidewalk":"likely","lanes":0,"name":"","oneway":true},"geometry":{"type":"LineString","coordinates":[[126.7919,37.60122],[126.79179,37.60127],[126.79171,37.60132],[126.79161,37.6014]]}},{"type":"Feature","properties":{"class":"major","highway":"secondary","sidewalk":"likely","lanes":0,"name":"","oneway":true},"geometry":{"type":"LineString","coordinates":[[126.79152,37.60121],[126.79168,37.60121],[126.79179,37.60121],[126.7919,37.60122]]}},{"type":"Feature","properties":{"class":"major","highway":"secondary","sidewalk":"likely","lanes":0,"name":"","oneway":true},"geometry":{"type":"LineString","coordinates":[[126.7915,37.60161],[126.79145,37.60152],[126.79138,37.60145]]}},{"type":"Feature","properties":{"class":"major","highway":"secondary","sidewalk":"likely","lanes":0,"name":"","oneway":true},"geometry":{"type":"LineString","coordinates":[[126.79158,37.60143],[126.79154,37.60152],[126.7915,37.60161]]}},{"type":"Feature","properties":{"class":"major","highway":"trunk_link","sidewalk":"likely","lanes":0,"name":"","oneway":true},"geometry":{"type":"LineString","coordinates":[[126.79107,37.60201],[126.79118,37.60198],[126.79133,37.60192],[126.7914,37.60186],[126.79145,37.60181],[126.79151,37.60168]]}},{"type":"Feature","properties":{"class":"alley","highway":"service","sidewalk":"unknown","lanes":0,"name":"은행영사정로","oneway":false},"geometry":{"type":"LineString","coordinates":[[126.78398,37.60585],[126.78414,37.60584]]}},{"type":"Feature","properties":{"class":"alley","highway":"service","sidewalk":"unknown","lanes":0,"name":"은행영사정로","oneway":false},"geometry":{"type":"LineString","coordinates":[[126.7841,37.60245],[126.78414,37.60232],[126.78422,37.60218],[126.78427,37.60209],[126.78432,37.60203]]}},{"type":"Feature","properties":{"class":"alley","highway":"service","sidewalk":"unknown","lanes":0,"name":"은행영사정로","oneway":false},"geometry":{"type":"LineString","coordinates":[[126.78369,37.60299],[126.78392,37.60277]]}},{"type":"Feature","properties":{"class":"alley","highway":"service","sidewalk":"unknown","lanes":0,"name":"은행영사정로","oneway":false},"geometry":{"type":"LineString","coordinates":[[126.7822,37.60262],[126.78247,37.60264],[126.78271,37.60268],[126.78294,37.60275],[126.78305,37.60278],[126.78313,37.6028],[126.7833,37.60283],[126.78337,37.60285],[126.78343,37.60287],[126.78348,37.6029],[126.78356,37.60296],[126.78361,37.60299],[126.78365,37.603],[126.78369,37.60299]]}},{"type":"Feature","properties":{"class":"alley","highway":"service","sidewalk":"unknown","lanes":0,"name":"은행영사정로","oneway":false},"geometry":{"type":"LineString","coordinates":[[126.78414,37.60584],[126.78456,37.60583]]}},{"type":"Feature","properties":{"class":"alley","highway":"service","sidewalk":"unknown","lanes":0,"name":"","oneway":false},"geometry":{"type":"LineString","coordinates":[[126.78459,37.60518],[126.78463,37.60513],[126.78466,37.60509],[126.78468,37.60503],[126.78467,37.60488],[126.78465,37.60473],[126.78461,37.60436],[126.7846,37.60415],[126.78459,37.6041],[126.78455,37.60407],[126.78448,37.60401],[126.78445,37.60397],[126.78444,37.60392],[126.78443,37.60384],[126.78442,37.60367],[126.78441,37.60353],[126.7844,37.60343],[126.78437,37.60326],[126.78435,37.60319],[126.78432,37.60311],[126.78427,37.60302],[126.78421,37.60295],[126.78415,37.60289],[126.78404,37.60281],[126.78394,37.60275]]}},{"type":"Feature","properties":{"class":"major","highway":"tertiary","sidewalk":"likely","lanes":0,"name":"은행영사정로","oneway":true},"geometry":{"type":"LineString","coordinates":[[126.78361,37.60374],[126.7837,37.60395],[126.78377,37.60417],[126.78381,37.60438],[126.78383,37.60454]]}},{"type":"Feature","properties":{"class":"major","highway":"tertiary","sidewalk":"likely","lanes":0,"name":"은행영사정로","oneway":true},"geometry":{"type":"LineString","coordinates":[[126.78395,37.606],[126.78389,37.60585],[126.78386,37.60557],[126.78382,37.60532],[126.78381,37.60507],[126.78378,37.60479],[126.78374,37.60458]]}},{"type":"Feature","properties":{"class":"major","highway":"trunk_link","sidewalk":"likely","lanes":0,"name":"","oneway":true},"geometry":{"type":"LineString","coordinates":[[126.78383,37.6042],[126.7839,37.60432],[126.78396,37.60437],[126.78402,37.6044]]}},{"type":"Feature","properties":{"class":"major","highway":"trunk_link","sidewalk":"likely","lanes":0,"name":"","oneway":true},"geometry":{"type":"LineString","coordinates":[[126.78402,37.6044],[126.78415,37.60441]]}},{"type":"Feature","properties":{"class":"major","highway":"trunk_link","sidewalk":"likely","lanes":0,"name":"","oneway":true},"geometry":{"type":"LineString","coordinates":[[126.78349,37.60469],[126.78362,37.60457],[126.78369,37.60447],[126.78372,37.60432]]}},{"type":"Feature","properties":{"class":"major","highway":"tertiary","sidewalk":"likely","lanes":0,"name":"은행영사정로","oneway":true},"geometry":{"type":"LineString","coordinates":[[126.78383,37.60454],[126.78386,37.60477],[126.78391,37.60528],[126.78393,37.60544],[126.78398,37.60585],[126.78395,37.606]]}},{"type":"Feature","properties":{"class":"major","highway":"trunk_link","sidewalk":"likely","lanes":1,"name":"","oneway":true},"geometry":{"type":"LineString","coordinates":[[126.78383,37.60454],[126.78403,37.60445]]}},{"type":"Feature","properties":{"class":"major","highway":"trunk_link","sidewalk":"likely","lanes":0,"name":"","oneway":true},"geometry":{"type":"LineString","coordinates":[[126.78374,37.60458],[126.78383,37.60454]]}},{"type":"Feature","properties":{"class":"major","highway":"tertiary","sidewalk":"likely","lanes":0,"name":"은행영사정로","oneway":true},"geometry":{"type":"LineString","coordinates":[[126.78374,37.60458],[126.78372,37.60432]]}},{"type":"Feature","properties":{"class":"major","highway":"tertiary","sidewalk":"likely","lanes":0,"name":"은행영사정로","oneway":true},"geometry":{"type":"LineString","coordinates":[[126.78372,37.60432],[126.78367,37.60403],[126.78361,37.60374]]}},{"type":"Feature","properties":{"class":"major","highway":"trunk_link","sidewalk":"likely","lanes":0,"name":"","oneway":true},"geometry":{"type":"LineString","coordinates":[[126.78409,37.6052],[126.78402,37.60527],[126.78399,37.60531],[126.78396,37.60536],[126.78393,37.60544]]}},{"type":"Feature","properties":{"class":"major","highway":"trunk_link","sidewalk":"likely","lanes":0,"name":"","oneway":true},"geometry":{"type":"LineString","coordinates":[[126.78386,37.60557],[126.78379,37.60551],[126.78375,37.60546],[126.78371,37.60544],[126.78362,37.60542]]}},{"type":"Feature","properties":{"class":"minor","highway":"unclassified","sidewalk":"unknown","lanes":0,"name":"아라육로270번길","oneway":true},"geometry":{"type":"LineString","coordinates":[[126.78585,37.60081],[126.78589,37.60072],[126.7868,37.59999],[126.78732,37.59956],[126.78782,37.59916],[126.78793,37.59907],[126.78797,37.59905]]}},{"type":"Feature","properties":{"class":"alley","highway":"service","sidewalk":"unknown","lanes":0,"name":"","oneway":false},"geometry":{"type":"LineString","coordinates":[[126.78598,37.60916],[126.786,37.60905],[126.78601,37.60902],[126.78603,37.60895],[126.78606,37.60886],[126.78612,37.60876],[126.7862,37.60866],[126.78626,37.60857],[126.78638,37.60853],[126.78646,37.60851],[126.78655,37.60847],[126.78665,37.60841],[126.78679,37.6083],[126.78696,37.60816],[126.78708,37.60808],[126.78722,37.60799],[126.78748,37.60782],[126.78784,37.60761],[126.78829,37.60738],[126.78854,37.60725],[126.78883,37.60712],[126.78935,37.6069],[126.78947,37.60686]]}},{"type":"Feature","properties":{"class":"alley","highway":"service","sidewalk":"unknown","lanes":0,"name":"","oneway":false},"geometry":{"type":"LineString","coordinates":[[126.78157,37.6021],[126.78166,37.60212],[126.78185,37.60215],[126.78208,37.60219],[126.78242,37.60223],[126.78255,37.60225],[126.78264,37.60226],[126.78272,37.60228],[126.7828,37.6023],[126.78292,37.60234],[126.78308,37.60239],[126.78329,37.60246],[126.78347,37.60252],[126.78359,37.60256],[126.78366,37.6026],[126.78375,37.60264],[126.78385,37.60269],[126.78394,37.60275]]}},{"type":"Feature","properties":{"class":"major","highway":"trunk_link","sidewalk":"likely","lanes":1,"name":"","oneway":true},"geometry":{"type":"LineString","coordinates":[[126.78697,37.60386],[126.7867,37.60401]]}},{"type":"Feature","properties":{"class":"major","highway":"trunk","sidewalk":"likely","lanes":3,"name":"김포한강로","oneway":true},"geometry":{"type":"LineString","coordinates":[[126.78697,37.60386],[126.78667,37.60397]]}},{"type":"Feature","properties":{"class":"alley","highway":"service","sidewalk":"unknown","lanes":0,"name":"은행영사정로","oneway":false},"geometry":{"type":"LineString","coordinates":[[126.78456,37.60583],[126.78461,37.60582],[126.78458,37.60562],[126.78457,37.6055],[126.78456,37.60538],[126.78456,37.60528],[126.78457,37.60523],[126.78459,37.60518]]}},{"type":"Feature","properties":{"class":"alley","highway":"service","sidewalk":"unknown","lanes":0,"name":"은행영사정로","oneway":false},"geometry":{"type":"LineString","coordinates":[[126.78461,37.60582],[126.78464,37.60589],[126.78467,37.60592],[126.78472,37.60593],[126.78479,37.60594],[126.785,37.60592],[126.78543,37.6059],[126.7857,37.60589],[126.78579,37.60588],[126.78588,37.60587],[126.78594,37.60584],[126.78603,37.60578],[126.78634,37.60554],[126.78671,37.60526],[126.78704,37.60501]]}},{"type":"Feature","properties":{"class":"alley","highway":"service","sidewalk":"unknown","lanes":0,"name":"","oneway":false},"geometry":{"type":"LineString","coordinates":[[126.78184,37.60706],[126.78185,37.607],[126.78188,37.60695],[126.78192,37.60691],[126.78199,37.60687],[126.78211,37.60684],[126.7824,37.60678]]}},{"type":"Feature","properties":{"class":"major","highway":"secondary","sidewalk":"likely","lanes":0,"name":"","oneway":true},"geometry":{"type":"LineString","coordinates":[[126.79141,37.60122],[126.79146,37.60121],[126.79152,37.60121],[126.79157,37.60123],[126.79161,37.60127],[126.79163,37.60131],[126.79163,37.60135],[126.79161,37.6014],[126.79158,37.60143],[126.79153,37.60146],[126.79148,37.60147],[126.79143,37.60146],[126.79138,37.60145],[126.79135,37.60142],[126.79132,37.60139],[126.79131,37.60135],[126.79131,37.60131],[126.79133,37.60128],[126.79136,37.60124],[126.79141,37.60122]]}},{"type":"Feature","properties":{"class":"major","highway":"trunk_link","sidewalk":"likely","lanes":0,"name":"","oneway":true},"geometry":{"type":"LineString","coordinates":[[126.79161,37.6026],[126.79155,37.60255],[126.7915,37.60252],[126.79144,37.6025],[126.79135,37.60249]]}},{"type":"Feature","properties":{"class":"alley","highway":"service","sidewalk":"unknown","lanes":0,"name":"전호로26번길","oneway":false},"geometry":{"type":"LineString","coordinates":[[126.79593,37.60285],[126.79594,37.60274],[126.79595,37.60269],[126.79596,37.60265],[126.79599,37.60261],[126.79604,37.60257],[126.79609,37.60253],[126.79616,37.6025],[126.79622,37.60247],[126.79626,37.60244],[126.79628,37.60241],[126.79629,37.60239],[126.7963,37.60237],[126.79629,37.60235],[126.79627,37.60232],[126.79622,37.60226],[126.79621,37.60224],[126.7962,37.6022],[126.79619,37.60215],[126.79619,37.60213],[126.79618,37.60212],[126.79616,37.6021],[126.79613,37.60208]]}},{"type":"Feature","properties":{"class":"alley","highway":"service","sidewalk":"unknown","lanes":0,"name":"","oneway":false},"geometry":{"type":"LineString","coordinates":[[126.79839,37.59976],[126.79853,37.59997],[126.79862,37.6001],[126.79866,37.60016],[126.79869,37.60018],[126.79872,37.60021],[126.79878,37.60023],[126.79891,37.60027],[126.79908,37.60033],[126.79915,37.60036],[126.79918,37.60038],[126.7992,37.60042],[126.79921,37.60046],[126.79922,37.60056],[126.79922,37.60077],[126.79923,37.601]]}},{"type":"Feature","properties":{"class":"major","highway":"tertiary","sidewalk":"yes","lanes":0,"name":"아라육로","oneway":true},"geometry":{"type":"LineString","coordinates":[[126.78286,37.59453],[126.78088,37.59569],[126.78066,37.59581],[126.78055,37.59588],[126.78045,37.59596],[126.7803,37.59609],[126.7802,37.59619],[126.78008,37.59632],[126.77999,37.59645],[126.77993,37.59656],[126.77989,37.59664],[126.77985,37.59673],[126.7798,37.59691],[126.77978,37.597],[126.77977,37.59709],[126.77976,37.59719],[126.77976,37.59732],[126.77978,37.59745],[126.7798,37.5976],[126.77983,37.59772],[126.77987,37.59783],[126.77989,37.5979],[126.77995,37.59801],[126.78001,37.59811],[126.7801,37.59824],[126.78016,37.59831],[126.78022,37.59838],[126.78031,37.59845],[126.78039,37.59852],[126.78047,37.59858],[126.78085,37.59884],[126.78146,37.59921],[126.78151,37.59925],[126.78176,37.5994],[126.78312,37.60024],[126.78409,37.60084],[126.78434,37.601],[126.78462,37.60118],[126.78503,37.60146],[126.78595,37.60218],[126.78678,37.60284],[126.7869,37.60293],[126.78698,37.60298],[126.78706,37.60302],[126.78714,37.60305],[126.78723,37.60307],[126.78732,37.60308],[126.7874,37.60307],[126.78748,37.60306],[126.78757,37.60304],[126.78767,37.60302],[126.78787,37.60296],[126.78813,37.60286],[126.78833,37.60277],[126.78836,37.60276],[126.78841,37.60274],[126.78851,37.60269],[126.78876,37.60257],[126.78901,37.60244],[126.78928,37.60228],[126.78941,37.6022],[126.78949,37.60214],[126.78968,37.602],[126.78985,37.60187],[126.78993,37.60181],[126.79002,37.60176],[126.79015,37.60169],[126.79031,37.6016],[126.79049,37.60151],[126.79065,37.60145],[126.79077,37.6014],[126.79104,37.60131]]}},{"type":"Feature","properties":{"class":"minor","highway":"unclassified","sidewalk":"unknown","lanes":0,"name":"아라육로270번길","oneway":false},"geometry":{"type":"LineString","coordinates":[[126.78498,37.6015],[126.78503,37.60146],[126.78585,37.60081]]}},{"type":"Feature","properties":{"class":"minor","highway":"unclassified","sidewalk":"unknown","lanes":0,"name":"아라육로270번길","oneway":true},"geometry":{"type":"LineString","coordinates":[[126.78831,37.59919],[126.78822,37.59911],[126.7882,37.59909],[126.78817,37.59907],[126.78815,37.59907],[126.78811,37.59907],[126.78807,37.59908],[126.78802,37.59911],[126.78796,37.59915],[126.78779,37.59927],[126.78738,37.5996],[126.78593,37.60076],[126.78585,37.60081]]}},{"type":"Feature","properties":{"class":"alley","highway":"service","sidewalk":"unknown","lanes":0,"name":"은행영사정로","oneway":false},"geometry":{"type":"LineString","coordinates":[[126.78392,37.60277],[126.78394,37.60275],[126.78402,37.60261]]}},{"type":"Feature","properties":{"class":"alley","highway":"service","sidewalk":"unknown","lanes":0,"name":"은행영사정로","oneway":false},"geometry":{"type":"LineString","coordinates":[[126.78402,37.60261],[126.7841,37.60245]]}},{"type":"Feature","properties":{"class":"alley","highway":"service","sidewalk":"unknown","lanes":0,"name":"","oneway":false},"geometry":{"type":"LineString","coordinates":[[126.78199,37.60048],[126.78201,37.60047],[126.78202,37.60045],[126.78202,37.60043],[126.78202,37.60033]]}},{"type":"Feature","properties":{"class":"alley","highway":"service","sidewalk":"unknown","lanes":0,"name":"","oneway":false},"geometry":{"type":"LineString","coordinates":[[126.78139,37.60081],[126.78199,37.60048]]}},{"type":"Feature","properties":{"class":"alley","highway":"service","sidewalk":"unknown","lanes":0,"name":"","oneway":false},"geometry":{"type":"LineString","coordinates":[[126.78136,37.60083],[126.78139,37.60081]]}},{"type":"Feature","properties":{"class":"alley","highway":"service","sidewalk":"unknown","lanes":0,"name":"","oneway":false},"geometry":{"type":"LineString","coordinates":[[126.78218,37.59388],[126.78222,37.59394],[126.78223,37.59396],[126.78223,37.59398],[126.78222,37.594],[126.78217,37.59403],[126.78209,37.59408],[126.78196,37.59415],[126.78185,37.59422],[126.78177,37.59426],[126.7817,37.59431],[126.78154,37.59442],[126.78141,37.5945],[126.78117,37.59465],[126.78089,37.59481],[126.78068,37.59493],[126.78054,37.59501],[126.78042,37.59506],[126.78012,37.59521],[126.77984,37.59533],[126.7797,37.59539],[126.77963,37.59543],[126.77953,37.59549],[126.77944,37.59554],[126.77931,37.59563],[126.7792,37.59571],[126.77914,37.59577],[126.77906,37.59585],[126.77894,37.59597],[126.77887,37.59604],[126.77883,37.59609],[126.77876,37.59618],[126.7787,37.59628],[126.77865,37.59635],[126.77862,37.59643],[126.77858,37.59651],[126.77853,37.59665],[126.77848,37.59678],[126.77847,37.59684],[126.77846,37.59689],[126.77845,37.59695],[126.77843,37.59705],[126.77841,37.59714],[126.77841,37.59725],[126.7784,37.59732],[126.7784,37.59739],[126.77841,37.59746],[126.77842,37.59754],[126.77844,37.59764],[126.77848,37.59777],[126.7785,37.59786],[126.77852,37.59791],[126.77856,37.59799],[126.77862,37.59812],[126.77866,37.5982],[126.77873,37.5983],[126.77877,37.59837],[126.77883,37.59845],[126.77892,37.59855],[126.77898,37.59861],[126.77902,37.59865],[126.7791,37.59872],[126.77925,37.59885],[126.77931,37.5989],[126.77938,37.59895],[126.77945,37.599],[126.77961,37.59909],[126.77971,37.59914],[126.77974,37.59917],[126.77977,37.59919],[126.7798,37.59921],[126.77984,37.59925],[126.77989,37.59929],[126.77994,37.59931],[126.78001,37.59932],[126.78007,37.59934],[126.78012,37.59935],[126.78017,37.59937],[126.78022,37.59939],[126.78036,37.59946],[126.78051,37.59953],[126.78063,37.59958],[126.78075,37.59963],[126.78083,37.59967],[126.78104,37.59978],[126.78121,37.59988],[126.78145,37.60001],[126.78165,37.60012],[126.78202,37.60033],[126.78224,37.60046],[126.78243,37.60057],[126.78278,37.60079],[126.7832,37.60105],[126.78356,37.60127],[126.78364,37.60132],[126.78374,37.60139],[126.78388,37.60149],[126.78394,37.60154],[126.78398,37.60158],[126.78417,37.60174],[126.78427,37.60183],[126.78431,37.60187],[126.78432,37.6019],[126.78433,37.60193],[126.78434,37.60197],[126.78433,37.60201],[126.78432,37.60203]]}}]}