{"type":"FeatureCollection","features":[{"type":"Feature","properties":{"class":"major","highway":"secondary","sidewalk":"likely","lanes":1,"name":"행주로","oneway":false},"geometry":{"type":"LineString","coordinates":[[126.82682,37.60282],[126.82726,37.60229]]}},{"type":"Feature","properties":{"class":"minor","highway":"residential","sidewalk":"unknown","lanes":1,"name":"행주산성로","oneway":false},"geometry":{"type":"LineString","coordinates":[[126.82433,37.60076],[126.82432,37.60065],[126.82434,37.60052],[126.82433,37.60039],[126.82427,37.60027],[126.82417,37.60022],[126.8239,37.60018],[126.82373,37.60016],[126.82355,37.60012],[126.82161,37.60012],[126.82149,37.60013],[126.82074,37.60014],[126.82045,37.60014],[126.81917,37.60016],[126.81909,37.60016],[126.81886,37.60017],[126.81876,37.60017],[126.81858,37.60016],[126.81841,37.60014],[126.81793,37.6],[126.81779,37.59994],[126.81767,37.59989],[126.81744,37.59975],[126.8172,37.59961],[126.81706,37.59958],[126.81687,37.59966],[126.81656,37.59986],[126.81639,37.59988],[126.81624,37.59986],[126.81619,37.59985],[126.81559,37.59973],[126.81533,37.59973],[126.81521,37.59975],[126.81498,37.59996],[126.81455,37.60064],[126.8145,37.60094],[126.81452,37.60113],[126.81454,37.60121],[126.81457,37.6013],[126.81471,37.60161],[126.81473,37.60167],[126.81476,37.602],[126.81472,37.60215]]}},{"type":"Feature","properties":{"class":"major","highway":"trunk_link","sidewalk":"likely","lanes":0,"name":"","oneway":true},"geometry":{"type":"LineString","coordinates":[[126.82841,37.60087],[126.82898,37.60033],[126.82927,37.60007],[126.82961,37.5997],[126.83016,37.59927]]}},{"type":"Feature","properties":{"class":"major","highway":"secondary","sidewalk":"likely","lanes":1,"name":"행주로","oneway":true},"geometry":{"type":"LineString","coordinates":[[126.82884,37.60165],[126.82834,37.60227],[126.82794,37.60278],[126.82774,37.60299],[126.82748,37.60321],[126.82728,37.60333],[126.82721,37.60337],[126.8263,37.60388],[126.82625,37.60391],[126.82617,37.60396],[126.82603,37.60406],[126.82583,37.60418],[126.82561,37.60427]]}},{"type":"Feature","properties":{"class":"minor","highway":"residential","sidewalk":"unknown","lanes":0,"name":"행주로15번길","oneway":false},"geometry":{"type":"LineString","coordinates":[[126.82433,37.60076],[126.82454,37.6005],[126.82487,37.60057],[126.82497,37.60057],[126.82507,37.6005],[126.82527,37.6004],[126.82597,37.60003],[126.82646,37.59976],[126.82662,37.59976],[126.82682,37.59989],[126.82696,37.60005],[126.82736,37.60031],[126.82833,37.60077],[126.82841,37.60087]]}},{"type":"Feature","properties":{"class":"minor","highway":"residential","sidewalk":"unknown","lanes":1,"name":"행주산성로","oneway":false},"geometry":{"type":"LineString","coordinates":[[126.82399,37.60612],[126.82394,37.60589],[126.82385,37.60566]]}},{"type":"Feature","properties":{"class":"major","highway":"primary","sidewalk":"likely","lanes":3,"name":"호국로","oneway":true},"geometry":{"type":"LineString","coordinates":[[126.82066,37.60966],[126.82056,37.60945],[126.82024,37.60875],[126.82,37.60839],[126.81975,37.60806],[126.81934,37.60765],[126.81828,37.60662],[126.81801,37.60635],[126.81775,37.6061],[126.81769,37.60604]]}},{"type":"Feature","properties":{"class":"major","highway":"trunk_link","sidewalk":"likely","lanes":0,"name":"","oneway":true},"geometry":{"type":"LineString","coordinates":[[126.82001,37.60536],[126.81957,37.60552]]}},{"type":"Feature","properties":{"class":"major","highway":"trunk_link","sidewalk":"likely","lanes":0,"name":"","oneway":true},"geometry":{"type":"LineString","coordinates":[[126.82024,37.60875],[126.81994,37.60844],[126.81974,37.60823],[126.81952,37.60806],[126.81928,37.60787],[126.81889,37.60765],[126.81856,37.60749],[126.81829,37.6074],[126.81796,37.60732],[126.81724,37.60713],[126.81588,37.60688],[126.81542,37.60684],[126.81496,37.60684],[126.81461,37.60687],[126.81426,37.60692],[126.81392,37.60701],[126.81348,37.60711]]}},{"type":"Feature","properties":{"class":"major","highway":"trunk_link","sidewalk":"likely","lanes":0,"name":"","oneway":true},"geometry":{"type":"LineString","coordinates":[[126.821,37.60497],[126.82001,37.60536]]}},{"type":"Feature","properties":{"class":"major","highway":"trunk_link","sidewalk":"likely","lanes":2,"name":"","oneway":true},"geometry":{"type":"LineString","coordinates":[[126.81492,37.60345],[126.8153,37.60376],[126.81581,37.60414],[126.81593,37.60422],[126.8161,37.60431],[126.81632,37.60438],[126.81654,37.60442],[126.81681,37.60444],[126.81715,37.60443],[126.81761,37.60446],[126.81848,37.60459],[126.81926,37.60467],[126.81991,37.60476],[126.82024,37.60478],[126.82053,37.60478],[126.82087,37.60473],[126.82159,37.60462],[126.82189,37.60457]]}},{"type":"Feature","properties":{"class":"major","highway":"trunk_link","sidewalk":"likely","lanes":0,"name":"","oneway":true},"geometry":{"type":"LineString","coordinates":[[126.82482,37.60377],[126.8252,37.60358],[126.82583,37.60328],[126.82624,37.60305],[126.82664,37.60276],[126.82697,37.60252],[126.82726,37.60229]]}},{"type":"Feature","properties":{"class":"major","highway":"trunk_link","sidewalk":"likely","lanes":0,"name":"","oneway":true},"geometry":{"type":"LineString","coordinates":[[126.83085,37.59869],[126.83049,37.59959],[126.83027,37.60002],[126.82972,37.60064],[126.82884,37.60165]]}},{"type":"Feature","properties":{"class":"major","highway":"secondary_link","sidewalk":"likely","lanes":0,"name":"","oneway":true},"geometry":{"type":"LineString","coordinates":[[126.82385,37.60566],[126.82396,37.60572],[126.82403,37.60573],[126.8241,37.60573],[126.82419,37.60572],[126.8244,37.60565]]}},{"type":"Feature","properties":{"class":"major","highway":"secondary","sidewalk":"likely","lanes":1,"name":"행주로","oneway":false},"geometry":{"type":"LineString","coordinates":[[126.82726,37.60229],[126.82795,37.60146],[126.82811,37.60125]]}},{"type":"Feature","properties":{"class":"minor","highway":"residential","sidewalk":"unknown","lanes":1,"name":"행주산성로","oneway":false},"geometry":{"type":"LineString","coordinates":[[126.82385,37.60566],[126.82381,37.60559],[126.82313,37.60455],[126.82294,37.60415],[126.82291,37.60409],[126.82286,37.60392],[126.82282,37.6036],[126.82286,37.6033],[126.82302,37.60287],[126.82315,37.60267],[126.8234,37.60248],[126.82366,37.60229],[126.82373,37.60217],[126.82377,37.60209],[126.82382,37.60193],[126.82382,37.60176],[126.82378,37.60152],[126.82383,37.60137],[126.82401,37.60119],[126.82418,37.60103],[126.82433,37.60076]]}},{"type":"Feature","properties":{"class":"major","highway":"secondary","sidewalk":"likely","lanes":1,"name":"행주로","oneway":false},"geometry":{"type":"LineString","coordinates":[[126.82561,37.60427],[126.82577,37.60408],[126.82608,37.60372]]}},{"type":"Feature","properties":{"class":"major","highway":"trunk","sidewalk":"likely","lanes":3,"name":"제2자유로","oneway":true},"geometry":{"type":"LineString","coordinates":[[126.81575,37.60735],[126.81671,37.60686],[126.81785,37.60635],[126.81822,37.6062],[126.81925,37.60581],[126.8202,37.60549],[126.82169,37.60509],[126.82302,37.6048],[126.82405,37.60464],[126.82483,37.60454],[126.82554,37.60448],[126.82639,37.60442]]}},{"type":"Feature","properties":{"class":"major","highway":"trunk","sidewalk":"likely","lanes":3,"name":"제2자유로","oneway":true},"geometry":{"type":"LineString","coordinates":[[126.83885,37.60383],[126.83926,37.6037],[126.8402,37.60346],[126.84171,37.60299],[126.84277,37.6026]]}},{"type":"Feature","properties":{"class":"major","highway":"trunk_link","sidewalk":"likely","lanes":1,"name":"","oneway":true},"geometry":{"type":"LineString","coordinates":[[126.83597,37.60501],[126.8359,37.60488],[126.83576,37.60465]]}},{"type":"Feature","properties":{"class":"major","highway":"secondary","sidewalk":"likely","lanes":1,"name":"행주로17번길","oneway":false},"geometry":{"type":"LineString","coordinates":[[126.82811,37.60125],[126.82828,37.60135]]}},{"type":"Feature","properties":{"class":"major","highway":"trunk","sidewalk":"likely","lanes":4,"name":"자유로","oneway":true},"geometry":{"type":"LineString","coordinates":[[126.82338,37.60415],[126.82482,37.60377],[126.82566,37.60355],[126.82606,37.6034],[126.82634,37.60329],[126.82662,37.60315],[126.82686,37.60301],[126.82714,37.60281],[126.82735,37.60263],[126.82758,37.60242],[126.82777,37.6022],[126.82799,37.60193],[126.8289,37.60076],[126.83016,37.59927]]}},{"type":"Feature","properties":{"class":"major","highway":"trunk","sidewalk":"likely","lanes":4,"name":"자유로","oneway":true},"geometry":{"type":"LineString","coordinates":[[126.82345,37.60431],[126.82258,37.60454]]}},{"type":"Feature","properties":{"class":"major","highway":"trunk","sidewalk":"likely","lanes":4,"name":"자유로","oneway":true},"geometry":{"type":"LineString","coordinates":[[126.82258,37.60454],[126.821,37.60497],[126.81995,37.60526]]}},{"type":"Feature","properties":{"class":"major","highway":"trunk_link","sidewalk":"likely","lanes":1,"name":"","oneway":true},"geometry":{"type":"LineString","coordinates":[[126.83013,37.60002],[126.82915,37.60087]]}},{"type":"Feature","properties":{"class":"major","highway":"trunk_link","sidewalk":"likely","lanes":1,"name":"","oneway":true},"geometry":{"type":"LineString","coordinates":[[126.83134,37.59918],[126.83013,37.60002]]}},{"type":"Feature","properties":{"class":"minor","highway":"residential","sidewalk":"unknown","lanes":0,"name":"행주로83번길","oneway":false},"geometry":{"type":"LineString","coordinates":[[126.82087,37.60621],[126.82146,37.60616],[126.82198,37.60613],[126.82243,37.60611],[126.82273,37.60612],[126.82313,37.60608],[126.82344,37.60602],[126.82359,37.60601],[126.82363,37.60601]]}},{"type":"Feature","properties":{"class":"major","highway":"secondary","sidewalk":"likely","lanes":2,"name":"행주로","oneway":false},"geometry":{"type":"LineString","coordinates":[[126.8244,37.60565],[126.82399,37.60612]]}},{"type":"Feature","properties":{"class":"major","highway":"secondary","sidewalk":"likely","lanes":2,"name":"행주로","oneway":false},"geometry":{"type":"LineString","coordinates":[[126.82561,37.60427],[126.82522,37.60472],[126.825,37.60497],[126.8249,37.60508],[126.82448,37.60557],[126.8244,37.60565]]}},{"type":"Feature","properties":{"class":"major","highway":"secondary","sidewalk":"likely","lanes":2,"name":"행주로","oneway":false},"geometry":{"type":"LineString","coordinates":[[126.82399,37.60612],[126.82393,37.60622],[126.82311,37.60741],[126.82306,37.60748],[126.82261,37.60814],[126.82192,37.60912],[126.8217,37.60949],[126.8216,37.60971]]}},{"type":"Feature","properties":{"class":"major","highway":"trunk","sidewalk":"likely","lanes":4,"name":"자유로","oneway":true},"geometry":{"type":"LineString","coordinates":[[126.81984,37.60511],[126.82189,37.60457]]}},{"type":"Feature","properties":{"class":"major","highway":"trunk","sidewalk":"likely","lanes":4,"name":"자유로","oneway":true},"geometry":{"type":"LineString","coordinates":[[126.82252,37.60439],[126.82338,37.60415]]}},{"type":"Feature","properties":{"class":"major","highway":"trunk","sidewalk":"likely","lanes":4,"name":"자유로","oneway":true},"geometry":{"type":"LineString","coordinates":[[126.82189,37.60457],[126.82252,37.60439]]}},{"type":"Feature","properties":{"class":"major","highway":"trunk_link","sidewalk":"likely","lanes":1,"name":"","oneway":true},"geometry":{"type":"LineString","coordinates":[[126.84111,37.60712],[126.84074,37.60677],[126.84007,37.6062],[126.83982,37.60583],[126.83932,37.60501],[126.83875,37.60414]]}},{"type":"Feature","properties":{"class":"major","highway":"trunk_link","sidewalk":"likely","lanes":1,"name":"","oneway":true},"geometry":{"type":"LineString","coordinates":[[126.83221,37.6046],[126.83242,37.60454],[126.83281,37.6045],[126.8336,37.60446],[126.83409,37.6044],[126.83473,37.60432],[126.83536,37.6042],[126.83556,37.60417],[126.83562,37.60421],[126.83565,37.60428]]}},{"type":"Feature","properties":{"class":"major","highway":"trunk_link","sidewalk":"likely","lanes":1,"name":"","oneway":true},"geometry":{"type":"LineString","coordinates":[[126.84005,37.60364],[126.83971,37.60379],[126.83915,37.60398],[126.83755,37.6044],[126.83608,37.60474],[126.83602,37.60479],[126.83601,37.6049]]}},{"type":"Feature","properties":{"class":"minor","highway":"residential","sidewalk":"unknown","lanes":0,"name":"행주산성로","oneway":false},"geometry":{"type":"LineString","coordinates":[[126.82161,37.60012],[126.8216,37.59959],[126.82139,37.59916],[126.82127,37.59892],[126.82102,37.59857],[126.8201,37.59727]]}},{"type":"Feature","properties":{"class":"major","highway":"trunk","sidewalk":"likely","lanes":4,"name":"자유로","oneway":true},"geometry":{"type":"LineString","coordinates":[[126.83085,37.59869],[126.82915,37.60087],[126.8282,37.60201],[126.82797,37.60231],[126.82778,37.60252],[126.82754,37.60277],[126.82731,37.60295],[126.8271,37.60308],[126.82687,37.60322],[126.82661,37.60337],[126.8263,37.60351],[126.82593,37.60363],[126.82345,37.60431]]}},{"type":"Feature","properties":{"class":"major","highway":"motorway_link","sidewalk":"likely","lanes":3,"name":"","oneway":true},"geometry":{"type":"LineString","coordinates":[[126.83882,37.60412],[126.83848,37.6037]]}},{"type":"Feature","properties":{"class":"major","highway":"motorway_link","sidewalk":"likely","lanes":3,"name":"","oneway":true},"geometry":{"type":"LineString","coordinates":[[126.83928,37.60471],[126.83882,37.60412]]}},{"type":"Feature","properties":{"class":"major","highway":"secondary","sidewalk":"likely","lanes":1,"name":"행주로","oneway":true},"geometry":{"type":"LineString","coordinates":[[126.82811,37.60125],[126.82841,37.60087]]}},{"type":"Feature","properties":{"class":"minor","highway":"residential","sidewalk":"unknown","lanes":0,"name":"행주로17번길","oneway":false},"geometry":{"type":"LineString","coordinates":[[126.82772,37.60129],[126.82745,37.60097],[126.82735,37.60084],[126.8272,37.60055],[126.8271,37.60043],[126.82694,37.60022],[126.82687,37.60006],[126.82682,37.59989]]}},{"type":"Feature","properties":{"class":"minor","highway":"residential","sidewalk":"unknown","lanes":0,"name":"행주로17번길","oneway":false},"geometry":{"type":"LineString","coordinates":[[126.82794,37.60111],[126.82772,37.60129],[126.82751,37.60155],[126.8274,37.60167],[126.82727,37.60179],[126.8271,37.60189],[126.82691,37.60198],[126.82675,37.60205],[126.82637,37.60223],[126.82621,37.60231],[126.82614,37.60239],[126.82598,37.60258],[126.82562,37.60304],[126.82531,37.60334],[126.82515,37.60353]]}},{"type":"Feature","properties":{"class":"minor","highway":"residential","sidewalk":"unknown","lanes":0,"name":"","oneway":false},"geometry":{"type":"LineString","coordinates":[[126.82723,37.60348],[126.82721,37.60337]]}},{"type":"Feature","properties":{"class":"minor","highway":"residential","sidewalk":"unknown","lanes":0,"name":"행주로17번길","oneway":false},"geometry":{"type":"LineString","coordinates":[[126.82735,37.60084],[126.82759,37.60091],[126.82781,37.60102],[126.82794,37.60111],[126.82811,37.60125]]}},{"type":"Feature","properties":{"class":"minor","highway":"residential","sidewalk":"unknown","lanes":0,"name":"","oneway":false},"geometry":{"type":"LineString","coordinates":[[126.82772,37.60129],[126.82795,37.60146]]}},{"type":"Feature","properties":{"class":"major","highway":"secondary","sidewalk":"likely","lanes":1,"name":"","oneway":false},"geometry":{"type":"LineString","coordinates":[[126.82608,37.60372],[126.82682,37.60282]]}},{"type":"Feature","properties":{"class":"major","highway":"trunk","sidewalk":"likely","lanes":3,"name":"제2자유로","oneway":true},"geometry":{"type":"LineString","coordinates":[[126.82639,37.60442],[126.82698,37.60441],[126.82769,37.6044],[126.82846,37.60441],[126.82913,37.60444],[126.82954,37.60446],[126.83059,37.60454],[126.83134,37.60457],[126.83221,37.6046],[126.83267,37.6046],[126.83349,37.60459],[126.83445,37.60452],[126.83502,37.60448],[126.83583,37.60438],[126.83631,37.60432],[126.83788,37.60404],[126.83885,37.60383]]}},{"type":"Feature","properties":{"class":"major","highway":"trunk_link","sidewalk":"likely","lanes":2,"name":"","oneway":true},"geometry":{"type":"LineString","coordinates":[[126.84007,37.6062],[126.83992,37.60625],[126.83924,37.60641],[126.83867,37.60649],[126.83816,37.60648],[126.83772,37.60639],[126.83728,37.60625],[126.8371,37.60618],[126.83683,37.60601],[126.83657,37.60579],[126.83632,37.60553],[126.83617,37.60533],[126.83603,37.60511],[126.83597,37.60501]]}},{"type":"Feature","properties":{"class":"major","highway":"trunk_link","sidewalk":"likely","lanes":1,"name":"","oneway":true},"geometry":{"type":"LineString","coordinates":[[126.8359,37.60488],[126.83571,37.60479],[126.83549,37.60478],[126.83375,37.60478],[126.83284,37.6047]]}},{"type":"Feature","properties":{"class":"major","highway":"trunk_link","sidewalk":"likely","lanes":1,"name":"","oneway":true},"geometry":{"type":"LineString","coordinates":[[126.83565,37.60428],[126.83582,37.60464]]}},{"type":"Feature","properties":{"class":"major","highway":"trunk_link","sidewalk":"likely","lanes":1,"name":"","oneway":true},"geometry":{"type":"LineString","coordinates":[[126.83556,37.60417],[126.83572,37.60414],[126.83795,37.60386],[126.8383,37.60383],[126.83926,37.6037]]}},{"type":"Feature","properties":{"class":"major","highway":"trunk_link","sidewalk":"likely","lanes":1,"name":"","oneway":true},"geometry":{"type":"LineString","coordinates":[[126.83559,37.60431],[126.83556,37.60422],[126.83556,37.60417]]}},{"type":"Feature","properties":{"class":"major","highway":"trunk_link","sidewalk":"likely","lanes":1,"name":"","oneway":true},"geometry":{"type":"LineString","coordinates":[[126.83582,37.60464],[126.83601,37.6049],[126.83623,37.60528],[126.83639,37.6055],[126.83663,37.60576],[126.83688,37.60597],[126.83713,37.60613],[126.83728,37.60621],[126.83752,37.60629],[126.83782,37.60638],[126.83818,37.60644],[126.83855,37.60645],[126.83885,37.60642],[126.83924,37.60637],[126.83985,37.60622],[126.84007,37.6062]]}},{"type":"Feature","properties":{"class":"minor","highway":"residential","sidewalk":"unknown","lanes":0,"name":"","oneway":false},"geometry":{"type":"LineString","coordinates":[[126.81998,37.6056],[126.81998,37.60581],[126.82,37.60612],[126.82087,37.60621]]}},{"type":"Feature","properties":{"class":"minor","highway":"residential","sidewalk":"unknown","lanes":0,"name":"행주산성로116번길","oneway":false},"geometry":{"type":"LineString","coordinates":[[126.81909,37.60016],[126.81928,37.60038],[126.81931,37.6006],[126.81938,37.60096],[126.81933,37.60151],[126.81925,37.60193],[126.81993,37.60199],[126.82001,37.60188],[126.82007,37.60165],[126.82013,37.60162]]}},{"type":"Feature","properties":{"class":"minor","highway":"residential","sidewalk":"unknown","lanes":0,"name":"행주로15번길","oneway":false},"geometry":{"type":"LineString","coordinates":[[126.82527,37.6004],[126.82535,37.60059],[126.82543,37.60076],[126.82551,37.60076],[126.8256,37.60078],[126.82571,37.601],[126.82573,37.60129],[126.8264,37.60127]]}},{"type":"Feature","properties":{"class":"major","highway":"secondary","sidewalk":"likely","lanes":1,"name":"","oneway":false},"geometry":{"type":"LineString","coordinates":[[126.82828,37.60135],[126.82872,37.6016]]}},{"type":"Feature","properties":{"class":"major","highway":"secondary","sidewalk":"likely","lanes":1,"name":"행주로17번길","oneway":false},"geometry":{"type":"LineString","coordinates":[[126.82872,37.6016],[126.82884,37.60165]]}},{"type":"Feature","properties":{"class":"alley","highway":"service","sidewalk":"unknown","lanes":0,"name":"행주국수","oneway":false},"geometry":{"type":"LineString","coordinates":[[126.82772,37.60129],[126.82769,37.6013],[126.82768,37.6013]]}},{"type":"Feature","properties":{"class":"minor","highway":"residential","sidewalk":"unknown","lanes":1,"name":"행주로83번길","oneway":false},"geometry":{"type":"LineString","coordinates":[[126.82383,37.60602],[126.82399,37.60612]]}},{"type":"Feature","properties":{"class":"minor","highway":"residential","sidewalk":"unknown","lanes":1,"name":"","oneway":false},"geometry":{"type":"LineString","coordinates":[[126.82363,37.60601],[126.82381,37.60602]]}},{"type":"Feature","properties":{"class":"minor","highway":"unclassified","sidewalk":"unknown","lanes":0,"name":"행주산성로","oneway":false},"geometry":{"type":"LineString","coordinates":[[126.82355,37.60012],[126.82357,37.59973],[126.82356,37.59942],[126.8237,37.59927],[126.82393,37.59916],[126.82401,37.59893],[126.82415,37.59879],[126.82422,37.5987],[126.82428,37.59861],[126.82431,37.59829],[126.82438,37.59817],[126.82454,37.59809]]}},{"type":"Feature","properties":{"class":"minor","highway":"unclassified","sidewalk":"unknown","lanes":0,"name":"","oneway":false},"geometry":{"type":"LineString","coordinates":[[126.82713,37.60697],[126.82719,37.6047],[126.82719,37.60467]]}},{"type":"Feature","properties":{"class":"minor","highway":"unclassified","sidewalk":"unknown","lanes":0,"name":"","oneway":false},"geometry":{"type":"LineString","coordinates":[[126.8272,37.60418],[126.8272,37.60413],[126.82723,37.60348]]}},{"type":"Feature","properties":{"class":"minor","highway":"unclassified","sidewalk":"unknown","lanes":0,"name":"","oneway":false},"geometry":{"type":"LineString","coordinates":[[126.82719,37.60467],[126.8272,37.60418]]}},{"type":"Feature","properties":{"class":"minor","highway":"unclassified","sidewalk":"unknown","lanes":0,"name":"","oneway":false},"geometry":{"type":"LineString","coordinates":[[126.82963,37.6047],[126.82961,37.60432]]}},{"type":"Feature","properties":{"class":"minor","highway":"unclassified","sidewalk":"unknown","lanes":0,"name":"","oneway":false},"geometry":{"type":"LineString","coordinates":[[126.83199,37.60478],[126.832,37.60448]]}},{"type":"Feature","properties":{"class":"minor","highway":"unclassified","sidewalk":"unknown","lanes":0,"name":"","oneway":false},"geometry":{"type":"LineString","coordinates":[[126.83437,37.60483],[126.83439,37.60426]]}},{"type":"Feature","properties":{"class":"minor","highway":"unclassified","sidewalk":"unknown","lanes":0,"name":"행주산성로116번길","oneway":false},"geometry":{"type":"LineString","coordinates":[[126.82312,37.60504],[126.82309,37.60498],[126.82261,37.60425],[126.82203,37.60339],[126.8219,37.6032],[126.82185,37.60311],[126.82133,37.60229],[126.82128,37.60216],[126.82127,37.60207],[126.82122,37.60199],[126.821,37.6018],[126.82024,37.60163],[126.82013,37.60162]]}},{"type":"Feature","properties":{"class":"minor","highway":"unclassified","sidewalk":"unknown","lanes":0,"name":"","oneway":false},"geometry":{"type":"LineString","coordinates":[[126.82185,37.60311],[126.82191,37.6031]]}},{"type":"Feature","properties":{"class":"minor","highway":"unclassified","sidewalk":"unknown","lanes":0,"name":"","oneway":false},"geometry":{"type":"LineString","coordinates":[[126.82201,37.60308],[126.82208,37.60306],[126.82222,37.60318],[126.82282,37.60406],[126.82291,37.60409]]}},{"type":"Feature","properties":{"class":"minor","highway":"unclassified","sidewalk":"unknown","lanes":0,"name":"","oneway":false},"geometry":{"type":"LineString","coordinates":[[126.82191,37.6031],[126.82201,37.60308]]}},{"type":"Feature","properties":{"class":"minor","highway":"unclassified","sidewalk":"unknown","lanes":0,"name":"행주산성로116번길","oneway":false},"geometry":{"type":"LineString","coordinates":[[126.81938,37.60351],[126.81948,37.60335],[126.81967,37.60306],[126.8198,37.60289],[126.81988,37.60269],[126.82003,37.60206],[126.82005,37.60201],[126.82012,37.60187],[126.82015,37.60171],[126.82013,37.60162]]}},{"type":"Feature","properties":{"class":"major","highway":"trunk","sidewalk":"likely","lanes":3,"name":"제2자유로","oneway":true},"geometry":{"type":"LineString","coordinates":[[126.84279,37.60273],[126.84181,37.60308],[126.84065,37.60346],[126.84005,37.60364],[126.83898,37.60392],[126.83806,37.60412],[126.83714,37.60429],[126.83643,37.60439],[126.83543,37.60453],[126.83454,37.60461],[126.83384,37.60466],[126.83311,37.6047],[126.83284,37.6047],[126.83137,37.60471],[126.83059,37.60467],[126.82982,37.60463],[126.82921,37.60457],[126.82841,37.60453],[126.82763,37.60452],[126.82697,37.60453],[126.82639,37.60455]]}},{"type":"Feature","properties":{"class":"major","highway":"trunk","sidewalk":"likely","lanes":3,"name":"제2자유로","oneway":true},"geometry":{"type":"LineString","coordinates":[[126.82639,37.60455],[126.82553,37.60461],[126.82483,37.60468],[126.82408,37.60476],[126.82327,37.6049],[126.82263,37.60502],[126.82189,37.60518],[126.82125,37.60533],[126.82044,37.60555],[126.81945,37.60587],[126.81824,37.60632],[126.81732,37.60671],[126.81643,37.60715],[126.81584,37.60745]]}},{"type":"Feature","properties":{"class":"major","highway":"trunk_link","sidewalk":"likely","lanes":1,"name":"","oneway":true},"geometry":{"type":"LineString","coordinates":[[126.83962,37.60482],[126.83981,37.605],[126.84023,37.60537],[126.84082,37.60587],[126.84094,37.60599],[126.84102,37.60612],[126.84128,37.60654],[126.84163,37.6071]]}},{"type":"Feature","properties":{"class":"major","highway":"trunk","sidewalk":"likely","lanes":3,"name":"권율대로","oneway":true},"geometry":{"type":"LineString","coordinates":[[126.84037,37.60602],[126.83944,37.60495]]}},{"type":"Feature","properties":{"class":"major","highway":"motorway","sidewalk":"likely","lanes":2,"name":"수원문산고속도로","oneway":false},"geometry":{"type":"LineString","coordinates":[[126.83795,37.60191],[126.83741,37.60154],[126.83715,37.60132]]}},{"type":"Feature","properties":{"class":"major","highway":"motorway","sidewalk":"likely","lanes":2,"name":"수원문산고속도로","oneway":false},"geometry":{"type":"LineString","coordinates":[[126.8358,37.59947],[126.83621,37.60018],[126.83649,37.60051],[126.83681,37.60085],[126.83698,37.60101]]}},{"type":"Feature","properties":{"class":"minor","highway":"residential","sidewalk":"unknown","lanes":0,"name":"행주로83번길","oneway":false},"geometry":{"type":"LineString","coordinates":[[126.81998,37.60581],[126.8207,37.6056],[126.82076,37.60558],[126.82149,37.60539],[126.82243,37.60517],[126.82312,37.60504]]}},{"type":"Feature","properties":{"class":"major","highway":"motorway","sidewalk":"likely","lanes":2,"name":"수원문산고속도로","oneway":false},"geometry":{"type":"LineString","coordinates":[[126.83605,37.60016],[126.83569,37.59951]]}},{"type":"Feature","properties":{"class":"major","highway":"motorway_link","sidewalk":"likely","lanes":0,"name":"","oneway":true},"geometry":{"type":"LineString","coordinates":[[126.8358,37.59947],[126.83616,37.59993],[126.8364,37.60015],[126.83673,37.60041],[126.8372,37.60077]]}},{"type":"Feature","properties":{"class":"major","highway":"motorway_link","sidewalk":"likely","lanes":0,"name":"","oneway":true},"geometry":{"type":"LineString","coordinates":[[126.8372,37.60077],[126.83748,37.60098]]}},{"type":"Feature","properties":{"class":"major","highway":"motorway_link","sidewalk":"likely","lanes":0,"name":"","oneway":true},"geometry":{"type":"LineString","coordinates":[[126.83748,37.60098],[126.83767,37.60115],[126.83778,37.60127],[126.83787,37.6014],[126.83795,37.60152],[126.838,37.6017],[126.83804,37.60188],[126.83805,37.60217],[126.83808,37.60244],[126.8381,37.60268],[126.83817,37.603],[126.83824,37.60319],[126.83831,37.60334],[126.83844,37.60352],[126.83855,37.60368]]}},{"type":"Feature","properties":{"class":"major","highway":"motorway_link","sidewalk":"likely","lanes":0,"name":"","oneway":true},"geometry":{"type":"LineString","coordinates":[[126.83855,37.60368],[126.83889,37.6041]]}},{"type":"Feature","properties":{"class":"major","highway":"motorway_link","sidewalk":"likely","lanes":0,"name":"","oneway":true},"geometry":{"type":"LineString","coordinates":[[126.83889,37.6041],[126.83939,37.60471],[126.83964,37.60499]]}},{"type":"Feature","properties":{"class":"major","highway":"trunk_link","sidewalk":"likely","lanes":1,"name":"","oneway":true},"geometry":{"type":"LineString","coordinates":[[126.83756,37.60092],[126.83773,37.60108],[126.83785,37.60123],[126.83795,37.60135],[126.83803,37.60151],[126.8381,37.60167],[126.83814,37.60192],[126.83817,37.60215],[126.83821,37.6027],[126.83828,37.60304],[126.83832,37.60317],[126.83837,37.60331],[126.83851,37.60351],[126.83863,37.60365]]}},{"type":"Feature","properties":{"class":"major","highway":"trunk_link","sidewalk":"likely","lanes":1,"name":"","oneway":true},"geometry":{"type":"LineString","coordinates":[[126.83935,37.60456],[126.83944,37.60465],[126.83962,37.60482]]}},{"type":"Feature","properties":{"class":"major","highway":"trunk_link","sidewalk":"likely","lanes":1,"name":"","oneway":true},"geometry":{"type":"LineString","coordinates":[[126.83863,37.60365],[126.83897,37.60408]]}},{"type":"Feature","properties":{"class":"major","highway":"trunk_link","sidewalk":"likely","lanes":1,"name":"","oneway":true},"geometry":{"type":"LineString","coordinates":[[126.83728,37.6007],[126.83756,37.60092]]}},{"type":"Feature","properties":{"class":"major","highway":"trunk_link","sidewalk":"likely","lanes":1,"name":"","oneway":true},"geometry":{"type":"LineString","coordinates":[[126.83589,37.59943],[126.83618,37.59985],[126.83646,37.60009],[126.83683,37.60036],[126.83728,37.6007]]}},{"type":"Feature","properties":{"class":"major","highway":"motorway_link","sidewalk":"likely","lanes":0,"name":"","oneway":true},"geometry":{"type":"LineString","coordinates":[[126.83848,37.6037],[126.83828,37.60341],[126.83814,37.60318],[126.83806,37.60291],[126.83802,37.60265],[126.83798,37.60242],[126.83792,37.60218],[126.83784,37.60202],[126.83772,37.60187],[126.83741,37.60154]]}},{"type":"Feature","properties":{"class":"major","highway":"trunk_link","sidewalk":"likely","lanes":2,"name":"","oneway":true},"geometry":{"type":"LineString","coordinates":[[126.83875,37.60414],[126.83841,37.60372]]}},{"type":"Feature","properties":{"class":"major","highway":"trunk_link","sidewalk":"likely","lanes":2,"name":"","oneway":true},"geometry":{"type":"LineString","coordinates":[[126.83944,37.60495],[126.83875,37.60414]]}},{"type":"Feature","properties":{"class":"major","highway":"motorway","sidewalk":"likely","lanes":2,"name":"수원문산고속도로","oneway":false},"geometry":{"type":"LineString","coordinates":[[126.83792,37.60173],[126.83828,37.60194]]}},{"type":"Feature","properties":{"class":"major","highway":"motorway","sidewalk":"likely","lanes":2,"name":"수원문산고속도로","oneway":false},"geometry":{"type":"LineString","coordinates":[[126.83828,37.60194],[126.83879,37.6022],[126.83936,37.60241],[126.83992,37.60259],[126.84059,37.60282]]}},{"type":"Feature","properties":{"class":"major","highway":"motorway","sidewalk":"likely","lanes":2,"name":"수원문산고속도로","oneway":false},"geometry":{"type":"LineString","coordinates":[[126.83831,37.60209],[126.83795,37.60191]]}},{"type":"Feature","properties":{"class":"major","highway":"motorway","sidewalk":"likely","lanes":2,"name":"수원문산고속도로","oneway":false},"geometry":{"type":"LineString","coordinates":[[126.84047,37.6029],[126.83942,37.60257],[126.83885,37.60235],[126.83831,37.60209]]}},{"type":"Feature","properties":{"class":"major","highway":"trunk","sidewalk":"likely","lanes":3,"name":"권율대로","oneway":true},"geometry":{"type":"LineString","coordinates":[[126.83964,37.60499],[126.84051,37.60599]]}},{"type":"Feature","properties":{"class":"major","highway":"trunk_link","sidewalk":"likely","lanes":1,"name":"","oneway":true},"geometry":{"type":"LineString","coordinates":[[126.83576,37.60465],[126.83559,37.60431]]}},{"type":"Feature","properties":{"class":"major","highway":"motorway","sidewalk":"likely","lanes":2,"name":"수원문산고속도로","oneway":false},"geometry":{"type":"LineString","coordinates":[[126.83726,37.60125],[126.83751,37.60146],[126.83792,37.60173]]}},{"type":"Feature","properties":{"class":"major","highway":"motorway","sidewalk":"likely","lanes":2,"name":"수원문산고속도로","oneway":false},"geometry":{"type":"LineString","coordinates":[[126.83698,37.60101],[126.83726,37.60125]]}},{"type":"Feature","properties":{"class":"major","highway":"motorway","sidewalk":"likely","lanes":2,"name":"수원문산고속도로","oneway":false},"geometry":{"type":"LineString","coordinates":[[126.83687,37.60109],[126.83675,37.601],[126.83656,37.60081],[126.83634,37.60057],[126.83605,37.60016]]}},{"type":"Feature","properties":{"class":"major","highway":"motorway","sidewalk":"likely","lanes":2,"name":"수원문산고속도로","oneway":false},"geometry":{"type":"LineString","coordinates":[[126.83715,37.60132],[126.83687,37.60109]]}},{"type":"Feature","properties":{"class":"major","highway":"trunk_link","sidewalk":"likely","lanes":1,"name":"","oneway":true},"geometry":{"type":"LineString","coordinates":[[126.83897,37.60408],[126.83935,37.60456],[126.83953,37.60484],[126.83964,37.60499]]}},{"type":"Feature","properties":{"class":"major","highway":"motorway_link","sidewalk":"likely","lanes":3,"name":"","oneway":true},"geometry":{"type":"LineString","coordinates":[[126.83944,37.60495],[126.83928,37.60471]]}},{"type":"Feature","properties":{"class":"minor","highway":"unclassified","sidewalk":"unknown","lanes":0,"name":"행주로83번길","oneway":false},"geometry":{"type":"LineString","coordinates":[[126.82312,37.60504],[126.82341,37.6055],[126.82358,37.60575],[126.82363,37.60587],[126.82363,37.60601]]}},{"type":"Feature","properties":{"class":"minor","highway":"residential","sidewalk":"unknown","lanes":1,"name":"행주로83번길","oneway":false},"geometry":{"type":"LineString","coordinates":[[126.82381,37.60602],[126.82383,37.60602]]}},{"type":"Feature","properties":{"class":"minor","highway":"residential","sidewalk":"unknown","lanes":0,"name":"행주산성로","oneway":false},"geometry":{"type":"LineString","coordinates":[[126.82472,37.60414],[126.82465,37.60424],[126.82418,37.60485],[126.82398,37.60522],[126.82381,37.60559]]}},{"type":"Feature","properties":{"class":"minor","highway":"residential","sidewalk":"unknown","lanes":0,"name":"","oneway":false},"geometry":{"type":"LineString","coordinates":[[126.82515,37.60353],[126.82472,37.60414]]}},{"type":"Feature","properties":{"class":"major","highway":"trunk_link","sidewalk":"likely","lanes":2,"name":"","oneway":true},"geometry":{"type":"LineString","coordinates":[[126.83841,37.60372],[126.83702,37.60175]]}},{"type":"Feature","properties":{"class":"major","highway":"trunk_link","sidewalk":"likely","lanes":2,"name":"","oneway":true},"geometry":{"type":"LineString","coordinates":[[126.83702,37.60175],[126.83655,37.60102]]}},{"type":"Feature","properties":{"class":"minor","highway":"unclassified","sidewalk":"unknown","lanes":0,"name":"행주로","oneway":false},"geometry":{"type":"LineString","coordinates":[[126.82615,37.60472],[126.82625,37.60498],[126.82638,37.60508],[126.82642,37.60522],[126.82621,37.60529],[126.82606,37.60533]]}},{"type":"Feature","properties":{"class":"minor","highway":"unclassified","sidewalk":"unknown","lanes":0,"name":"","oneway":false},"geometry":{"type":"LineString","coordinates":[[126.83149,37.59843],[126.83136,37.59847],[126.83129,37.59851],[126.83119,37.59861],[126.83086,37.59904],[126.83065,37.59943],[126.83039,37.59999],[126.82965,37.60087],[126.82899,37.60161],[126.82884,37.60165]]}},{"type":"Feature","properties":{"class":"minor","highway":"unclassified","sidewalk":"unknown","lanes":0,"name":"","oneway":false},"geometry":{"type":"LineString","coordinates":[[126.82972,37.6009],[126.82965,37.60087]]}},{"type":"Feature","properties":{"class":"minor","highway":"residential","sidewalk":"unknown","lanes":0,"name":"행주로83번길","oneway":false},"geometry":{"type":"LineString","coordinates":[[126.82076,37.60558],[126.82081,37.60571],[126.82078,37.60591],[126.82087,37.60621],[126.82096,37.6064],[126.82102,37.6066],[126.82099,37.60696]]}},{"type":"Feature","properties":{"class":"minor","highway":"residential","sidewalk":"unknown","lanes":0,"name":"행주로83번길","oneway":false},"geometry":{"type":"LineString","coordinates":[[126.82102,37.6066],[126.82134,37.60658],[126.82162,37.60657]]}},{"type":"Feature","properties":{"class":"minor","highway":"residential","sidewalk":"unknown","lanes":0,"name":"행주로83번길","oneway":false},"geometry":{"type":"LineString","coordinates":[[126.82198,37.60613],[126.82208,37.60657],[126.82202,37.60664],[126.82205,37.60677]]}},{"type":"Feature","properties":{"class":"minor","highway":"residential","sidewalk":"unknown","lanes":0,"name":"","oneway":false},"geometry":{"type":"LineString","coordinates":[[126.82208,37.60657],[126.82279,37.60656]]}},{"type":"Feature","properties":{"class":"minor","highway":"residential","sidewalk":"unknown","lanes":0,"name":"행주로99번길","oneway":false},"geometry":{"type":"LineString","coordinates":[[126.81945,37.6075],[126.81958,37.60738],[126.81997,37.60725],[126.82027,37.60718],[126.82075,37.60715],[126.82093,37.60709],[126.82099,37.60696],[126.82123,37.60692],[126.8215,37.60694],[126.82165,37.60701],[126.82179,37.60719],[126.82191,37.60718],[126.82209,37.60731],[126.82236,37.60734],[126.82262,37.60725],[126.82276,37.60727],[126.82283,37.60728]]}},{"type":"Feature","properties":{"class":"minor","highway":"unclassified","sidewalk":"unknown","lanes":0,"name":"행주로83번길","oneway":false},"geometry":{"type":"LineString","coordinates":[[126.82363,37.60601],[126.82359,37.60615],[126.82336,37.60647],[126.82276,37.60727]]}},{"type":"Feature","properties":{"class":"minor","highway":"residential","sidewalk":"unknown","lanes":0,"name":"","oneway":false},"geometry":{"type":"LineString","coordinates":[[126.81993,37.60199],[126.82005,37.60201]]}},{"type":"Feature","properties":{"class":"minor","highway":"residential","sidewalk":"unknown","lanes":0,"name":"행주산성로","oneway":false},"geometry":{"type":"LineString","coordinates":[[126.82577,37.60408],[126.82557,37.60402],[126.82541,37.60401],[126.82488,37.60418],[126.82465,37.60424],[126.8242,37.60435]]}},{"type":"Feature","properties":{"class":"minor","highway":"residential","sidewalk":"unknown","lanes":0,"name":"행주로15번길","oneway":false},"geometry":{"type":"LineString","coordinates":[[126.82736,37.60031],[126.82753,37.60028],[126.82787,37.60032],[126.82807,37.60024],[126.8282,37.60018],[126.82828,37.60015],[126.82863,37.60007],[126.82886,37.59994],[126.82924,37.59981],[126.82929,37.59987],[126.82875,37.60035],[126.82855,37.60053],[126.82845,37.60064],[126.82833,37.60077],[126.82794,37.60111]]}},{"type":"Feature","properties":{"class":"minor","highway":"residential","sidewalk":"unknown","lanes":0,"name":"행주로15번길","oneway":false},"geometry":{"type":"LineString","coordinates":[[126.8271,37.60043],[126.82685,37.60059],[126.82678,37.60064],[126.82668,37.60066],[126.82658,37.60064],[126.82628,37.60053]]}},{"type":"Feature","properties":{"class":"minor","highway":"residential","sidewalk":"unknown","lanes":0,"name":"","oneway":false},"geometry":{"type":"LineString","coordinates":[[126.82571,37.601],[126.82585,37.60092],[126.82602,37.60086],[126.82615,37.60087]]}},{"type":"Feature","properties":{"class":"minor","highway":"residential","sidewalk":"unknown","lanes":0,"name":"","oneway":false},"geometry":{"type":"LineString","coordinates":[[126.82691,37.60198],[126.82674,37.60144],[126.82622,37.60153],[126.82599,37.60156],[126.82565,37.60152]]}},{"type":"Feature","properties":{"class":"minor","highway":"residential","sidewalk":"unknown","lanes":0,"name":"행주로17번길","oneway":false},"geometry":{"type":"LineString","coordinates":[[126.82614,37.60239],[126.82606,37.60237],[126.82584,37.60241],[126.82556,37.60239],[126.82531,37.60227],[126.82491,37.60236],[126.82466,37.60239],[126.82439,37.60234],[126.82389,37.60229],[126.82366,37.60229]]}},{"type":"Feature","properties":{"class":"minor","highway":"residential","sidewalk":"unknown","lanes":0,"name":"행주로17번길","oneway":false},"geometry":{"type":"LineString","coordinates":[[126.82389,37.60229],[126.82373,37.60217]]}},{"type":"Feature","properties":{"class":"minor","highway":"residential","sidewalk":"unknown","lanes":0,"name":"행주로17번길","oneway":false},"geometry":{"type":"LineString","coordinates":[[126.82531,37.60227],[126.82545,37.60179],[126.82541,37.60166]]}},{"type":"Feature","properties":{"class":"minor","highway":"residential","sidewalk":"unknown","lanes":0,"name":"행주로17번길","oneway":false},"geometry":{"type":"LineString","coordinates":[[126.82545,37.60179],[126.82559,37.6018]]}},{"type":"Feature","properties":{"class":"alley","highway":"living_street","sidewalk":"unknown","lanes":0,"name":"","oneway":false},"geometry":{"type":"LineString","coordinates":[[126.82628,37.60053],[126.8262,37.60048],[126.82618,37.60044],[126.82617,37.60038],[126.82615,37.60033],[126.82614,37.60027],[126.82612,37.60024],[126.82608,37.60018],[126.82607,37.60013],[126.82602,37.60007],[126.82597,37.60003]]}},{"type":"Feature","properties":{"class":"minor","highway":"unclassified","sidewalk":"unknown","lanes":0,"name":"","oneway":false},"geometry":{"type":"LineString","coordinates":[[126.82845,37.60064],[126.82833,37.60049]]}},{"type":"Feature","properties":{"class":"minor","highway":"residential","sidewalk":"unknown","lanes":0,"name":"","oneway":false},"geometry":{"type":"LineString","coordinates":[[126.82203,37.60339],[126.82196,37.60351],[126.82169,37.60378],[126.82153,37.60386],[126.82147,37.60406],[126.82159,37.60462]]}},{"type":"Feature","properties":{"class":"minor","highway":"unclassified","sidewalk":"unknown","lanes":0,"name":"","oneway":false},"geometry":{"type":"LineString","coordinates":[[126.82294,37.60415],[126.82279,37.60419]]}},{"type":"Feature","properties":{"class":"minor","highway":"unclassified","sidewalk":"unknown","lanes":0,"name":"","oneway":false},"geometry":{"type":"LineString","coordinates":[[126.82279,37.60419],[126.82267,37.60423]]}},{"type":"Feature","properties":{"class":"minor","highway":"unclassified","sidewalk":"unknown","lanes":0,"name":"","oneway":false},"geometry":{"type":"LineString","coordinates":[[126.82267,37.60423],[126.82261,37.60425]]}},{"type":"Feature","properties":{"class":"alley","highway":"service","sidewalk":"no","lanes":0,"name":"","oneway":false},"geometry":{"type":"LineString","coordinates":[[126.82454,37.6005],[126.82457,37.60045],[126.82461,37.60036],[126.82467,37.60023],[126.82472,37.60013],[126.82478,37.59999]]}},{"type":"Feature","properties":{"class":"alley","highway":"service","sidewalk":"no","lanes":0,"name":"","oneway":false},"geometry":{"type":"LineString","coordinates":[[126.82461,37.60036],[126.82495,37.60046]]}},{"type":"Feature","properties":{"class":"alley","highway":"service","sidewalk":"no","lanes":0,"name":"","oneway":false},"geometry":{"type":"LineString","coordinates":[[126.82467,37.60023],[126.825,37.60032]]}},{"type":"Feature","properties":{"class":"alley","highway":"service","sidewalk":"no","lanes":0,"name":"","oneway":false},"geometry":{"type":"LineString","coordinates":[[126.82484,37.60016],[126.82472,37.60013],[126.82431,37.60003],[126.82436,37.5999],[126.82478,37.59999]]}},{"type":"Feature","properties":{"class":"minor","highway":"residential","sidewalk":"unknown","lanes":0,"name":"","oneway":false},"geometry":{"type":"LineString","coordinates":[[126.82074,37.60014],[126.82075,37.60051]]}},{"type":"Feature","properties":{"class":"minor","highway":"residential","sidewalk":"unknown","lanes":0,"name":"","oneway":false},"geometry":{"type":"LineString","coordinates":[[126.82045,37.60014],[126.82045,37.59993]]}},{"type":"Feature","properties":{"class":"alley","highway":"service","sidewalk":"unknown","lanes":0,"name":"","oneway":false},"geometry":{"type":"LineString","coordinates":[[126.8239,37.60018],[126.82385,37.60032],[126.82379,37.60048]]}},{"type":"Feature","properties":{"class":"alley","highway":"service","sidewalk":"unknown","lanes":0,"name":"","oneway":false},"geometry":{"type":"LineString","coordinates":[[126.82351,37.60041],[126.82379,37.60048],[126.82403,37.60055],[126.82399,37.60062],[126.82392,37.60075],[126.82389,37.60081],[126.82381,37.60096],[126.82317,37.60076],[126.8233,37.60062],[126.82335,37.60057],[126.82346,37.60045],[126.82351,37.60041]]}},{"type":"Feature","properties":{"class":"alley","highway":"service","sidewalk":"unknown","lanes":0,"name":"","oneway":false},"geometry":{"type":"LineString","coordinates":[[126.82351,37.60041],[126.82363,37.60028],[126.82373,37.60016]]}},{"type":"Feature","properties":{"class":"alley","highway":"service","sidewalk":"unknown","lanes":0,"name":"","oneway":false},"geometry":{"type":"LineString","coordinates":[[126.8233,37.60062],[126.82389,37.60081]]}},{"type":"Feature","properties":{"class":"alley","highway":"service","sidewalk":"unknown","lanes":0,"name":"","oneway":false},"geometry":{"type":"LineString","coordinates":[[126.82346,37.60045],[126.82399,37.60062]]}},{"type":"Feature","properties":{"class":"alley","highway":"service","sidewalk":"unknown","lanes":0,"name":"","oneway":false},"geometry":{"type":"LineString","coordinates":[[126.82335,37.60057],[126.82392,37.60075]]}},{"type":"Feature","properties":{"class":"minor","highway":"unclassified","sidewalk":"unknown","lanes":0,"name":"","oneway":false},"geometry":{"type":"LineString","coordinates":[[126.8249,37.60508],[126.82503,37.60511],[126.82514,37.60512],[126.82548,37.60511],[126.82574,37.60507],[126.82599,37.60504],[126.82625,37.60498]]}},{"type":"Feature","properties":{"class":"minor","highway":"unclassified","sidewalk":"unknown","lanes":0,"name":"","oneway":false},"geometry":{"type":"LineString","coordinates":[[126.82642,37.60522],[126.82648,37.60535],[126.82661,37.60547],[126.82667,37.60561]]}},{"type":"Feature","properties":{"class":"major","highway":"trunk_link","sidewalk":"likely","lanes":2,"name":"","oneway":true},"geometry":{"type":"LineString","coordinates":[[126.83655,37.60102],[126.83607,37.60044],[126.8357,37.59985],[126.83552,37.59959]]}},{"type":"Feature","properties":{"class":"minor","highway":"unclassified","sidewalk":"unknown","lanes":0,"name":"행주로","oneway":false},"geometry":{"type":"LineString","coordinates":[[126.82713,37.60697],[126.82495,37.60694],[126.82477,37.60703],[126.82339,37.60789],[126.82297,37.60825],[126.82261,37.60814]]}},{"type":"Feature","properties":{"class":"major","highway":"trunk_link","sidewalk":"likely","lanes":1,"name":"","oneway":true},"geometry":{"type":"LineString","coordinates":[[126.82561,37.60427],[126.82585,37.60427],[126.82633,37.60422],[126.82703,37.60421],[126.82766,37.60425],[126.82819,37.6043],[126.82903,37.60436],[126.82954,37.60446]]}},{"type":"Feature","properties":{"class":"major","highway":"trunk_link","sidewalk":"likely","lanes":1,"name":"","oneway":true},"geometry":{"type":"LineString","coordinates":[[126.82625,37.60391],[126.82622,37.60404],[126.82625,37.60414],[126.82633,37.60422]]}},{"type":"Feature","properties":{"class":"major","highway":"trunk_link","sidewalk":"likely","lanes":1,"name":"","oneway":true},"geometry":{"type":"LineString","coordinates":[[126.83059,37.60467],[126.82824,37.60464],[126.82683,37.60465],[126.82538,37.60471],[126.82522,37.60472]]}},{"type":"Feature","properties":{"class":"major","highway":"trunk_link","sidewalk":"likely","lanes":0,"name":"강매로","oneway":true},"geometry":{"type":"LineString","coordinates":[[126.84089,37.60713],[126.84047,37.60667],[126.8402,37.60647],[126.84009,37.60639],[126.8399,37.60636],[126.83977,37.60637],[126.83924,37.60641]]}}]}