{"type":"FeatureCollection","features":[{"type":"Feature","properties":{"class":"major","highway":"secondary","sidewalk":"likely","lanes":2,"name":"화랑로","oneway":false},"geometry":{"type":"LineString","coordinates":[[126.86861,37.6046],[126.86856,37.60478],[126.8685,37.60498],[126.86847,37.6051],[126.86841,37.60535],[126.86839,37.60542],[126.86831,37.60571],[126.86818,37.6062],[126.86815,37.60675],[126.86826,37.60723],[126.86834,37.60742],[126.86846,37.60771],[126.86878,37.60813],[126.86915,37.60844],[126.8693,37.60857],[126.87092,37.60994],[126.87112,37.61014],[126.87135,37.61039],[126.87169,37.61088],[126.87208,37.61162],[126.8722,37.61185],[126.87226,37.61197],[126.87236,37.61215],[126.87244,37.61231],[126.87315,37.61363],[126.87516,37.61698],[126.87561,37.61774],[126.87597,37.61845],[126.87628,37.61905],[126.87668,37.61956],[126.87713,37.61995],[126.87854,37.62116],[126.87898,37.62155],[126.87903,37.62159]]}},{"type":"Feature","properties":{"class":"major","highway":"primary","sidewalk":"likely","lanes":3,"name":"중앙로","oneway":true},"geometry":{"type":"LineString","coordinates":[[126.88094,37.59265],[126.87997,37.59352],[126.87943,37.59399],[126.87922,37.5942],[126.87905,37.59437],[126.87857,37.59483],[126.87833,37.595],[126.87795,37.59536],[126.87621,37.59689],[126.87381,37.59938],[126.8735,37.5997],[126.87339,37.59981],[126.87305,37.60024],[126.87228,37.60101],[126.87206,37.60128],[126.87176,37.60158],[126.87166,37.60168],[126.87131,37.602],[126.8707,37.60265],[126.86992,37.60352],[126.86935,37.60412],[126.86904,37.60443],[126.86872,37.60467],[126.86856,37.60478],[126.86795,37.60518],[126.86783,37.60525],[126.86662,37.60606],[126.86593,37.60648],[126.86499,37.60713],[126.86351,37.60807],[126.86338,37.60814],[126.86275,37.60856],[126.86237,37.60881],[126.86199,37.60904],[126.86079,37.60982],[126.86071,37.60987]]}},{"type":"Feature","properties":{"class":"minor","highway":"unclassified","sidewalk":"unknown","lanes":0,"name":"해포길","oneway":false},"geometry":{"type":"LineString","coordinates":[[126.86079,37.60982],[126.86075,37.60977],[126.86069,37.60972],[126.86059,37.6096],[126.86053,37.60964],[126.86039,37.60968],[126.86027,37.60965],[126.85975,37.60924],[126.85956,37.60907],[126.8589,37.60873],[126.85852,37.60823],[126.85826,37.60806],[126.85798,37.60749],[126.85787,37.60739],[126.85504,37.60482],[126.85495,37.60465],[126.85419,37.60397],[126.85418,37.60396],[126.85321,37.60311],[126.85219,37.60218],[126.85205,37.60206],[126.85184,37.60187],[126.85123,37.60123],[126.85079,37.60112],[126.85048,37.60077],[126.85,37.60032],[126.84934,37.59962],[126.84921,37.59907],[126.84902,37.59869],[126.84856,37.59783]]}},{"type":"Feature","properties":{"class":"major","highway":"secondary","sidewalk":"likely","lanes":1,"name":"화랑로","oneway":false},"geometry":{"type":"LineString","coordinates":[[126.8735,37.5997],[126.87333,37.59974],[126.87299,37.59983],[126.87292,37.59984],[126.87253,37.59993],[126.87232,37.59999],[126.8722,37.60005],[126.87201,37.60013],[126.87131,37.60074],[126.87109,37.60094],[126.8706,37.6014],[126.87016,37.60194],[126.86984,37.60234],[126.86948,37.6028],[126.86943,37.60286],[126.86939,37.60293],[126.86935,37.60299],[126.86931,37.60306],[126.86914,37.60338],[126.86909,37.60353],[126.86887,37.60404],[126.86871,37.6044],[126.86861,37.6046]]}},{"type":"Feature","properties":{"class":"alley","highway":"service","sidewalk":"unknown","lanes":2,"name":"","oneway":false},"geometry":{"type":"LineString","coordinates":[[126.86638,37.60238],[126.86632,37.60225],[126.86626,37.60213],[126.8661,37.60178],[126.86607,37.60174],[126.86602,37.60163],[126.86597,37.60154],[126.86593,37.60145],[126.86582,37.60122],[126.86567,37.6009],[126.86552,37.6006],[126.86542,37.60036],[126.8654,37.60031],[126.86536,37.60023],[126.86533,37.60018],[126.86532,37.60015],[126.86503,37.59956],[126.86494,37.5994],[126.86487,37.59924],[126.86482,37.59913],[126.86478,37.59905],[126.86472,37.5989],[126.86462,37.5987],[126.86459,37.59863]]}},{"type":"Feature","properties":{"class":"alley","highway":"service","sidewalk":"unknown","lanes":0,"name":"","oneway":false},"geometry":{"type":"LineString","coordinates":[[126.86567,37.59951],[126.86583,37.59987],[126.86601,37.60004]]}},{"type":"Feature","properties":{"class":"alley","highway":"service","sidewalk":"unknown","lanes":0,"name":"","oneway":false},"geometry":{"type":"LineString","coordinates":[[126.86608,37.60218],[126.86592,37.60184],[126.86581,37.6016]]}},{"type":"Feature","properties":{"class":"alley","highway":"service","sidewalk":"unknown","lanes":0,"name":"","oneway":false},"geometry":{"type":"LineString","coordinates":[[126.8661,37.60178],[126.86603,37.60181],[126.86592,37.60184],[126.86569,37.60191]]}},{"type":"Feature","properties":{"class":"alley","highway":"service","sidewalk":"unknown","lanes":0,"name":"","oneway":false},"geometry":{"type":"LineString","coordinates":[[126.86552,37.6006],[126.86549,37.60061],[126.86547,37.60062],[126.86525,37.60068],[126.8649,37.60077],[126.8645,37.60089],[126.86465,37.60119],[126.8648,37.60151],[126.86518,37.6014],[126.86555,37.6013],[126.86576,37.60123],[126.86579,37.60123],[126.86582,37.60122]]}},{"type":"Feature","properties":{"class":"alley","highway":"service","sidewalk":"unknown","lanes":0,"name":"","oneway":false},"geometry":{"type":"LineString","coordinates":[[126.86593,37.60145],[126.86611,37.6014],[126.86562,37.60031],[126.86542,37.60036]]}},{"type":"Feature","properties":{"class":"alley","highway":"service","sidewalk":"unknown","lanes":0,"name":"","oneway":false},"geometry":{"type":"LineString","coordinates":[[126.86533,37.60018],[126.86539,37.60008],[126.86543,37.60003],[126.86529,37.59968],[126.86517,37.59962],[126.86503,37.59956]]}},{"type":"Feature","properties":{"class":"alley","highway":"service","sidewalk":"unknown","lanes":0,"name":"","oneway":false},"geometry":{"type":"LineString","coordinates":[[126.86597,37.60154],[126.86591,37.60157],[126.86588,37.60157],[126.86581,37.6016],[126.86558,37.60167],[126.86569,37.60191],[126.86583,37.60225]]}},{"type":"Feature","properties":{"class":"major","highway":"tertiary","sidewalk":"yes","lanes":2,"name":"항공대학로","oneway":false},"geometry":{"type":"LineString","coordinates":[[126.8675,37.60143],[126.86723,37.60166],[126.86696,37.6019],[126.86651,37.60227],[126.86638,37.60238],[126.86589,37.60281],[126.86557,37.60309],[126.86472,37.60384],[126.8646,37.60396],[126.86376,37.60481],[126.8637,37.60487],[126.86363,37.60493],[126.86358,37.60498]]}},{"type":"Feature","properties":{"class":"major","highway":"tertiary","sidewalk":"likely","lanes":2,"name":"항공대학로","oneway":true},"geometry":{"type":"LineString","coordinates":[[126.86285,37.60634],[126.86289,37.60655],[126.86296,37.60678],[126.86312,37.60714]]}},{"type":"Feature","properties":{"class":"major","highway":"tertiary","sidewalk":"likely","lanes":2,"name":"항공대학로","oneway":true},"geometry":{"type":"LineString","coordinates":[[126.86289,37.60723],[126.86273,37.60689],[126.86265,37.6066],[126.8626,37.60633]]}},{"type":"Feature","properties":{"class":"major","highway":"tertiary","sidewalk":"likely","lanes":2,"name":"항공대학로","oneway":true},"geometry":{"type":"LineString","coordinates":[[126.8626,37.60633],[126.86264,37.60607],[126.86278,37.60578],[126.863,37.60554],[126.86327,37.60527]]}},{"type":"Feature","properties":{"class":"major","highway":"tertiary","sidewalk":"likely","lanes":2,"name":"항공대학로","oneway":true},"geometry":{"type":"LineString","coordinates":[[126.86327,37.60527],[126.86298,37.60578],[126.86287,37.60605],[126.86285,37.60634]]}},{"type":"Feature","properties":{"class":"major","highway":"primary","sidewalk":"yes","lanes":3,"name":"중앙로","oneway":true},"geometry":{"type":"LineString","coordinates":[[126.8606,37.60977],[126.86069,37.60972],[126.86134,37.60929],[126.86221,37.60867],[126.86287,37.60828],[126.86309,37.60814],[126.86327,37.60802],[126.8634,37.60795],[126.86385,37.60765],[126.86438,37.60732],[126.86497,37.60695],[126.86648,37.60592],[126.86715,37.6055],[126.86809,37.60491],[126.86861,37.6046],[126.86894,37.60434],[126.86912,37.60414],[126.86993,37.6033],[126.87078,37.60237],[126.87173,37.60135],[126.872,37.60107],[126.87216,37.6009],[126.873,37.60004],[126.87333,37.59974],[126.87394,37.59907],[126.87461,37.59839],[126.87616,37.59679],[126.87692,37.59609],[126.87807,37.59504],[126.8783,37.59482],[126.88109,37.59225]]}},{"type":"Feature","properties":{"class":"minor","highway":"residential","sidewalk":"unknown","lanes":0,"name":"화랑로","oneway":false},"geometry":{"type":"LineString","coordinates":[[126.86909,37.60353],[126.86876,37.60346],[126.86867,37.60346],[126.86863,37.60348],[126.86825,37.60383],[126.86811,37.60396],[126.868,37.60405],[126.8678,37.60423],[126.86755,37.60445],[126.86734,37.60461]]}},{"type":"Feature","properties":{"class":"minor","highway":"residential","sidewalk":"unknown","lanes":0,"name":"중앙로176번길","oneway":false},"geometry":{"type":"LineString","coordinates":[[126.86992,37.60352],[126.87033,37.60378],[126.87077,37.604],[126.87098,37.60404],[126.87115,37.60409],[126.87112,37.60428],[126.87106,37.60478]]}},{"type":"Feature","properties":{"class":"minor","highway":"residential","sidewalk":"unknown","lanes":0,"name":"화랑로116번길","oneway":false},"geometry":{"type":"LineString","coordinates":[[126.86993,37.60555],[126.86974,37.60587],[126.8699,37.60612],[126.86979,37.60641],[126.86996,37.60674],[126.87001,37.60695],[126.87007,37.60718],[126.87015,37.60733],[126.87028,37.60742],[126.87046,37.60747],[126.87058,37.60757],[126.87064,37.60763],[126.8707,37.6078],[126.87071,37.60796],[126.87068,37.60804],[126.87052,37.60829]]}},{"type":"Feature","properties":{"class":"alley","highway":"service","sidewalk":"unknown","lanes":0,"name":"","oneway":false},"geometry":{"type":"LineString","coordinates":[[126.8693,37.60726],[126.86947,37.60713],[126.86959,37.60707],[126.86973,37.60705],[126.86985,37.60702],[126.86997,37.60696],[126.87001,37.60695]]}},{"type":"Feature","properties":{"class":"alley","highway":"service","sidewalk":"unknown","lanes":0,"name":"","oneway":false},"geometry":{"type":"LineString","coordinates":[[126.8691,37.60673],[126.86918,37.6066],[126.86931,37.60644],[126.86944,37.60636],[126.86961,37.60613],[126.86968,37.60592],[126.86974,37.60587]]}},{"type":"Feature","properties":{"class":"minor","highway":"residential","sidewalk":"unknown","lanes":0,"name":"중앙로176번길","oneway":false},"geometry":{"type":"LineString","coordinates":[[126.86977,37.60505],[126.87001,37.60492],[126.8704,37.60481],[126.87064,37.60477],[126.8707,37.60443],[126.87077,37.604]]}},{"type":"Feature","properties":{"class":"alley","highway":"service","sidewalk":"unknown","lanes":0,"name":"","oneway":false},"geometry":{"type":"LineString","coordinates":[[126.86893,37.60567],[126.86899,37.60565],[126.86903,37.60555],[126.86899,37.60553],[126.86907,37.60516],[126.8691,37.60501]]}},{"type":"Feature","properties":{"class":"minor","highway":"residential","sidewalk":"unknown","lanes":0,"name":"중앙로152번길","oneway":false},"geometry":{"type":"LineString","coordinates":[[126.87166,37.60168],[126.87172,37.60189],[126.87175,37.60201],[126.87188,37.60247],[126.87196,37.60268],[126.87205,37.6029],[126.87206,37.60304]]}},{"type":"Feature","properties":{"class":"minor","highway":"residential","sidewalk":"unknown","lanes":0,"name":"중앙로152번길","oneway":false},"geometry":{"type":"LineString","coordinates":[[126.87172,37.60189],[126.87232,37.6019],[126.87262,37.60187],[126.87266,37.60216],[126.87308,37.60219],[126.87301,37.60247],[126.87279,37.60267],[126.87251,37.60266],[126.87196,37.60268]]}},{"type":"Feature","properties":{"class":"alley","highway":"service","sidewalk":"unknown","lanes":0,"name":"","oneway":false},"geometry":{"type":"LineString","coordinates":[[126.87465,37.59554],[126.87492,37.59571],[126.87527,37.59594],[126.87531,37.59601],[126.87533,37.59606],[126.87534,37.59614],[126.87533,37.59625],[126.87529,37.59635],[126.87521,37.59647],[126.87517,37.59651],[126.87511,37.59659],[126.87411,37.59746],[126.87357,37.59794],[126.87234,37.59898],[126.87203,37.59925],[126.87152,37.5997],[126.87102,37.60014],[126.87063,37.6005],[126.8704,37.6007],[126.87026,37.60082],[126.87018,37.60088],[126.87014,37.60091],[126.87008,37.60093],[126.87,37.60097],[126.86986,37.60103],[126.86971,37.60109],[126.86951,37.60118]]}},{"type":"Feature","properties":{"class":"alley","highway":"service","sidewalk":"unknown","lanes":0,"name":"","oneway":false},"geometry":{"type":"LineString","coordinates":[[126.87464,37.60063],[126.87462,37.60068],[126.87453,37.60109],[126.87452,37.60116],[126.8745,37.60123],[126.87445,37.6014],[126.87445,37.60141],[126.87439,37.60163],[126.87437,37.60171],[126.87435,37.60178],[126.87434,37.60181],[126.87432,37.60187],[126.87431,37.60191],[126.87431,37.60193],[126.8743,37.60201],[126.87428,37.60214],[126.87428,37.60225],[126.87428,37.60226],[126.87427,37.60237],[126.87428,37.60251],[126.87428,37.60258],[126.87429,37.60267],[126.87429,37.60268],[126.8743,37.60282],[126.8743,37.60284],[126.8743,37.60293],[126.87429,37.60296],[126.87429,37.603],[126.87426,37.60306],[126.87423,37.6031],[126.8742,37.60313],[126.87414,37.6032],[126.87408,37.60324],[126.87406,37.60327],[126.87404,37.60328],[126.87398,37.6033],[126.87394,37.6033],[126.87384,37.60331],[126.87371,37.60331],[126.87346,37.60332],[126.87336,37.60333],[126.87331,37.60333],[126.87327,37.60334],[126.87322,37.60336],[126.87301,37.60343],[126.8729,37.60347],[126.8728,37.60352],[126.8727,37.60357],[126.87259,37.60364],[126.87252,37.60369],[126.87248,37.60373],[126.87244,37.60377],[126.87243,37.60382],[126.87235,37.60498],[126.87235,37.60515],[126.87234,37.60532],[126.87233,37.60544],[126.87232,37.6056],[126.87231,37.60574],[126.8723,37.60587],[126.8723,37.606],[126.8723,37.60604],[126.87231,37.60626],[126.87231,37.60675],[126.87231,37.60684],[126.87231,37.6069],[126.87231,37.60694],[126.87233,37.60701],[126.87233,37.60706],[126.87233,37.60709],[126.87234,37.60715],[126.87232,37.60723],[126.87228,37.60733],[126.87224,37.60739],[126.87221,37.60744],[126.87218,37.60748],[126.87211,37.60755],[126.87206,37.60762],[126.87203,37.60767],[126.87202,37.60772],[126.87199,37.60781],[126.87198,37.60789],[126.87198,37.60797],[126.87197,37.60811],[126.87197,37.60824],[126.87196,37.60853],[126.87198,37.60861],[126.87204,37.60879],[126.87219,37.60925],[126.87222,37.60936],[126.87224,37.60941],[126.87226,37.60947]]}},{"type":"Feature","properties":{"class":"alley","highway":"service","sidewalk":"unknown","lanes":0,"name":"","oneway":false},"geometry":{"type":"LineString","coordinates":[[126.87228,37.60101],[126.87243,37.60106],[126.87266,37.60107],[126.87281,37.60111],[126.87286,37.60109],[126.87293,37.60109],[126.87304,37.60108],[126.87316,37.60108],[126.87333,37.6011],[126.8743,37.60122],[126.87436,37.60123],[126.87442,37.60123],[126.8745,37.60123]]}},{"type":"Feature","properties":{"class":"alley","highway":"service","sidewalk":"unknown","lanes":0,"name":"","oneway":false},"geometry":{"type":"LineString","coordinates":[[126.87428,37.60138],[126.87445,37.6014]]}},{"type":"Feature","properties":{"class":"alley","highway":"service","sidewalk":"unknown","lanes":0,"name":"","oneway":false},"geometry":{"type":"LineString","coordinates":[[126.87422,37.60136],[126.87428,37.60137],[126.87428,37.60138],[126.87426,37.60164]]}},{"type":"Feature","properties":{"class":"alley","highway":"service","sidewalk":"unknown","lanes":0,"name":"","oneway":false},"geometry":{"type":"LineString","coordinates":[[126.87437,37.60171],[126.8743,37.60169],[126.87424,37.60169],[126.87369,37.60166],[126.87365,37.60166],[126.87363,37.60165],[126.87363,37.60165],[126.87362,37.60165],[126.8731,37.60151],[126.87307,37.6015]]}},{"type":"Feature","properties":{"class":"alley","highway":"service","sidewalk":"unknown","lanes":0,"name":"","oneway":false},"geometry":{"type":"LineString","coordinates":[[126.87431,37.60191],[126.87465,37.60212]]}},{"type":"Feature","properties":{"class":"alley","highway":"service","sidewalk":"unknown","lanes":0,"name":"","oneway":false},"geometry":{"type":"LineString","coordinates":[[126.87428,37.60251],[126.87421,37.60251],[126.87369,37.60209],[126.87368,37.60208],[126.87359,37.60202],[126.87343,37.60197],[126.8731,37.60186]]}},{"type":"Feature","properties":{"class":"alley","highway":"service","sidewalk":"unknown","lanes":0,"name":"","oneway":false},"geometry":{"type":"LineString","coordinates":[[126.87429,37.60268],[126.87421,37.60265],[126.87353,37.60209],[126.87349,37.60207],[126.87343,37.60205],[126.87332,37.60202]]}},{"type":"Feature","properties":{"class":"alley","highway":"service","sidewalk":"unknown","lanes":0,"name":"","oneway":false},"geometry":{"type":"LineString","coordinates":[[126.87452,37.60116],[126.87467,37.6012],[126.87474,37.60121],[126.87483,37.60124],[126.87501,37.60128],[126.87568,37.60145],[126.87623,37.60158],[126.87636,37.60162],[126.87645,37.60166],[126.87649,37.60167],[126.87654,37.6017],[126.8767,37.60176],[126.87678,37.60179],[126.87709,37.60191],[126.87712,37.60192],[126.87717,37.60194]]}},{"type":"Feature","properties":{"class":"alley","highway":"service","sidewalk":"unknown","lanes":0,"name":"","oneway":false},"geometry":{"type":"LineString","coordinates":[[126.87474,37.60121],[126.87474,37.6013],[126.87475,37.60143],[126.87475,37.60147],[126.87478,37.60149],[126.87527,37.60174],[126.87529,37.60175],[126.87532,37.60176],[126.87537,37.60178],[126.87542,37.60179],[126.87601,37.60191],[126.87604,37.60192],[126.87607,37.60195],[126.87607,37.60195],[126.87608,37.60197],[126.87607,37.60201],[126.87606,37.60205],[126.87598,37.60221],[126.87588,37.6024],[126.87585,37.60245],[126.87582,37.60248],[126.8758,37.6025],[126.87578,37.60253],[126.87575,37.60256],[126.87572,37.6026],[126.87569,37.60264],[126.87565,37.60269],[126.87563,37.60273],[126.87562,37.60278],[126.87559,37.60283],[126.87557,37.60287],[126.87554,37.6029],[126.8755,37.60291],[126.87546,37.60291],[126.87543,37.6029],[126.87428,37.60251]]}},{"type":"Feature","properties":{"class":"alley","highway":"service","sidewalk":"unknown","lanes":0,"name":"","oneway":false},"geometry":{"type":"LineString","coordinates":[[126.87434,37.60181],[126.87452,37.60194],[126.87494,37.60221],[126.87497,37.60223],[126.87501,37.60225],[126.87504,37.60226],[126.87509,37.60228],[126.87528,37.60234],[126.87537,37.60237],[126.8758,37.6025]]}},{"type":"Feature","properties":{"class":"alley","highway":"service","sidewalk":"unknown","lanes":0,"name":"","oneway":false},"geometry":{"type":"LineString","coordinates":[[126.87429,37.60267],[126.87513,37.60294]]}},{"type":"Feature","properties":{"class":"alley","highway":"service","sidewalk":"unknown","lanes":0,"name":"","oneway":false},"geometry":{"type":"LineString","coordinates":[[126.87429,37.60296],[126.87424,37.60295],[126.87421,37.60294],[126.87418,37.60293],[126.87414,37.60293],[126.87413,37.60292],[126.8741,37.60292],[126.87369,37.60282]]}},{"type":"Feature","properties":{"class":"alley","highway":"service","sidewalk":"unknown","lanes":0,"name":"","oneway":false},"geometry":{"type":"LineString","coordinates":[[126.87369,37.60282],[126.87373,37.60271]]}},{"type":"Feature","properties":{"class":"alley","highway":"service","sidewalk":"unknown","lanes":0,"name":"","oneway":false},"geometry":{"type":"LineString","coordinates":[[126.87371,37.60331],[126.8737,37.60312],[126.87369,37.60309],[126.87367,37.60308],[126.87364,37.60307],[126.87361,37.60307],[126.87356,37.60306],[126.87303,37.60309]]}},{"type":"Feature","properties":{"class":"alley","highway":"service","sidewalk":"unknown","lanes":0,"name":"","oneway":false},"geometry":{"type":"LineString","coordinates":[[126.8738,37.60316],[126.8739,37.60318],[126.87395,37.60319],[126.87399,37.6032],[126.87401,37.60322],[126.87403,37.60323],[126.87406,37.60327]]}},{"type":"Feature","properties":{"class":"alley","highway":"service","sidewalk":"unknown","lanes":0,"name":"","oneway":false},"geometry":{"type":"LineString","coordinates":[[126.87322,37.60336],[126.87318,37.60343],[126.87317,37.60348],[126.87317,37.60352],[126.87317,37.60355],[126.87318,37.60364],[126.87318,37.60369],[126.87318,37.60373],[126.87318,37.60375],[126.87319,37.60377],[126.87335,37.60414],[126.87337,37.60417],[126.8734,37.60419],[126.87345,37.60423],[126.87362,37.60433],[126.87363,37.60433],[126.87367,37.60435],[126.87373,37.60436],[126.87378,37.60438],[126.87382,37.60438],[126.87383,37.60438],[126.87389,37.60436]]}},{"type":"Feature","properties":{"class":"alley","highway":"service","sidewalk":"unknown","lanes":0,"name":"","oneway":true},"geometry":{"type":"LineString","coordinates":[[126.87317,37.60355],[126.87311,37.60352],[126.87306,37.6035],[126.87301,37.60349],[126.87295,37.60348],[126.8729,37.60347]]}},{"type":"Feature","properties":{"class":"alley","highway":"service","sidewalk":"unknown","lanes":0,"name":"","oneway":false},"geometry":{"type":"LineString","coordinates":[[126.87318,37.60373],[126.87327,37.60372],[126.8733,37.60372],[126.87369,37.60366],[126.87376,37.60365],[126.8738,37.60364],[126.87395,37.60361],[126.87397,37.6036]]}},{"type":"Feature","properties":{"class":"alley","highway":"service","sidewalk":"unknown","lanes":0,"name":"","oneway":false},"geometry":{"type":"LineString","coordinates":[[126.8733,37.60372],[126.87328,37.60348],[126.87375,37.60346],[126.87376,37.60365]]}},{"type":"Feature","properties":{"class":"alley","highway":"service","sidewalk":"unknown","lanes":0,"name":"","oneway":false},"geometry":{"type":"LineString","coordinates":[[126.87369,37.60366],[126.87377,37.60367],[126.8738,37.6037],[126.87391,37.60367],[126.87394,37.60367],[126.87396,37.60369],[126.87402,37.60381],[126.874,37.60385],[126.87395,37.60388],[126.87354,37.60403],[126.87348,37.60403],[126.87343,37.60403],[126.87341,37.60401],[126.87339,37.60398],[126.87327,37.60372]]}},{"type":"Feature","properties":{"class":"alley","highway":"service","sidewalk":"unknown","lanes":0,"name":"","oneway":false},"geometry":{"type":"LineString","coordinates":[[126.87397,37.6036],[126.87401,37.60357],[126.87445,37.60345]]}},{"type":"Feature","properties":{"class":"alley","highway":"service","sidewalk":"unknown","lanes":0,"name":"","oneway":false},"geometry":{"type":"LineString","coordinates":[[126.87395,37.60361],[126.87397,37.60361],[126.874,37.60362],[126.87402,37.60364],[126.87404,37.60368],[126.8741,37.60379],[126.87461,37.60364]]}},{"type":"Feature","properties":{"class":"alley","highway":"service","sidewalk":"unknown","lanes":0,"name":"","oneway":false},"geometry":{"type":"LineString","coordinates":[[126.87363,37.60433],[126.87363,37.6043],[126.87364,37.60428],[126.87366,37.60427],[126.87374,37.60423]]}},{"type":"Feature","properties":{"class":"alley","highway":"service","sidewalk":"unknown","lanes":0,"name":"","oneway":false},"geometry":{"type":"LineString","coordinates":[[126.87389,37.60436],[126.87454,37.60418]]}},{"type":"Feature","properties":{"class":"alley","highway":"service","sidewalk":"unknown","lanes":0,"name":"","oneway":false},"geometry":{"type":"LineString","coordinates":[[126.87382,37.60438],[126.87382,37.60441],[126.87384,37.60445],[126.87387,37.60449],[126.87389,37.60452],[126.87392,37.60455],[126.87395,37.60456],[126.87399,37.60458],[126.87403,37.60458],[126.87409,37.60457],[126.87415,37.60456],[126.87421,37.60455],[126.87452,37.60446]]}},{"type":"Feature","properties":{"class":"alley","highway":"service","sidewalk":"unknown","lanes":0,"name":"","oneway":false},"geometry":{"type":"LineString","coordinates":[[126.87421,37.60455],[126.87425,37.60464],[126.87427,37.60466],[126.8743,37.60468],[126.87434,37.60469],[126.8744,37.6047],[126.87453,37.60469]]}},{"type":"Feature","properties":{"class":"alley","highway":"service","sidewalk":"unknown","lanes":0,"name":"","oneway":false},"geometry":{"type":"LineString","coordinates":[[126.8743,37.60284],[126.87448,37.60288],[126.87474,37.60297],[126.87532,37.60317],[126.87545,37.60321],[126.87634,37.60351],[126.87639,37.60352],[126.87643,37.60353],[126.87648,37.60354]]}},{"type":"Feature","properties":{"class":"alley","highway":"service","sidewalk":"unknown","lanes":0,"name":"","oneway":false},"geometry":{"type":"LineString","coordinates":[[126.87443,37.60305],[126.87467,37.60313],[126.87494,37.60321]]}},{"type":"Feature","properties":{"class":"alley","highway":"service","sidewalk":"unknown","lanes":0,"name":"","oneway":false},"geometry":{"type":"LineString","coordinates":[[126.87467,37.60313],[126.87474,37.60297]]}},{"type":"Feature","properties":{"class":"alley","highway":"service","sidewalk":"unknown","lanes":0,"name":"","oneway":false},"geometry":{"type":"LineString","coordinates":[[126.87545,37.60321],[126.8755,37.60312],[126.87555,37.60304],[126.87558,37.60305],[126.87584,37.60264],[126.87616,37.60217],[126.8762,37.6021],[126.87645,37.60166]]}},{"type":"Feature","properties":{"class":"minor","highway":"residential","sidewalk":"unknown","lanes":0,"name":"중앙로78번안길","oneway":false},"geometry":{"type":"LineString","coordinates":[[126.87473,37.60043],[126.87529,37.60055],[126.87536,37.60056],[126.87541,37.60057],[126.87545,37.60057],[126.87548,37.60057],[126.87553,37.60056],[126.87557,37.60055],[126.8756,37.60053],[126.87564,37.60052],[126.87567,37.6005],[126.87571,37.60048],[126.87578,37.60047],[126.87585,37.60045],[126.87598,37.60044],[126.87649,37.60045],[126.87656,37.60044],[126.8766,37.60043],[126.87662,37.60041],[126.87663,37.6004],[126.87666,37.6004],[126.87672,37.6004],[126.87684,37.6004],[126.87687,37.60041],[126.8769,37.60042],[126.87727,37.60035],[126.87739,37.60033],[126.87749,37.6003],[126.87757,37.60025],[126.87764,37.60021],[126.87781,37.60005],[126.87791,37.59991],[126.87797,37.59974],[126.8781,37.59967],[126.87801,37.59949],[126.87792,37.59927],[126.87783,37.59904],[126.87771,37.59883],[126.87738,37.59867],[126.87728,37.59859],[126.87707,37.59845],[126.87626,37.59852],[126.87588,37.59853],[126.87556,37.59857]]}},{"type":"Feature","properties":{"class":"alley","highway":"service","sidewalk":"unknown","lanes":0,"name":"","oneway":false},"geometry":{"type":"LineString","coordinates":[[126.87501,37.60128],[126.87523,37.6007]]}},{"type":"Feature","properties":{"class":"alley","highway":"service","sidewalk":"unknown","lanes":0,"name":"","oneway":false},"geometry":{"type":"LineString","coordinates":[[126.87568,37.60145],[126.8757,37.60133],[126.87577,37.60116]]}},{"type":"Feature","properties":{"class":"alley","highway":"service","sidewalk":"unknown","lanes":0,"name":"","oneway":false},"geometry":{"type":"LineString","coordinates":[[126.87654,37.6017],[126.87664,37.60152],[126.87665,37.60151],[126.8767,37.60142]]}},{"type":"Feature","properties":{"class":"alley","highway":"service","sidewalk":"unknown","lanes":0,"name":"","oneway":false},"geometry":{"type":"LineString","coordinates":[[126.87712,37.60192],[126.87722,37.60174]]}},{"type":"Feature","properties":{"class":"alley","highway":"service","sidewalk":"unknown","lanes":0,"name":"","oneway":false},"geometry":{"type":"LineString","coordinates":[[126.87722,37.60174],[126.87704,37.60167],[126.87716,37.60147],[126.87728,37.60126],[126.87729,37.60124],[126.87764,37.60137],[126.87772,37.60123]]}},{"type":"Feature","properties":{"class":"alley","highway":"service","sidewalk":"unknown","lanes":0,"name":"","oneway":false},"geometry":{"type":"LineString","coordinates":[[126.87722,37.60174],[126.87727,37.60175],[126.87758,37.60186]]}},{"type":"Feature","properties":{"class":"alley","highway":"service","sidewalk":"unknown","lanes":0,"name":"","oneway":false},"geometry":{"type":"LineString","coordinates":[[126.8755,37.60312],[126.87578,37.6032],[126.87608,37.60274],[126.87639,37.60226]]}},{"type":"Feature","properties":{"class":"alley","highway":"service","sidewalk":"unknown","lanes":0,"name":"","oneway":false},"geometry":{"type":"LineString","coordinates":[[126.87584,37.60264],[126.87608,37.60274]]}},{"type":"Feature","properties":{"class":"alley","highway":"service","sidewalk":"unknown","lanes":0,"name":"","oneway":false},"geometry":{"type":"LineString","coordinates":[[126.87616,37.60217],[126.87639,37.60226],[126.87676,37.60242],[126.87683,37.60245],[126.87705,37.60253],[126.87732,37.60264],[126.87731,37.60269],[126.8773,37.60279],[126.87686,37.60354]]}},{"type":"Feature","properties":{"class":"alley","highway":"service","sidewalk":"unknown","lanes":0,"name":"","oneway":false},"geometry":{"type":"LineString","coordinates":[[126.87639,37.60352],[126.8765,37.60343],[126.87705,37.60253]]}},{"type":"Feature","properties":{"class":"alley","highway":"service","sidewalk":"unknown","lanes":0,"name":"","oneway":false},"geometry":{"type":"LineString","coordinates":[[126.87639,37.60226],[126.8767,37.60176]]}},{"type":"Feature","properties":{"class":"alley","highway":"service","sidewalk":"unknown","lanes":0,"name":"","oneway":false},"geometry":{"type":"LineString","coordinates":[[126.87676,37.60242],[126.87688,37.60227],[126.87709,37.60191]]}},{"type":"Feature","properties":{"class":"alley","highway":"service","sidewalk":"unknown","lanes":0,"name":"","oneway":false},"geometry":{"type":"LineString","coordinates":[[126.87731,37.60269],[126.87756,37.60227],[126.87758,37.60224]]}},{"type":"Feature","properties":{"class":"alley","highway":"service","sidewalk":"unknown","lanes":0,"name":"","oneway":false},"geometry":{"type":"LineString","coordinates":[[126.87648,37.60354],[126.87656,37.60355],[126.87662,37.60355],[126.8767,37.60354],[126.8768,37.60353],[126.87686,37.60354],[126.87692,37.60353],[126.87698,37.60353],[126.87702,37.60353]]}},{"type":"Feature","properties":{"class":"alley","highway":"service","sidewalk":"unknown","lanes":0,"name":"","oneway":false},"geometry":{"type":"LineString","coordinates":[[126.87705,37.60253],[126.87714,37.60235],[126.87731,37.60235],[126.87743,37.60213],[126.87744,37.60212],[126.87736,37.60209]]}},{"type":"Feature","properties":{"class":"alley","highway":"service","sidewalk":"unknown","lanes":0,"name":"","oneway":false},"geometry":{"type":"LineString","coordinates":[[126.87831,37.6035],[126.8783,37.60337],[126.87829,37.6033],[126.87824,37.60319],[126.87821,37.60312],[126.87817,37.60308],[126.87809,37.60304],[126.87806,37.60302]]}},{"type":"Feature","properties":{"class":"alley","highway":"service","sidewalk":"unknown","lanes":0,"name":"","oneway":false},"geometry":{"type":"LineString","coordinates":[[126.87802,37.60319],[126.87806,37.60302],[126.87811,37.60273],[126.87815,37.6025],[126.87818,37.60229],[126.87817,37.60222],[126.87815,37.60218],[126.87815,37.60211],[126.87817,37.60206],[126.8782,37.602],[126.87821,37.60198],[126.8784,37.60154]]}},{"type":"Feature","properties":{"class":"alley","highway":"service","sidewalk":"unknown","lanes":0,"name":"","oneway":false},"geometry":{"type":"LineString","coordinates":[[126.87855,37.60351],[126.87862,37.60333],[126.87864,37.60331],[126.87865,37.60327],[126.87864,37.60309],[126.87864,37.60304],[126.87864,37.60301],[126.87865,37.60297],[126.87866,37.60294],[126.8787,37.60291],[126.87872,37.60288],[126.87876,37.60285],[126.8789,37.60279]]}},{"type":"Feature","properties":{"class":"alley","highway":"service","sidewalk":"unknown","lanes":0,"name":"","oneway":false},"geometry":{"type":"LineString","coordinates":[[126.8792,37.60323],[126.87923,37.60315],[126.87926,37.60307],[126.87936,37.6031],[126.87933,37.60322],[126.87932,37.60326],[126.8792,37.60323]]}},{"type":"Feature","properties":{"class":"alley","highway":"service","sidewalk":"unknown","lanes":0,"name":"","oneway":false},"geometry":{"type":"LineString","coordinates":[[126.87933,37.60322],[126.87936,37.60325],[126.87938,37.60329],[126.87939,37.60331]]}},{"type":"Feature","properties":{"class":"alley","highway":"service","sidewalk":"unknown","lanes":0,"name":"","oneway":false},"geometry":{"type":"LineString","coordinates":[[126.87923,37.60315],[126.87917,37.60312],[126.87911,37.60308],[126.87904,37.60303],[126.87899,37.60296],[126.87894,37.60289],[126.8789,37.60279],[126.87889,37.60272],[126.87888,37.60264],[126.87898,37.60231],[126.87901,37.6022],[126.87902,37.60212]]}},{"type":"Feature","properties":{"class":"alley","highway":"service","sidewalk":"unknown","lanes":0,"name":"","oneway":false},"geometry":{"type":"LineString","coordinates":[[126.87702,37.60353],[126.87696,37.60356],[126.87694,37.60358],[126.87691,37.60359],[126.87687,37.60362],[126.87684,37.60365],[126.87679,37.60369],[126.87676,37.60372],[126.87675,37.60373],[126.87672,37.60376],[126.87665,37.60387],[126.87654,37.60405],[126.87626,37.60449],[126.87621,37.60453],[126.87617,37.60455]]}},{"type":"Feature","properties":{"class":"alley","highway":"service","sidewalk":"unknown","lanes":0,"name":"","oneway":false},"geometry":{"type":"LineString","coordinates":[[126.87643,37.60353],[126.87653,37.60357],[126.8766,37.6036],[126.87666,37.60364],[126.87671,37.60368],[126.87674,37.60371],[126.87675,37.60373]]}},{"type":"Feature","properties":{"class":"alley","highway":"service","sidewalk":"unknown","lanes":0,"name":"","oneway":false},"geometry":{"type":"LineString","coordinates":[[126.87665,37.60387],[126.87663,37.60386],[126.8766,37.60384],[126.87658,37.60384],[126.87655,37.60384]]}},{"type":"Feature","properties":{"class":"alley","highway":"service","sidewalk":"unknown","lanes":0,"name":"","oneway":false},"geometry":{"type":"LineString","coordinates":[[126.87617,37.60455],[126.87614,37.60454],[126.87612,37.60454],[126.8761,37.60453],[126.87597,37.60449],[126.87535,37.60425],[126.87532,37.60425],[126.87529,37.60426],[126.87527,37.60428],[126.87524,37.60439],[126.87515,37.60452],[126.87497,37.60447],[126.87493,37.60446],[126.8749,37.60446],[126.87487,37.60449],[126.87485,37.60453],[126.87484,37.60462],[126.87485,37.60465],[126.87486,37.60468],[126.8749,37.6047],[126.87495,37.60473],[126.87571,37.60503],[126.87574,37.60503],[126.87578,37.60503],[126.87581,37.60501],[126.87585,37.60499],[126.8759,37.60494],[126.87593,37.60489],[126.87593,37.60487],[126.87593,37.60486],[126.87593,37.60484],[126.87594,37.60481],[126.87606,37.60462],[126.87608,37.6046],[126.87612,37.60454]]}},{"type":"Feature","properties":{"class":"alley","highway":"service","sidewalk":"unknown","lanes":0,"name":"","oneway":false},"geometry":{"type":"LineString","coordinates":[[126.87593,37.60487],[126.87573,37.60479],[126.87581,37.60467]]}},{"type":"Feature","properties":{"class":"alley","highway":"service","sidewalk":"unknown","lanes":0,"name":"","oneway":false},"geometry":{"type":"LineString","coordinates":[[126.87606,37.60462],[126.87614,37.60469],[126.87616,37.60471],[126.87618,37.60473],[126.87618,37.60476],[126.87617,37.60481],[126.87607,37.60512],[126.87605,37.60517],[126.87603,37.60522],[126.87601,37.60524],[126.87598,37.60526],[126.87596,37.60527]]}},{"type":"Feature","properties":{"class":"alley","highway":"service","sidewalk":"unknown","lanes":0,"name":"","oneway":false},"geometry":{"type":"LineString","coordinates":[[126.87608,37.6046],[126.8763,37.60467],[126.87637,37.60454]]}},{"type":"Feature","properties":{"class":"alley","highway":"service","sidewalk":"unknown","lanes":0,"name":"","oneway":false},"geometry":{"type":"LineString","coordinates":[[126.87694,37.60358],[126.87695,37.60367],[126.87697,37.60373],[126.87699,37.60379],[126.87701,37.60387],[126.87705,37.60394]]}},{"type":"Feature","properties":{"class":"alley","highway":"service","sidewalk":"unknown","lanes":0,"name":"","oneway":false},"geometry":{"type":"LineString","coordinates":[[126.87696,37.60356],[126.87747,37.60374],[126.8776,37.60378],[126.8776,37.60383],[126.87758,37.60387],[126.87756,37.60392],[126.87747,37.60399],[126.87738,37.60405],[126.87723,37.60414],[126.87718,37.60417],[126.87713,37.60421],[126.87709,37.60425],[126.87705,37.6043],[126.87703,37.60435],[126.87702,37.60442],[126.87702,37.60445]]}},{"type":"Feature","properties":{"class":"alley","highway":"service","sidewalk":"unknown","lanes":0,"name":"","oneway":false},"geometry":{"type":"LineString","coordinates":[[126.87646,37.60446],[126.87656,37.60429],[126.87667,37.60417],[126.87705,37.60394],[126.87747,37.60374]]}},{"type":"Feature","properties":{"class":"alley","highway":"service","sidewalk":"unknown","lanes":0,"name":"","oneway":false},"geometry":{"type":"LineString","coordinates":[[126.87854,37.60351],[126.87864,37.60359],[126.87865,37.6036],[126.87871,37.60365],[126.87873,37.60368],[126.87874,37.60372],[126.87878,37.60401]]}},{"type":"Feature","properties":{"class":"alley","highway":"service","sidewalk":"unknown","lanes":0,"name":"","oneway":false},"geometry":{"type":"LineString","coordinates":[[126.87864,37.60359],[126.8786,37.60364],[126.87857,37.60366],[126.87854,37.60368],[126.8785,37.60369],[126.8778,37.60384],[126.87777,37.60384]]}},{"type":"Feature","properties":{"class":"alley","highway":"service","sidewalk":"unknown","lanes":0,"name":"","oneway":false},"geometry":{"type":"LineString","coordinates":[[126.87755,37.60421],[126.87767,37.60418],[126.87775,37.60416],[126.87783,37.60413],[126.87793,37.6041],[126.87801,37.60408],[126.87816,37.60407],[126.87861,37.60404],[126.87869,37.60403],[126.87873,37.60402],[126.87878,37.60401],[126.87882,37.60401],[126.87888,37.60401],[126.87892,37.60402],[126.87896,37.60404],[126.87899,37.60406],[126.87901,37.6041]]}},{"type":"Feature","properties":{"class":"alley","highway":"service","sidewalk":"unknown","lanes":0,"name":"","oneway":false},"geometry":{"type":"LineString","coordinates":[[126.87702,37.60445],[126.87705,37.60452],[126.87716,37.60469],[126.87721,37.60492]]}},{"type":"Feature","properties":{"class":"alley","highway":"service","sidewalk":"unknown","lanes":0,"name":"","oneway":false},"geometry":{"type":"LineString","coordinates":[[126.87702,37.60445],[126.87704,37.60464],[126.87701,37.60473],[126.87687,37.605]]}},{"type":"Feature","properties":{"class":"alley","highway":"service","sidewalk":"unknown","lanes":0,"name":"","oneway":false},"geometry":{"type":"LineString","coordinates":[[126.87607,37.60512],[126.87616,37.6051],[126.87631,37.60501],[126.87636,37.60497]]}},{"type":"Feature","properties":{"class":"alley","highway":"service","sidewalk":"unknown","lanes":0,"name":"","oneway":false},"geometry":{"type":"LineString","coordinates":[[126.87601,37.60524],[126.87617,37.60532],[126.87623,37.60535]]}},{"type":"Feature","properties":{"class":"alley","highway":"service","sidewalk":"unknown","lanes":0,"name":"","oneway":false},"geometry":{"type":"LineString","coordinates":[[126.87923,37.60448],[126.87926,37.60452],[126.87929,37.60452],[126.87931,37.60452],[126.87934,37.60451],[126.87952,37.60441],[126.87954,37.60439],[126.87957,37.60437],[126.87962,37.60434],[126.87969,37.60431],[126.87978,37.60429],[126.87987,37.60427],[126.87995,37.60427],[126.88001,37.60428]]}},{"type":"Feature","properties":{"class":"alley","highway":"service","sidewalk":"unknown","lanes":0,"name":"","oneway":false},"geometry":{"type":"LineString","coordinates":[[126.87234,37.60532],[126.87262,37.60526],[126.87267,37.60522],[126.8727,37.60516],[126.87271,37.60509],[126.87277,37.60395]]}},{"type":"Feature","properties":{"class":"alley","highway":"service","sidewalk":"unknown","lanes":0,"name":"","oneway":false},"geometry":{"type":"LineString","coordinates":[[126.87178,37.60516],[126.87195,37.60515],[126.87235,37.60515]]}},{"type":"Feature","properties":{"class":"alley","highway":"service","sidewalk":"unknown","lanes":0,"name":"","oneway":false},"geometry":{"type":"LineString","coordinates":[[126.87195,37.60515],[126.87186,37.60584],[126.872,37.60586],[126.87204,37.60605]]}},{"type":"Feature","properties":{"class":"alley","highway":"service","sidewalk":"unknown","lanes":0,"name":"","oneway":false},"geometry":{"type":"LineString","coordinates":[[126.87115,37.60409],[126.87124,37.6041],[126.87129,37.60412],[126.87132,37.60414],[126.87132,37.60418],[126.8713,37.60436],[126.8712,37.60445],[126.8712,37.60452],[126.87116,37.6046],[126.87116,37.60472],[126.87119,37.60477],[126.87176,37.60477],[126.87189,37.60477],[126.87203,37.60476],[126.87218,37.60475],[126.87228,37.60474],[126.8723,37.60472]]}},{"type":"Feature","properties":{"class":"alley","highway":"service","sidewalk":"unknown","lanes":0,"name":"","oneway":false},"geometry":{"type":"LineString","coordinates":[[126.87098,37.60404],[126.871,37.60396],[126.87101,37.60388],[126.87102,37.60384],[126.87104,37.60381],[126.87105,37.60378],[126.87098,37.60376],[126.87098,37.60365],[126.87094,37.60355],[126.87092,37.60352],[126.87091,37.6035],[126.8709,37.60346],[126.8709,37.60341],[126.87091,37.60338],[126.87092,37.60334],[126.87089,37.60324]]}},{"type":"Feature","properties":{"class":"alley","highway":"service","sidewalk":"unknown","lanes":0,"name":"","oneway":false},"geometry":{"type":"LineString","coordinates":[[126.87092,37.60352],[126.87119,37.60333],[126.87117,37.60321]]}},{"type":"Feature","properties":{"class":"alley","highway":"service","sidewalk":"unknown","lanes":0,"name":"","oneway":false},"geometry":{"type":"LineString","coordinates":[[126.87119,37.60333],[126.87134,37.60332],[126.87159,37.60329],[126.87248,37.60322]]}},{"type":"Feature","properties":{"class":"alley","highway":"service","sidewalk":"unknown","lanes":0,"name":"","oneway":false},"geometry":{"type":"LineString","coordinates":[[126.87107,37.60658],[126.87112,37.60659],[126.87121,37.60642],[126.87127,37.60636],[126.87134,37.60629],[126.87142,37.60623],[126.87153,37.6062],[126.87157,37.6062],[126.87164,37.60619],[126.8717,37.60618],[126.87177,37.60615],[126.87177,37.60608],[126.87177,37.60599]]}},{"type":"Feature","properties":{"class":"alley","highway":"service","sidewalk":"unknown","lanes":0,"name":"","oneway":false},"geometry":{"type":"LineString","coordinates":[[126.87177,37.60608],[126.87204,37.60605],[126.8723,37.60604]]}},{"type":"Feature","properties":{"class":"alley","highway":"service","sidewalk":"unknown","lanes":0,"name":"","oneway":false},"geometry":{"type":"LineString","coordinates":[[126.87231,37.60675],[126.87235,37.60672],[126.87239,37.6067],[126.87241,37.60667],[126.87244,37.60663],[126.87245,37.6066],[126.87246,37.60658],[126.87247,37.60656],[126.87247,37.60651],[126.87247,37.60627]]}},{"type":"Feature","properties":{"class":"alley","highway":"service","sidewalk":"unknown","lanes":0,"name":"","oneway":false},"geometry":{"type":"LineString","coordinates":[[126.87246,37.60658],[126.87253,37.60654],[126.87259,37.60649],[126.87264,37.60644],[126.87269,37.60637],[126.87275,37.60627],[126.87282,37.60616],[126.87285,37.60607],[126.87287,37.60601],[126.87287,37.60584]]}},{"type":"Feature","properties":{"class":"alley","highway":"service","sidewalk":"unknown","lanes":0,"name":"","oneway":false},"geometry":{"type":"LineString","coordinates":[[126.87231,37.6069],[126.87219,37.60683],[126.87212,37.60679],[126.87205,37.60674],[126.87199,37.60666],[126.87194,37.60658],[126.87191,37.60649],[126.87192,37.60646],[126.87195,37.60644],[126.872,37.60643],[126.87198,37.60635]]}},{"type":"Feature","properties":{"class":"alley","highway":"service","sidewalk":"unknown","lanes":0,"name":"","oneway":false},"geometry":{"type":"LineString","coordinates":[[126.87233,37.60706],[126.87196,37.60688],[126.87186,37.60683],[126.87179,37.60679],[126.87177,37.60676],[126.87175,37.60674],[126.87173,37.60666],[126.87171,37.60658],[126.87171,37.60654],[126.87168,37.60651],[126.87162,37.6065],[126.87158,37.60649],[126.87156,37.60649],[126.87152,37.6065],[126.87148,37.60651],[126.87144,37.60654],[126.87142,37.60657],[126.8714,37.60664],[126.87138,37.60669],[126.87136,37.60673],[126.87136,37.60676],[126.87137,37.60676],[126.87139,37.60677],[126.87143,37.60677],[126.87148,37.60677],[126.87152,37.60676],[126.87156,37.60675],[126.87161,37.60674],[126.87164,37.60674],[126.87168,37.60674],[126.87172,37.60675],[126.87175,37.60675],[126.87177,37.60676]]}},{"type":"Feature","properties":{"class":"alley","highway":"service","sidewalk":"unknown","lanes":0,"name":"","oneway":false},"geometry":{"type":"LineString","coordinates":[[126.87104,37.60698],[126.8711,37.60687],[126.87112,37.60682],[126.87112,37.60673]]}},{"type":"Feature","properties":{"class":"alley","highway":"service","sidewalk":"unknown","lanes":0,"name":"","oneway":false},"geometry":{"type":"LineString","coordinates":[[126.8711,37.60687],[126.8712,37.60684]]}},{"type":"Feature","properties":{"class":"alley","highway":"service","sidewalk":"unknown","lanes":0,"name":"","oneway":false},"geometry":{"type":"LineString","coordinates":[[126.87129,37.60679],[126.87137,37.60676]]}},{"type":"Feature","properties":{"class":"alley","highway":"service","sidewalk":"unknown","lanes":0,"name":"","oneway":false},"geometry":{"type":"LineString","coordinates":[[126.87245,37.6073],[126.87253,37.60727],[126.87316,37.60695]]}},{"type":"Feature","properties":{"class":"alley","highway":"service","sidewalk":"unknown","lanes":0,"name":"","oneway":false},"geometry":{"type":"LineString","coordinates":[[126.86811,37.60396],[126.86808,37.60393],[126.86779,37.60371],[126.86792,37.60359]]}},{"type":"Feature","properties":{"class":"alley","highway":"service","sidewalk":"unknown","lanes":0,"name":"","oneway":false},"geometry":{"type":"LineString","coordinates":[[126.86792,37.60359],[126.86822,37.60381],[126.86825,37.60383]]}},{"type":"Feature","properties":{"class":"alley","highway":"service","sidewalk":"unknown","lanes":0,"name":"","oneway":false},"geometry":{"type":"LineString","coordinates":[[126.86792,37.60359],[126.86828,37.60328]]}},{"type":"Feature","properties":{"class":"alley","highway":"service","sidewalk":"unknown","lanes":0,"name":"","oneway":false},"geometry":{"type":"LineString","coordinates":[[126.87224,37.60941],[126.87243,37.60936],[126.8732,37.60919],[126.87326,37.60917],[126.8733,37.60916],[126.87336,37.60912],[126.87343,37.60907],[126.87348,37.609],[126.87408,37.60827],[126.87413,37.60821],[126.87418,37.60816],[126.87428,37.60808],[126.8745,37.60795],[126.87471,37.60784],[126.87482,37.60778],[126.87562,37.60741],[126.87572,37.60736],[126.87574,37.60736],[126.87581,37.6073],[126.87586,37.60724],[126.87589,37.60717],[126.87589,37.60707],[126.87587,37.60698],[126.8758,37.60685],[126.87568,37.60672],[126.87495,37.60603],[126.87489,37.60599],[126.87483,37.60596],[126.87474,37.60595],[126.87449,37.60594]]}},{"type":"Feature","properties":{"class":"alley","highway":"service","sidewalk":"unknown","lanes":0,"name":"","oneway":false},"geometry":{"type":"LineString","coordinates":[[126.87572,37.60736],[126.87552,37.6071],[126.8749,37.60657],[126.87435,37.60682]]}},{"type":"Feature","properties":{"class":"alley","highway":"service","sidewalk":"unknown","lanes":0,"name":"","oneway":false},"geometry":{"type":"LineString","coordinates":[[126.87449,37.60594],[126.87447,37.60595],[126.8744,37.60596],[126.87325,37.60597],[126.87325,37.60622],[126.87448,37.60623],[126.87447,37.60595]]}},{"type":"Feature","properties":{"class":"alley","highway":"service","sidewalk":"unknown","lanes":0,"name":"","oneway":false},"geometry":{"type":"LineString","coordinates":[[126.87449,37.60594],[126.87434,37.60584]]}},{"type":"Feature","properties":{"class":"alley","highway":"service","sidewalk":"unknown","lanes":0,"name":"","oneway":false},"geometry":{"type":"LineString","coordinates":[[126.87449,37.60594],[126.87448,37.60581],[126.87447,37.60562],[126.87448,37.60548],[126.87448,37.60537],[126.8745,37.60524],[126.87452,37.60516],[126.87482,37.60534],[126.87486,37.60543],[126.87487,37.60579]]}},{"type":"Feature","properties":{"class":"alley","highway":"service","sidewalk":"unknown","lanes":0,"name":"","oneway":false},"geometry":{"type":"LineString","coordinates":[[126.8646,37.60396],[126.86472,37.60407],[126.86457,37.6042],[126.86442,37.60438],[126.8642,37.60473],[126.86412,37.60483],[126.86405,37.60492],[126.86399,37.60499],[126.86373,37.60521],[126.86379,37.60531],[126.86385,37.6054],[126.8639,37.60544],[126.86396,37.60547],[126.864,37.60548],[126.86403,37.60548],[126.86411,37.6055],[126.86419,37.6055],[126.8643,37.60545],[126.86543,37.60454],[126.86587,37.60416],[126.86612,37.60396],[126.86637,37.60374],[126.8667,37.60349],[126.8669,37.60335],[126.86723,37.60306],[126.86762,37.60274]]}},{"type":"Feature","properties":{"class":"alley","highway":"service","sidewalk":"unknown","lanes":0,"name":"","oneway":false},"geometry":{"type":"LineString","coordinates":[[126.87435,37.59588],[126.87459,37.5959],[126.87462,37.59591],[126.87465,37.59593],[126.87467,37.59594],[126.87487,37.59604],[126.87498,37.59613],[126.87502,37.59621],[126.87505,37.59627],[126.87504,37.59636],[126.87501,37.59642],[126.87496,37.59648],[126.8749,37.59653],[126.87442,37.59695],[126.87412,37.59721],[126.87366,37.59762],[126.87356,37.59772],[126.87302,37.59818],[126.87263,37.5985],[126.8725,37.59861],[126.87225,37.59882],[126.87192,37.59911],[126.87181,37.59922],[126.87162,37.59937],[126.87142,37.59949],[126.87087,37.59996],[126.87068,37.60012]]}},{"type":"Feature","properties":{"class":"alley","highway":"service","sidewalk":"unknown","lanes":0,"name":"","oneway":false},"geometry":{"type":"LineString","coordinates":[[126.87068,37.60012],[126.87068,37.60007],[126.87068,37.60003],[126.8707,37.59999],[126.87071,37.59996],[126.87074,37.59994],[126.87078,37.59994],[126.87083,37.59995],[126.87087,37.59996]]}},{"type":"Feature","properties":{"class":"alley","highway":"service","sidewalk":"unknown","lanes":0,"name":"","oneway":false},"geometry":{"type":"LineString","coordinates":[[126.86844,37.60205],[126.8684,37.60208],[126.86835,37.60213],[126.86826,37.6022],[126.86818,37.60228]]}},{"type":"Feature","properties":{"class":"alley","highway":"service","sidewalk":"unknown","lanes":0,"name":"","oneway":true},"geometry":{"type":"LineString","coordinates":[[126.86931,37.60306],[126.86926,37.60301],[126.86923,37.60297]]}},{"type":"Feature","properties":{"class":"alley","highway":"service","sidewalk":"unknown","lanes":0,"name":"","oneway":false},"geometry":{"type":"LineString","coordinates":[[126.87065,37.60024],[126.87059,37.60029],[126.87065,37.60033]]}},{"type":"Feature","properties":{"class":"alley","highway":"service","sidewalk":"unknown","lanes":0,"name":"","oneway":false},"geometry":{"type":"LineString","coordinates":[[126.87059,37.60029],[126.87054,37.60031],[126.87029,37.60053],[126.86996,37.60068],[126.86962,37.60096]]}},{"type":"Feature","properties":{"class":"alley","highway":"service","sidewalk":"unknown","lanes":0,"name":"","oneway":false},"geometry":{"type":"LineString","coordinates":[[126.86373,37.60521],[126.8637,37.60524],[126.86368,37.60525],[126.86366,37.60528],[126.86365,37.60534],[126.86362,37.60542],[126.86357,37.60553],[126.86349,37.60568],[126.86342,37.60581],[126.86333,37.60598],[126.86321,37.60612],[126.86313,37.60621],[126.86307,37.60627],[126.86303,37.60632],[126.86299,37.60636],[126.86293,37.60639],[126.86289,37.60641],[126.86281,37.60643],[126.86271,37.60645],[126.86259,37.60646],[126.86254,37.60645],[126.86245,37.60643],[126.86244,37.60642],[126.8624,37.60641],[126.86223,37.60622]]}},{"type":"Feature","properties":{"class":"alley","highway":"service","sidewalk":"unknown","lanes":0,"name":"","oneway":false},"geometry":{"type":"LineString","coordinates":[[126.86245,37.60643],[126.86258,37.60589]]}},{"type":"Feature","properties":{"class":"alley","highway":"service","sidewalk":"unknown","lanes":0,"name":"","oneway":false},"geometry":{"type":"LineString","coordinates":[[126.86244,37.60642],[126.86235,37.60648],[126.86144,37.60696],[126.86138,37.60699]]}},{"type":"Feature","properties":{"class":"alley","highway":"service","sidewalk":"unknown","lanes":0,"name":"","oneway":false},"geometry":{"type":"LineString","coordinates":[[126.86144,37.60696],[126.86123,37.60672]]}},{"type":"Feature","properties":{"class":"major","highway":"primary_link","sidewalk":"likely","lanes":0,"name":"","oneway":true},"geometry":{"type":"LineString","coordinates":[[126.873,37.60004],[126.87301,37.60001],[126.87302,37.59998],[126.87302,37.59995],[126.87301,37.59992],[126.873,37.5999],[126.87299,37.59988],[126.87297,37.59986],[126.87295,37.59985],[126.87292,37.59984]]}},{"type":"Feature","properties":{"class":"minor","highway":"residential","sidewalk":"unknown","lanes":0,"name":"화랑로","oneway":false},"geometry":{"type":"LineString","coordinates":[[126.87173,37.60135],[126.87162,37.60128],[126.87155,37.60103],[126.87142,37.60086],[126.87131,37.60074]]}},{"type":"Feature","properties":{"class":"minor","highway":"residential","sidewalk":"unknown","lanes":0,"name":"","oneway":false},"geometry":{"type":"LineString","coordinates":[[126.87155,37.60103],[126.87191,37.60105],[126.872,37.60107]]}},{"type":"Feature","properties":{"class":"alley","highway":"service","sidewalk":"unknown","lanes":0,"name":"","oneway":false},"geometry":{"type":"LineString","coordinates":[[126.87191,37.60105],[126.8719,37.60099],[126.87173,37.60087]]}},{"type":"Feature","properties":{"class":"minor","highway":"residential","sidewalk":"unknown","lanes":0,"name":"","oneway":false},"geometry":{"type":"LineString","coordinates":[[126.86993,37.6033],[126.86985,37.60324],[126.86977,37.60316],[126.86972,37.60311],[126.86966,37.60304],[126.8696,37.60298],[126.86956,37.60293],[126.86953,37.60291],[126.86949,37.6029],[126.86943,37.60286]]}},{"type":"Feature","properties":{"class":"minor","highway":"residential","sidewalk":"unknown","lanes":0,"name":"중앙로","oneway":false},"geometry":{"type":"LineString","coordinates":[[126.87305,37.60024],[126.87313,37.60031],[126.87319,37.60034],[126.87323,37.60036],[126.87327,37.60037],[126.87331,37.60038],[126.87348,37.60041],[126.8735,37.60041],[126.87355,37.60042],[126.8736,37.60044],[126.87366,37.60045],[126.8737,37.60047],[126.87372,37.60047],[126.87376,37.60049],[126.8738,37.60051],[126.87385,37.60053],[126.8739,37.60054],[126.87396,37.60055],[126.87406,37.60055],[126.87421,37.60057],[126.87435,37.60058],[126.87445,37.60059],[126.87451,37.60059],[126.87457,37.60061],[126.87464,37.60063]]}},{"type":"Feature","properties":{"class":"alley","highway":"service","sidewalk":"unknown","lanes":0,"name":"","oneway":false},"geometry":{"type":"LineString","coordinates":[[126.87281,37.60111],[126.87284,37.60113],[126.87286,37.60117],[126.87291,37.6013],[126.87293,37.60138],[126.87293,37.60142],[126.87293,37.60145],[126.87292,37.60147]]}},{"type":"Feature","properties":{"class":"major","highway":"primary_link","sidewalk":"likely","lanes":0,"name":"","oneway":true},"geometry":{"type":"LineString","coordinates":[[126.86841,37.60535],[126.86838,37.60528],[126.86835,37.60523],[126.86831,37.60518],[126.86827,37.60515],[126.86823,37.60513],[126.86817,37.60511],[126.86812,37.60511],[126.86807,37.60511],[126.86795,37.60518]]}},{"type":"Feature","properties":{"class":"minor","highway":"residential","sidewalk":"unknown","lanes":0,"name":"화랑로","oneway":false},"geometry":{"type":"LineString","coordinates":[[126.86839,37.60542],[126.86849,37.60545],[126.86857,37.60549],[126.86864,37.60553],[126.86875,37.60558],[126.86885,37.60563],[126.86893,37.60567],[126.86888,37.60591]]}},{"type":"Feature","properties":{"class":"minor","highway":"unclassified","sidewalk":"unknown","lanes":0,"name":"항공대학로","oneway":false},"geometry":{"type":"LineString","coordinates":[[126.85757,37.59786],[126.85786,37.59789],[126.8581,37.59795],[126.85894,37.59854],[126.85936,37.59886],[126.85951,37.599],[126.8596,37.59922],[126.85961,37.59931],[126.85955,37.59965],[126.85945,37.60019],[126.85949,37.60052],[126.85961,37.6008],[126.86026,37.60143],[126.86053,37.60169],[126.861,37.60221],[126.86107,37.60233],[126.86115,37.6027],[126.86133,37.60345],[126.86165,37.60382],[126.86202,37.6042],[126.86228,37.60438],[126.86265,37.60455],[126.86298,37.60473],[126.86328,37.60506],[126.86336,37.60518]]}},{"type":"Feature","properties":{"class":"minor","highway":"unclassified","sidewalk":"unknown","lanes":0,"name":"항공대학로","oneway":false},"geometry":{"type":"LineString","coordinates":[[126.86159,37.60344],[126.86153,37.60326],[126.86139,37.60264],[126.8613,37.60226],[126.86119,37.60205],[126.86111,37.60197],[126.86046,37.60128],[126.85976,37.60059],[126.85971,37.60042],[126.85973,37.60001],[126.85979,37.59966],[126.85988,37.59921],[126.85976,37.59892],[126.85961,37.59875],[126.85817,37.59774],[126.85791,37.59755],[126.85785,37.5975]]}},{"type":"Feature","properties":{"class":"alley","highway":"service","sidewalk":"unknown","lanes":0,"name":"","oneway":false},"geometry":{"type":"LineString","coordinates":[[126.86626,37.60213],[126.86619,37.60215],[126.86608,37.60218],[126.86583,37.60225]]}},{"type":"Feature","properties":{"class":"alley","highway":"service","sidewalk":"unknown","lanes":0,"name":"","oneway":false},"geometry":{"type":"LineString","coordinates":[[126.86327,37.60527],[126.86319,37.6053],[126.86315,37.6053],[126.86312,37.60529],[126.86309,37.60529],[126.86306,37.6053],[126.86304,37.60531],[126.86278,37.60554],[126.8627,37.60565],[126.86267,37.60569],[126.86262,37.6058],[126.86258,37.60589]]}},{"type":"Feature","properties":{"class":"alley","highway":"service","sidewalk":"unknown","lanes":0,"name":"","oneway":false},"geometry":{"type":"LineString","coordinates":[[126.86526,37.60189],[126.86503,37.60195],[126.86498,37.60198],[126.86497,37.60204],[126.86511,37.60274]]}},{"type":"Feature","properties":{"class":"alley","highway":"service","sidewalk":"unknown","lanes":0,"name":"","oneway":false},"geometry":{"type":"LineString","coordinates":[[126.86556,37.6022],[126.86537,37.60176]]}},{"type":"Feature","properties":{"class":"alley","highway":"service","sidewalk":"unknown","lanes":0,"name":"","oneway":false},"geometry":{"type":"LineString","coordinates":[[126.86583,37.60225],[126.86589,37.60242],[126.86577,37.60244],[126.86556,37.6022],[126.86526,37.60189],[126.86519,37.60182],[126.86537,37.60176]]}},{"type":"Feature","properties":{"class":"alley","highway":"service","sidewalk":"unknown","lanes":0,"name":"","oneway":false},"geometry":{"type":"LineString","coordinates":[[126.86532,37.60015],[126.86526,37.60017],[126.86506,37.60023],[126.8645,37.6004],[126.86429,37.59997]]}},{"type":"Feature","properties":{"class":"major","highway":"tertiary","sidewalk":"likely","lanes":1,"name":"","oneway":false},"geometry":{"type":"LineString","coordinates":[[126.86742,37.59796],[126.86756,37.59823],[126.86758,37.59828],[126.86773,37.59883],[126.86786,37.59943],[126.86799,37.59999],[126.86804,37.6002],[126.86807,37.60041],[126.86802,37.60078],[126.86783,37.60113],[126.86752,37.60142],[126.8675,37.60143]]}},{"type":"Feature","properties":{"class":"major","highway":"tertiary","sidewalk":"likely","lanes":2,"name":"항공대학로","oneway":false},"geometry":{"type":"LineString","coordinates":[[126.8634,37.60514],[126.86336,37.60518],[126.86327,37.60527]]}},{"type":"Feature","properties":{"class":"major","highway":"tertiary","sidewalk":"likely","lanes":2,"name":"","oneway":false},"geometry":{"type":"LineString","coordinates":[[126.86358,37.60498],[126.8634,37.60514]]}},{"type":"Feature","properties":{"class":"minor","highway":"residential","sidewalk":"unknown","lanes":0,"name":"화랑로102번길","oneway":false},"geometry":{"type":"LineString","coordinates":[[126.86834,37.60742],[126.8686,37.60731],[126.86861,37.60723],[126.86876,37.60717],[126.86884,37.60672]]}},{"type":"Feature","properties":{"class":"minor","highway":"residential","sidewalk":"unknown","lanes":0,"name":"중앙로","oneway":false},"geometry":{"type":"LineString","coordinates":[[126.86935,37.60412],[126.86977,37.60439]]}},{"type":"Feature","properties":{"class":"minor","highway":"residential","sidewalk":"unknown","lanes":0,"name":"화랑로102번길","oneway":false},"geometry":{"type":"LineString","coordinates":[[126.86977,37.60505],[126.86977,37.6052],[126.86993,37.60555],[126.8701,37.60577],[126.87016,37.6059],[126.87031,37.60606],[126.87037,37.60667],[126.87043,37.60685]]}},{"type":"Feature","properties":{"class":"minor","highway":"residential","sidewalk":"unknown","lanes":0,"name":"","oneway":false},"geometry":{"type":"LineString","coordinates":[[126.8685,37.60498],[126.8691,37.60501],[126.86977,37.60505]]}},{"type":"Feature","properties":{"class":"minor","highway":"residential","sidewalk":"unknown","lanes":0,"name":"중앙로64번길","oneway":false},"geometry":{"type":"LineString","coordinates":[[126.87516,37.59942],[126.87485,37.60016],[126.87473,37.60043],[126.87464,37.60063]]}},{"type":"Feature","properties":{"class":"minor","highway":"residential","sidewalk":"unknown","lanes":0,"name":"중앙로78번안길","oneway":false},"geometry":{"type":"LineString","coordinates":[[126.8781,37.59967],[126.87816,37.59976],[126.87822,37.59987],[126.87846,37.6]]}},{"type":"Feature","properties":{"class":"minor","highway":"residential","sidewalk":"unknown","lanes":0,"name":"화랑로","oneway":false},"geometry":{"type":"LineString","coordinates":[[126.87461,37.59839],[126.87436,37.5982],[126.87411,37.59816],[126.87351,37.59867],[126.87328,37.59889],[126.8729,37.59926],[126.87236,37.59972],[126.87197,37.60008],[126.87201,37.60013]]}},{"type":"Feature","properties":{"class":"minor","highway":"residential","sidewalk":"unknown","lanes":0,"name":"","oneway":false},"geometry":{"type":"LineString","coordinates":[[126.87571,37.60048],[126.87592,37.59995],[126.87652,37.60008]]}},{"type":"Feature","properties":{"class":"alley","highway":"service","sidewalk":"unknown","lanes":0,"name":"","oneway":false},"geometry":{"type":"LineString","coordinates":[[126.86536,37.60023],[126.86546,37.6002],[126.86601,37.60004],[126.86611,37.59998]]}},{"type":"Feature","properties":{"class":"alley","highway":"pedestrian","sidewalk":"unknown","lanes":0,"name":"","oneway":false},"geometry":{"type":"LineString","coordinates":[[126.86861,37.60302],[126.86883,37.60284],[126.86918,37.60309],[126.86913,37.60325],[126.86908,37.60333],[126.86901,37.60345],[126.8687,37.60338],[126.86852,37.60352],[126.86846,37.60344],[126.86866,37.60327],[126.86863,37.60325],[126.86873,37.60317],[126.8686,37.60308],[126.86864,37.60304],[126.86861,37.60302]]}},{"type":"Feature","properties":{"class":"alley","highway":"service","sidewalk":"unknown","lanes":0,"name":"화전지하차도","oneway":true},"geometry":{"type":"LineString","coordinates":[[126.86845,37.6022],[126.86846,37.60223],[126.86922,37.60288],[126.86929,37.60292]]}},{"type":"Feature","properties":{"class":"alley","highway":"service","sidewalk":"unknown","lanes":0,"name":"화전지하차도","oneway":true},"geometry":{"type":"LineString","coordinates":[[126.86923,37.60297],[126.86839,37.60224]]}},{"type":"Feature","properties":{"class":"alley","highway":"service","sidewalk":"unknown","lanes":0,"name":"","oneway":true},"geometry":{"type":"LineString","coordinates":[[126.86935,37.60299],[126.86929,37.60299],[126.86923,37.60297]]}},{"type":"Feature","properties":{"class":"alley","highway":"service","sidewalk":"unknown","lanes":0,"name":"","oneway":true},"geometry":{"type":"LineString","coordinates":[[126.86929,37.60292],[126.86932,37.60293],[126.86939,37.60293]]}},{"type":"Feature","properties":{"class":"alley","highway":"service","sidewalk":"unknown","lanes":0,"name":"","oneway":true},"geometry":{"type":"LineString","coordinates":[[126.86839,37.60224],[126.86838,37.60219],[126.8684,37.60213],[126.86844,37.60205],[126.86914,37.60147],[126.8694,37.60125],[126.86951,37.60118]]}},{"type":"Feature","properties":{"class":"alley","highway":"service","sidewalk":"unknown","lanes":0,"name":"","oneway":true},"geometry":{"type":"LineString","coordinates":[[126.86951,37.60118],[126.86944,37.60128],[126.86849,37.60209],[126.86847,37.60213],[126.86845,37.6022]]}},{"type":"Feature","properties":{"class":"minor","highway":"residential","sidewalk":"unknown","lanes":0,"name":"중앙로78번안길","oneway":false},"geometry":{"type":"LineString","coordinates":[[126.87727,37.60035],[126.87745,37.60046],[126.87755,37.60056],[126.87765,37.6005],[126.87788,37.60077]]}},{"type":"Feature","properties":{"class":"minor","highway":"residential","sidewalk":"unknown","lanes":0,"name":"중앙로","oneway":false},"geometry":{"type":"LineString","coordinates":[[126.868,37.60405],[126.86804,37.60415],[126.86807,37.60451],[126.86809,37.60491]]}},{"type":"Feature","properties":{"class":"major","highway":"primary_link","sidewalk":"likely","lanes":0,"name":"","oneway":true},"geometry":{"type":"LineString","coordinates":[[126.86887,37.60404],[126.86887,37.6041],[126.86889,37.60415],[126.86894,37.60418],[126.86899,37.60418],[126.86906,37.60417],[126.86912,37.60414]]}},{"type":"Feature","properties":{"class":"alley","highway":"pedestrian","sidewalk":"unknown","lanes":0,"name":"","oneway":false},"geometry":{"type":"LineString","coordinates":[[126.86482,37.59989],[126.86498,37.60022],[126.86505,37.6002],[126.86525,37.60015],[126.86527,37.60014],[126.86512,37.5998],[126.8651,37.59981],[126.86502,37.59983],[126.86485,37.59988],[126.86482,37.59989]]}},{"type":"Feature","properties":{"class":"alley","highway":"service","sidewalk":"unknown","lanes":0,"name":"","oneway":false},"geometry":{"type":"LineString","coordinates":[[126.87516,37.61698],[126.87564,37.61684],[126.87599,37.61675],[126.87621,37.6167],[126.87699,37.61653],[126.87771,37.61635],[126.87775,37.61634],[126.87784,37.61632],[126.87835,37.61621],[126.87838,37.6162],[126.87853,37.61617],[126.87895,37.61608],[126.87939,37.61602],[126.8796,37.61601],[126.87961,37.61602],[126.87969,37.61618],[126.87979,37.61627],[126.87997,37.61642],[126.88017,37.61657],[126.88024,37.61665],[126.88034,37.6168],[126.88038,37.6169],[126.88046,37.61705],[126.88054,37.61724],[126.88055,37.61726],[126.88059,37.61732],[126.88061,37.61737],[126.88062,37.61744],[126.88063,37.61765],[126.88064,37.61773],[126.88065,37.61778],[126.88068,37.61781],[126.88072,37.61785],[126.88076,37.61787],[126.88081,37.61789],[126.88085,37.61789],[126.8809,37.61789],[126.88098,37.61788],[126.88119,37.61784],[126.88127,37.61783],[126.88134,37.61782],[126.88144,37.6178],[126.88153,37.6178],[126.88158,37.61779],[126.88159,37.61775],[126.88162,37.61767],[126.88166,37.61759],[126.88169,37.61752],[126.88174,37.61744],[126.8818,37.61738],[126.88188,37.61732],[126.88197,37.61726],[126.88207,37.61721],[126.88215,37.61719],[126.88224,37.61718],[126.88332,37.61704],[126.88339,37.61704],[126.88343,37.61706],[126.88346,37.61707],[126.88347,37.61708],[126.88351,37.61713],[126.88354,37.61718],[126.88357,37.61723],[126.88359,37.61725],[126.88362,37.61726],[126.88366,37.61726],[126.88403,37.61719]]}},{"type":"Feature","properties":{"class":"alley","highway":"service","sidewalk":"unknown","lanes":0,"name":"","oneway":false},"geometry":{"type":"LineString","coordinates":[[126.88038,37.6169],[126.88034,37.61693],[126.88031,37.61698],[126.88027,37.61704],[126.88023,37.6171],[126.8802,37.61714],[126.88019,37.61715],[126.88015,37.61719],[126.88008,37.61725],[126.88004,37.61728],[126.88002,37.61731],[126.88,37.61734],[126.87999,37.61738],[126.87998,37.61742],[126.88,37.61747],[126.88001,37.6175],[126.88001,37.61752],[126.88011,37.61765]]}},{"type":"Feature","properties":{"class":"alley","highway":"service","sidewalk":"unknown","lanes":0,"name":"","oneway":false},"geometry":{"type":"LineString","coordinates":[[126.87961,37.61602],[126.87967,37.616],[126.87972,37.616],[126.87976,37.61599],[126.87983,37.61599],[126.87993,37.61598],[126.88002,37.61597],[126.88009,37.61596],[126.88015,37.61595],[126.88022,37.61593],[126.88028,37.61591],[126.88033,37.61588],[126.88038,37.61585],[126.8804,37.61582],[126.88042,37.61578],[126.88045,37.61568],[126.88047,37.61563],[126.88048,37.61558],[126.8805,37.61556],[126.88052,37.61555],[126.88055,37.61554],[126.88057,37.61555],[126.88061,37.61557],[126.88063,37.61559],[126.88074,37.61571],[126.88102,37.61601]]}},{"type":"Feature","properties":{"class":"alley","highway":"service","sidewalk":"unknown","lanes":0,"name":"","oneway":false},"geometry":{"type":"LineString","coordinates":[[126.87677,37.6099],[126.87681,37.60985],[126.87683,37.60983],[126.87688,37.6098],[126.87691,37.60978],[126.87695,37.60974],[126.87702,37.60969],[126.87706,37.60965],[126.87712,37.60961],[126.87718,37.60957],[126.87726,37.60952],[126.87734,37.6095],[126.87744,37.60946],[126.87754,37.60943],[126.87763,37.6094],[126.87772,37.60939],[126.87775,37.6094],[126.87778,37.60935],[126.8778,37.60933],[126.87783,37.6093],[126.87787,37.60929],[126.8779,37.60929],[126.87793,37.6093],[126.87796,37.60931],[126.87797,37.60934],[126.87799,37.60936],[126.87801,37.60938],[126.87803,37.6094],[126.87807,37.60941],[126.8781,37.60941],[126.87814,37.60941],[126.87817,37.6094],[126.87821,37.60938],[126.87827,37.60935],[126.87833,37.60932],[126.87868,37.6091],[126.87883,37.60902],[126.8789,37.60899],[126.879,37.60895],[126.87916,37.60887],[126.87925,37.60884],[126.87931,37.60881],[126.87938,37.60877],[126.87961,37.60862],[126.8797,37.60856],[126.87973,37.60854],[126.87974,37.60854],[126.87981,37.60852],[126.87987,37.60851],[126.87993,37.60851],[126.87999,37.60852],[126.88015,37.60855],[126.88019,37.60857],[126.8804,37.60869],[126.88047,37.60874],[126.88058,37.6088],[126.88065,37.60883],[126.88069,37.60885],[126.88075,37.60886],[126.8808,37.60887],[126.88088,37.60887],[126.88101,37.60886],[126.88125,37.60887],[126.88131,37.60889],[126.88135,37.60893],[126.88138,37.60896],[126.88139,37.60902],[126.8814,37.60907],[126.8814,37.60913],[126.88139,37.60916],[126.88138,37.60919],[126.88137,37.60924],[126.88133,37.6093],[126.88128,37.60935],[126.88123,37.60938]]}},{"type":"Feature","properties":{"class":"alley","highway":"service","sidewalk":"unknown","lanes":0,"name":"","oneway":false},"geometry":{"type":"LineString","coordinates":[[126.87812,37.61253],[126.87815,37.61251],[126.8796,37.61178],[126.87967,37.61175],[126.87973,37.61174],[126.87977,37.61174],[126.87984,37.61177],[126.88008,37.61188],[126.88013,37.6119],[126.88022,37.61194],[126.88031,37.61198],[126.88037,37.61202],[126.88045,37.61207],[126.88051,37.61213],[126.88051,37.6122],[126.88051,37.61226]]}},{"type":"Feature","properties":{"class":"alley","highway":"service","sidewalk":"unknown","lanes":0,"name":"","oneway":false},"geometry":{"type":"LineString","coordinates":[[126.87965,37.61022],[126.87963,37.61036],[126.87971,37.61049],[126.88001,37.61096],[126.88017,37.61121],[126.88031,37.61114],[126.88035,37.61106],[126.88038,37.61101],[126.88039,37.61099],[126.88041,37.61097],[126.88057,37.61085],[126.88063,37.61081],[126.88068,37.61079],[126.88072,37.61077],[126.88078,37.61073],[126.88084,37.61068],[126.88091,37.6106],[126.88096,37.61055]]}},{"type":"Feature","properties":{"class":"alley","highway":"service","sidewalk":"unknown","lanes":0,"name":"","oneway":false},"geometry":{"type":"LineString","coordinates":[[126.87928,37.61095],[126.87933,37.61099],[126.87937,37.61102],[126.87942,37.61105],[126.87945,37.61106],[126.87948,37.61106],[126.87951,37.61107],[126.87957,37.61108],[126.87962,37.61108],[126.87968,37.61107],[126.87977,37.61105],[126.88001,37.61096]]}},{"type":"Feature","properties":{"class":"alley","highway":"service","sidewalk":"unknown","lanes":0,"name":"","oneway":false},"geometry":{"type":"LineString","coordinates":[[126.88039,37.61099],[126.87996,37.61034],[126.87982,37.61025],[126.87965,37.61022],[126.87957,37.61008],[126.87943,37.61002]]}},{"type":"Feature","properties":{"class":"alley","highway":"service","sidewalk":"unknown","lanes":0,"name":"","oneway":false},"geometry":{"type":"LineString","coordinates":[[126.87943,37.60997],[126.87936,37.60951],[126.87927,37.60941],[126.87935,37.60934],[126.87971,37.60923],[126.87992,37.60936],[126.88027,37.60955],[126.88045,37.60959]]}},{"type":"Feature","properties":{"class":"alley","highway":"service","sidewalk":"unknown","lanes":0,"name":"","oneway":false},"geometry":{"type":"LineString","coordinates":[[126.87815,37.61251],[126.87832,37.61276],[126.8784,37.61289],[126.87843,37.61292],[126.87854,37.613],[126.87897,37.61325],[126.87902,37.61327],[126.87906,37.61329],[126.8791,37.6133],[126.87914,37.6133],[126.8792,37.6133],[126.87926,37.61329],[126.87985,37.61318],[126.87995,37.61306],[126.88018,37.61317],[126.88,37.61342],[126.87933,37.61357],[126.87926,37.61329]]}}]}