{"type":"FeatureCollection","features":[{"type":"Feature","properties":{"class":"major","highway":"secondary","sidewalk":"likely","lanes":2,"name":"정릉로10길","oneway":false},"geometry":{"type":"LineString","coordinates":[[126.99741,37.60227],[126.99701,37.60241],[126.99694,37.60247],[126.99691,37.60253],[126.99691,37.6026],[126.99693,37.60265],[126.997,37.60269],[126.9971,37.60272],[126.99723,37.60273],[126.99741,37.60273],[126.99752,37.60274],[126.99763,37.60279],[126.99768,37.60288],[126.99768,37.60299],[126.99762,37.60312],[126.9975,37.60319],[126.99747,37.60327],[126.99749,37.60336],[126.99753,37.60343],[126.9978,37.60354],[126.99788,37.6036],[126.99789,37.60365],[126.9979,37.60374],[126.99788,37.60386],[126.99784,37.60398],[126.99785,37.60405],[126.99789,37.60412],[126.99793,37.60417],[126.99804,37.60427],[126.9981,37.60432],[126.99816,37.60438],[126.99821,37.60445],[126.9983,37.60458],[126.99832,37.60466],[126.99833,37.60473],[126.99833,37.60497],[126.99837,37.60521],[126.99839,37.60528],[126.99843,37.60536],[126.99855,37.60554],[126.99874,37.60577],[126.99883,37.60588],[126.99888,37.60598],[126.99903,37.60637],[126.99905,37.60643],[126.99909,37.60656],[126.99912,37.60663],[126.99926,37.60685],[126.99937,37.60706],[126.99941,37.60726],[126.99941,37.60732],[126.9994,37.60748],[126.99936,37.60772],[126.99936,37.60779],[126.99937,37.60786],[126.99942,37.60799],[126.99979,37.60779]]}},{"type":"Feature","properties":{"class":"major","highway":"primary","sidewalk":"likely","lanes":4,"name":"평창문화로","oneway":true},"geometry":{"type":"LineString","coordinates":[[126.98059,37.61187],[126.98018,37.61186],[126.97981,37.61177],[126.9796,37.61171],[126.97928,37.61159],[126.97897,37.61145],[126.97883,37.61131]]}},{"type":"Feature","properties":{"class":"major","highway":"primary","sidewalk":"likely","lanes":3,"name":"정릉로","oneway":true},"geometry":{"type":"LineString","coordinates":[[127.00705,37.60661],[127.00697,37.60667],[127.00665,37.60686],[127.00647,37.60694],[127.00641,37.60697],[127.00635,37.607],[127.0061,37.60716],[127.00591,37.60729],[127.00571,37.60739],[127.00555,37.60746],[127.00547,37.60749],[127.00526,37.60756],[127.0051,37.60761],[127.00497,37.60765],[127.00478,37.60771],[127.00458,37.60775],[127.00435,37.60778],[127.00419,37.60778],[127.00393,37.60775],[127.00374,37.60771],[127.00369,37.60769],[127.00346,37.60762],[127.00317,37.60759],[127.00305,37.6076],[127.00277,37.60762],[127.00252,37.60768],[127.00226,37.60777],[127.00175,37.60796],[127.00168,37.60798],[126.99991,37.60856],[126.99981,37.6086],[126.99954,37.6087],[126.99893,37.60893],[126.99858,37.60906],[126.99823,37.60919],[126.99788,37.6093],[126.99737,37.6094],[126.99681,37.60958],[126.99674,37.60962],[126.99668,37.60964],[126.99634,37.60983],[126.99607,37.60996],[126.99488,37.61059]]}},{"type":"Feature","properties":{"class":"major","highway":"trunk","sidewalk":"likely","lanes":0,"name":"내부순환로","oneway":true},"geometry":{"type":"LineString","coordinates":[[126.9921,37.6099],[126.98595,37.60916],[126.98222,37.60867],[126.97961,37.60835],[126.97697,37.60801],[126.97572,37.60773],[126.97449,37.60735],[126.97377,37.60702]]}},{"type":"Feature","properties":{"class":"major","highway":"primary","sidewalk":"likely","lanes":4,"name":"정릉로","oneway":true},"geometry":{"type":"LineString","coordinates":[[126.99441,37.61081],[126.99422,37.6109]]}},{"type":"Feature","properties":{"class":"major","highway":"primary","sidewalk":"likely","lanes":0,"name":"정릉로","oneway":true},"geometry":{"type":"LineString","coordinates":[[126.98994,37.61178],[126.98059,37.61187]]}},{"type":"Feature","properties":{"class":"major","highway":"trunk","sidewalk":"likely","lanes":3,"name":"내부순환로","oneway":true},"geometry":{"type":"LineString","coordinates":[[127.00249,37.60762],[127.00229,37.60768],[127.00205,37.60776],[127.00131,37.60805],[127.00117,37.60809],[126.99995,37.60847],[126.9995,37.60862],[126.99667,37.60956],[126.99603,37.60976],[126.99576,37.60984],[126.99549,37.60992],[126.99521,37.60998],[126.9949,37.61005],[126.99461,37.61007],[126.99418,37.6101],[126.99366,37.61009]]}},{"type":"Feature","properties":{"class":"minor","highway":"residential","sidewalk":"unknown","lanes":0,"name":"정릉로","oneway":false},"geometry":{"type":"LineString","coordinates":[[126.99242,37.61174],[126.99238,37.61179],[126.99235,37.61183],[126.99229,37.61187],[126.99207,37.612]]}},{"type":"Feature","properties":{"class":"minor","highway":"residential","sidewalk":"unknown","lanes":1,"name":"평창40길","oneway":false},"geometry":{"type":"LineString","coordinates":[[126.97851,37.61213],[126.97886,37.6119],[126.97976,37.61191],[126.97977,37.61191],[126.98002,37.61199],[126.98082,37.61234],[126.98176,37.61272],[126.98213,37.61281]]}},{"type":"Feature","properties":{"class":"minor","highway":"residential","sidewalk":"unknown","lanes":0,"name":"정릉로","oneway":true},"geometry":{"type":"LineString","coordinates":[[126.99345,37.61121],[126.99338,37.6113],[126.9933,37.61137],[126.99319,37.61144],[126.99303,37.61152],[126.99282,37.61161],[126.99259,37.61169],[126.99242,37.61174],[126.99229,37.61177],[126.99214,37.61179],[126.99206,37.61179],[126.99198,37.6118],[126.9919,37.61179],[126.99183,37.61177],[126.99177,37.61174],[126.99166,37.61173],[126.99112,37.61172]]}},{"type":"Feature","properties":{"class":"major","highway":"tertiary","sidewalk":"yes","lanes":2,"name":"북악산로","oneway":false},"geometry":{"type":"LineString","coordinates":[[126.97532,37.59964],[126.97538,37.59964],[126.97546,37.59964],[126.97556,37.59965],[126.97564,37.59968],[126.97569,37.59971],[126.97573,37.59977],[126.97575,37.59983],[126.97575,37.59991],[126.97573,37.60006],[126.97573,37.60018],[126.97573,37.60041],[126.97575,37.60063],[126.97576,37.60086],[126.97577,37.60092],[126.97581,37.60099],[126.97585,37.60105],[126.97591,37.60109],[126.97599,37.60112],[126.97609,37.60113],[126.97623,37.60112],[126.9764,37.60107],[126.97655,37.60101],[126.97689,37.60079],[126.97695,37.60075],[126.97702,37.60073],[126.97711,37.60073],[126.97716,37.60075],[126.97725,37.6008],[126.97734,37.60089],[126.97742,37.60099],[126.97753,37.60124],[126.97758,37.60133],[126.97764,37.6014],[126.97772,37.60142],[126.9778,37.60142],[126.97787,37.60137],[126.97796,37.60132],[126.97808,37.6012],[126.97823,37.60108],[126.97835,37.60103],[126.97847,37.60099],[126.97861,37.60101],[126.97876,37.60106],[126.979,37.60115],[126.97914,37.60118],[126.97985,37.60127],[126.98,37.60129],[126.98047,37.60133],[126.98082,37.60139],[126.98095,37.60144],[126.98105,37.6015],[126.9812,37.60161],[126.9814,37.60176],[126.98155,37.60187],[126.98215,37.60217],[126.98252,37.60241],[126.98259,37.60251],[126.98261,37.60263],[126.98255,37.60296],[126.98254,37.60354],[126.98257,37.60391],[126.98263,37.60409],[126.98264,37.60429],[126.98264,37.60445],[126.98268,37.60454],[126.98279,37.60466],[126.98296,37.60479],[126.98333,37.60497],[126.98344,37.60499],[126.98354,37.605],[126.98365,37.60498],[126.98375,37.60494],[126.98383,37.60487],[126.98388,37.6048],[126.98403,37.60448],[126.98414,37.60429],[126.98426,37.60421],[126.98434,37.6042],[126.98455,37.6042],[126.98488,37.60428],[126.98515,37.60437],[126.98522,37.60439],[126.98529,37.60445],[126.98536,37.60458],[126.98541,37.60502],[126.98546,37.60569],[126.98544,37.60591],[126.98541,37.606],[126.9853,37.6061],[126.98519,37.60622],[126.98514,37.60627],[126.98512,37.60635],[126.9851,37.6064],[126.98509,37.60652],[126.98515,37.60666],[126.98525,37.60681],[126.98532,37.60688],[126.9856,37.6071],[126.98565,37.60714],[126.98601,37.6075],[126.98618,37.6077],[126.98626,37.60774],[126.9864,37.60776],[126.98651,37.60774],[126.98662,37.60767],[126.98665,37.60759],[126.98663,37.60748],[126.98659,37.60731],[126.98655,37.60721],[126.98656,37.60713],[126.98663,37.60705],[126.98675,37.60697],[126.98681,37.60693],[126.98689,37.60685],[126.98697,37.60675],[126.98702,37.60661],[126.98698,37.60645],[126.98698,37.60637],[126.98701,37.60631],[126.98707,37.6062],[126.98713,37.60609],[126.9873,37.60591],[126.98737,37.60587],[126.98744,37.60585],[126.9876,37.60583],[126.98774,37.60582],[126.98787,37.60578],[126.98798,37.60572],[126.98807,37.60568],[126.98821,37.60565],[126.98837,37.60562],[126.98849,37.60556],[126.98854,37.60551],[126.98857,37.60543],[126.98856,37.60531],[126.98849,37.60514],[126.98848,37.60501],[126.98853,37.60493],[126.98864,37.6049],[126.98881,37.6049],[126.98902,37.6049],[126.98914,37.60486],[126.98922,37.60482],[126.98926,37.60479],[126.98937,37.6047],[126.98944,37.60466],[126.98963,37.6046],[126.98975,37.60454],[126.9898,37.6045],[126.98986,37.60442],[126.98991,37.60433],[126.98997,37.60418],[126.98999,37.60411],[126.98998,37.60404],[126.98995,37.60395],[126.9897,37.60363],[126.98968,37.60354],[126.98968,37.60349],[126.98972,37.60344],[126.98986,37.60336],[126.99004,37.60336],[126.99037,37.60344],[126.99062,37.6035],[126.99085,37.60353],[126.99098,37.60355],[126.9911,37.60358],[126.99127,37.60365],[126.99141,37.60372],[126.99154,37.60376],[126.99167,37.60378],[126.99181,37.60377],[126.99253,37.60361],[126.99283,37.60353],[126.99302,37.60343],[126.99345,37.60316],[126.99372,37.60301],[126.99385,37.60295],[126.99395,37.60294],[126.99406,37.60294],[126.99425,37.60298],[126.99464,37.60307],[126.9948,37.60309],[126.99492,37.60309],[126.9952,37.60304],[126.99544,37.60298],[126.99566,37.6029],[126.99583,37.6028],[126.99592,37.60271],[126.99597,37.60264],[126.99603,37.60249],[126.99607,37.60242],[126.99611,37.60236],[126.99622,37.60228],[126.99672,37.60218],[126.99729,37.60208]]}},{"type":"Feature","properties":{"class":"major","highway":"primary_link","sidewalk":"likely","lanes":1,"name":"정릉로","oneway":true},"geometry":{"type":"LineString","coordinates":[[126.99986,37.60841],[126.99991,37.60837],[126.99991,37.60837],[126.99991,37.60836],[126.99992,37.60835],[126.99992,37.60834],[126.99993,37.60834],[126.99999,37.60831],[127.0,37.60831],[127.00001,37.6083],[127.0002,37.60815],[127.00024,37.60812],[127.00028,37.60809],[127.00035,37.60806],[127.00042,37.60804],[127.00056,37.60801],[127.00059,37.608],[127.00061,37.60798],[127.00062,37.60797],[127.00062,37.60795],[127.00062,37.60794],[127.00061,37.60792],[127.00058,37.60791]]}},{"type":"Feature","properties":{"class":"major","highway":"secondary","sidewalk":"likely","lanes":2,"name":"정릉로10길","oneway":true},"geometry":{"type":"LineString","coordinates":[[126.99979,37.60779],[126.99995,37.6077],[126.99996,37.60769],[127.00004,37.60766],[127.00009,37.60764],[127.00015,37.60764],[127.0002,37.60764],[127.00026,37.60764],[127.00037,37.60767],[127.00062,37.60777],[127.00067,37.60778],[127.00071,37.60779],[127.00084,37.60781],[127.00095,37.60782]]}},{"type":"Feature","properties":{"class":"minor","highway":"residential","sidewalk":"unknown","lanes":1,"name":"보국문로","oneway":false},"geometry":{"type":"LineString","coordinates":[[126.99834,37.61805],[126.99797,37.61814],[126.9977,37.61822],[126.99738,37.61835]]}},{"type":"Feature","properties":{"class":"major","highway":"trunk","sidewalk":"likely","lanes":0,"name":"내부순환로","oneway":true},"geometry":{"type":"LineString","coordinates":[[126.97393,37.60678],[126.97529,37.60722],[126.97777,37.60785],[126.98047,37.6082],[126.9826,37.60851],[126.98559,37.60889],[126.99216,37.60965]]}},{"type":"Feature","properties":{"class":"major","highway":"trunk","sidewalk":"likely","lanes":3,"name":"내부순환로","oneway":true},"geometry":{"type":"LineString","coordinates":[[126.99216,37.60965],[126.99324,37.6098],[126.99371,37.60984]]}},{"type":"Feature","properties":{"class":"minor","highway":"residential","sidewalk":"unknown","lanes":0,"name":"평창42길","oneway":false},"geometry":{"type":"LineString","coordinates":[[126.97912,37.61457],[126.97939,37.61378],[126.97954,37.6136],[126.97975,37.61349],[126.98022,37.61333],[126.98053,37.6133],[126.98059,37.61335],[126.98085,37.61366],[126.98096,37.61371],[126.98117,37.61368],[126.98152,37.61366]]}},{"type":"Feature","properties":{"class":"minor","highway":"residential","sidewalk":"unknown","lanes":0,"name":"평창42길","oneway":false},"geometry":{"type":"LineString","coordinates":[[126.98082,37.61234],[126.98054,37.61245],[126.98038,37.61245],[126.98022,37.61239],[126.98007,37.61228],[126.97996,37.61225],[126.97958,37.61229],[126.97939,37.61231],[126.97926,37.61235],[126.97907,37.61257],[126.97889,37.61282],[126.97891,37.61291],[126.97906,37.61303],[126.97917,37.61314]]}},{"type":"Feature","properties":{"class":"minor","highway":"residential","sidewalk":"unknown","lanes":0,"name":"평창42길","oneway":false},"geometry":{"type":"LineString","coordinates":[[126.97848,37.61539],[126.97865,37.61535],[126.97891,37.61529],[126.97905,37.6152],[126.97907,37.61517],[126.97916,37.615],[126.97911,37.61464],[126.97912,37.61457],[126.97906,37.61446],[126.97893,37.61408],[126.97883,37.6138],[126.97884,37.6136],[126.97891,37.61349],[126.97902,37.61337],[126.97917,37.61314],[126.97919,37.61309],[126.97927,37.61303],[126.97956,37.61296],[126.98018,37.61287],[126.9805,37.61285],[126.98075,37.61294],[126.98089,37.61306],[126.98099,37.61312],[126.98115,37.61317],[126.98126,37.61314],[126.98154,37.61292],[126.98176,37.61272]]}},{"type":"Feature","properties":{"class":"major","highway":"primary_link","sidewalk":"likely","lanes":1,"name":"정릉로","oneway":true},"geometry":{"type":"LineString","coordinates":[[126.99979,37.60845],[126.99986,37.60841],[126.99992,37.60838],[126.99992,37.60837],[126.99994,37.60836],[126.99994,37.60836],[127.00021,37.60824],[127.00022,37.60823],[127.00033,37.60815],[127.00037,37.60813],[127.00041,37.60811],[127.00064,37.60803],[127.0008,37.60798],[127.00094,37.60792]]}},{"type":"Feature","properties":{"class":"minor","highway":"residential","sidewalk":"unknown","lanes":0,"name":"보국문로40길","oneway":false},"geometry":{"type":"LineString","coordinates":[[126.9975,37.61859],[126.99757,37.61872],[126.99765,37.61888],[126.99769,37.61896],[126.99776,37.61898],[126.99784,37.61904],[126.99787,37.61907],[126.99787,37.61913],[126.9977,37.61929],[126.99762,37.61938]]}},{"type":"Feature","properties":{"class":"minor","highway":"residential","sidewalk":"unknown","lanes":0,"name":"보국문로36길","oneway":false},"geometry":{"type":"LineString","coordinates":[[127.00022,37.61758],[127.00013,37.61789],[127.00002,37.6181],[126.99981,37.61828],[126.99967,37.61855],[126.99966,37.61859],[126.99966,37.61864],[126.99974,37.61876],[126.99977,37.6189],[126.99976,37.61937]]}},{"type":"Feature","properties":{"class":"minor","highway":"residential","sidewalk":"unknown","lanes":0,"name":"보국문로37길","oneway":false},"geometry":{"type":"LineString","coordinates":[[126.99883,37.61647],[126.9991,37.61648],[126.99911,37.61653],[126.99911,37.61668],[126.99908,37.61679],[126.99903,37.61694],[126.99915,37.61711],[126.99916,37.61716],[126.99917,37.61721],[126.9991,37.61737]]}},{"type":"Feature","properties":{"class":"minor","highway":"residential","sidewalk":"unknown","lanes":0,"name":"보국문로40길","oneway":false},"geometry":{"type":"LineString","coordinates":[[126.99735,37.6191],[126.99736,37.61899],[126.99736,37.61887],[126.99738,37.61877],[126.99743,37.61866],[126.9975,37.61859],[126.99752,37.61857],[126.99765,37.61839],[126.99784,37.61831],[126.99798,37.61826]]}},{"type":"Feature","properties":{"class":"minor","highway":"residential","sidewalk":"unknown","lanes":0,"name":"보국문로37길","oneway":false},"geometry":{"type":"LineString","coordinates":[[126.99857,37.6159],[126.99869,37.61606],[126.99885,37.61619],[126.9989,37.61626],[126.99889,37.61639],[126.99883,37.61647],[126.99876,37.61656],[126.99865,37.6168],[126.99859,37.61693],[126.9985,37.61712]]}},{"type":"Feature","properties":{"class":"minor","highway":"residential","sidewalk":"unknown","lanes":0,"name":"보국문로37길","oneway":false},"geometry":{"type":"LineString","coordinates":[[126.99928,37.61687],[126.99925,37.61689],[126.99924,37.61694],[126.9993,37.6171],[126.99931,37.61715],[126.99932,37.61719],[126.99934,37.61734],[126.99938,37.61734],[126.99938,37.61749],[126.99936,37.61753],[126.99936,37.6176],[126.99942,37.61774]]}},{"type":"Feature","properties":{"class":"minor","highway":"residential","sidewalk":"unknown","lanes":0,"name":"보국문로38길","oneway":false},"geometry":{"type":"LineString","coordinates":[[126.99812,37.61902],[126.9983,37.61902],[126.99835,37.61903],[126.99839,37.61904],[126.99846,37.61909],[126.99849,37.6191],[126.99853,37.61911],[126.99883,37.61885],[126.99886,37.61879],[126.99883,37.61864],[126.99871,37.61839],[126.99865,37.6183],[126.99853,37.61824],[126.99843,37.61818],[126.99834,37.61805]]}},{"type":"Feature","properties":{"class":"minor","highway":"residential","sidewalk":"unknown","lanes":0,"name":"정릉로9다길","oneway":false},"geometry":{"type":"LineString","coordinates":[[126.99902,37.61297],[126.99912,37.61288],[126.99917,37.61282],[126.99922,37.61276],[126.99924,37.61269],[126.99925,37.61265],[126.99926,37.61257],[126.99926,37.61248],[126.99935,37.61232],[126.99936,37.61226],[126.99944,37.61223],[126.99951,37.6122],[126.99954,37.61216],[126.99954,37.61212],[126.99949,37.61209],[126.99945,37.61204],[126.99946,37.61194]]}},{"type":"Feature","properties":{"class":"major","highway":"tertiary","sidewalk":"likely","lanes":2,"name":"정릉로9길","oneway":false},"geometry":{"type":"LineString","coordinates":[[126.99954,37.6087],[126.99957,37.60876],[126.99961,37.60888],[126.99962,37.60898],[126.9996,37.60908],[126.9996,37.60913],[126.99954,37.60923],[126.99948,37.60928],[126.99941,37.60937],[126.99938,37.60942],[126.99936,37.60948],[126.99931,37.60962],[126.99928,37.60977],[126.99925,37.60984],[126.9991,37.61023],[126.99904,37.61038],[126.99899,37.61054],[126.99899,37.61068],[126.99903,37.6108],[126.99911,37.61091],[126.99921,37.61099],[126.99933,37.61106],[126.99951,37.61112],[126.99963,37.61115],[126.99988,37.61118],[127.00001,37.6112],[127.0005,37.61129]]}},{"type":"Feature","properties":{"class":"minor","highway":"residential","sidewalk":"unknown","lanes":0,"name":"보국문로29바길","oneway":false},"geometry":{"type":"LineString","coordinates":[[126.99836,37.61492],[126.99819,37.61484],[126.99809,37.61474],[126.99796,37.61467],[126.99784,37.61464],[126.99773,37.61466],[126.99768,37.6147],[126.99741,37.61472],[126.99733,37.61465],[126.99738,37.61457],[126.99736,37.61434],[126.99744,37.61427],[126.99749,37.6142],[126.99755,37.61413],[126.99762,37.61407],[126.99769,37.61402],[126.99776,37.61398],[126.9978,37.61394],[126.99786,37.61387]]}},{"type":"Feature","properties":{"class":"minor","highway":"residential","sidewalk":"unknown","lanes":0,"name":"보국문로29가길","oneway":false},"geometry":{"type":"LineString","coordinates":[[126.99918,37.61384],[126.99927,37.61395]]}},{"type":"Feature","properties":{"class":"minor","highway":"residential","sidewalk":"unknown","lanes":0,"name":"보국문로29길","oneway":false},"geometry":{"type":"LineString","coordinates":[[126.99806,37.61424],[126.99825,37.614]]}},{"type":"Feature","properties":{"class":"minor","highway":"residential","sidewalk":"unknown","lanes":0,"name":"보국문로29길","oneway":false},"geometry":{"type":"LineString","coordinates":[[126.99759,37.61398],[126.99762,37.61385]]}},{"type":"Feature","properties":{"class":"minor","highway":"residential","sidewalk":"unknown","lanes":0,"name":"보국문로38길","oneway":false},"geometry":{"type":"LineString","coordinates":[[126.99835,37.61903],[126.9985,37.61885]]}},{"type":"Feature","properties":{"class":"minor","highway":"residential","sidewalk":"unknown","lanes":0,"name":"","oneway":false},"geometry":{"type":"LineString","coordinates":[[126.99989,37.60951],[126.99985,37.60952]]}},{"type":"Feature","properties":{"class":"minor","highway":"residential","sidewalk":"unknown","lanes":0,"name":"보국문로29길","oneway":false},"geometry":{"type":"LineString","coordinates":[[126.99874,37.61475],[126.99904,37.6145]]}},{"type":"Feature","properties":{"class":"minor","highway":"residential","sidewalk":"unknown","lanes":0,"name":"보국문로37길","oneway":false},"geometry":{"type":"LineString","coordinates":[[126.99916,37.61716],[126.99931,37.61715]]}},{"type":"Feature","properties":{"class":"alley","highway":"service","sidewalk":"unknown","lanes":0,"name":"","oneway":false},"geometry":{"type":"LineString","coordinates":[[126.99526,37.61987],[126.99554,37.61993]]}},{"type":"Feature","properties":{"class":"minor","highway":"residential","sidewalk":"unknown","lanes":0,"name":"보국문로35길","oneway":false},"geometry":{"type":"LineString","coordinates":[[126.99994,37.61566],[126.99974,37.61559],[126.99969,37.61554],[126.99962,37.61554],[126.99922,37.61559],[126.99916,37.61563],[126.99916,37.61573],[126.9992,37.61577],[126.99935,37.61578],[126.99944,37.61576],[126.99951,37.61572],[126.99964,37.61571],[126.99971,37.61572],[126.99976,37.61576],[126.99991,37.61585],[127.00014,37.61606],[127.00017,37.61613],[127.00021,37.61628],[127.00031,37.61644],[127.00037,37.61655],[127.00042,37.61667],[127.00045,37.61678],[127.0005,37.61681],[127.00051,37.61692]]}},{"type":"Feature","properties":{"class":"minor","highway":"residential","sidewalk":"unknown","lanes":0,"name":"보국문로38길","oneway":false},"geometry":{"type":"LineString","coordinates":[[126.99858,37.61985],[126.99809,37.61956],[126.9983,37.61932],[126.99849,37.6191]]}},{"type":"Feature","properties":{"class":"minor","highway":"residential","sidewalk":"unknown","lanes":0,"name":"보국문로36길","oneway":false},"geometry":{"type":"LineString","coordinates":[[126.99948,37.6187],[126.99957,37.6186],[126.99966,37.61859]]}},{"type":"Feature","properties":{"class":"minor","highway":"residential","sidewalk":"unknown","lanes":0,"name":"보국문로29길","oneway":false},"geometry":{"type":"LineString","coordinates":[[126.99971,37.61441],[126.99963,37.61448],[126.99978,37.61463],[126.9998,37.6147]]}},{"type":"Feature","properties":{"class":"minor","highway":"residential","sidewalk":"unknown","lanes":0,"name":"보국문로29길","oneway":false},"geometry":{"type":"LineString","coordinates":[[126.99752,37.61382],[126.99762,37.61385],[126.99772,37.61383],[126.99784,37.61383]]}},{"type":"Feature","properties":{"class":"minor","highway":"residential","sidewalk":"unknown","lanes":0,"name":"정릉로9나길","oneway":false},"geometry":{"type":"LineString","coordinates":[[126.99841,37.61359],[126.99829,37.61352],[126.99825,37.61347],[126.99811,37.6134]]}},{"type":"Feature","properties":{"class":"minor","highway":"residential","sidewalk":"unknown","lanes":0,"name":"정릉로9나길","oneway":false},"geometry":{"type":"LineString","coordinates":[[126.99988,37.61118],[126.99975,37.6116],[126.99959,37.61189],[126.99946,37.61194],[126.99934,37.61198],[126.99923,37.61199],[126.99911,37.61199],[126.99898,37.61197],[126.99883,37.61195],[126.99873,37.61195],[126.99866,37.61198],[126.9986,37.61203],[126.99857,37.61209],[126.99856,37.61219],[126.99859,37.6123],[126.99864,37.61241],[126.99871,37.61258],[126.99875,37.61265],[126.99889,37.61278],[126.99897,37.61286],[126.999,37.61292],[126.99902,37.61297],[126.999,37.61303],[126.99896,37.61309],[126.99889,37.61315],[126.9988,37.61318],[126.99872,37.6132],[126.99848,37.61324],[126.99827,37.61328],[126.99821,37.61331],[126.99817,37.61335],[126.99811,37.6134],[126.99802,37.61351],[126.99796,37.61359],[126.99788,37.61368],[126.99784,37.61377],[126.99784,37.61383]]}},{"type":"Feature","properties":{"class":"minor","highway":"residential","sidewalk":"unknown","lanes":0,"name":"정릉로9나길","oneway":false},"geometry":{"type":"LineString","coordinates":[[126.99885,37.61229],[126.9988,37.61221],[126.99877,37.61213],[126.99877,37.61206],[126.99883,37.61195]]}},{"type":"Feature","properties":{"class":"minor","highway":"residential","sidewalk":"unknown","lanes":0,"name":"보국문로","oneway":false},"geometry":{"type":"LineString","coordinates":[[126.99798,37.61856],[126.99795,37.61848],[126.99799,37.61831],[126.99798,37.61826],[126.99797,37.61814]]}},{"type":"Feature","properties":{"class":"minor","highway":"residential","sidewalk":"unknown","lanes":0,"name":"정릉로9가길","oneway":false},"geometry":{"type":"LineString","coordinates":[[127.00024,37.61049],[127.00006,37.61002],[126.99999,37.61],[126.99986,37.60999],[126.99978,37.60993],[126.9997,37.60982]]}},{"type":"Feature","properties":{"class":"alley","highway":"service","sidewalk":"unknown","lanes":0,"name":"","oneway":false},"geometry":{"type":"LineString","coordinates":[[126.99738,37.61835],[126.99724,37.61823],[126.99696,37.61838],[126.99669,37.61862]]}},{"type":"Feature","properties":{"class":"minor","highway":"residential","sidewalk":"unknown","lanes":0,"name":"보국문로29길","oneway":false},"geometry":{"type":"LineString","coordinates":[[126.99902,37.61377],[126.99895,37.61392],[126.99891,37.61406],[126.99887,37.61416],[126.99881,37.61425],[126.99875,37.61431]]}},{"type":"Feature","properties":{"class":"minor","highway":"residential","sidewalk":"unknown","lanes":0,"name":"정릉로9가길","oneway":false},"geometry":{"type":"LineString","coordinates":[[126.99925,37.60984],[126.9994,37.60986],[126.9997,37.60982],[126.99979,37.60974],[126.99984,37.60967],[126.99987,37.60965]]}},{"type":"Feature","properties":{"class":"minor","highway":"residential","sidewalk":"unknown","lanes":0,"name":"","oneway":false},"geometry":{"type":"LineString","coordinates":[[126.99998,37.60967],[126.99991,37.60961],[126.99985,37.60952],[126.9998,37.60945],[126.99978,37.60923],[126.9996,37.60913]]}},{"type":"Feature","properties":{"class":"minor","highway":"residential","sidewalk":"unknown","lanes":0,"name":"","oneway":false},"geometry":{"type":"LineString","coordinates":[[126.99902,37.62025],[126.99904,37.62013],[126.99911,37.62009],[126.99931,37.62005],[126.99941,37.61999],[126.99943,37.61996]]}},{"type":"Feature","properties":{"class":"alley","highway":"service","sidewalk":"unknown","lanes":0,"name":"보국문로","oneway":false},"geometry":{"type":"LineString","coordinates":[[126.99673,37.61883],[126.99664,37.61894],[126.99652,37.61909],[126.99643,37.61917],[126.99629,37.61928],[126.99618,37.61932],[126.99608,37.61937],[126.99576,37.61957],[126.9956,37.61981],[126.99554,37.61993],[126.9955,37.62003],[126.99545,37.62013],[126.99536,37.62018],[126.99524,37.62017],[126.99517,37.6202],[126.995,37.62032],[126.99489,37.62042],[126.99488,37.62045],[126.99483,37.62054],[126.99466,37.62069],[126.99452,37.62072],[126.99427,37.62072],[126.99409,37.62075],[126.99395,37.62081],[126.99377,37.62094],[126.99375,37.621],[126.99371,37.62109],[126.99366,37.62125],[126.99358,37.62153],[126.99359,37.62165],[126.99369,37.62182],[126.9939,37.62225],[126.99429,37.62272],[126.9944,37.62289],[126.99447,37.62305],[126.99446,37.62312],[126.99444,37.62319],[126.99431,37.62322],[126.99408,37.62328],[126.99399,37.62334],[126.9939,37.62345],[126.99383,37.62356],[126.99381,37.62366],[126.99385,37.62393],[126.9939,37.62403],[126.99398,37.6241],[126.99415,37.6242],[126.99429,37.62426],[126.99436,37.62435],[126.99438,37.62452],[126.99438,37.62466],[126.99437,37.6247],[126.99428,37.62479],[126.99425,37.62484],[126.99425,37.62491],[126.9943,37.62503],[126.99439,37.6252],[126.99447,37.62537],[126.99455,37.62553],[126.99462,37.62572],[126.99459,37.62581],[126.99455,37.62599],[126.99462,37.62622],[126.99467,37.62631],[126.99474,37.62637],[126.99495,37.62646],[126.995,37.62657],[126.99495,37.62657],[126.99489,37.62654],[126.99441,37.62645]]}},{"type":"Feature","properties":{"class":"minor","highway":"residential","sidewalk":"unknown","lanes":0,"name":"정릉로9길","oneway":false},"geometry":{"type":"LineString","coordinates":[[127.00026,37.6101],[127.00026,37.60998],[126.99987,37.60965],[126.99975,37.60949],[126.99971,37.60942],[126.99962,37.60937],[126.99948,37.60928]]}},{"type":"Feature","properties":{"class":"alley","highway":"service","sidewalk":"unknown","lanes":0,"name":"보국문로","oneway":false},"geometry":{"type":"LineString","coordinates":[[126.99634,37.61773],[126.99637,37.61803],[126.9964,37.61812],[126.99645,37.61822],[126.99645,37.6183]]}},{"type":"Feature","properties":{"class":"minor","highway":"residential","sidewalk":"unknown","lanes":0,"name":"보국문로29길","oneway":false},"geometry":{"type":"LineString","coordinates":[[126.99932,37.61387],[126.99927,37.61395],[126.99923,37.61402],[126.99917,37.61415],[126.99913,37.6142],[126.99915,37.61429],[126.99917,37.61442],[126.99915,37.61457]]}},{"type":"Feature","properties":{"class":"minor","highway":"residential","sidewalk":"unknown","lanes":0,"name":"보국문로36길","oneway":false},"geometry":{"type":"LineString","coordinates":[[126.99988,37.61944],[126.99976,37.61937],[126.99935,37.61942],[126.99922,37.61945],[126.99903,37.61947],[126.99885,37.61955],[126.99873,37.61967],[126.99858,37.61985]]}},{"type":"Feature","properties":{"class":"minor","highway":"residential","sidewalk":"unknown","lanes":0,"name":"보국문로36길","oneway":false},"geometry":{"type":"LineString","coordinates":[[126.99943,37.62002],[126.99943,37.61996],[126.99944,37.61988],[126.99943,37.61983],[126.99939,37.61978],[126.99933,37.61964],[126.99928,37.61956],[126.99922,37.61945]]}},{"type":"Feature","properties":{"class":"minor","highway":"residential","sidewalk":"unknown","lanes":0,"name":"보국문로29길","oneway":false},"geometry":{"type":"LineString","coordinates":[[126.99941,37.61471],[126.99953,37.61476],[126.99963,37.61481],[126.99972,37.6149],[126.99977,37.61496],[126.9998,37.61501],[126.99977,37.61508],[126.99974,37.61515],[126.99972,37.61523]]}},{"type":"Feature","properties":{"class":"alley","highway":"service","sidewalk":"unknown","lanes":0,"name":"정릉로8가길","oneway":false},"geometry":{"type":"LineString","coordinates":[[126.99602,37.60714],[126.99607,37.60727],[126.99618,37.60748],[126.99621,37.60752],[126.99638,37.6076],[126.99661,37.60777],[126.99675,37.60786],[126.99682,37.60791],[126.99694,37.60795],[126.99707,37.60794],[126.99716,37.60796],[126.99725,37.60798],[126.99746,37.60785]]}},{"type":"Feature","properties":{"class":"minor","highway":"residential","sidewalk":"unknown","lanes":0,"name":"정릉로8길","oneway":false},"geometry":{"type":"LineString","coordinates":[[126.99645,37.60962],[126.99633,37.60945],[126.99627,37.60935],[126.99625,37.60932],[126.99623,37.6093],[126.99617,37.60926],[126.99615,37.60924],[126.99612,37.6092],[126.9961,37.60914],[126.9961,37.60909],[126.99611,37.60894],[126.99612,37.6089],[126.99613,37.60888],[126.99616,37.60885],[126.99619,37.60883],[126.99637,37.60873],[126.99648,37.60872],[126.99746,37.60887],[126.99773,37.60886],[126.99788,37.6088],[126.99796,37.60874],[126.99847,37.60838],[126.9986,37.60831],[126.99915,37.60812],[126.9992,37.6081],[126.99942,37.60799]]}},{"type":"Feature","properties":{"class":"minor","highway":"residential","sidewalk":"unknown","lanes":0,"name":"정릉로6가길","oneway":false},"geometry":{"type":"LineString","coordinates":[[126.99216,37.60701],[126.99214,37.6071],[126.99214,37.60717],[126.99228,37.60723],[126.99244,37.60729],[126.99251,37.60731],[126.99253,37.60734],[126.99255,37.60749],[126.99257,37.60767],[126.99258,37.60771],[126.99266,37.60777],[126.99272,37.60781],[126.9928,37.60784],[126.99285,37.60787],[126.99288,37.60791],[126.99289,37.60793],[126.9929,37.608],[126.99289,37.60814],[126.9929,37.6082],[126.99296,37.60842],[126.993,37.60851],[126.99303,37.60857],[126.99307,37.60863],[126.9931,37.60872],[126.99313,37.6088],[126.99329,37.60882],[126.9934,37.60888],[126.99356,37.60901],[126.99362,37.60902],[126.99377,37.60898],[126.99399,37.60914],[126.9941,37.60916],[126.99429,37.60911],[126.99453,37.60911],[126.99472,37.60916],[126.99481,37.6092],[126.99486,37.60926],[126.99491,37.60932],[126.99503,37.60939],[126.99522,37.60943],[126.99547,37.60943],[126.99561,37.60945],[126.99575,37.6095],[126.99599,37.60959],[126.99613,37.60968]]}},{"type":"Feature","properties":{"class":"alley","highway":"service","sidewalk":"unknown","lanes":0,"name":"정릉로8다길","oneway":false},"geometry":{"type":"LineString","coordinates":[[126.9985,37.60769],[126.99872,37.60747],[126.99883,37.60734]]}},{"type":"Feature","properties":{"class":"alley","highway":"service","sidewalk":"unknown","lanes":0,"name":"정릉로8다길","oneway":false},"geometry":{"type":"LineString","coordinates":[[126.99837,37.60819],[126.9985,37.60793],[126.99857,37.6078]]}},{"type":"Feature","properties":{"class":"alley","highway":"service","sidewalk":"unknown","lanes":0,"name":"정릉로10길","oneway":false},"geometry":{"type":"LineString","coordinates":[[126.99947,37.60813],[126.99966,37.6083],[126.99969,37.60832],[126.99972,37.60832],[126.99974,37.60831],[126.99977,37.60828],[127.00014,37.60782],[127.00016,37.60779]]}},{"type":"Feature","properties":{"class":"alley","highway":"service","sidewalk":"unknown","lanes":0,"name":"정릉로8가길","oneway":false},"geometry":{"type":"LineString","coordinates":[[126.99796,37.60874],[126.99788,37.60872],[126.99779,37.60865],[126.99777,37.60855],[126.99772,37.60845],[126.99767,37.60836],[126.99762,37.60824],[126.99759,37.60813],[126.99759,37.60807],[126.99756,37.608],[126.99751,37.6079],[126.99746,37.60785],[126.99743,37.60782],[126.99682,37.60754],[126.9967,37.60735],[126.99622,37.6072],[126.9961,37.60713],[126.99602,37.60714],[126.99598,37.60715],[126.99579,37.60714],[126.9957,37.60709],[126.99566,37.60703],[126.99562,37.60697],[126.99528,37.60688],[126.99501,37.60679],[126.99488,37.60672],[126.99486,37.6067],[126.99482,37.60666],[126.99477,37.60659],[126.99469,37.60652],[126.99464,37.60649],[126.99459,37.60646],[126.99435,37.60642],[126.99426,37.60639],[126.99414,37.60633],[126.99403,37.60626],[126.99393,37.60607],[126.99393,37.60603],[126.99392,37.60599],[126.99395,37.60581],[126.99398,37.60576],[126.99403,37.60576],[126.99411,37.6058],[126.99422,37.60584],[126.99416,37.60573],[126.99407,37.60563],[126.994,37.60557],[126.99352,37.60538],[126.99315,37.60527]]}},{"type":"Feature","properties":{"class":"minor","highway":"residential","sidewalk":"unknown","lanes":0,"name":"정릉로6가길","oneway":false},"geometry":{"type":"LineString","coordinates":[[126.99439,37.60951],[126.99451,37.60941],[126.99471,37.60934],[126.99486,37.60926]]}},{"type":"Feature","properties":{"class":"minor","highway":"residential","sidewalk":"unknown","lanes":0,"name":"정릉로10나길","oneway":false},"geometry":{"type":"LineString","coordinates":[[126.99814,37.60728],[126.99825,37.60733],[126.99848,37.60726],[126.99858,37.60719]]}},{"type":"Feature","properties":{"class":"alley","highway":"service","sidewalk":"unknown","lanes":0,"name":"정릉로8길","oneway":false},"geometry":{"type":"LineString","coordinates":[[126.99746,37.60887],[126.99742,37.60878],[126.99735,37.60871],[126.99723,37.60832],[126.99731,37.60816]]}},{"type":"Feature","properties":{"class":"alley","highway":"service","sidewalk":"unknown","lanes":0,"name":"정릉로10길","oneway":false},"geometry":{"type":"LineString","coordinates":[[126.99943,37.60839],[126.99948,37.60816],[126.99947,37.60813],[126.99947,37.60811],[126.99946,37.60806],[126.99942,37.60799]]}},{"type":"Feature","properties":{"class":"alley","highway":"service","sidewalk":"unknown","lanes":0,"name":"정릉로8다길","oneway":false},"geometry":{"type":"LineString","coordinates":[[126.99803,37.60777],[126.9982,37.60769],[126.99833,37.6076],[126.99842,37.60751],[126.9985,37.60739]]}},{"type":"Feature","properties":{"class":"alley","highway":"service","sidewalk":"unknown","lanes":0,"name":"정릉로10나길","oneway":false},"geometry":{"type":"LineString","coordinates":[[126.99771,37.60666],[126.99777,37.60677],[126.99784,37.60679],[126.99792,37.60681],[126.99797,37.60683],[126.99796,37.60692],[126.99807,37.60703],[126.99819,37.60711],[126.99833,37.60716],[126.99848,37.60717],[126.99858,37.60719],[126.99862,37.6072],[126.9987,37.60727],[126.99879,37.60733],[126.99883,37.60734],[126.99889,37.60735],[126.99897,37.60734],[126.99905,37.60731],[126.99914,37.60729],[126.99927,37.6073],[126.99941,37.60732]]}},{"type":"Feature","properties":{"class":"minor","highway":"residential","sidewalk":"yes","lanes":0,"name":"정릉로6길","oneway":false},"geometry":{"type":"LineString","coordinates":[[126.99645,37.60962],[126.99613,37.60968],[126.99571,37.6098],[126.99557,37.60984],[126.99549,37.60987],[126.99544,37.6099],[126.99521,37.61011],[126.99504,37.61021],[126.99489,37.61026],[126.99471,37.61033],[126.99444,37.61041],[126.99427,37.61043],[126.99411,37.61042],[126.99403,37.61042],[126.99374,37.61045],[126.99357,37.61046],[126.99341,37.61049],[126.99326,37.61051],[126.99312,37.61045],[126.99284,37.61034]]}},{"type":"Feature","properties":{"class":"minor","highway":"residential","sidewalk":"unknown","lanes":0,"name":"정릉로6길","oneway":false},"geometry":{"type":"LineString","coordinates":[[126.99245,37.61112],[126.99275,37.61092],[126.99282,37.61091],[126.99296,37.61085],[126.99312,37.61076],[126.99322,37.61067],[126.99326,37.61051]]}},{"type":"Feature","properties":{"class":"alley","highway":"service","sidewalk":"unknown","lanes":0,"name":"정릉로8다길","oneway":false},"geometry":{"type":"LineString","coordinates":[[126.99746,37.60719],[126.9976,37.60719],[126.99764,37.607],[126.9979,37.60687],[126.99797,37.60683],[126.99805,37.60678],[126.99812,37.60673],[126.99814,37.60647],[126.99817,37.60642]]}},{"type":"Feature","properties":{"class":"alley","highway":"service","sidewalk":"unknown","lanes":0,"name":"정릉로8다길","oneway":false},"geometry":{"type":"LineString","coordinates":[[126.99781,37.60759],[126.99801,37.60775],[126.99803,37.60777],[126.99806,37.60781],[126.99832,37.60816],[126.99837,37.60819],[126.99845,37.60822],[126.99853,37.60826],[126.9986,37.60831]]}},{"type":"Feature","properties":{"class":"major","highway":"trunk","sidewalk":"likely","lanes":3,"name":"내부순환로","oneway":true},"geometry":{"type":"LineString","coordinates":[[126.99366,37.61009],[126.99339,37.61007],[126.99302,37.60999],[126.99262,37.60992],[126.9921,37.6099]]}},{"type":"Feature","properties":{"class":"major","highway":"trunk","sidewalk":"likely","lanes":0,"name":"내부순환로","oneway":true},"geometry":{"type":"LineString","coordinates":[[126.99371,37.60984],[126.99407,37.60989],[126.99434,37.6099],[126.99464,37.60989],[126.99486,37.60988],[126.99512,37.60985],[126.99538,37.60981],[126.99568,37.60974],[126.99602,37.60964],[126.99787,37.60904],[127.00026,37.60824],[127.00082,37.60804],[127.00131,37.60787],[127.00178,37.60773],[127.00224,37.60758],[127.00243,37.60753],[127.00266,37.60749],[127.00285,37.60746],[127.00299,37.60745],[127.00311,37.60744],[127.00329,37.60743],[127.0034,37.60743],[127.00359,37.60744],[127.00388,37.60745],[127.00408,37.60745],[127.00438,37.60744],[127.00464,37.6074],[127.00487,37.60735],[127.00511,37.60731],[127.00539,37.60724],[127.00564,37.60717],[127.00644,37.6068],[127.00729,37.60644],[127.00818,37.60605],[127.00907,37.60567],[127.01091,37.60485],[127.01138,37.60464],[127.01161,37.60452],[127.01187,37.60437],[127.0123,37.60407],[127.01256,37.60386],[127.01279,37.60372],[127.01311,37.60358],[127.01343,37.60349],[127.01383,37.60342],[127.01402,37.60341],[127.01421,37.60342],[127.01452,37.60344],[127.01472,37.60345],[127.01495,37.60346],[127.01519,37.60346],[127.0154,37.60344],[127.01567,37.6034],[127.01612,37.60331],[127.01646,37.6032],[127.01862,37.60259],[127.02056,37.60203],[127.02101,37.6019],[127.02144,37.6018],[127.02185,37.60172],[127.02221,37.60166],[127.02256,37.60164],[127.023,37.60168],[127.02336,37.60173],[127.0237,37.60179],[127.02436,37.60199],[127.02491,37.60226],[127.02509,37.60237],[127.02541,37.60264],[127.02583,37.60315],[127.02648,37.60404],[127.02667,37.60419],[127.02687,37.60434],[127.02714,37.6045],[127.02748,37.60463],[127.028,37.60472],[127.02842,37.60471],[127.0286,37.6047],[127.02882,37.60466],[127.02925,37.60456],[127.02989,37.6044],[127.0303,37.60426],[127.03085,37.60402],[127.03246,37.60328],[127.03287,37.60311],[127.03341,37.60293],[127.0339,37.6028],[127.0344,37.6027]]}},{"type":"Feature","properties":{"class":"minor","highway":"residential","sidewalk":"unknown","lanes":0,"name":"보국문로35길","oneway":false},"geometry":{"type":"LineString","coordinates":[[127.00009,37.61492],[126.99989,37.61505],[126.9998,37.61513],[126.99972,37.61523],[126.99968,37.61528],[126.99965,37.61535],[126.99965,37.61544],[126.99969,37.61554],[126.99973,37.61563],[126.99975,37.61572],[126.99976,37.61576]]}},{"type":"Feature","properties":{"class":"minor","highway":"residential","sidewalk":"unknown","lanes":0,"name":"보국문로29길","oneway":false},"geometry":{"type":"LineString","coordinates":[[126.99784,37.61383],[126.99786,37.61387],[126.99807,37.61393],[126.99825,37.614],[126.99838,37.61405],[126.99854,37.61417],[126.99875,37.61431],[126.99885,37.61438],[126.99904,37.6145],[126.99915,37.61457],[126.99922,37.61461],[126.99941,37.61471],[126.9996,37.61469],[126.9998,37.6147],[126.99988,37.6147],[127.00003,37.61473],[127.00009,37.61482],[127.00009,37.61492]]}},{"type":"Feature","properties":{"class":"alley","highway":"service","sidewalk":"unknown","lanes":0,"name":"","oneway":false},"geometry":{"type":"LineString","coordinates":[[126.99401,37.61249],[126.99439,37.61226],[126.99471,37.61209],[126.99488,37.612],[126.99523,37.61178]]}},{"type":"Feature","properties":{"class":"alley","highway":"service","sidewalk":"unknown","lanes":0,"name":"","oneway":false},"geometry":{"type":"LineString","coordinates":[[126.99599,37.61192],[126.99629,37.6122],[126.99633,37.61224],[126.99671,37.61259],[126.99695,37.61266],[126.99733,37.61259],[126.99781,37.61237],[126.99807,37.61202],[126.99866,37.61178],[126.99874,37.61149],[126.99872,37.61136],[126.99904,37.61114],[126.99901,37.61103],[126.99893,37.61094],[126.99883,37.61083],[126.99878,37.61078],[126.99862,37.61069],[126.99857,37.61065],[126.99817,37.61027],[126.99826,37.6102],[126.9984,37.6101],[126.99839,37.61],[126.99804,37.60966],[126.998,37.60968],[126.9971,37.61017]]}},{"type":"Feature","properties":{"class":"alley","highway":"service","sidewalk":"unknown","lanes":0,"name":"","oneway":false},"geometry":{"type":"LineString","coordinates":[[126.9951,37.61084],[126.99498,37.6108]]}},{"type":"Feature","properties":{"class":"alley","highway":"service","sidewalk":"unknown","lanes":0,"name":"","oneway":false},"geometry":{"type":"LineString","coordinates":[[126.99401,37.61249],[126.99386,37.61236]]}},{"type":"Feature","properties":{"class":"alley","highway":"service","sidewalk":"unknown","lanes":0,"name":"","oneway":false},"geometry":{"type":"LineString","coordinates":[[126.99523,37.61178],[126.99537,37.61184],[126.99562,37.61188],[126.99599,37.61192],[126.99611,37.61191],[126.99622,37.61189],[126.99624,37.61188],[126.99662,37.61165],[126.99676,37.61157],[126.99725,37.61129],[126.99759,37.61115]]}},{"type":"Feature","properties":{"class":"major","highway":"trunk_link","sidewalk":"likely","lanes":1,"name":"","oneway":true},"geometry":{"type":"LineString","coordinates":[[126.9995,37.60862],[126.99867,37.609],[126.99845,37.60908],[126.99804,37.60921],[126.99704,37.60954]]}},{"type":"Feature","properties":{"class":"major","highway":"primary","sidewalk":"likely","lanes":0,"name":"평창문화로","oneway":true},"geometry":{"type":"LineString","coordinates":[[126.97883,37.61131],[126.97943,37.61155],[126.97974,37.61161],[126.98004,37.61164],[126.98041,37.61166]]}},{"type":"Feature","properties":{"class":"major","highway":"primary","sidewalk":"likely","lanes":2,"name":"정릉로","oneway":true},"geometry":{"type":"LineString","coordinates":[[126.98963,37.61154],[126.99062,37.61152],[126.99096,37.61153],[126.99177,37.61155],[126.9921,37.61154],[126.99238,37.6115],[126.99265,37.61142],[126.99295,37.61131],[126.99315,37.61123]]}},{"type":"Feature","properties":{"class":"major","highway":"primary","sidewalk":"likely","lanes":0,"name":"정릉로","oneway":true},"geometry":{"type":"LineString","coordinates":[[126.98041,37.61166],[126.98963,37.61154]]}},{"type":"Feature","properties":{"class":"major","highway":"primary_link","sidewalk":"likely","lanes":0,"name":"","oneway":true},"geometry":{"type":"LineString","coordinates":[[126.99332,37.61126],[126.99323,37.61135],[126.99317,37.6114],[126.99263,37.61164],[126.99243,37.61169],[126.99224,37.61172],[126.99212,37.61174],[126.99193,37.61174]]}},{"type":"Feature","properties":{"class":"major","highway":"primary_link","sidewalk":"likely","lanes":0,"name":"정릉지하차도","oneway":true},"geometry":{"type":"LineString","coordinates":[[126.99193,37.61174],[126.99176,37.61171],[126.99171,37.6117],[126.99166,37.61168],[126.9916,37.61164],[126.99158,37.6116],[126.99156,37.61155],[126.99156,37.6115],[126.99158,37.61144],[126.99161,37.61138]]}},{"type":"Feature","properties":{"class":"major","highway":"primary_link","sidewalk":"likely","lanes":0,"name":"","oneway":true},"geometry":{"type":"LineString","coordinates":[[126.99161,37.61138],[126.99165,37.61133],[126.9917,37.61129],[126.99174,37.61127],[126.9918,37.61124],[126.99186,37.61123],[126.99191,37.61122],[126.99198,37.61123],[126.99208,37.61127],[126.99218,37.6113],[126.99235,37.61131],[126.99255,37.61131],[126.99274,37.61129],[126.99292,37.61126],[126.99304,37.61124],[126.99315,37.61123]]}},{"type":"Feature","properties":{"class":"major","highway":"tertiary_link","sidewalk":"likely","lanes":0,"name":"","oneway":true},"geometry":{"type":"LineString","coordinates":[[126.99743,37.60926],[126.99842,37.60899],[126.99938,37.60869],[126.99942,37.60868],[126.99945,37.60868],[126.99949,37.60868],[126.99954,37.6087]]}},{"type":"Feature","properties":{"class":"alley","highway":"service","sidewalk":"unknown","lanes":1,"name":"","oneway":true},"geometry":{"type":"LineString","coordinates":[[126.99415,37.61086],[126.99432,37.61079],[126.99435,37.61078],[126.99438,37.61078],[126.9944,37.61079],[126.99441,37.61081]]}},{"type":"Feature","properties":{"class":"minor","highway":"residential","sidewalk":"unknown","lanes":0,"name":"","oneway":true},"geometry":{"type":"LineString","coordinates":[[126.99988,37.61118],[127.00001,37.61114],[127.0003,37.61118],[127.0005,37.61122],[127.0006,37.61129]]}},{"type":"Feature","properties":{"class":"alley","highway":"service","sidewalk":"unknown","lanes":0,"name":"","oneway":false},"geometry":{"type":"LineString","coordinates":[[126.99904,37.61114],[126.99938,37.6112],[126.99947,37.61122],[126.99954,37.61121],[126.9996,37.61119],[126.99963,37.61115]]}},{"type":"Feature","properties":{"class":"major","highway":"trunk_link","sidewalk":"likely","lanes":0,"name":"","oneway":true},"geometry":{"type":"LineString","coordinates":[[126.99743,37.60926],[126.99805,37.60902]]}},{"type":"Feature","properties":{"class":"major","highway":"trunk_link","sidewalk":"likely","lanes":0,"name":"","oneway":true},"geometry":{"type":"LineString","coordinates":[[126.99805,37.60902],[126.99845,37.60886],[126.99879,37.60866],[126.99892,37.60858],[126.9991,37.6085],[126.99938,37.60842]]}},{"type":"Feature","properties":{"class":"major","highway":"trunk_link","sidewalk":"likely","lanes":0,"name":"","oneway":true},"geometry":{"type":"LineString","coordinates":[[126.99938,37.60842],[126.99985,37.60831],[126.99995,37.60829],[127.00026,37.60824]]}},{"type":"Feature","properties":{"class":"alley","highway":"service","sidewalk":"unknown","lanes":0,"name":"","oneway":false},"geometry":{"type":"LineString","coordinates":[[126.99498,37.6108],[126.99493,37.61066],[126.99488,37.61059]]}},{"type":"Feature","properties":{"class":"alley","highway":"service","sidewalk":"unknown","lanes":0,"name":"","oneway":true},"geometry":{"type":"LineString","coordinates":[[126.99759,37.61115],[126.99764,37.61119],[126.99778,37.61133],[126.99747,37.61152],[126.99725,37.61129]]}},{"type":"Feature","properties":{"class":"alley","highway":"service","sidewalk":"unknown","lanes":0,"name":"","oneway":false},"geometry":{"type":"LineString","coordinates":[[126.99764,37.61119],[126.99781,37.61109],[126.99803,37.61095]]}},{"type":"Feature","properties":{"class":"alley","highway":"service","sidewalk":"unknown","lanes":0,"name":"","oneway":false},"geometry":{"type":"LineString","coordinates":[[126.99781,37.61109],[126.99816,37.61147],[126.99821,37.61153]]}},{"type":"Feature","properties":{"class":"alley","highway":"service","sidewalk":"unknown","lanes":0,"name":"","oneway":false},"geometry":{"type":"LineString","coordinates":[[126.99816,37.61147],[126.99718,37.612],[126.99702,37.61184],[126.99676,37.61157]]}},{"type":"Feature","properties":{"class":"alley","highway":"service","sidewalk":"unknown","lanes":0,"name":"","oneway":false},"geometry":{"type":"LineString","coordinates":[[126.99633,37.61224],[126.99647,37.61216],[126.99688,37.61193],[126.99702,37.61184]]}},{"type":"Feature","properties":{"class":"alley","highway":"service","sidewalk":"unknown","lanes":0,"name":"","oneway":false},"geometry":{"type":"LineString","coordinates":[[126.99439,37.61226],[126.99404,37.61187]]}},{"type":"Feature","properties":{"class":"alley","highway":"service","sidewalk":"unknown","lanes":0,"name":"","oneway":false},"geometry":{"type":"LineString","coordinates":[[126.99458,37.61102],[126.99466,37.61098],[126.99498,37.6108]]}},{"type":"Feature","properties":{"class":"alley","highway":"service","sidewalk":"unknown","lanes":0,"name":"","oneway":false},"geometry":{"type":"LineString","coordinates":[[126.99441,37.61081],[126.9945,37.61092],[126.99454,37.61098],[126.99458,37.61102],[126.99464,37.61109],[126.99469,37.61115],[126.99479,37.61127],[126.99523,37.61178]]}},{"type":"Feature","properties":{"class":"alley","highway":"service","sidewalk":"unknown","lanes":0,"name":"","oneway":false},"geometry":{"type":"LineString","coordinates":[[126.99805,37.61081],[126.99814,37.61089]]}},{"type":"Feature","properties":{"class":"major","highway":"primary_link","sidewalk":"likely","lanes":1,"name":"","oneway":true},"geometry":{"type":"LineString","coordinates":[[126.99415,37.61086],[126.99417,37.61086],[126.99419,37.61085],[126.99422,37.61085],[126.99423,37.61086],[126.99423,37.61088],[126.99422,37.6109]]}},{"type":"Feature","properties":{"class":"alley","highway":"service","sidewalk":"unknown","lanes":0,"name":"","oneway":false},"geometry":{"type":"LineString","coordinates":[[126.99523,37.61178],[126.99538,37.6117],[126.99558,37.61164],[126.99575,37.6116],[126.99593,37.61154],[126.99596,37.61152],[126.99604,37.61148],[126.99704,37.6109],[126.99747,37.61065],[126.9978,37.61048],[126.99798,37.61038],[126.99817,37.61027]]}},{"type":"Feature","properties":{"class":"alley","highway":"service","sidewalk":"unknown","lanes":0,"name":"","oneway":false},"geometry":{"type":"LineString","coordinates":[[126.99759,37.61115],[126.9977,37.61105],[126.99777,37.61098],[126.99805,37.61081],[126.9981,37.61077],[126.99809,37.61071],[126.9978,37.61048]]}},{"type":"Feature","properties":{"class":"major","highway":"secondary","sidewalk":"likely","lanes":2,"name":"정릉로10길","oneway":true},"geometry":{"type":"LineString","coordinates":[[127.00094,37.60792],[127.00058,37.60791],[127.00027,37.60781],[127.00022,37.6078],[127.00016,37.60779],[127.00003,37.60779],[126.99996,37.60778],[126.99994,37.60778],[126.99987,37.60779],[126.99979,37.60779]]}},{"type":"Feature","properties":{"class":"major","highway":"primary","sidewalk":"likely","lanes":0,"name":"정릉로","oneway":true},"geometry":{"type":"LineString","coordinates":[[126.99332,37.61126],[126.99309,37.61135],[126.99274,37.61149],[126.99255,37.61155],[126.99232,37.6116],[126.99211,37.61162],[126.99182,37.61164],[126.99044,37.61174],[126.98994,37.61178]]}},{"type":"Feature","properties":{"class":"major","highway":"primary","sidewalk":"likely","lanes":3,"name":"정릉로","oneway":true},"geometry":{"type":"LineString","coordinates":[[126.99432,37.61071],[126.99444,37.61067],[126.99456,37.61062],[126.99463,37.61059],[126.99483,37.6105],[126.99521,37.61031],[126.99556,37.61012],[126.99595,37.6099],[126.99625,37.60973],[126.99645,37.60962],[126.99668,37.60952],[126.99676,37.60949],[126.9971,37.60937],[126.99743,37.60926],[126.99862,37.60886],[126.99942,37.60858],[126.99968,37.60849],[126.99975,37.60847],[126.99979,37.60845],[127.00135,37.60789]]}},{"type":"Feature","properties":{"class":"minor","highway":"residential","sidewalk":"unknown","lanes":0,"name":"정릉로","oneway":true},"geometry":{"type":"LineString","coordinates":[[126.99112,37.61172],[126.99104,37.61172],[126.99044,37.61174]]}},{"type":"Feature","properties":{"class":"major","highway":"tertiary","sidewalk":"likely","lanes":2,"name":"보국문로","oneway":false},"geometry":{"type":"LineString","coordinates":[[127.00271,37.61703],[127.00221,37.61717],[127.00174,37.61732],[127.00156,37.61738],[127.00134,37.61747],[127.00113,37.61757],[127.00098,37.6176],[127.00081,37.61762],[127.00064,37.61762],[127.0004,37.61759],[127.00036,37.61758],[127.00022,37.61758],[126.99994,37.61758],[126.99942,37.61774],[126.99914,37.61781],[126.9988,37.61792],[126.99862,37.61797],[126.99834,37.61805]]}},{"type":"Feature","properties":{"class":"minor","highway":"residential","sidewalk":"unknown","lanes":1,"name":"평창40길","oneway":false},"geometry":{"type":"LineString","coordinates":[[126.98213,37.61281],[126.98215,37.61284],[126.98218,37.61294],[126.98213,37.61302],[126.98171,37.6134],[126.98152,37.61366],[126.98151,37.61369],[126.98095,37.61408],[126.98094,37.61408],[126.98081,37.6141],[126.9806,37.61408],[126.98027,37.61393],[126.98001,37.61391],[126.97979,37.61398],[126.9797,37.61403],[126.97965,37.61412],[126.97958,37.61454]]}},{"type":"Feature","properties":{"class":"alley","highway":"service","sidewalk":"unknown","lanes":0,"name":"보국문로","oneway":false},"geometry":{"type":"LineString","coordinates":[[126.99645,37.6183],[126.99647,37.61838],[126.99656,37.61854],[126.99669,37.61862]]}},{"type":"Feature","properties":{"class":"alley","highway":"service","sidewalk":"unknown","lanes":0,"name":"","oneway":false},"geometry":{"type":"LineString","coordinates":[[126.99669,37.61862],[126.99653,37.61885],[126.99664,37.61894]]}},{"type":"Feature","properties":{"class":"minor","highway":"residential","sidewalk":"unknown","lanes":1,"name":"보국문로","oneway":false},"geometry":{"type":"LineString","coordinates":[[126.99738,37.61835],[126.99705,37.61855],[126.99673,37.61883]]}},{"type":"Feature","properties":{"class":"minor","highway":"unclassified","sidewalk":"unknown","lanes":1,"name":"정릉로","oneway":false},"geometry":{"type":"LineString","coordinates":[[126.98875,37.6099],[126.98904,37.61037],[126.98911,37.6105],[126.98917,37.61059],[126.9892,37.61062],[126.98928,37.61069],[126.98936,37.61076],[126.98939,37.6108],[126.98938,37.61089],[126.98935,37.61098],[126.98935,37.61117],[126.98928,37.61134],[126.98918,37.61148],[126.98915,37.61159],[126.98914,37.61166],[126.98918,37.61173],[126.98923,37.61176],[126.98927,37.61181],[126.9895,37.61178],[126.98961,37.61179],[126.98969,37.6118],[126.98975,37.61185],[126.98983,37.6119],[126.98992,37.61195],[126.99053,37.61191],[126.99092,37.61191],[126.99112,37.61208],[126.99111,37.61195],[126.99111,37.6119],[126.99111,37.6118],[126.99112,37.61172]]}},{"type":"Feature","properties":{"class":"minor","highway":"unclassified","sidewalk":"unknown","lanes":1,"name":"정릉로","oneway":false},"geometry":{"type":"LineString","coordinates":[[126.99112,37.61208],[126.99111,37.61215],[126.99104,37.61228],[126.99103,37.61237],[126.99102,37.6125]]}},{"type":"Feature","properties":{"class":"alley","highway":"service","sidewalk":"unknown","lanes":0,"name":"","oneway":false},"geometry":{"type":"LineString","coordinates":[[126.99988,37.60617],[126.99988,37.60629],[126.99983,37.6064],[126.99976,37.60649],[126.99975,37.60661],[126.99988,37.6071],[126.99992,37.60719],[127.0,37.60728],[127.0001,37.60733],[127.00027,37.60737],[127.00045,37.60739]]}},{"type":"Feature","properties":{"class":"alley","highway":"service","sidewalk":"unknown","lanes":0,"name":"","oneway":false},"geometry":{"type":"LineString","coordinates":[[127.00251,37.60818],[127.00247,37.60815],[127.00229,37.60814],[127.00203,37.60814],[127.00174,37.6082],[127.00149,37.60827],[127.00129,37.60835],[127.00043,37.60864],[127.00015,37.60876],[126.99998,37.60884],[126.99997,37.60887],[126.99994,37.60901]]}},{"type":"Feature","properties":{"class":"major","highway":"trunk_link","sidewalk":"likely","lanes":0,"name":"","oneway":true},"geometry":{"type":"LineString","coordinates":[[126.99704,37.60954],[126.9969,37.60959],[126.99681,37.60963],[126.99634,37.60983]]}},{"type":"Feature","properties":{"class":"alley","highway":"service","sidewalk":"unknown","lanes":0,"name":"","oneway":false},"geometry":{"type":"LineString","coordinates":[[126.9988,37.61792],[126.99891,37.61814],[126.99909,37.61808],[126.99929,37.61802],[126.99935,37.61815],[126.99915,37.61821],[126.99909,37.61808]]}},{"type":"Feature","properties":{"class":"alley","highway":"service","sidewalk":"unknown","lanes":0,"name":"","oneway":false},"geometry":{"type":"LineString","coordinates":[[126.98927,37.61181],[126.98918,37.61186],[126.98895,37.61204],[126.98885,37.61215],[126.98864,37.61245],[126.98851,37.6126],[126.98843,37.61264],[126.98805,37.61273],[126.98796,37.61281],[126.9879,37.61286],[126.98785,37.61287],[126.98776,37.61284],[126.9877,37.61278],[126.98765,37.61278],[126.98762,37.6128],[126.98755,37.61286],[126.98752,37.61285],[126.9875,37.61274],[126.98748,37.61268]]}},{"type":"Feature","properties":{"class":"major","highway":"primary","sidewalk":"likely","lanes":1,"name":"정릉로","oneway":true},"geometry":{"type":"LineString","coordinates":[[126.99823,37.60919],[126.99785,37.60926],[126.99737,37.6094]]}},{"type":"Feature","properties":{"class":"major","highway":"primary","sidewalk":"likely","lanes":1,"name":"정릉로","oneway":true},"geometry":{"type":"LineString","coordinates":[[126.99788,37.6093],[126.99778,37.60933],[126.99688,37.60964],[126.99674,37.60969],[126.99634,37.60983]]}},{"type":"Feature","properties":{"class":"major","highway":"primary","sidewalk":"likely","lanes":4,"name":"정릉로","oneway":true},"geometry":{"type":"LineString","coordinates":[[126.99422,37.6109],[126.99383,37.61105]]}},{"type":"Feature","properties":{"class":"major","highway":"primary","sidewalk":"likely","lanes":3,"name":"정릉로","oneway":true},"geometry":{"type":"LineString","coordinates":[[126.99356,37.61104],[126.99421,37.61076],[126.99432,37.61071]]}},{"type":"Feature","properties":{"class":"major","highway":"primary_link","sidewalk":"likely","lanes":1,"name":"","oneway":true},"geometry":{"type":"LineString","coordinates":[[126.99356,37.61104],[126.99369,37.61104],[126.99374,37.61104],[126.99415,37.61086]]}},{"type":"Feature","properties":{"class":"major","highway":"primary","sidewalk":"likely","lanes":0,"name":"정릉로","oneway":true},"geometry":{"type":"LineString","coordinates":[[126.99383,37.61105],[126.99357,37.61116],[126.99345,37.61121]]}},{"type":"Feature","properties":{"class":"major","highway":"primary","sidewalk":"likely","lanes":4,"name":"정릉로","oneway":true},"geometry":{"type":"LineString","coordinates":[[126.99488,37.61059],[126.99451,37.61077],[126.99441,37.61081]]}},{"type":"Feature","properties":{"class":"major","highway":"primary","sidewalk":"likely","lanes":0,"name":"정릉로","oneway":true},"geometry":{"type":"LineString","coordinates":[[126.99345,37.61121],[126.99332,37.61126]]}},{"type":"Feature","properties":{"class":"major","highway":"primary","sidewalk":"likely","lanes":3,"name":"정릉로","oneway":true},"geometry":{"type":"LineString","coordinates":[[126.99315,37.61123],[126.99356,37.61104]]}},{"type":"Feature","properties":{"class":"major","highway":"secondary_link","sidewalk":"likely","lanes":0,"name":"","oneway":true},"geometry":{"type":"LineString","coordinates":[[126.99996,37.60778],[126.99994,37.60777],[126.99993,37.60777],[126.99992,37.60776],[126.99992,37.60775],[126.99992,37.60774],[126.99993,37.60773],[126.99995,37.6077]]}},{"type":"Feature","properties":{"class":"major","highway":"tertiary_link","sidewalk":"likely","lanes":0,"name":"","oneway":true},"geometry":{"type":"LineString","coordinates":[[126.99938,37.60869],[126.99951,37.60864],[126.99953,37.60863],[126.99957,37.60862],[126.9996,37.6086],[126.99968,37.60849]]}},{"type":"Feature","properties":{"class":"major","highway":"tertiary","sidewalk":"likely","lanes":0,"name":"선잠로8길","oneway":false},"geometry":{"type":"LineString","coordinates":[[126.99723,37.59958],[126.99752,37.59988],[126.99776,37.60013],[126.99777,37.60015],[126.99784,37.60022],[126.99789,37.60028],[126.99791,37.60033],[126.99788,37.60045],[126.99765,37.60097],[126.99733,37.60162],[126.99728,37.60178]]}},{"type":"Feature","properties":{"class":"major","highway":"tertiary","sidewalk":"likely","lanes":0,"name":"선잠로","oneway":false},"geometry":{"type":"LineString","coordinates":[[126.99516,37.6005],[126.99521,37.60041],[126.99522,37.60033],[126.99534,37.60026],[126.99542,37.60021],[126.99549,37.6002],[126.9959,37.60017],[126.99609,37.60017],[126.99617,37.60018],[126.99621,37.60015],[126.99681,37.59982],[126.99723,37.59958]]}},{"type":"Feature","properties":{"class":"alley","highway":"service","sidewalk":"unknown","lanes":0,"name":"정릉로10라길","oneway":false},"geometry":{"type":"LineString","coordinates":[[126.99903,37.60637],[126.99988,37.60617],[126.99996,37.60607],[127.0,37.60601],[127.0003,37.60585],[127.00035,37.6058],[127.00035,37.60573],[127.00036,37.60562],[127.00039,37.60555],[127.0003,37.60511],[127.00036,37.60475],[127.00064,37.60454],[127.00078,37.60419]]}},{"type":"Feature","properties":{"class":"alley","highway":"service","sidewalk":"unknown","lanes":0,"name":"정릉로10길","oneway":false},"geometry":{"type":"LineString","coordinates":[[126.99744,37.60503],[126.99833,37.60473]]}},{"type":"Feature","properties":{"class":"minor","highway":"residential","sidewalk":"unknown","lanes":0,"name":"정릉로10다길","oneway":false},"geometry":{"type":"LineString","coordinates":[[126.99676,37.6064],[126.99707,37.60636]]}},{"type":"Feature","properties":{"class":"minor","highway":"residential","sidewalk":"unknown","lanes":0,"name":"정릉로10다길","oneway":false},"geometry":{"type":"LineString","coordinates":[[126.99501,37.60507],[126.99521,37.60507],[126.9953,37.60515],[126.99549,37.60522],[126.99577,37.60549],[126.99606,37.60548],[126.9962,37.60552],[126.99631,37.60561],[126.9964,37.6057],[126.99655,37.60577],[126.99661,37.60579],[126.99662,37.60588],[126.99662,37.60599],[126.9967,37.60607],[126.99677,37.6061],[126.99689,37.6061],[126.99698,37.60611],[126.99701,37.60617],[126.99703,37.60629],[126.99707,37.60636],[126.99722,37.60639],[126.9974,37.60639],[126.99763,37.60637],[126.99774,37.60632],[126.99782,37.6063],[126.99799,37.60635],[126.99817,37.60642],[126.99834,37.60648],[126.99845,37.60648],[126.99854,37.60642],[126.99859,37.60636],[126.99867,37.60634],[126.99876,37.60639],[126.99885,37.60645],[126.99894,37.60653],[126.99896,37.60656],[126.99904,37.60657],[126.99909,37.60656]]}},{"type":"Feature","properties":{"class":"minor","highway":"residential","sidewalk":"unknown","lanes":0,"name":"정릉로8가길","oneway":false},"geometry":{"type":"LineString","coordinates":[[126.99355,37.60618],[126.99357,37.60611],[126.99368,37.60605],[126.99382,37.60603],[126.99393,37.60603]]}},{"type":"Feature","properties":{"class":"alley","highway":"service","sidewalk":"unknown","lanes":0,"name":"","oneway":false},"geometry":{"type":"LineString","coordinates":[[126.99821,37.60393],[126.99819,37.60401],[126.99824,37.60416],[126.99825,37.6042],[126.99825,37.60426],[126.99824,37.60438],[126.99821,37.60445]]}},{"type":"Feature","properties":{"class":"alley","highway":"service","sidewalk":"unknown","lanes":0,"name":"","oneway":false},"geometry":{"type":"LineString","coordinates":[[126.99825,37.6042],[126.99843,37.60422],[126.99864,37.60459],[126.99885,37.60465],[126.99905,37.60489],[126.99898,37.60507],[126.99959,37.60565],[126.99968,37.60582],[126.99996,37.60607]]}},{"type":"Feature","properties":{"class":"minor","highway":"residential","sidewalk":"unknown","lanes":0,"name":"정릉로8나길","oneway":false},"geometry":{"type":"LineString","coordinates":[[126.99403,37.60692],[126.99418,37.60692],[126.99449,37.60685],[126.99456,37.60685],[126.99466,37.60686],[126.99479,37.60688],[126.99483,37.60684],[126.99482,37.60678],[126.99486,37.6067]]}},{"type":"Feature","properties":{"class":"minor","highway":"residential","sidewalk":"unknown","lanes":0,"name":"정릉로10다길","oneway":false},"geometry":{"type":"LineString","coordinates":[[126.99894,37.60653],[126.99893,37.6066],[126.99893,37.6067],[126.99895,37.60676],[126.99899,37.6068],[126.99905,37.60683],[126.9991,37.60686],[126.99916,37.60689],[126.99926,37.60685]]}},{"type":"Feature","properties":{"class":"minor","highway":"residential","sidewalk":"unknown","lanes":0,"name":"선잠로","oneway":false},"geometry":{"type":"LineString","coordinates":[[126.99621,37.60015],[126.99627,37.6002],[126.99673,37.60038],[126.99676,37.60039],[126.99695,37.60047],[126.99703,37.60055],[126.99706,37.6006],[126.99708,37.60065],[126.99708,37.60066],[126.9971,37.60077],[126.99714,37.60105],[126.99713,37.60108],[126.99707,37.60116]]}},{"type":"Feature","properties":{"class":"minor","highway":"residential","sidewalk":"unknown","lanes":0,"name":"선잠로8길","oneway":false},"geometry":{"type":"LineString","coordinates":[[126.99676,37.60039],[126.99752,37.59988]]}},{"type":"Feature","properties":{"class":"minor","highway":"residential","sidewalk":"unknown","lanes":0,"name":"대사관로","oneway":false},"geometry":{"type":"LineString","coordinates":[[126.99578,37.60099],[126.99588,37.60078]]}},{"type":"Feature","properties":{"class":"minor","highway":"residential","sidewalk":"unknown","lanes":0,"name":"선잠로8길","oneway":false},"geometry":{"type":"LineString","coordinates":[[126.99708,37.60065],[126.99777,37.60015]]}},{"type":"Feature","properties":{"class":"minor","highway":"residential","sidewalk":"unknown","lanes":0,"name":"대사관로","oneway":false},"geometry":{"type":"LineString","coordinates":[[126.99624,37.60089],[126.99636,37.60053]]}},{"type":"Feature","properties":{"class":"minor","highway":"residential","sidewalk":"unknown","lanes":0,"name":"선잠로5가길","oneway":false},"geometry":{"type":"LineString","coordinates":[[126.99436,37.60035],[126.99449,37.6002],[126.99509,37.59975],[126.99514,37.59971],[126.99515,37.59933],[126.9952,37.59932],[126.99539,37.59931],[126.99536,37.59911],[126.99535,37.59902],[126.99531,37.5989],[126.99522,37.59885],[126.9951,37.5988],[126.99482,37.59876],[126.99474,37.59871],[126.99474,37.59858],[126.99482,37.59854],[126.99511,37.59846],[126.99516,37.59842],[126.99527,37.59817],[126.99534,37.59806],[126.99539,37.59797],[126.99557,37.59781],[126.99565,37.59768],[126.99564,37.59761],[126.9956,37.59747],[126.99562,37.59741],[126.99562,37.59732]]}},{"type":"Feature","properties":{"class":"minor","highway":"residential","sidewalk":"unknown","lanes":0,"name":"대사관로","oneway":false},"geometry":{"type":"LineString","coordinates":[[126.99533,37.60084],[126.99578,37.60099],[126.99649,37.60123]]}},{"type":"Feature","properties":{"class":"minor","highway":"residential","sidewalk":"unknown","lanes":0,"name":"대사관로","oneway":false},"geometry":{"type":"LineString","coordinates":[[126.99821,37.60083],[126.99739,37.60162],[126.99728,37.60178]]}},{"type":"Feature","properties":{"class":"minor","highway":"residential","sidewalk":"unknown","lanes":0,"name":"선잠로","oneway":false},"geometry":{"type":"LineString","coordinates":[[126.99509,37.59975],[126.9952,37.59982],[126.99543,37.60013],[126.99549,37.6002]]}},{"type":"Feature","properties":{"class":"minor","highway":"residential","sidewalk":"unknown","lanes":0,"name":"대사관로","oneway":false},"geometry":{"type":"LineString","coordinates":[[126.99559,37.60122],[126.99552,37.60133],[126.99541,37.60169],[126.99544,37.60177],[126.99604,37.60187],[126.99636,37.60147]]}},{"type":"Feature","properties":{"class":"minor","highway":"residential","sidewalk":"unknown","lanes":0,"name":"선잠로2길","oneway":false},"geometry":{"type":"LineString","coordinates":[[126.99862,37.59563],[126.99888,37.59568],[126.99909,37.59572],[126.99911,37.59573],[126.99913,37.59574],[126.99916,37.59576],[126.99922,37.59581],[126.99925,37.59583],[126.99928,37.59593],[126.99926,37.59608],[126.99934,37.59617],[126.99944,37.59624],[126.99957,37.59634],[126.9996,37.59641],[126.99959,37.59645],[126.99958,37.59651],[126.9995,37.59666],[126.99948,37.59678],[126.99952,37.59687],[126.99952,37.59712],[126.99952,37.59719],[126.99948,37.5974],[126.9995,37.59766],[126.99938,37.59794],[126.99937,37.59802],[126.99932,37.59807],[126.99929,37.59822],[126.99924,37.59835],[126.99917,37.59842],[126.999,37.5985],[126.9988,37.59862],[126.99873,37.59869],[126.99873,37.59883],[126.99873,37.59898],[126.9988,37.59909],[126.99884,37.59914],[126.99887,37.59918],[126.99878,37.59934],[126.99868,37.59943],[126.99864,37.59952],[126.99864,37.59965],[126.99863,37.59979],[126.99856,37.59986],[126.9985,37.59988],[126.9985,37.60012],[126.99855,37.60015],[126.99868,37.60015],[126.99876,37.60014],[126.99885,37.60019],[126.99893,37.60028],[126.99894,37.60037],[126.99895,37.60055],[126.99899,37.60068],[126.99904,37.60075],[126.99916,37.60075],[126.99924,37.60072],[126.99932,37.60064],[126.99937,37.60053],[126.99938,37.60041],[126.99937,37.60032],[126.99936,37.60024],[127.00005,37.59958],[127.00013,37.59957],[127.0002,37.59959],[127.00047,37.59978],[127.00054,37.59979],[127.00062,37.59975],[127.00083,37.59951],[127.00106,37.59918],[127.00125,37.59885],[127.00147,37.59855],[127.00189,37.59835],[127.00203,37.59825],[127.00215,37.59811],[127.00236,37.59793],[127.00257,37.59776],[127.0027,37.59771]]}},{"type":"Feature","properties":{"class":"minor","highway":"residential","sidewalk":"unknown","lanes":0,"name":"선잠로","oneway":false},"geometry":{"type":"LineString","coordinates":[[126.9971,37.60077],[126.99702,37.60076],[126.99691,37.60073],[126.99636,37.60053],[126.99615,37.60046],[126.9961,37.60043],[126.99609,37.60036],[126.99608,37.60026],[126.99609,37.60017]]}},{"type":"Feature","properties":{"class":"minor","highway":"residential","sidewalk":"unknown","lanes":0,"name":"대사관로13길","oneway":false},"geometry":{"type":"LineString","coordinates":[[126.99102,37.60133],[126.99138,37.60111],[126.99143,37.60107],[126.99151,37.60101],[126.99166,37.60085],[126.99183,37.60056],[126.99186,37.60051],[126.99192,37.60034],[126.99196,37.60018],[126.99206,37.59994],[126.99223,37.59977],[126.99232,37.59967]]}},{"type":"Feature","properties":{"class":"minor","highway":"residential","sidewalk":"unknown","lanes":0,"name":"대사관로13길","oneway":false},"geometry":{"type":"LineString","coordinates":[[126.99217,37.60088],[126.99169,37.60109],[126.99143,37.60107]]}},{"type":"Feature","properties":{"class":"minor","highway":"residential","sidewalk":"unknown","lanes":0,"name":"대사관로11나길","oneway":false},"geometry":{"type":"LineString","coordinates":[[126.99097,37.60055],[126.99042,37.60007],[126.99033,37.60003]]}},{"type":"Feature","properties":{"class":"minor","highway":"residential","sidewalk":"unknown","lanes":0,"name":"대사관로11나길","oneway":false},"geometry":{"type":"LineString","coordinates":[[126.99016,37.60061],[126.99033,37.60003],[126.99058,37.59913],[126.99055,37.599],[126.99043,37.59889],[126.99034,37.59882],[126.99027,37.59882],[126.98999,37.5988],[126.98988,37.59879],[126.98979,37.59879],[126.98953,37.59861],[126.98938,37.59834]]}},{"type":"Feature","properties":{"class":"minor","highway":"residential","sidewalk":"unknown","lanes":0,"name":"대사관로13길","oneway":false},"geometry":{"type":"LineString","coordinates":[[126.98951,37.60002],[126.98956,37.59996],[126.98987,37.59887],[126.98988,37.59879]]}},{"type":"Feature","properties":{"class":"minor","highway":"residential","sidewalk":"unknown","lanes":0,"name":"대사관로13길","oneway":false},"geometry":{"type":"LineString","coordinates":[[126.99081,37.60112],[126.99127,37.60079],[126.99156,37.60045],[126.99164,37.60044],[126.99186,37.60051]]}},{"type":"Feature","properties":{"class":"major","highway":"tertiary","sidewalk":"likely","lanes":0,"name":"대사관로","oneway":false},"geometry":{"type":"LineString","coordinates":[[126.99728,37.60178],[126.99764,37.60191],[126.99778,37.60197]]}},{"type":"Feature","properties":{"class":"minor","highway":"residential","sidewalk":"unknown","lanes":0,"name":"","oneway":true},"geometry":{"type":"LineString","coordinates":[[126.9814,37.60176],[126.98134,37.60181],[126.98124,37.60188],[126.98115,37.60191],[126.98105,37.60192],[126.98102,37.60191]]}},{"type":"Feature","properties":{"class":"minor","highway":"residential","sidewalk":"unknown","lanes":0,"name":"대사관로13길","oneway":false},"geometry":{"type":"LineString","coordinates":[[126.98873,37.59869],[126.98886,37.59898],[126.98894,37.59917],[126.98895,37.59933],[126.98893,37.59946],[126.98893,37.59956],[126.98905,37.59982],[126.98915,37.59988],[126.98934,37.59993],[126.98947,37.59999],[126.98951,37.60002],[126.98959,37.60007],[126.98963,37.6002],[126.98959,37.60053],[126.9896,37.60064],[126.98968,37.6007],[126.98981,37.60072],[126.98994,37.60068],[126.99005,37.60064],[126.99016,37.60061]]}},{"type":"Feature","properties":{"class":"minor","highway":"residential","sidewalk":"unknown","lanes":0,"name":"대사관로11가길","oneway":false},"geometry":{"type":"LineString","coordinates":[[126.99073,37.59773],[126.9913,37.59839],[126.99149,37.5992],[126.99158,37.5996],[126.99155,37.59966],[126.99112,37.59992],[126.99098,37.59999],[126.9909,37.60002],[126.99063,37.60007],[126.99042,37.60007]]}},{"type":"Feature","properties":{"class":"minor","highway":"residential","sidewalk":"unknown","lanes":0,"name":"대사관로","oneway":false},"geometry":{"type":"LineString","coordinates":[[126.99707,37.60116],[126.99628,37.6009],[126.99624,37.60089],[126.99588,37.60078],[126.99532,37.6006],[126.99516,37.6005]]}},{"type":"Feature","properties":{"class":"minor","highway":"residential","sidewalk":"unknown","lanes":0,"name":"","oneway":true},"geometry":{"type":"LineString","coordinates":[[126.9801,37.60158],[126.98007,37.60156],[126.98005,37.60152],[126.98002,37.60139],[126.98,37.60129]]}},{"type":"Feature","properties":{"class":"major","highway":"secondary","sidewalk":"likely","lanes":0,"name":"대사관로","oneway":false},"geometry":{"type":"LineString","coordinates":[[126.99232,37.59967],[126.99245,37.59973],[126.99261,37.59968],[126.99269,37.59962],[126.99275,37.59954],[126.9929,37.5995],[126.99311,37.59947],[126.99339,37.59953],[126.99345,37.5996],[126.99355,37.59989],[126.99365,37.60004],[126.99374,37.60012],[126.99385,37.60019],[126.99417,37.60031],[126.99432,37.60034],[126.99436,37.60035],[126.99472,37.60041],[126.99508,37.60053],[126.99516,37.6005],[126.99527,37.60061],[126.99533,37.60084],[126.99538,37.60104],[126.99547,37.60115],[126.99559,37.60122],[126.99636,37.60147],[126.99695,37.60166],[126.99728,37.60178]]}},{"type":"Feature","properties":{"class":"minor","highway":"residential","sidewalk":"unknown","lanes":0,"name":"대사관로13길","oneway":false},"geometry":{"type":"LineString","coordinates":[[126.99016,37.60061],[126.99027,37.60064],[126.99049,37.6008],[126.99077,37.60108],[126.99081,37.60112],[126.99086,37.60118],[126.99099,37.6013],[126.99102,37.60133]]}},{"type":"Feature","properties":{"class":"minor","highway":"residential","sidewalk":"unknown","lanes":0,"name":"대사관로13길","oneway":false},"geometry":{"type":"LineString","coordinates":[[126.99102,37.60133],[126.99119,37.60152]]}},{"type":"Feature","properties":{"class":"major","highway":"tertiary","sidewalk":"yes","lanes":2,"name":"북악산로","oneway":false},"geometry":{"type":"LineString","coordinates":[[126.99729,37.60208],[126.99742,37.60206]]}},{"type":"Feature","properties":{"class":"major","highway":"tertiary","sidewalk":"yes","lanes":2,"name":"북악산로","oneway":false},"geometry":{"type":"LineString","coordinates":[[126.99742,37.60206],[126.99778,37.60197],[126.99815,37.60182],[126.99877,37.6015],[126.99892,37.60147],[126.99913,37.60151],[126.9995,37.6016],[126.9998,37.60165],[127.00002,37.60166],[127.00029,37.60165],[127.00065,37.60163],[127.00074,37.60161],[127.00096,37.60148],[127.00105,37.60141],[127.00115,37.60129],[127.00116,37.60125],[127.00121,37.60091],[127.00126,37.60082],[127.00133,37.60071],[127.00141,37.60064],[127.00163,37.60045],[127.00171,37.60038],[127.00178,37.60028],[127.00185,37.60018],[127.00196,37.59989],[127.0021,37.59948],[127.00215,37.59935],[127.00231,37.59891],[127.00252,37.59852],[127.0026,37.59811],[127.00268,37.59775],[127.0027,37.59771],[127.00275,37.59761],[127.0028,37.59757],[127.00311,37.59737],[127.00379,37.59699],[127.00391,37.59692],[127.00428,37.59672],[127.00447,37.59663],[127.00463,37.59661],[127.00502,37.59654],[127.00511,37.59653],[127.00519,37.59649],[127.00524,37.59642],[127.00532,37.59611],[127.00541,37.59583],[127.00548,37.59573],[127.00572,37.59558],[127.00595,37.59546],[127.00604,37.59542],[127.00613,37.59542],[127.00624,37.59543],[127.00632,37.59546],[127.00643,37.59553],[127.00652,37.5958],[127.00659,37.59618],[127.00658,37.59632],[127.00656,37.59647],[127.00638,37.59655],[127.00582,37.59706],[127.00569,37.59723],[127.00564,37.59736],[127.00565,37.59748],[127.0057,37.59757],[127.00585,37.59768],[127.00597,37.5977],[127.00617,37.59767],[127.0063,37.5977],[127.0064,37.59775],[127.00666,37.59808],[127.00681,37.59829],[127.00695,37.59851],[127.00696,37.59858],[127.00691,37.5987],[127.00668,37.59893],[127.00655,37.59905],[127.00652,37.59918],[127.00652,37.59924],[127.00662,37.59932],[127.00668,37.59936],[127.00691,37.59936],[127.00699,37.59933],[127.00709,37.59929],[127.0072,37.59917],[127.00738,37.59892],[127.00752,37.5988],[127.00768,37.59877],[127.0089,37.59896],[127.00904,37.59898],[127.00913,37.59902],[127.00921,37.59909],[127.00927,37.59914],[127.0093,37.59922],[127.00933,37.5993],[127.00934,37.59958],[127.00935,37.59982],[127.00935,37.59987],[127.00936,37.60007],[127.00937,37.60014],[127.0094,37.60019],[127.00944,37.60025],[127.0095,37.6003],[127.01005,37.60072],[127.01062,37.60108],[127.01068,37.60111],[127.01074,37.60113],[127.01081,37.60114],[127.0109,37.60116],[127.01099,37.60117]]}},{"type":"Feature","properties":{"class":"major","highway":"secondary","sidewalk":"likely","lanes":0,"name":"대사관로","oneway":false},"geometry":{"type":"LineString","coordinates":[[126.99728,37.60178],[126.99741,37.60227]]}},{"type":"Feature","properties":{"class":"major","highway":"tertiary_link","sidewalk":"likely","lanes":2,"name":"북악산로","oneway":true},"geometry":{"type":"LineString","coordinates":[[126.99815,37.60182],[126.99814,37.60191],[126.99807,37.60198],[126.99741,37.60227]]}},{"type":"Feature","properties":{"class":"alley","highway":"service","sidewalk":"unknown","lanes":0,"name":"정릉로8가길","oneway":false},"geometry":{"type":"LineString","coordinates":[[126.99422,37.60584],[126.9943,37.60589],[126.99443,37.60598],[126.99448,37.60604],[126.99451,37.60609],[126.99453,37.60624],[126.99458,37.60629],[126.99464,37.60639],[126.99464,37.60645],[126.99464,37.60649]]}}]}