{"type":"FeatureCollection","features":[{"type":"Feature","properties":{"class":"minor","highway":"residential","sidewalk":"unknown","lanes":0,"name":"갈현로33길","oneway":false},"geometry":{"type":"LineString","coordinates":[[126.91141,37.62255],[126.91166,37.62264],[126.91181,37.62263],[126.91199,37.62238],[126.91205,37.6222],[126.9121,37.62203],[126.91222,37.62188],[126.91234,37.62182],[126.91251,37.62175],[126.91269,37.6217],[126.91279,37.62167],[126.91287,37.62165],[126.91309,37.6216],[126.91318,37.62158],[126.91332,37.62156],[126.91351,37.62152],[126.91368,37.62148],[126.91374,37.62145],[126.91394,37.62133],[126.91428,37.62115],[126.91444,37.62107],[126.91456,37.62099],[126.91483,37.62084],[126.91495,37.62077],[126.91507,37.62071],[126.91555,37.62046],[126.91581,37.62032],[126.91613,37.62018]]}},{"type":"Feature","properties":{"class":"minor","highway":"residential","sidewalk":"unknown","lanes":0,"name":"갈현로47길","oneway":false},"geometry":{"type":"LineString","coordinates":[[126.91509,37.62958],[126.91566,37.62919]]}},{"type":"Feature","properties":{"class":"minor","highway":"residential","sidewalk":"unknown","lanes":0,"name":"","oneway":false},"geometry":{"type":"LineString","coordinates":[[126.91129,37.6205],[126.91127,37.62041],[126.91099,37.6201]]}},{"type":"Feature","properties":{"class":"minor","highway":"residential","sidewalk":"unknown","lanes":0,"name":"통일로83길","oneway":false},"geometry":{"type":"LineString","coordinates":[[126.91652,37.62092],[126.91662,37.62092],[126.9171,37.62074],[126.91716,37.62072],[126.91724,37.62071],[126.91762,37.62076],[126.91775,37.62078],[126.91813,37.62083],[126.91846,37.62088],[126.91869,37.62091],[126.919,37.62096],[126.9192,37.62098]]}},{"type":"Feature","properties":{"class":"major","highway":"secondary","sidewalk":"likely","lanes":0,"name":"갈현로","oneway":false},"geometry":{"type":"LineString","coordinates":[[126.91981,37.62686],[126.91929,37.62673],[126.91913,37.62661]]}},{"type":"Feature","properties":{"class":"major","highway":"tertiary","sidewalk":"likely","lanes":2,"name":"진관3로","oneway":false},"geometry":{"type":"LineString","coordinates":[[126.91864,37.6391],[126.91875,37.63911],[126.91944,37.63912],[126.91951,37.63914],[126.91963,37.63917],[126.91986,37.63926],[126.91998,37.63935],[126.92006,37.63944],[126.92021,37.63962],[126.92036,37.63978],[126.9205,37.63993],[126.92055,37.63998],[126.92066,37.64009],[126.92079,37.64025],[126.92089,37.64038],[126.92094,37.64044],[126.92102,37.64054]]}},{"type":"Feature","properties":{"class":"major","highway":"tertiary","sidewalk":"likely","lanes":5,"name":"진관2로","oneway":false},"geometry":{"type":"LineString","coordinates":[[126.91715,37.63449],[126.91723,37.6345],[126.91812,37.63453],[126.91884,37.63457],[126.91892,37.63457]]}},{"type":"Feature","properties":{"class":"major","highway":"tertiary","sidewalk":"likely","lanes":4,"name":"진관3로","oneway":false},"geometry":{"type":"LineString","coordinates":[[126.91684,37.63903],[126.91693,37.63904],[126.91779,37.63908]]}},{"type":"Feature","properties":{"class":"major","highway":"tertiary","sidewalk":"likely","lanes":4,"name":"진관2로","oneway":false},"geometry":{"type":"LineString","coordinates":[[126.9189,37.6351],[126.9189,37.63513],[126.91889,37.63528],[126.91889,37.63532],[126.91885,37.63612],[126.91884,37.63623],[126.91882,37.63656]]}},{"type":"Feature","properties":{"class":"major","highway":"primary","sidewalk":"likely","lanes":3,"name":"통일로","oneway":true},"geometry":{"type":"LineString","coordinates":[[126.91996,37.6269],[126.9199,37.62713],[126.91973,37.62772],[126.91964,37.62798],[126.91954,37.6284],[126.91948,37.62871]]}},{"type":"Feature","properties":{"class":"major","highway":"primary","sidewalk":"likely","lanes":3,"name":"통일로","oneway":true},"geometry":{"type":"LineString","coordinates":[[126.9166,37.63901],[126.91664,37.63884],[126.91667,37.63865],[126.91677,37.63701],[126.91678,37.63671],[126.91683,37.63646],[126.91687,37.63624],[126.91689,37.63579],[126.91696,37.63468],[126.91699,37.63448]]}},{"type":"Feature","properties":{"class":"major","highway":"primary","sidewalk":"likely","lanes":3,"name":"통일로","oneway":true},"geometry":{"type":"LineString","coordinates":[[126.91699,37.63448],[126.91698,37.63441],[126.91698,37.63434],[126.91699,37.63407],[126.91705,37.63373],[126.91716,37.63343],[126.91745,37.63307],[126.91786,37.63266],[126.91805,37.63248],[126.91836,37.63215],[126.9185,37.63198],[126.91862,37.6318],[126.91879,37.63151],[126.91896,37.63117],[126.91904,37.63098],[126.91911,37.63071],[126.91911,37.6307],[126.91915,37.63045]]}},{"type":"Feature","properties":{"class":"major","highway":"primary","sidewalk":"likely","lanes":3,"name":"통일로","oneway":true},"geometry":{"type":"LineString","coordinates":[[126.91715,37.63449],[126.91717,37.63468],[126.91716,37.63486],[126.91718,37.63518],[126.91718,37.63539],[126.91708,37.63616],[126.91705,37.63648],[126.91701,37.63701],[126.917,37.63721],[126.9169,37.63859],[126.91688,37.63879],[126.91687,37.63887],[126.91684,37.63903]]}},{"type":"Feature","properties":{"class":"major","highway":"primary","sidewalk":"likely","lanes":3,"name":"통일로","oneway":true},"geometry":{"type":"LineString","coordinates":[[126.91684,37.63903],[126.91679,37.63926],[126.91669,37.63954],[126.91661,37.63979],[126.91648,37.64007],[126.91602,37.64103],[126.91587,37.64135],[126.91563,37.64203],[126.91548,37.64243],[126.91542,37.64256],[126.91524,37.64279],[126.91507,37.64299],[126.91491,37.64313],[126.91478,37.64323],[126.91466,37.64332]]}},{"type":"Feature","properties":{"class":"major","highway":"secondary","sidewalk":"likely","lanes":2,"name":"진관1로","oneway":false},"geometry":{"type":"LineString","coordinates":[[126.91915,37.63045],[126.91919,37.63046],[126.91925,37.63046],[126.91933,37.63047]]}},{"type":"Feature","properties":{"class":"major","highway":"primary","sidewalk":"likely","lanes":3,"name":"통일로","oneway":true},"geometry":{"type":"LineString","coordinates":[[126.91996,37.62109],[126.92011,37.62053],[126.92018,37.62035],[126.92036,37.62007],[126.92037,37.62005],[126.92051,37.61983],[126.92083,37.61944]]}},{"type":"Feature","properties":{"class":"minor","highway":"residential","sidewalk":"unknown","lanes":0,"name":"갈현로36길","oneway":false},"geometry":{"type":"LineString","coordinates":[[126.91671,37.62163],[126.91698,37.62158],[126.91717,37.62155]]}},{"type":"Feature","properties":{"class":"minor","highway":"residential","sidewalk":"unknown","lanes":0,"name":"갈현로39가길","oneway":false},"geometry":{"type":"LineString","coordinates":[[126.91273,37.62278],[126.91298,37.62288],[126.91303,37.6229],[126.91329,37.62306],[126.91349,37.62318],[126.91353,37.62321]]}},{"type":"Feature","properties":{"class":"minor","highway":"residential","sidewalk":"unknown","lanes":0,"name":"통일로83길","oneway":false},"geometry":{"type":"LineString","coordinates":[[126.91931,37.62057],[126.91908,37.62054],[126.91894,37.62052],[126.91863,37.62048],[126.91855,37.62046],[126.91834,37.62044],[126.91818,37.62041],[126.91782,37.62037]]}},{"type":"Feature","properties":{"class":"minor","highway":"residential","sidewalk":"unknown","lanes":0,"name":"갈현로36길","oneway":false},"geometry":{"type":"LineString","coordinates":[[126.91866,37.62176],[126.91864,37.62213],[126.91862,37.62217]]}},{"type":"Feature","properties":{"class":"minor","highway":"residential","sidewalk":"unknown","lanes":0,"name":"갈현로35길","oneway":false},"geometry":{"type":"LineString","coordinates":[[126.91443,37.6214],[126.91465,37.62157],[126.91486,37.62147],[126.91533,37.62126],[126.91538,37.62124],[126.91543,37.62121],[126.91581,37.62107],[126.91586,37.62106],[126.91618,37.621],[126.91624,37.62099],[126.91652,37.62092]]}},{"type":"Feature","properties":{"class":"minor","highway":"residential","sidewalk":"unknown","lanes":0,"name":"갈현로31길","oneway":false},"geometry":{"type":"LineString","coordinates":[[126.91314,37.62075],[126.9133,37.62069],[126.91356,37.62059],[126.91379,37.6205],[126.91386,37.62048],[126.91441,37.62026],[126.91446,37.62024],[126.91473,37.62013],[126.91523,37.61993],[126.91546,37.61985],[126.91547,37.61984],[126.91581,37.6197]]}},{"type":"Feature","properties":{"class":"minor","highway":"residential","sidewalk":"unknown","lanes":0,"name":"갈현로47가길","oneway":false},"geometry":{"type":"LineString","coordinates":[[126.914,37.62988],[126.91448,37.62959],[126.91482,37.62937],[126.91537,37.62899],[126.91541,37.62898],[126.91547,37.62896],[126.91577,37.62875],[126.91623,37.62843],[126.91624,37.62842],[126.9169,37.62795],[126.91691,37.62791],[126.91693,37.62787],[126.9173,37.62741]]}},{"type":"Feature","properties":{"class":"minor","highway":"residential","sidewalk":"unknown","lanes":0,"name":"갈현로33가길","oneway":false},"geometry":{"type":"LineString","coordinates":[[126.91368,37.62181],[126.91358,37.62185],[126.91316,37.62217],[126.91303,37.62236],[126.91273,37.62278],[126.91272,37.6228],[126.91258,37.623],[126.91254,37.62315],[126.91253,37.62325],[126.91252,37.62327],[126.91248,37.62357],[126.91249,37.62398],[126.91265,37.62398]]}},{"type":"Feature","properties":{"class":"minor","highway":"residential","sidewalk":"unknown","lanes":0,"name":"갈현로41길","oneway":false},"geometry":{"type":"LineString","coordinates":[[126.91592,37.62377],[126.91595,37.62381],[126.91612,37.62398],[126.91617,37.62403],[126.9162,37.62405],[126.91622,37.62409],[126.9163,37.62421],[126.91633,37.62425],[126.91635,37.62429],[126.9164,37.62435]]}},{"type":"Feature","properties":{"class":"minor","highway":"residential","sidewalk":"unknown","lanes":0,"name":"통일로94길","oneway":false},"geometry":{"type":"LineString","coordinates":[[126.91984,37.62776],[126.92017,37.6275],[126.92027,37.6274],[126.92036,37.62731],[126.92041,37.62725],[126.92045,37.6272],[126.92057,37.627],[126.92066,37.62673],[126.92075,37.62673],[126.92096,37.62669],[126.92108,37.62668],[126.92113,37.62667],[126.92159,37.62665],[126.92167,37.62664]]}},{"type":"Feature","properties":{"class":"minor","highway":"residential","sidewalk":"unknown","lanes":0,"name":"갈현로33가길","oneway":false},"geometry":{"type":"LineString","coordinates":[[126.91374,37.62145],[126.91375,37.62151],[126.91375,37.62165],[126.91369,37.62179],[126.91368,37.62181],[126.91367,37.62189],[126.91371,37.62214],[126.91376,37.62245],[126.91381,37.62279],[126.91377,37.62287],[126.91375,37.6229],[126.91355,37.62319],[126.91353,37.62321],[126.91352,37.62322],[126.91327,37.62365],[126.91294,37.62386]]}},{"type":"Feature","properties":{"class":"minor","highway":"residential","sidewalk":"unknown","lanes":0,"name":"연서로27길","oneway":false},"geometry":{"type":"LineString","coordinates":[[126.91589,37.61894],[126.91591,37.619],[126.91657,37.61996],[126.91661,37.61997],[126.91672,37.62001],[126.91716,37.62072]]}},{"type":"Feature","properties":{"class":"minor","highway":"residential","sidewalk":"unknown","lanes":0,"name":"갈현로33가길","oneway":false},"geometry":{"type":"LineString","coordinates":[[126.91233,37.62435],[126.91234,37.62433],[126.91241,37.62431],[126.9126,37.6242],[126.91262,37.62418],[126.91265,37.62414],[126.91265,37.62398],[126.91266,37.62377],[126.91267,37.62375],[126.91267,37.62371],[126.91274,37.6233],[126.91275,37.62326],[126.91277,37.62319],[126.91282,37.62306],[126.91298,37.62288]]}},{"type":"Feature","properties":{"class":"minor","highway":"residential","sidewalk":"unknown","lanes":0,"name":"갈현로45길","oneway":false},"geometry":{"type":"LineString","coordinates":[[126.91375,37.62969],[126.9142,37.62938],[126.91425,37.62938],[126.9143,37.62937],[126.9146,37.62917],[126.91516,37.62877],[126.9152,37.62876],[126.91526,37.62874],[126.91555,37.62854],[126.91603,37.6282],[126.91605,37.62818],[126.91661,37.62779],[126.91662,37.62776],[126.91664,37.6277],[126.91702,37.62726],[126.91728,37.62697],[126.91731,37.62693],[126.91742,37.6268],[126.91744,37.62678]]}},{"type":"Feature","properties":{"class":"minor","highway":"residential","sidewalk":"unknown","lanes":0,"name":"","oneway":false},"geometry":{"type":"LineString","coordinates":[[126.91908,37.62054],[126.919,37.62096]]}},{"type":"Feature","properties":{"class":"alley","highway":"service","sidewalk":"unknown","lanes":0,"name":"","oneway":false},"geometry":{"type":"LineString","coordinates":[[126.91255,37.62075],[126.91267,37.62079]]}},{"type":"Feature","properties":{"class":"minor","highway":"residential","sidewalk":"unknown","lanes":0,"name":"갈현로","oneway":false},"geometry":{"type":"LineString","coordinates":[[126.91858,37.62615],[126.91909,37.62576]]}},{"type":"Feature","properties":{"class":"minor","highway":"residential","sidewalk":"unknown","lanes":0,"name":"통일로83길","oneway":false},"geometry":{"type":"LineString","coordinates":[[126.91855,37.62046],[126.91846,37.62088]]}},{"type":"Feature","properties":{"class":"alley","highway":"service","sidewalk":"unknown","lanes":0,"name":"","oneway":false},"geometry":{"type":"LineString","coordinates":[[126.91326,37.62173],[126.91318,37.62158]]}},{"type":"Feature","properties":{"class":"alley","highway":"service","sidewalk":"unknown","lanes":0,"name":"갈현로43길","oneway":false},"geometry":{"type":"LineString","coordinates":[[126.91636,37.62483],[126.91637,37.6248],[126.91641,37.62473],[126.9164,37.62464]]}},{"type":"Feature","properties":{"class":"minor","highway":"residential","sidewalk":"unknown","lanes":0,"name":"갈현로29길","oneway":false},"geometry":{"type":"LineString","coordinates":[[126.9102,37.62226],[126.91079,37.62219]]}},{"type":"Feature","properties":{"class":"alley","highway":"service","sidewalk":"unknown","lanes":0,"name":"","oneway":false},"geometry":{"type":"LineString","coordinates":[[126.91755,37.62109],[126.91774,37.62109]]}},{"type":"Feature","properties":{"class":"alley","highway":"service","sidewalk":"unknown","lanes":0,"name":"","oneway":false},"geometry":{"type":"LineString","coordinates":[[126.91205,37.62124],[126.91228,37.6213]]}},{"type":"Feature","properties":{"class":"alley","highway":"service","sidewalk":"unknown","lanes":0,"name":"","oneway":false},"geometry":{"type":"LineString","coordinates":[[126.91431,37.62081],[126.91456,37.62099]]}},{"type":"Feature","properties":{"class":"alley","highway":"service","sidewalk":"unknown","lanes":0,"name":"","oneway":false},"geometry":{"type":"LineString","coordinates":[[126.91437,37.62055],[126.91461,37.62047]]}},{"type":"Feature","properties":{"class":"minor","highway":"residential","sidewalk":"unknown","lanes":0,"name":"갈현로","oneway":false},"geometry":{"type":"LineString","coordinates":[[126.91673,37.62499],[126.91666,37.62436]]}},{"type":"Feature","properties":{"class":"minor","highway":"residential","sidewalk":"unknown","lanes":0,"name":"갈현로31길","oneway":false},"geometry":{"type":"LineString","coordinates":[[126.9149,37.62042],[126.91538,37.6202]]}},{"type":"Feature","properties":{"class":"alley","highway":"service","sidewalk":"unknown","lanes":0,"name":"","oneway":false},"geometry":{"type":"LineString","coordinates":[[126.91751,37.6265],[126.91735,37.62628]]}},{"type":"Feature","properties":{"class":"minor","highway":"residential","sidewalk":"unknown","lanes":0,"name":"","oneway":false},"geometry":{"type":"LineString","coordinates":[[126.91837,37.62172],[126.91846,37.62131]]}},{"type":"Feature","properties":{"class":"minor","highway":"residential","sidewalk":"unknown","lanes":0,"name":"통일로83길","oneway":false},"geometry":{"type":"LineString","coordinates":[[126.91834,37.62044],[126.91842,37.62002]]}},{"type":"Feature","properties":{"class":"alley","highway":"service","sidewalk":"unknown","lanes":0,"name":"갈현로47길","oneway":false},"geometry":{"type":"LineString","coordinates":[[126.91915,37.62718],[126.91878,37.62687]]}},{"type":"Feature","properties":{"class":"alley","highway":"service","sidewalk":"unknown","lanes":0,"name":"","oneway":false},"geometry":{"type":"LineString","coordinates":[[126.91605,37.62418],[126.91622,37.62409]]}},{"type":"Feature","properties":{"class":"alley","highway":"service","sidewalk":"unknown","lanes":0,"name":"","oneway":false},"geometry":{"type":"LineString","coordinates":[[126.91248,37.62143],[126.91232,37.62126]]}},{"type":"Feature","properties":{"class":"alley","highway":"service","sidewalk":"unknown","lanes":0,"name":"","oneway":false},"geometry":{"type":"LineString","coordinates":[[126.91523,37.62166],[126.91557,37.6215]]}},{"type":"Feature","properties":{"class":"minor","highway":"residential","sidewalk":"unknown","lanes":0,"name":"통일로87길","oneway":false},"geometry":{"type":"LineString","coordinates":[[126.91781,37.62374],[126.91867,37.62371]]}},{"type":"Feature","properties":{"class":"minor","highway":"residential","sidewalk":"unknown","lanes":0,"name":"통일로85길","oneway":false},"geometry":{"type":"LineString","coordinates":[[126.91802,37.62214],[126.91806,37.62283]]}},{"type":"Feature","properties":{"class":"alley","highway":"service","sidewalk":"unknown","lanes":0,"name":"","oneway":false},"geometry":{"type":"LineString","coordinates":[[126.91826,37.6264],[126.91844,37.62654]]}},{"type":"Feature","properties":{"class":"alley","highway":"service","sidewalk":"unknown","lanes":0,"name":"","oneway":false},"geometry":{"type":"LineString","coordinates":[[126.91195,37.62145],[126.91211,37.6215]]}},{"type":"Feature","properties":{"class":"minor","highway":"residential","sidewalk":"unknown","lanes":0,"name":"갈현로36길","oneway":false},"geometry":{"type":"LineString","coordinates":[[126.91802,37.62165],[126.91814,37.62126]]}},{"type":"Feature","properties":{"class":"minor","highway":"residential","sidewalk":"unknown","lanes":0,"name":"통일로89길","oneway":false},"geometry":{"type":"LineString","coordinates":[[126.91842,37.624],[126.91847,37.62464]]}},{"type":"Feature","properties":{"class":"alley","highway":"service","sidewalk":"unknown","lanes":0,"name":"","oneway":false},"geometry":{"type":"LineString","coordinates":[[126.91405,37.62015],[126.91402,37.62007]]}},{"type":"Feature","properties":{"class":"alley","highway":"service","sidewalk":"unknown","lanes":0,"name":"","oneway":false},"geometry":{"type":"LineString","coordinates":[[126.91897,37.62038],[126.91894,37.62052]]}},{"type":"Feature","properties":{"class":"minor","highway":"residential","sidewalk":"unknown","lanes":0,"name":"","oneway":false},"geometry":{"type":"LineString","coordinates":[[126.91253,37.62325],[126.91274,37.6233]]}},{"type":"Feature","properties":{"class":"minor","highway":"residential","sidewalk":"unknown","lanes":0,"name":"통일로85길","oneway":false},"geometry":{"type":"LineString","coordinates":[[126.91832,37.62282],[126.91828,37.62215]]}},{"type":"Feature","properties":{"class":"alley","highway":"service","sidewalk":"unknown","lanes":0,"name":"","oneway":false},"geometry":{"type":"LineString","coordinates":[[126.91815,37.62054],[126.91818,37.62041]]}},{"type":"Feature","properties":{"class":"alley","highway":"service","sidewalk":"unknown","lanes":0,"name":"","oneway":false},"geometry":{"type":"LineString","coordinates":[[126.91958,37.62434],[126.91957,37.62412]]}},{"type":"Feature","properties":{"class":"minor","highway":"residential","sidewalk":"unknown","lanes":0,"name":"갈현로","oneway":false},"geometry":{"type":"LineString","coordinates":[[126.91795,37.6256],[126.91843,37.62524]]}},{"type":"Feature","properties":{"class":"alley","highway":"service","sidewalk":"unknown","lanes":0,"name":"","oneway":false},"geometry":{"type":"LineString","coordinates":[[126.91252,37.62155],[126.91269,37.6217]]}},{"type":"Feature","properties":{"class":"alley","highway":"service","sidewalk":"unknown","lanes":0,"name":"","oneway":false},"geometry":{"type":"LineString","coordinates":[[126.91902,37.62014],[126.91941,37.62019]]}},{"type":"Feature","properties":{"class":"minor","highway":"residential","sidewalk":"unknown","lanes":0,"name":"통일로89길","oneway":false},"geometry":{"type":"LineString","coordinates":[[126.9182,37.62465],[126.91814,37.62401]]}},{"type":"Feature","properties":{"class":"alley","highway":"service","sidewalk":"unknown","lanes":0,"name":"","oneway":false},"geometry":{"type":"LineString","coordinates":[[126.91778,37.62641],[126.91762,37.62618]]}},{"type":"Feature","properties":{"class":"alley","highway":"service","sidewalk":"unknown","lanes":0,"name":"","oneway":false},"geometry":{"type":"LineString","coordinates":[[126.91886,37.62487],[126.91887,37.62503]]}},{"type":"Feature","properties":{"class":"alley","highway":"service","sidewalk":"unknown","lanes":0,"name":"","oneway":false},"geometry":{"type":"LineString","coordinates":[[126.91819,37.62191],[126.91822,37.6217]]}},{"type":"Feature","properties":{"class":"minor","highway":"residential","sidewalk":"unknown","lanes":0,"name":"통일로83길","oneway":false},"geometry":{"type":"LineString","coordinates":[[126.91869,37.62091],[126.9186,37.62133]]}},{"type":"Feature","properties":{"class":"minor","highway":"residential","sidewalk":"unknown","lanes":0,"name":"갈현로47길","oneway":false},"geometry":{"type":"LineString","coordinates":[[126.91532,37.62981],[126.9159,37.62941],[126.91642,37.62904],[126.91669,37.62885]]}},{"type":"Feature","properties":{"class":"minor","highway":"residential","sidewalk":"unknown","lanes":0,"name":"갈현로39길","oneway":false},"geometry":{"type":"LineString","coordinates":[[126.91394,37.62133],[126.91398,37.62138],[126.91415,37.62153],[126.91426,37.62145],[126.91431,37.62146],[126.91468,37.62175],[126.91478,37.62186],[126.91485,37.62193],[126.91483,37.62201],[126.9147,37.62212],[126.91472,37.62216]]}},{"type":"Feature","properties":{"class":"alley","highway":"service","sidewalk":"unknown","lanes":0,"name":"","oneway":false},"geometry":{"type":"LineString","coordinates":[[126.91916,37.63011],[126.919,37.63012],[126.91888,37.63019],[126.91881,37.63031],[126.91876,37.63052],[126.91872,37.63074],[126.91862,37.63085],[126.91849,37.63088],[126.91834,37.63085],[126.91824,37.63072],[126.91809,37.63052],[126.91793,37.63031],[126.91781,37.63022],[126.91762,37.63016],[126.91746,37.6301],[126.91729,37.63006],[126.91721,37.62997],[126.91709,37.62986],[126.917,37.62979],[126.91697,37.62978],[126.91688,37.62976],[126.91668,37.62974]]}},{"type":"Feature","properties":{"class":"minor","highway":"residential","sidewalk":"unknown","lanes":0,"name":"","oneway":false},"geometry":{"type":"LineString","coordinates":[[126.91944,37.62803],[126.91919,37.62803],[126.91907,37.62803],[126.91896,37.62804],[126.91853,37.62803],[126.91839,37.62803],[126.91822,37.62803],[126.91789,37.62807],[126.91748,37.62814],[126.91715,37.62807]]}},{"type":"Feature","properties":{"class":"alley","highway":"service","sidewalk":"unknown","lanes":0,"name":"갈현로31길","oneway":false},"geometry":{"type":"LineString","coordinates":[[126.91384,37.6201],[126.91402,37.62007],[126.91416,37.61996]]}},{"type":"Feature","properties":{"class":"minor","highway":"residential","sidewalk":"unknown","lanes":0,"name":"갈현로36길","oneway":false},"geometry":{"type":"LineString","coordinates":[[126.9175,37.6216],[126.91752,37.6212]]}},{"type":"Feature","properties":{"class":"alley","highway":"service","sidewalk":"unknown","lanes":0,"name":"갈현로29길","oneway":false},"geometry":{"type":"LineString","coordinates":[[126.91204,37.62103],[126.91213,37.62088],[126.9125,37.62102]]}},{"type":"Feature","properties":{"class":"alley","highway":"service","sidewalk":"unknown","lanes":0,"name":"갈현로31길","oneway":false},"geometry":{"type":"LineString","coordinates":[[126.91421,37.6207],[126.9141,37.62077],[126.91379,37.6205]]}},{"type":"Feature","properties":{"class":"minor","highway":"residential","sidewalk":"unknown","lanes":0,"name":"갈현로47길","oneway":false},"geometry":{"type":"LineString","coordinates":[[126.91784,37.62753],[126.91827,37.62792],[126.91839,37.62803]]}},{"type":"Feature","properties":{"class":"minor","highway":"residential","sidewalk":"unknown","lanes":0,"name":"갈현로29길","oneway":false},"geometry":{"type":"LineString","coordinates":[[126.91351,37.62152],[126.91282,37.62067],[126.91279,37.62063]]}},{"type":"Feature","properties":{"class":"minor","highway":"residential","sidewalk":"unknown","lanes":0,"name":"갈현로35길","oneway":false},"geometry":{"type":"LineString","coordinates":[[126.91486,37.62147],[126.91475,37.62127],[126.91526,37.62103]]}},{"type":"Feature","properties":{"class":"minor","highway":"residential","sidewalk":"unknown","lanes":0,"name":"갈현로29길","oneway":false},"geometry":{"type":"LineString","coordinates":[[126.91004,37.62254],[126.91084,37.62245],[126.9114,37.62239]]}},{"type":"Feature","properties":{"class":"minor","highway":"residential","sidewalk":"unknown","lanes":0,"name":"갈현로47길","oneway":false},"geometry":{"type":"LineString","coordinates":[[126.91816,37.6273],[126.91893,37.62795],[126.91907,37.62803]]}},{"type":"Feature","properties":{"class":"minor","highway":"residential","sidewalk":"unknown","lanes":0,"name":"","oneway":false},"geometry":{"type":"LineString","coordinates":[[126.91598,37.62161],[126.91632,37.62157],[126.91668,37.62151]]}},{"type":"Feature","properties":{"class":"minor","highway":"residential","sidewalk":"unknown","lanes":0,"name":"갈현로45길","oneway":false},"geometry":{"type":"LineString","coordinates":[[126.91709,37.62663],[126.91714,37.62664],[126.91744,37.62678]]}},{"type":"Feature","properties":{"class":"minor","highway":"residential","sidewalk":"unknown","lanes":0,"name":"갈현로45나길","oneway":false},"geometry":{"type":"LineString","coordinates":[[126.91321,37.62851],[126.91332,37.62852],[126.91354,37.62872]]}},{"type":"Feature","properties":{"class":"alley","highway":"service","sidewalk":"unknown","lanes":0,"name":"","oneway":false},"geometry":{"type":"LineString","coordinates":[[126.91352,37.62095],[126.91339,37.62083],[126.9133,37.62069]]}},{"type":"Feature","properties":{"class":"minor","highway":"residential","sidewalk":"unknown","lanes":0,"name":"연서로29길","oneway":false},"geometry":{"type":"LineString","coordinates":[[126.9179,37.61995],[126.91842,37.62002],[126.91871,37.62005]]}},{"type":"Feature","properties":{"class":"minor","highway":"residential","sidewalk":"unknown","lanes":0,"name":"통일로87길","oneway":false},"geometry":{"type":"LineString","coordinates":[[126.91713,37.62316],[126.91729,37.62312],[126.91746,37.62312],[126.91775,37.62312]]}},{"type":"Feature","properties":{"class":"alley","highway":"service","sidewalk":"unknown","lanes":0,"name":"","oneway":false},"geometry":{"type":"LineString","coordinates":[[126.91805,37.62185],[126.91804,37.6217],[126.91802,37.62165]]}},{"type":"Feature","properties":{"class":"minor","highway":"residential","sidewalk":"unknown","lanes":0,"name":"통일로","oneway":false},"geometry":{"type":"LineString","coordinates":[[126.92109,37.62394],[126.92099,37.6239],[126.92094,37.62389],[126.92048,37.62382],[126.92019,37.62343],[126.92012,37.62329],[126.9201,37.62321],[126.92006,37.6229],[126.92001,37.62252],[126.91993,37.62243],[126.91985,37.62242]]}},{"type":"Feature","properties":{"class":"minor","highway":"residential","sidewalk":"unknown","lanes":0,"name":"갈현로45길","oneway":false},"geometry":{"type":"LineString","coordinates":[[126.91371,37.62968],[126.91352,37.62951],[126.91353,37.62945],[126.91401,37.62915]]}},{"type":"Feature","properties":{"class":"minor","highway":"residential","sidewalk":"unknown","lanes":0,"name":"갈현로37길","oneway":false},"geometry":{"type":"LineString","coordinates":[[126.91682,37.62214],[126.91646,37.62218],[126.91634,37.6222],[126.91621,37.6224],[126.91608,37.62271],[126.91586,37.62322],[126.91583,37.62329],[126.91583,37.62353],[126.91584,37.62378],[126.91584,37.62386],[126.9158,37.62401],[126.91573,37.62414],[126.91571,37.62418],[126.91572,37.62425]]}},{"type":"Feature","properties":{"class":"alley","highway":"service","sidewalk":"unknown","lanes":0,"name":"","oneway":false},"geometry":{"type":"LineString","coordinates":[[126.91813,37.62083],[126.91812,37.62079],[126.91816,37.62062]]}},{"type":"Feature","properties":{"class":"minor","highway":"residential","sidewalk":"unknown","lanes":0,"name":"갈현로29길","oneway":false},"geometry":{"type":"LineString","coordinates":[[126.91084,37.62245],[126.91079,37.62219],[126.91073,37.62191],[126.91069,37.6219],[126.9104,37.62194],[126.91017,37.62195]]}},{"type":"Feature","properties":{"class":"minor","highway":"residential","sidewalk":"unknown","lanes":0,"name":"갈현로47가길","oneway":false},"geometry":{"type":"LineString","coordinates":[[126.9146,37.62917],[126.91482,37.62937],[126.91509,37.62958]]}},{"type":"Feature","properties":{"class":"minor","highway":"residential","sidewalk":"unknown","lanes":0,"name":"통일로89길","oneway":false},"geometry":{"type":"LineString","coordinates":[[126.91877,37.62463],[126.91922,37.62461],[126.91929,37.62461],[126.91988,37.62459]]}},{"type":"Feature","properties":{"class":"minor","highway":"residential","sidewalk":"unknown","lanes":0,"name":"통일로89길","oneway":false},"geometry":{"type":"LineString","coordinates":[[126.9176,37.62474],[126.91758,37.62464],[126.91752,37.62433],[126.91751,37.62404]]}},{"type":"Feature","properties":{"class":"minor","highway":"residential","sidewalk":"unknown","lanes":0,"name":"갈현로37길","oneway":false},"geometry":{"type":"LineString","coordinates":[[126.91586,37.62322],[126.91628,37.62319]]}},{"type":"Feature","properties":{"class":"minor","highway":"residential","sidewalk":"unknown","lanes":0,"name":"","oneway":false},"geometry":{"type":"LineString","coordinates":[[126.91448,37.62959],[126.91425,37.62938]]}},{"type":"Feature","properties":{"class":"minor","highway":"residential","sidewalk":"unknown","lanes":0,"name":"갈현로47가길","oneway":false},"geometry":{"type":"LineString","coordinates":[[126.9173,37.62741],[126.91702,37.62726]]}},{"type":"Feature","properties":{"class":"minor","highway":"residential","sidewalk":"unknown","lanes":0,"name":"통일로89길","oneway":false},"geometry":{"type":"LineString","coordinates":[[126.91825,37.62509],[126.91834,37.62505],[126.91887,37.62503],[126.91926,37.62501]]}},{"type":"Feature","properties":{"class":"minor","highway":"residential","sidewalk":"unknown","lanes":0,"name":"갈현로33가길","oneway":false},"geometry":{"type":"LineString","coordinates":[[126.91303,37.6229],[126.91333,37.62246],[126.91354,37.62221],[126.91371,37.62214]]}},{"type":"Feature","properties":{"class":"minor","highway":"residential","sidewalk":"unknown","lanes":0,"name":"","oneway":false},"geometry":{"type":"LineString","coordinates":[[126.91762,37.62869],[126.91772,37.62867],[126.91786,37.62867],[126.91907,37.62869],[126.91927,37.6287]]}},{"type":"Feature","properties":{"class":"minor","highway":"residential","sidewalk":"unknown","lanes":0,"name":"통일로","oneway":false},"geometry":{"type":"LineString","coordinates":[[126.91986,37.62411],[126.91957,37.62412],[126.91951,37.62412],[126.91946,37.62356]]}},{"type":"Feature","properties":{"class":"minor","highway":"residential","sidewalk":"unknown","lanes":0,"name":"갈현로","oneway":false},"geometry":{"type":"LineString","coordinates":[[126.91768,37.62687],[126.91782,37.62697],[126.91815,37.62674],[126.91844,37.62654],[126.91877,37.62631]]}},{"type":"Feature","properties":{"class":"minor","highway":"residential","sidewalk":"unknown","lanes":0,"name":"연서로29길","oneway":false},"geometry":{"type":"LineString","coordinates":[[126.91888,37.61981],[126.91871,37.62005]]}},{"type":"Feature","properties":{"class":"minor","highway":"residential","sidewalk":"unknown","lanes":0,"name":"갈현로27길","oneway":false},"geometry":{"type":"LineString","coordinates":[[126.91099,37.6201],[126.91127,37.61994],[126.91156,37.61979],[126.91183,37.61964],[126.91152,37.61927]]}},{"type":"Feature","properties":{"class":"minor","highway":"residential","sidewalk":"unknown","lanes":0,"name":"갈현로33길","oneway":false},"geometry":{"type":"LineString","coordinates":[[126.91205,37.6222],[126.91211,37.62224],[126.91224,37.62216],[126.91255,37.62184],[126.91256,37.62182]]}},{"type":"Feature","properties":{"class":"minor","highway":"residential","sidewalk":"unknown","lanes":0,"name":"통일로","oneway":false},"geometry":{"type":"LineString","coordinates":[[126.9199,37.62713],[126.92002,37.62715],[126.92026,37.6272]]}},{"type":"Feature","properties":{"class":"minor","highway":"residential","sidewalk":"unknown","lanes":0,"name":"갈현로31길","oneway":false},"geometry":{"type":"LineString","coordinates":[[126.91483,37.62084],[126.91461,37.62047],[126.91446,37.62024]]}},{"type":"Feature","properties":{"class":"minor","highway":"residential","sidewalk":"unknown","lanes":0,"name":"갈현로33가길","oneway":false},"geometry":{"type":"LineString","coordinates":[[126.913,37.62338],[126.91329,37.62306],[126.91339,37.62294],[126.91369,37.6225],[126.91376,37.62245]]}},{"type":"Feature","properties":{"class":"minor","highway":"residential","sidewalk":"unknown","lanes":0,"name":"갈현로31길","oneway":false},"geometry":{"type":"LineString","coordinates":[[126.91428,37.62115],[126.91402,37.62102],[126.91357,37.62064],[126.91356,37.62059]]}},{"type":"Feature","properties":{"class":"minor","highway":"residential","sidewalk":"unknown","lanes":0,"name":"갈현로35길","oneway":false},"geometry":{"type":"LineString","coordinates":[[126.91595,37.62187],[126.91599,37.6218],[126.91598,37.62161],[126.9159,37.6212],[126.91586,37.62106]]}},{"type":"Feature","properties":{"class":"minor","highway":"residential","sidewalk":"unknown","lanes":0,"name":"통일로83길","oneway":false},"geometry":{"type":"LineString","coordinates":[[126.91912,37.6214],[126.9186,37.62133],[126.91846,37.62131],[126.91814,37.62126],[126.91804,37.62125],[126.91774,37.6212]]}},{"type":"Feature","properties":{"class":"minor","highway":"residential","sidewalk":"unknown","lanes":0,"name":"갈현로33길","oneway":false},"geometry":{"type":"LineString","coordinates":[[126.91166,37.62264],[126.91167,37.62271],[126.91179,37.62283],[126.91211,37.62269],[126.91263,37.62224],[126.91276,37.62206]]}},{"type":"Feature","properties":{"class":"minor","highway":"residential","sidewalk":"unknown","lanes":0,"name":"갈현로31길","oneway":false},"geometry":{"type":"LineString","coordinates":[[126.91547,37.61984],[126.91581,37.62032]]}},{"type":"Feature","properties":{"class":"minor","highway":"residential","sidewalk":"unknown","lanes":0,"name":"갈현로33길","oneway":false},"geometry":{"type":"LineString","coordinates":[[126.91251,37.62175],[126.91256,37.62182],[126.91276,37.62206],[126.91284,37.62205],[126.91299,37.62193],[126.91279,37.62167]]}},{"type":"Feature","properties":{"class":"minor","highway":"residential","sidewalk":"unknown","lanes":0,"name":"갈현로33길","oneway":false},"geometry":{"type":"LineString","coordinates":[[126.91586,37.62106],[126.91585,37.62102],[126.91555,37.62046]]}},{"type":"Feature","properties":{"class":"minor","highway":"residential","sidewalk":"unknown","lanes":0,"name":"통일로87길","oneway":false},"geometry":{"type":"LineString","coordinates":[[126.91714,37.62286],[126.91741,37.62283]]}},{"type":"Feature","properties":{"class":"alley","highway":"service","sidewalk":"unknown","lanes":0,"name":"","oneway":false},"geometry":{"type":"LineString","coordinates":[[126.91259,37.62011],[126.91248,37.62016],[126.91223,37.62041],[126.91231,37.62052],[126.91247,37.62053],[126.91261,37.62055],[126.91279,37.62063]]}},{"type":"Feature","properties":{"class":"minor","highway":"residential","sidewalk":"unknown","lanes":0,"name":"갈현로37길","oneway":false},"geometry":{"type":"LineString","coordinates":[[126.91478,37.62186],[126.9149,37.62179],[126.91501,37.62184],[126.91551,37.62205],[126.91587,37.62225],[126.9159,37.62226],[126.91621,37.6224]]}},{"type":"Feature","properties":{"class":"minor","highway":"residential","sidewalk":"unknown","lanes":0,"name":"갈현로","oneway":false},"geometry":{"type":"LineString","coordinates":[[126.91617,37.62403],[126.91658,37.62342],[126.91661,37.62332],[126.9166,37.62319]]}},{"type":"Feature","properties":{"class":"minor","highway":"residential","sidewalk":"unknown","lanes":0,"name":"","oneway":true},"geometry":{"type":"LineString","coordinates":[[126.91566,37.62919],[126.91541,37.62898],[126.9152,37.62876]]}},{"type":"Feature","properties":{"class":"minor","highway":"residential","sidewalk":"unknown","lanes":0,"name":"갈현로33길","oneway":false},"geometry":{"type":"LineString","coordinates":[[126.91287,37.62165],[126.91284,37.62162],[126.91277,37.62153],[126.91305,37.62138],[126.91322,37.62146],[126.9133,37.62153],[126.91332,37.62156]]}},{"type":"Feature","properties":{"class":"minor","highway":"residential","sidewalk":"unknown","lanes":0,"name":"갈현로","oneway":false},"geometry":{"type":"LineString","coordinates":[[126.91702,37.62405],[126.91751,37.62404],[126.91785,37.62402]]}},{"type":"Feature","properties":{"class":"minor","highway":"residential","sidewalk":"unknown","lanes":0,"name":"갈현로37길","oneway":false},"geometry":{"type":"LineString","coordinates":[[126.91592,37.62377],[126.91598,37.62371],[126.91631,37.62325],[126.91628,37.62319]]}},{"type":"Feature","properties":{"class":"alley","highway":"service","sidewalk":"unknown","lanes":0,"name":"","oneway":false},"geometry":{"type":"LineString","coordinates":[[126.91797,37.62662],[126.9181,37.62673],[126.91815,37.62674],[126.9182,37.62677],[126.91849,37.62702],[126.91849,37.62707]]}},{"type":"Feature","properties":{"class":"minor","highway":"residential","sidewalk":"unknown","lanes":0,"name":"","oneway":false},"geometry":{"type":"LineString","coordinates":[[126.92028,37.62832],[126.92023,37.62824],[126.92015,37.62815],[126.9201,37.62808],[126.92006,37.62797],[126.91999,37.62788],[126.9199,37.62779],[126.91984,37.62776],[126.91973,37.62772]]}},{"type":"Feature","properties":{"class":"minor","highway":"residential","sidewalk":"unknown","lanes":0,"name":"진관2로","oneway":false},"geometry":{"type":"LineString","coordinates":[[126.91885,37.63612],[126.91898,37.63611],[126.91928,37.63607],[126.9195,37.63599],[126.9197,37.63586],[126.91982,37.63574],[126.91999,37.63551],[126.92003,37.63543],[126.92032,37.63505],[126.92048,37.63483],[126.9206,37.63465]]}},{"type":"Feature","properties":{"class":"minor","highway":"residential","sidewalk":"unknown","lanes":0,"name":"","oneway":false},"geometry":{"type":"LineString","coordinates":[[126.917,37.62375],[126.91763,37.62374],[126.91781,37.62374]]}},{"type":"Feature","properties":{"class":"minor","highway":"residential","sidewalk":"unknown","lanes":0,"name":"","oneway":false},"geometry":{"type":"LineString","coordinates":[[126.91763,37.62374],[126.91763,37.62389],[126.91701,37.6239]]}},{"type":"Feature","properties":{"class":"minor","highway":"residential","sidewalk":"unknown","lanes":0,"name":"통일로87길","oneway":false},"geometry":{"type":"LineString","coordinates":[[126.91764,37.62204],[126.91751,37.6221],[126.91738,37.62212],[126.91735,37.62214]]}},{"type":"Feature","properties":{"class":"minor","highway":"residential","sidewalk":"unknown","lanes":0,"name":"통일로85길","oneway":false},"geometry":{"type":"LineString","coordinates":[[126.91972,37.6222],[126.91897,37.62218]]}},{"type":"Feature","properties":{"class":"major","highway":"primary","sidewalk":"likely","lanes":3,"name":"통일로","oneway":true},"geometry":{"type":"LineString","coordinates":[[126.91995,37.62334],[126.92008,37.62429],[126.9201,37.62447],[126.92017,37.62514],[126.92016,37.62524],[126.92017,37.6254],[126.92018,37.62551],[126.9202,37.62598]]}},{"type":"Feature","properties":{"class":"minor","highway":"residential","sidewalk":"unknown","lanes":0,"name":"통일로87길","oneway":false},"geometry":{"type":"LineString","coordinates":[[126.91735,37.62214],[126.91738,37.62217],[126.91741,37.62283]]}},{"type":"Feature","properties":{"class":"minor","highway":"residential","sidewalk":"unknown","lanes":0,"name":"통일로87길","oneway":false},"geometry":{"type":"LineString","coordinates":[[126.91735,37.62214],[126.91731,37.62216],[126.91722,37.62225],[126.91717,37.62238],[126.91717,37.62253],[126.91718,37.62266],[126.91714,37.62282],[126.91714,37.62286]]}},{"type":"Feature","properties":{"class":"minor","highway":"residential","sidewalk":"unknown","lanes":0,"name":"갈현로36길","oneway":false},"geometry":{"type":"LineString","coordinates":[[126.91766,37.62202],[126.91768,37.62181],[126.91769,37.62162]]}},{"type":"Feature","properties":{"class":"minor","highway":"residential","sidewalk":"unknown","lanes":0,"name":"통일로85길","oneway":false},"geometry":{"type":"LineString","coordinates":[[126.91776,37.62284],[126.91768,37.62207]]}},{"type":"Feature","properties":{"class":"minor","highway":"residential","sidewalk":"unknown","lanes":0,"name":"통일로87길","oneway":false},"geometry":{"type":"LineString","coordinates":[[126.91776,37.62284],[126.91806,37.62283]]}},{"type":"Feature","properties":{"class":"minor","highway":"residential","sidewalk":"unknown","lanes":0,"name":"통일로87길","oneway":false},"geometry":{"type":"LineString","coordinates":[[126.91785,37.62402],[126.91783,37.62388],[126.91781,37.62374],[126.9178,37.62358],[126.91779,37.6234],[126.91775,37.62312]]}},{"type":"Feature","properties":{"class":"minor","highway":"residential","sidewalk":"unknown","lanes":0,"name":"통일로87길","oneway":false},"geometry":{"type":"LineString","coordinates":[[126.91785,37.62402],[126.91814,37.62401],[126.91842,37.624],[126.9187,37.62399],[126.91916,37.62397]]}},{"type":"Feature","properties":{"class":"minor","highway":"residential","sidewalk":"unknown","lanes":0,"name":"통일로89길","oneway":false},"geometry":{"type":"LineString","coordinates":[[126.9172,37.62496],[126.91723,37.62494],[126.91731,37.62489],[126.9176,37.62474],[126.91769,37.6247],[126.91787,37.62465],[126.91795,37.62466],[126.9182,37.62465],[126.91847,37.62464],[126.91877,37.62463]]}},{"type":"Feature","properties":{"class":"minor","highway":"residential","sidewalk":"unknown","lanes":0,"name":"갈현로43길","oneway":false},"geometry":{"type":"LineString","coordinates":[[126.91636,37.62483],[126.91638,37.62484],[126.91643,37.62487],[126.91662,37.62495],[126.91673,37.62499],[126.91681,37.62502],[126.91699,37.62505],[126.91702,37.62504],[126.9172,37.62496]]}},{"type":"Feature","properties":{"class":"minor","highway":"residential","sidewalk":"unknown","lanes":0,"name":"","oneway":false},"geometry":{"type":"LineString","coordinates":[[126.91572,37.62425],[126.91573,37.62426]]}},{"type":"Feature","properties":{"class":"minor","highway":"residential","sidewalk":"unknown","lanes":0,"name":"갈현로41길","oneway":false},"geometry":{"type":"LineString","coordinates":[[126.91573,37.62426],[126.91583,37.62444]]}},{"type":"Feature","properties":{"class":"minor","highway":"residential","sidewalk":"unknown","lanes":0,"name":"갈현로41길","oneway":false},"geometry":{"type":"LineString","coordinates":[[126.91583,37.62444],[126.91595,37.62456],[126.91599,37.62459],[126.91601,37.6246]]}},{"type":"Feature","properties":{"class":"minor","highway":"residential","sidewalk":"unknown","lanes":0,"name":"통일로87길","oneway":false},"geometry":{"type":"LineString","coordinates":[[126.91775,37.62312],[126.91776,37.62284]]}},{"type":"Feature","properties":{"class":"minor","highway":"residential","sidewalk":"unknown","lanes":0,"name":"통일로87길","oneway":false},"geometry":{"type":"LineString","coordinates":[[126.91775,37.62312],[126.91862,37.62308]]}},{"type":"Feature","properties":{"class":"minor","highway":"residential","sidewalk":"unknown","lanes":0,"name":"통일로87길","oneway":false},"geometry":{"type":"LineString","coordinates":[[126.91741,37.62283],[126.91776,37.62284]]}},{"type":"Feature","properties":{"class":"minor","highway":"residential","sidewalk":"unknown","lanes":0,"name":"통일로87길","oneway":false},"geometry":{"type":"LineString","coordinates":[[126.91714,37.62286],[126.91714,37.62291],[126.91713,37.62316]]}},{"type":"Feature","properties":{"class":"minor","highway":"residential","sidewalk":"unknown","lanes":0,"name":"통일로87길","oneway":false},"geometry":{"type":"LineString","coordinates":[[126.91713,37.62316],[126.91712,37.62339],[126.91701,37.62346]]}},{"type":"Feature","properties":{"class":"minor","highway":"residential","sidewalk":"unknown","lanes":0,"name":"통일로87길","oneway":false},"geometry":{"type":"LineString","coordinates":[[126.91806,37.62283],[126.91832,37.62282]]}},{"type":"Feature","properties":{"class":"minor","highway":"residential","sidewalk":"unknown","lanes":0,"name":"통일로87길","oneway":false},"geometry":{"type":"LineString","coordinates":[[126.91832,37.62282],[126.91863,37.62281]]}},{"type":"Feature","properties":{"class":"minor","highway":"residential","sidewalk":"unknown","lanes":0,"name":"통일로87길","oneway":false},"geometry":{"type":"LineString","coordinates":[[126.91862,37.62308],[126.91862,37.62314],[126.91864,37.62321],[126.91865,37.62338]]}},{"type":"Feature","properties":{"class":"minor","highway":"residential","sidewalk":"unknown","lanes":0,"name":"통일로87길","oneway":false},"geometry":{"type":"LineString","coordinates":[[126.91863,37.62281],[126.91902,37.62279]]}},{"type":"Feature","properties":{"class":"minor","highway":"residential","sidewalk":"unknown","lanes":0,"name":"통일로85길","oneway":false},"geometry":{"type":"LineString","coordinates":[[126.91902,37.62279],[126.91897,37.62218]]}},{"type":"Feature","properties":{"class":"minor","highway":"residential","sidewalk":"unknown","lanes":0,"name":"통일로87길","oneway":false},"geometry":{"type":"LineString","coordinates":[[126.91911,37.62338],[126.91902,37.62279]]}},{"type":"Feature","properties":{"class":"minor","highway":"residential","sidewalk":"unknown","lanes":0,"name":"","oneway":false},"geometry":{"type":"LineString","coordinates":[[126.91867,37.62371],[126.91868,37.62379],[126.91868,37.62387],[126.9187,37.62399]]}},{"type":"Feature","properties":{"class":"minor","highway":"residential","sidewalk":"unknown","lanes":0,"name":"통일로85길","oneway":false},"geometry":{"type":"LineString","coordinates":[[126.91897,37.62218],[126.91862,37.62217]]}},{"type":"Feature","properties":{"class":"minor","highway":"residential","sidewalk":"unknown","lanes":0,"name":"통일로85길","oneway":false},"geometry":{"type":"LineString","coordinates":[[126.91897,37.62218],[126.91903,37.62182]]}},{"type":"Feature","properties":{"class":"minor","highway":"residential","sidewalk":"unknown","lanes":0,"name":"통일로85길","oneway":false},"geometry":{"type":"LineString","coordinates":[[126.91862,37.62217],[126.9186,37.62221],[126.91863,37.62281]]}},{"type":"Feature","properties":{"class":"minor","highway":"residential","sidewalk":"unknown","lanes":0,"name":"통일로85길","oneway":false},"geometry":{"type":"LineString","coordinates":[[126.91862,37.62217],[126.91828,37.62215]]}},{"type":"Feature","properties":{"class":"minor","highway":"residential","sidewalk":"unknown","lanes":0,"name":"통일로85길","oneway":false},"geometry":{"type":"LineString","coordinates":[[126.91828,37.62215],[126.91802,37.62214]]}},{"type":"Feature","properties":{"class":"minor","highway":"residential","sidewalk":"unknown","lanes":0,"name":"통일로85길","oneway":false},"geometry":{"type":"LineString","coordinates":[[126.91802,37.62214],[126.91775,37.62213],[126.91768,37.62207]]}},{"type":"Feature","properties":{"class":"minor","highway":"residential","sidewalk":"unknown","lanes":0,"name":"통일로85길","oneway":false},"geometry":{"type":"LineString","coordinates":[[126.91768,37.62207],[126.91766,37.62202]]}},{"type":"Feature","properties":{"class":"minor","highway":"residential","sidewalk":"unknown","lanes":0,"name":"통일로85길","oneway":false},"geometry":{"type":"LineString","coordinates":[[126.91768,37.62207],[126.91764,37.62204]]}},{"type":"Feature","properties":{"class":"minor","highway":"residential","sidewalk":"unknown","lanes":0,"name":"갈현로36길","oneway":false},"geometry":{"type":"LineString","coordinates":[[126.91769,37.62162],[126.91802,37.62165]]}},{"type":"Feature","properties":{"class":"minor","highway":"residential","sidewalk":"unknown","lanes":0,"name":"통일로83길","oneway":false},"geometry":{"type":"LineString","coordinates":[[126.91769,37.62162],[126.91774,37.6212],[126.91774,37.62109],[126.91775,37.62096],[126.91775,37.62078],[126.91782,37.62037]]}},{"type":"Feature","properties":{"class":"minor","highway":"residential","sidewalk":"unknown","lanes":0,"name":"갈현로36길","oneway":false},"geometry":{"type":"LineString","coordinates":[[126.91717,37.62155],[126.91723,37.62157],[126.9175,37.6216],[126.91769,37.62162]]}},{"type":"Feature","properties":{"class":"minor","highway":"residential","sidewalk":"unknown","lanes":0,"name":"갈현로36길","oneway":false},"geometry":{"type":"LineString","coordinates":[[126.91717,37.62155],[126.9172,37.6216],[126.91732,37.6221],[126.91735,37.62214]]}},{"type":"Feature","properties":{"class":"minor","highway":"residential","sidewalk":"unknown","lanes":0,"name":"갈현로36길","oneway":false},"geometry":{"type":"LineString","coordinates":[[126.91802,37.62165],[126.91822,37.6217]]}},{"type":"Feature","properties":{"class":"minor","highway":"residential","sidewalk":"unknown","lanes":0,"name":"갈현로36길","oneway":false},"geometry":{"type":"LineString","coordinates":[[126.91822,37.6217],[126.91837,37.62172]]}},{"type":"Feature","properties":{"class":"minor","highway":"residential","sidewalk":"unknown","lanes":0,"name":"갈현로36길","oneway":false},"geometry":{"type":"LineString","coordinates":[[126.91837,37.62172],[126.91866,37.62176]]}},{"type":"Feature","properties":{"class":"minor","highway":"residential","sidewalk":"unknown","lanes":0,"name":"갈현로36길","oneway":false},"geometry":{"type":"LineString","coordinates":[[126.91866,37.62176],[126.91903,37.62182]]}},{"type":"Feature","properties":{"class":"minor","highway":"residential","sidewalk":"unknown","lanes":0,"name":"통일로83길","oneway":false},"geometry":{"type":"LineString","coordinates":[[126.91912,37.6214],[126.9192,37.62098]]}},{"type":"Feature","properties":{"class":"minor","highway":"residential","sidewalk":"unknown","lanes":0,"name":"통일로83길","oneway":false},"geometry":{"type":"LineString","coordinates":[[126.91903,37.62182],[126.91912,37.6214]]}},{"type":"Feature","properties":{"class":"minor","highway":"residential","sidewalk":"unknown","lanes":0,"name":"갈현로41길","oneway":false},"geometry":{"type":"LineString","coordinates":[[126.91599,37.62459],[126.9164,37.62435],[126.91642,37.62435],[126.91643,37.62432],[126.91648,37.62425],[126.91651,37.62421],[126.91658,37.62414],[126.91666,37.62404],[126.91673,37.62393],[126.91673,37.6239],[126.91676,37.62387],[126.9169,37.62372]]}},{"type":"Feature","properties":{"class":"minor","highway":"residential","sidewalk":"unknown","lanes":0,"name":"통일로87길","oneway":false},"geometry":{"type":"LineString","coordinates":[[126.9169,37.62372],[126.91701,37.62346]]}},{"type":"Feature","properties":{"class":"minor","highway":"residential","sidewalk":"unknown","lanes":0,"name":"갈현로","oneway":false},"geometry":{"type":"LineString","coordinates":[[126.91827,37.62587],[126.91872,37.62555],[126.91878,37.62551]]}},{"type":"Feature","properties":{"class":"minor","highway":"residential","sidewalk":"unknown","lanes":0,"name":"통일로89길","oneway":false},"geometry":{"type":"LineString","coordinates":[[126.91878,37.62551],[126.91916,37.62523],[126.91928,37.62518]]}},{"type":"Feature","properties":{"class":"minor","highway":"residential","sidewalk":"unknown","lanes":0,"name":"통일로89길","oneway":false},"geometry":{"type":"LineString","coordinates":[[126.92002,37.62597],[126.91989,37.62596],[126.91943,37.62594],[126.91934,37.62591],[126.91929,37.62589],[126.91909,37.62576],[126.91878,37.62551],[126.91875,37.62548],[126.91843,37.62524],[126.91825,37.62509],[126.91797,37.62487],[126.91787,37.62465],[126.91784,37.62433],[126.91785,37.62402]]}},{"type":"Feature","properties":{"class":"minor","highway":"residential","sidewalk":"unknown","lanes":0,"name":"","oneway":false},"geometry":{"type":"LineString","coordinates":[[126.91401,37.62915],[126.91376,37.62893]]}},{"type":"Feature","properties":{"class":"minor","highway":"residential","sidewalk":"unknown","lanes":0,"name":"갈현로29길","oneway":false},"geometry":{"type":"LineString","coordinates":[[126.91545,37.61912],[126.91492,37.61931],[126.91468,37.61939],[126.91441,37.6195],[126.91425,37.61956],[126.91416,37.61962],[126.91394,37.61977],[126.91347,37.62007],[126.91315,37.62029],[126.91279,37.62063],[126.91267,37.62079],[126.9125,37.62102],[126.91232,37.62126],[126.91228,37.6213],[126.91211,37.6215],[126.91209,37.62153],[126.91177,37.62183],[126.91173,37.62186],[126.91162,37.62196],[126.9114,37.62239]]}},{"type":"Feature","properties":{"class":"minor","highway":"residential","sidewalk":"unknown","lanes":0,"name":"연서로29길","oneway":false},"geometry":{"type":"LineString","coordinates":[[126.91613,37.62018],[126.91661,37.61997],[126.91714,37.61976],[126.9176,37.61956],[126.91786,37.61946],[126.91798,37.61941],[126.91807,37.61936],[126.91859,37.61914],[126.91897,37.61897],[126.9194,37.6188],[126.91976,37.61865],[126.92001,37.61853],[126.92015,37.61846]]}},{"type":"Feature","properties":{"class":"minor","highway":"residential","sidewalk":"unknown","lanes":0,"name":"갈현로35길","oneway":false},"geometry":{"type":"LineString","coordinates":[[126.91538,37.62124],[126.91541,37.6213],[126.91557,37.6215],[126.91579,37.62178],[126.91595,37.62187],[126.91604,37.62192],[126.91634,37.6222]]}},{"type":"Feature","properties":{"class":"minor","highway":"residential","sidewalk":"unknown","lanes":0,"name":"갈현로35길","oneway":false},"geometry":{"type":"LineString","coordinates":[[126.91618,37.621],[126.91632,37.62157]]}},{"type":"Feature","properties":{"class":"minor","highway":"residential","sidewalk":"unknown","lanes":0,"name":"갈현로37길","oneway":false},"geometry":{"type":"LineString","coordinates":[[126.91632,37.62157],[126.91646,37.62218]]}},{"type":"Feature","properties":{"class":"minor","highway":"residential","sidewalk":"unknown","lanes":0,"name":"갈현로","oneway":false},"geometry":{"type":"LineString","coordinates":[[126.91628,37.62319],[126.9166,37.62319],[126.91697,37.62317]]}},{"type":"Feature","properties":{"class":"minor","highway":"residential","sidewalk":"unknown","lanes":0,"name":"갈현로39길","oneway":false},"geometry":{"type":"LineString","coordinates":[[126.91628,37.62319],[126.91626,37.62314]]}},{"type":"Feature","properties":{"class":"minor","highway":"residential","sidewalk":"unknown","lanes":0,"name":"갈현로29길","oneway":false},"geometry":{"type":"LineString","coordinates":[[126.91433,37.61823],[126.91435,37.61826],[126.91441,37.61846],[126.91449,37.61875],[126.91458,37.61904],[126.91468,37.61939],[126.91467,37.61946],[126.91469,37.61972],[126.91472,37.6201],[126.91473,37.62013]]}},{"type":"Feature","properties":{"class":"minor","highway":"residential","sidewalk":"unknown","lanes":0,"name":"갈현로31길","oneway":false},"geometry":{"type":"LineString","coordinates":[[126.91473,37.62013],[126.9149,37.62042],[126.91507,37.62071]]}},{"type":"Feature","properties":{"class":"minor","highway":"residential","sidewalk":"unknown","lanes":0,"name":"갈현로33길","oneway":false},"geometry":{"type":"LineString","coordinates":[[126.91507,37.62071],[126.91526,37.62103],[126.91538,37.62124]]}},{"type":"Feature","properties":{"class":"minor","highway":"residential","sidewalk":"unknown","lanes":0,"name":"갈현로33길","oneway":false},"geometry":{"type":"LineString","coordinates":[[126.91581,37.62032],[126.91615,37.62095],[126.91618,37.621]]}},{"type":"Feature","properties":{"class":"minor","highway":"residential","sidewalk":"unknown","lanes":0,"name":"갈현로31길","oneway":false},"geometry":{"type":"LineString","coordinates":[[126.91555,37.62046],[126.91551,37.62041],[126.91538,37.6202],[126.91523,37.61993]]}},{"type":"Feature","properties":{"class":"minor","highway":"residential","sidewalk":"unknown","lanes":0,"name":"갈현로29길","oneway":false},"geometry":{"type":"LineString","coordinates":[[126.91446,37.62024],[126.91416,37.61996],[126.91394,37.61977]]}},{"type":"Feature","properties":{"class":"minor","highway":"residential","sidewalk":"unknown","lanes":0,"name":"갈현로29길","oneway":false},"geometry":{"type":"LineString","coordinates":[[126.91356,37.62059],[126.91356,37.62054],[126.91347,37.62007]]}},{"type":"Feature","properties":{"class":"minor","highway":"residential","sidewalk":"unknown","lanes":0,"name":"갈현로45길","oneway":false},"geometry":{"type":"LineString","coordinates":[[126.91715,37.62807],[126.91709,37.62801],[126.91691,37.62791],[126.91662,37.62776]]}},{"type":"Feature","properties":{"class":"minor","highway":"residential","sidewalk":"unknown","lanes":0,"name":"갈현로","oneway":false},"geometry":{"type":"LineString","coordinates":[[126.91666,37.62436],[126.91696,37.62435],[126.91705,37.62435],[126.91752,37.62433]]}},{"type":"Feature","properties":{"class":"minor","highway":"residential","sidewalk":"unknown","lanes":0,"name":"통일로83길","oneway":false},"geometry":{"type":"LineString","coordinates":[[126.91716,37.62072],[126.91714,37.62152],[126.91717,37.62155]]}},{"type":"Feature","properties":{"class":"minor","highway":"residential","sidewalk":"unknown","lanes":0,"name":"연서로29길","oneway":false},"geometry":{"type":"LineString","coordinates":[[126.91782,37.62037],[126.9179,37.61995],[126.91798,37.61941]]}},{"type":"Feature","properties":{"class":"minor","highway":"residential","sidewalk":"unknown","lanes":0,"name":"연서로29길","oneway":false},"geometry":{"type":"LineString","coordinates":[[126.91782,37.62037],[126.91749,37.62031],[126.91714,37.61976]]}},{"type":"Feature","properties":{"class":"minor","highway":"residential","sidewalk":"unknown","lanes":0,"name":"통일로83길","oneway":false},"geometry":{"type":"LineString","coordinates":[[126.91871,37.62005],[126.91863,37.62048]]}},{"type":"Feature","properties":{"class":"minor","highway":"residential","sidewalk":"unknown","lanes":0,"name":"통일로","oneway":false},"geometry":{"type":"LineString","coordinates":[[126.91931,37.62057],[126.91941,37.62019],[126.91943,37.62009],[126.91965,37.6197],[126.91983,37.61944],[126.91995,37.61926]]}},{"type":"Feature","properties":{"class":"minor","highway":"residential","sidewalk":"unknown","lanes":0,"name":"연서로29길","oneway":false},"geometry":{"type":"LineString","coordinates":[[126.91786,37.61907],[126.9179,37.61912],[126.91803,37.61932],[126.91807,37.61936],[126.91812,37.6194],[126.91856,37.61966],[126.91888,37.61981],[126.91943,37.62009]]}},{"type":"Feature","properties":{"class":"minor","highway":"residential","sidewalk":"unknown","lanes":1,"name":"진관3로","oneway":true},"geometry":{"type":"LineString","coordinates":[[126.91859,37.63978],[126.91868,37.63987],[126.9186,37.64078],[126.91854,37.64149],[126.91852,37.64187],[126.91851,37.64195],[126.91851,37.64268],[126.91852,37.64298],[126.91852,37.64303],[126.91853,37.64309],[126.91862,37.64371],[126.91864,37.64384],[126.91873,37.64441],[126.91876,37.64464],[126.91878,37.64476],[126.91879,37.64485]]}},{"type":"Feature","properties":{"class":"minor","highway":"residential","sidewalk":"unknown","lanes":1,"name":"진관3로","oneway":true},"geometry":{"type":"LineString","coordinates":[[126.91857,37.64485],[126.91856,37.64474],[126.91854,37.64464],[126.91851,37.64442],[126.91845,37.64384],[126.91843,37.64372],[126.91836,37.64309],[126.91835,37.64303],[126.91835,37.64298],[126.91833,37.64268],[126.91833,37.64254],[126.91834,37.64195],[126.91834,37.64193],[126.91835,37.64148],[126.91845,37.64032],[126.91849,37.63984],[126.91859,37.63978]]}},{"type":"Feature","properties":{"class":"minor","highway":"residential","sidewalk":"unknown","lanes":0,"name":"통일로","oneway":false},"geometry":{"type":"LineString","coordinates":[[126.91699,37.63448],[126.91686,37.63447],[126.91631,37.63444],[126.9156,37.63441],[126.91547,37.6344],[126.91488,37.6344],[126.91459,37.63439],[126.91413,37.63436],[126.91334,37.63421],[126.91306,37.63423],[126.91275,37.63433],[126.91244,37.63467],[126.91235,37.63474]]}},{"type":"Feature","properties":{"class":"minor","highway":"residential","sidewalk":"unknown","lanes":2,"name":"진관1로","oneway":false},"geometry":{"type":"LineString","coordinates":[[126.92166,37.63129],[126.92161,37.63136],[126.92094,37.63228],[126.92092,37.63232],[126.92089,37.63236],[126.92081,37.63248],[126.92076,37.63254],[126.92071,37.63261],[126.92066,37.63267],[126.92049,37.6328],[126.92029,37.6329],[126.9197,37.63316],[126.9194,37.63333],[126.91933,37.63338],[126.91925,37.63345],[126.91922,37.6335],[126.9191,37.63364],[126.91901,37.63379],[126.91896,37.63405],[126.91894,37.63432],[126.91893,37.63448],[126.91892,37.63457]]}},{"type":"Feature","properties":{"class":"minor","highway":"residential","sidewalk":"unknown","lanes":0,"name":"통일로","oneway":false},"geometry":{"type":"LineString","coordinates":[[126.9166,37.63901],[126.91648,37.639],[126.91614,37.63898],[126.91524,37.63893],[126.91519,37.6389],[126.91508,37.63885],[126.91506,37.63883],[126.91481,37.63853],[126.91433,37.63804],[126.91402,37.63787],[126.91352,37.63773],[126.91325,37.6377],[126.91279,37.6375],[126.91258,37.63741],[126.9121,37.63717]]}},{"type":"Feature","properties":{"class":"alley","highway":"service","sidewalk":"unknown","lanes":0,"name":"","oneway":false},"geometry":{"type":"LineString","coordinates":[[126.91352,37.63773],[126.91372,37.63758],[126.91381,37.63751]]}},{"type":"Feature","properties":{"class":"alley","highway":"service","sidewalk":"unknown","lanes":0,"name":"","oneway":false},"geometry":{"type":"LineString","coordinates":[[126.91258,37.63741],[126.91288,37.63743],[126.91336,37.63746],[126.91347,37.63745],[126.91354,37.63745]]}},{"type":"Feature","properties":{"class":"alley","highway":"service","sidewalk":"unknown","lanes":0,"name":"","oneway":false},"geometry":{"type":"LineString","coordinates":[[126.91508,37.63885],[126.91491,37.63915]]}},{"type":"Feature","properties":{"class":"alley","highway":"service","sidewalk":"unknown","lanes":0,"name":"","oneway":false},"geometry":{"type":"LineString","coordinates":[[126.91614,37.63898],[126.91617,37.63872]]}},{"type":"Feature","properties":{"class":"minor","highway":"residential","sidewalk":"unknown","lanes":0,"name":"","oneway":false},"geometry":{"type":"LineString","coordinates":[[126.91812,37.63453],[126.91812,37.63444],[126.91814,37.63406],[126.91815,37.63382],[126.91816,37.63345],[126.91827,37.63334],[126.91848,37.63334],[126.91901,37.63335],[126.91907,37.63337],[126.91918,37.63342],[126.91925,37.63345]]}},{"type":"Feature","properties":{"class":"alley","highway":"service","sidewalk":"unknown","lanes":0,"name":"","oneway":false},"geometry":{"type":"LineString","coordinates":[[126.91984,37.63189],[126.92086,37.63229],[126.92088,37.6323],[126.92092,37.63232]]}},{"type":"Feature","properties":{"class":"alley","highway":"service","sidewalk":"unknown","lanes":0,"name":"","oneway":false},"geometry":{"type":"LineString","coordinates":[[126.91982,37.63291],[126.91979,37.63266],[126.91982,37.63259],[126.91984,37.63251],[126.91983,37.63243],[126.91981,37.63235],[126.91981,37.63225],[126.91985,37.63216],[126.91989,37.63205],[126.91988,37.63197],[126.91984,37.63189]]}},{"type":"Feature","properties":{"class":"alley","highway":"service","sidewalk":"unknown","lanes":0,"name":"","oneway":false},"geometry":{"type":"LineString","coordinates":[[126.91933,37.63338],[126.91938,37.6334],[126.91941,37.63342],[126.91973,37.63357],[126.92009,37.63375],[126.92027,37.63383],[126.92052,37.63391],[126.92081,37.63387],[126.92112,37.63379],[126.92134,37.63368],[126.92145,37.63355],[126.92168,37.63321],[126.92195,37.63284],[126.92198,37.6328]]}},{"type":"Feature","properties":{"class":"minor","highway":"residential","sidewalk":"unknown","lanes":0,"name":"통일로87길","oneway":false},"geometry":{"type":"LineString","coordinates":[[126.91911,37.62338],[126.91981,37.62335]]}},{"type":"Feature","properties":{"class":"major","highway":"primary","sidewalk":"likely","lanes":3,"name":"통일로","oneway":true},"geometry":{"type":"LineString","coordinates":[[126.92002,37.62597],[126.92001,37.62575],[126.91999,37.62548],[126.91994,37.62511],[126.91988,37.62459],[126.91988,37.62431],[126.91986,37.62411],[126.91982,37.62355],[126.91981,37.62335]]}},{"type":"Feature","properties":{"class":"minor","highway":"residential","sidewalk":"unknown","lanes":0,"name":"갈현로45길","oneway":false},"geometry":{"type":"LineString","coordinates":[[126.91401,37.62915],[126.91433,37.62894],[126.91461,37.62874],[126.91492,37.62853]]}},{"type":"Feature","properties":{"class":"major","highway":"secondary","sidewalk":"likely","lanes":0,"name":"갈현로","oneway":false},"geometry":{"type":"LineString","coordinates":[[126.91827,37.62587],[126.91795,37.6256],[126.91778,37.62545],[126.91737,37.62511],[126.91723,37.62494],[126.91718,37.62488],[126.9171,37.62473],[126.91705,37.62435],[126.91703,37.6242],[126.91702,37.62405],[126.91701,37.6239],[126.917,37.62375],[126.91701,37.62346]]}},{"type":"Feature","properties":{"class":"major","highway":"secondary","sidewalk":"likely","lanes":0,"name":"갈현로","oneway":false},"geometry":{"type":"LineString","coordinates":[[126.91701,37.62346],[126.91697,37.62317],[126.91694,37.62292],[126.91691,37.62266],[126.91686,37.6223],[126.91682,37.62214],[126.91676,37.62188],[126.91671,37.62163],[126.91668,37.62151],[126.91661,37.62118],[126.91652,37.62092],[126.91645,37.62074],[126.9162,37.62028],[126.91613,37.62018],[126.91581,37.6197],[126.91571,37.61955],[126.91562,37.61942],[126.91556,37.61932],[126.91545,37.61912],[126.91527,37.61887],[126.91524,37.61883],[126.91523,37.61881],[126.91512,37.61862],[126.91511,37.61856],[126.9151,37.61846],[126.91508,37.61831],[126.91506,37.61816],[126.91506,37.61805],[126.91505,37.61774],[126.91504,37.61753],[126.91504,37.61744],[126.91503,37.61729],[126.91503,37.61728],[126.91499,37.61717],[126.91497,37.61715],[126.91483,37.61694],[126.91475,37.61687],[126.91464,37.61676],[126.91462,37.61674],[126.91427,37.61644],[126.91399,37.61619],[126.9137,37.61594]]}},{"type":"Feature","properties":{"class":"minor","highway":"residential","sidewalk":"unknown","lanes":0,"name":"통일로87길","oneway":false},"geometry":{"type":"LineString","coordinates":[[126.91701,37.62346],[126.91706,37.62346],[126.91779,37.6234],[126.91865,37.62338],[126.91911,37.62338]]}},{"type":"Feature","properties":{"class":"major","highway":"secondary","sidewalk":"likely","lanes":0,"name":"갈현로","oneway":false},"geometry":{"type":"LineString","coordinates":[[126.91913,37.62661],[126.91893,37.62646],[126.91877,37.62631],[126.91858,37.62615],[126.9184,37.62599],[126.91827,37.62587]]}},{"type":"Feature","properties":{"class":"minor","highway":"residential","sidewalk":"unknown","lanes":0,"name":"통일로89길","oneway":false},"geometry":{"type":"LineString","coordinates":[[126.91934,37.62591],[126.91934,37.62581],[126.91928,37.62518],[126.91926,37.62501],[126.91922,37.62461]]}},{"type":"Feature","properties":{"class":"minor","highway":"residential","sidewalk":"unknown","lanes":0,"name":"갈현로47길","oneway":true},"geometry":{"type":"LineString","coordinates":[[126.91913,37.62661],[126.91878,37.62687],[126.91849,37.62707],[126.91816,37.6273],[126.91784,37.62753],[126.9172,37.628],[126.91717,37.62804],[126.91715,37.62807],[126.91711,37.62811],[126.91697,37.62828],[126.91647,37.62863],[126.91599,37.62897],[126.91566,37.62919]]}},{"type":"Feature","properties":{"class":"minor","highway":"residential","sidewalk":"unknown","lanes":0,"name":"갈현로47길","oneway":false},"geometry":{"type":"LineString","coordinates":[[126.91566,37.62919],[126.91586,37.62938],[126.9159,37.62941],[126.91619,37.62968]]}},{"type":"Feature","properties":{"class":"minor","highway":"residential","sidewalk":"unknown","lanes":0,"name":"갈현로45길","oneway":false},"geometry":{"type":"LineString","coordinates":[[126.91492,37.62853],[126.91528,37.62829],[126.91577,37.62796],[126.91629,37.6276],[126.9163,37.62759],[126.91631,37.62758],[126.91633,37.62756],[126.91673,37.6271],[126.91704,37.62674],[126.91707,37.62668],[126.91709,37.62663],[126.91712,37.62654],[126.91716,37.6264],[126.91718,37.62634],[126.91725,37.62631],[126.91735,37.62628],[126.91749,37.62623],[126.91762,37.62618],[126.91768,37.62616],[126.91771,37.62615],[126.91792,37.62606],[126.91801,37.62602],[126.91819,37.62592],[126.91827,37.62587]]}},{"type":"Feature","properties":{"class":"minor","highway":"residential","sidewalk":"unknown","lanes":0,"name":"갈현로29길","oneway":false},"geometry":{"type":"LineString","coordinates":[[126.9114,37.62239],[126.91141,37.62255],[126.91126,37.62274],[126.91031,37.62351]]}},{"type":"Feature","properties":{"class":"major","highway":"primary","sidewalk":"likely","lanes":3,"name":"통일로","oneway":true},"geometry":{"type":"LineString","coordinates":[[126.91981,37.62335],[126.91974,37.62265],[126.91972,37.6222],[126.91973,37.62209],[126.91982,37.62165],[126.91996,37.62109]]}},{"type":"Feature","properties":{"class":"minor","highway":"residential","sidewalk":"unknown","lanes":0,"name":"통일로83길","oneway":false},"geometry":{"type":"LineString","coordinates":[[126.9192,37.62098],[126.91996,37.62109]]}},{"type":"Feature","properties":{"class":"minor","highway":"residential","sidewalk":"unknown","lanes":0,"name":"통일로83길","oneway":false},"geometry":{"type":"LineString","coordinates":[[126.9192,37.62098],[126.91926,37.62076],[126.91931,37.62057]]}},{"type":"Feature","properties":{"class":"major","highway":"tertiary","sidewalk":"likely","lanes":2,"name":"진관2로","oneway":false},"geometry":{"type":"LineString","coordinates":[[126.91699,37.63448],[126.91703,37.63448],[126.91706,37.63448],[126.91709,37.63449],[126.91715,37.63449]]}},{"type":"Feature","properties":{"class":"major","highway":"tertiary","sidewalk":"likely","lanes":4,"name":"진관3로","oneway":false},"geometry":{"type":"LineString","coordinates":[[126.9166,37.63901],[126.91669,37.63902],[126.91677,37.63903],[126.91684,37.63903]]}},{"type":"Feature","properties":{"class":"alley","highway":"service","sidewalk":"unknown","lanes":0,"name":"","oneway":false},"geometry":{"type":"LineString","coordinates":[[126.9167,37.64264],[126.91641,37.64254],[126.91577,37.64234],[126.91601,37.6418],[126.91616,37.64143],[126.91622,37.64129],[126.91643,37.64078],[126.91668,37.64021],[126.91686,37.63976]]}},{"type":"Feature","properties":{"class":"minor","highway":"residential","sidewalk":"unknown","lanes":2,"name":"진관3로","oneway":false},"geometry":{"type":"LineString","coordinates":[[126.92034,37.64094],[126.92029,37.64089],[126.91982,37.6404],[126.91951,37.64008],[126.91945,37.64003],[126.91931,37.63991],[126.91909,37.63981],[126.91871,37.63979],[126.91859,37.63978]]}},{"type":"Feature","properties":{"class":"minor","highway":"residential","sidewalk":"unknown","lanes":0,"name":"","oneway":false},"geometry":{"type":"LineString","coordinates":[[126.91944,37.63912],[126.91944,37.63907],[126.91946,37.63875],[126.91934,37.63842]]}},{"type":"Feature","properties":{"class":"major","highway":"tertiary","sidewalk":"likely","lanes":4,"name":"옥방아다리","oneway":false},"geometry":{"type":"LineString","coordinates":[[126.91891,37.63496],[126.9189,37.6351]]}},{"type":"Feature","properties":{"class":"major","highway":"tertiary","sidewalk":"likely","lanes":4,"name":"진관2로","oneway":false},"geometry":{"type":"LineString","coordinates":[[126.91892,37.63457],[126.91892,37.63466],[126.91891,37.63496]]}},{"type":"Feature","properties":{"class":"major","highway":"tertiary","sidewalk":"likely","lanes":4,"name":"금방아다리","oneway":false},"geometry":{"type":"LineString","coordinates":[[126.91779,37.63908],[126.91792,37.63908],[126.91807,37.63908]]}},{"type":"Feature","properties":{"class":"minor","highway":"residential","sidewalk":"unknown","lanes":2,"name":"","oneway":false},"geometry":{"type":"LineString","coordinates":[[126.91769,37.63978],[126.91783,37.63978],[126.91798,37.63978]]}},{"type":"Feature","properties":{"class":"minor","highway":"residential","sidewalk":"unknown","lanes":2,"name":"진관3로","oneway":false},"geometry":{"type":"LineString","coordinates":[[126.91798,37.63978],[126.91846,37.63978],[126.91859,37.63978]]}},{"type":"Feature","properties":{"class":"major","highway":"tertiary","sidewalk":"likely","lanes":4,"name":"진관3로","oneway":false},"geometry":{"type":"LineString","coordinates":[[126.91807,37.63908],[126.91824,37.63909],[126.91854,37.6391],[126.91864,37.6391]]}},{"type":"Feature","properties":{"class":"major","highway":"tertiary","sidewalk":"likely","lanes":4,"name":"진관2로","oneway":false},"geometry":{"type":"LineString","coordinates":[[126.91892,37.63457],[126.91902,37.63457],[126.92006,37.63463],[126.92015,37.63464],[126.92022,37.63464]]}},{"type":"Feature","properties":{"class":"minor","highway":"residential","sidewalk":"unknown","lanes":4,"name":"진관3로","oneway":false},"geometry":{"type":"LineString","coordinates":[[126.91864,37.6391],[126.91864,37.63916],[126.91859,37.63973],[126.91859,37.63978]]}},{"type":"Feature","properties":{"class":"major","highway":"primary","sidewalk":"likely","lanes":3,"name":"통일로","oneway":true},"geometry":{"type":"LineString","coordinates":[[126.91454,37.64318],[126.91466,37.6431],[126.91476,37.64299],[126.91479,37.64297],[126.91501,37.64276],[126.91523,37.64244],[126.91546,37.64189],[126.91573,37.64124],[126.91585,37.64091],[126.91606,37.64043],[126.91642,37.63977],[126.91658,37.63921],[126.9166,37.63901]]}},{"type":"Feature","properties":{"class":"major","highway":"primary","sidewalk":"likely","lanes":3,"name":"통일로","oneway":true},"geometry":{"type":"LineString","coordinates":[[126.91933,37.63047],[126.91933,37.63073],[126.91929,37.63098],[126.91919,37.63125],[126.91905,37.63152],[126.91899,37.63165],[126.91883,37.63192],[126.91857,37.63224],[126.91823,37.63255],[126.91763,37.63316],[126.91743,37.63342],[126.91732,37.63356],[126.91724,37.63372],[126.91716,37.63408],[126.91715,37.63435],[126.91715,37.63449]]}},{"type":"Feature","properties":{"class":"major","highway":"primary","sidewalk":"likely","lanes":3,"name":"통일로","oneway":true},"geometry":{"type":"LineString","coordinates":[[126.91927,37.6287],[126.91936,37.62835],[126.91944,37.62803],[126.91974,37.62709],[126.91981,37.62686]]}},{"type":"Feature","properties":{"class":"major","highway":"secondary","sidewalk":"likely","lanes":2,"name":"진관1로","oneway":false},"geometry":{"type":"LineString","coordinates":[[126.91933,37.63047],[126.91955,37.6305],[126.9202,37.63061],[126.92075,37.63081],[126.92161,37.63127],[126.92166,37.63129],[126.92172,37.63131],[126.92211,37.63144],[126.92264,37.63153],[126.9231,37.63155],[126.9237,37.63156],[126.92413,37.63156],[126.92421,37.63156],[126.92607,37.63155],[126.92615,37.63155],[126.92653,37.63152],[126.92689,37.63146],[126.92718,37.63138],[126.92748,37.63125],[126.92783,37.63104],[126.92787,37.63101],[126.92867,37.63024],[126.92895,37.63],[126.92923,37.62985]]}},{"type":"Feature","properties":{"class":"major","highway":"tertiary","sidewalk":"likely","lanes":4,"name":"진관2로","oneway":false},"geometry":{"type":"LineString","coordinates":[[126.91874,37.63784],[126.91872,37.63809],[126.9187,37.63841],[126.91864,37.63905],[126.91864,37.6391]]}},{"type":"Feature","properties":{"class":"major","highway":"tertiary","sidewalk":"likely","lanes":4,"name":"진관2로","oneway":false},"geometry":{"type":"LineString","coordinates":[[126.91882,37.63656],[126.91877,37.63729],[126.91876,37.6375],[126.91874,37.63784]]}},{"type":"Feature","properties":{"class":"alley","highway":"service","sidewalk":"unknown","lanes":0,"name":"","oneway":false},"geometry":{"type":"LineString","coordinates":[[126.91987,37.63176],[126.91951,37.63166]]}},{"type":"Feature","properties":{"class":"alley","highway":"service","sidewalk":"unknown","lanes":0,"name":"","oneway":false},"geometry":{"type":"LineString","coordinates":[[126.91981,37.63225],[126.91946,37.63216]]}},{"type":"Feature","properties":{"class":"alley","highway":"service","sidewalk":"unknown","lanes":0,"name":"","oneway":false},"geometry":{"type":"LineString","coordinates":[[126.91981,37.63235],[126.91993,37.63241],[126.92031,37.63257]]}},{"type":"Feature","properties":{"class":"alley","highway":"service","sidewalk":"unknown","lanes":0,"name":"","oneway":false},"geometry":{"type":"LineString","coordinates":[[126.91979,37.63266],[126.91943,37.63265]]}},{"type":"Feature","properties":{"class":"alley","highway":"service","sidewalk":"unknown","lanes":0,"name":"","oneway":false},"geometry":{"type":"LineString","coordinates":[[126.91984,37.63189],[126.91987,37.63176],[126.91993,37.6317],[126.91995,37.63162],[126.91996,37.63155],[126.92,37.63148],[126.92005,37.63143]]}},{"type":"Feature","properties":{"class":"alley","highway":"service","sidewalk":"unknown","lanes":0,"name":"","oneway":false},"geometry":{"type":"LineString","coordinates":[[126.92027,37.63383],[126.92016,37.63394],[126.92007,37.63398],[126.91992,37.63402],[126.91976,37.63401],[126.91939,37.63384]]}},{"type":"Feature","properties":{"class":"minor","highway":"residential","sidewalk":"unknown","lanes":2,"name":"진관3로","oneway":false},"geometry":{"type":"LineString","coordinates":[[126.91686,37.63976],[126.91699,37.63976],[126.91763,37.63978],[126.91769,37.63978]]}},{"type":"Feature","properties":{"class":"alley","highway":"service","sidewalk":"unknown","lanes":0,"name":"","oneway":false},"geometry":{"type":"LineString","coordinates":[[126.91973,37.63357],[126.9198,37.63346],[126.92017,37.63364],[126.92009,37.63375]]}},{"type":"Feature","properties":{"class":"alley","highway":"service","sidewalk":"unknown","lanes":0,"name":"","oneway":false},"geometry":{"type":"LineString","coordinates":[[126.91993,37.63241],[126.91998,37.63233]]}},{"type":"Feature","properties":{"class":"alley","highway":"service","sidewalk":"unknown","lanes":0,"name":"","oneway":false},"geometry":{"type":"LineString","coordinates":[[126.91547,37.6344],[126.91547,37.63435]]}},{"type":"Feature","properties":{"class":"alley","highway":"service","sidewalk":"unknown","lanes":0,"name":"","oneway":false},"geometry":{"type":"LineString","coordinates":[[126.91547,37.63435],[126.91546,37.63421],[126.91545,37.63414]]}},{"type":"Feature","properties":{"class":"minor","highway":"residential","sidewalk":"unknown","lanes":0,"name":"서오릉로","oneway":false},"geometry":{"type":"LineString","coordinates":[[126.89597,37.62593],[126.89615,37.62594],[126.89665,37.62595],[126.89738,37.62599],[126.89762,37.62589],[126.8978,37.62573],[126.89805,37.62525],[126.89825,37.62506],[126.89856,37.62478],[126.899,37.62431],[126.89994,37.62384],[126.90023,37.62362],[126.9006,37.62285],[126.90079,37.62249]]}},{"type":"Feature","properties":{"class":"minor","highway":"residential","sidewalk":"unknown","lanes":0,"name":"서오릉로","oneway":false},"geometry":{"type":"LineString","coordinates":[[126.8978,37.62573],[126.89845,37.62613],[126.89884,37.6262],[126.90053,37.62627]]}},{"type":"Feature","properties":{"class":"major","highway":"primary","sidewalk":"likely","lanes":6,"name":"서오릉로","oneway":false},"geometry":{"type":"LineString","coordinates":[[126.90487,37.61968],[126.90442,37.61987],[126.9041,37.61998],[126.90397,37.62003],[126.90312,37.62034],[126.90301,37.62039],[126.90293,37.62043]]}},{"type":"Feature","properties":{"class":"minor","highway":"residential","sidewalk":"unknown","lanes":0,"name":"갈현로37길","oneway":false},"geometry":{"type":"LineString","coordinates":[[126.91584,37.62378],[126.91592,37.62377]]}},{"type":"Feature","properties":{"class":"minor","highway":"residential","sidewalk":"unknown","lanes":0,"name":"","oneway":false},"geometry":{"type":"LineString","coordinates":[[126.91996,37.62169],[126.92028,37.62176]]}},{"type":"Feature","properties":{"class":"minor","highway":"residential","sidewalk":"unknown","lanes":0,"name":"갈현로27길","oneway":false},"geometry":{"type":"LineString","coordinates":[[126.91099,37.6201],[126.91067,37.61972]]}},{"type":"Feature","properties":{"class":"minor","highway":"residential","sidewalk":"unknown","lanes":0,"name":"갈현로45길","oneway":false},"geometry":{"type":"LineString","coordinates":[[126.91425,37.62938],[126.91401,37.62915]]}},{"type":"Feature","properties":{"class":"minor","highway":"residential","sidewalk":"unknown","lanes":0,"name":"갈현로45길","oneway":false},"geometry":{"type":"LineString","coordinates":[[126.91433,37.62894],[126.9146,37.62917]]}},{"type":"Feature","properties":{"class":"minor","highway":"residential","sidewalk":"unknown","lanes":0,"name":"","oneway":false},"geometry":{"type":"LineString","coordinates":[[126.91354,37.62872],[126.91376,37.62893]]}},{"type":"Feature","properties":{"class":"alley","highway":"service","sidewalk":"unknown","lanes":0,"name":"갈현로47길","oneway":false},"geometry":{"type":"LineString","coordinates":[[126.91668,37.62974],[126.91652,37.62976],[126.91635,37.62975],[126.91623,37.62972],[126.91619,37.62968]]}},{"type":"Feature","properties":{"class":"minor","highway":"residential","sidewalk":"unknown","lanes":0,"name":"갈현로45길","oneway":true},"geometry":{"type":"LineString","coordinates":[[126.9152,37.62876],[126.91492,37.62853]]}},{"type":"Feature","properties":{"class":"minor","highway":"residential","sidewalk":"unknown","lanes":0,"name":"갈현로45길","oneway":false},"geometry":{"type":"LineString","coordinates":[[126.91528,37.62829],[126.91555,37.62854]]}},{"type":"Feature","properties":{"class":"minor","highway":"residential","sidewalk":"unknown","lanes":0,"name":"","oneway":false},"geometry":{"type":"LineString","coordinates":[[126.91669,37.62885],[126.91673,37.62882],[126.91691,37.62875],[126.91695,37.62877]]}},{"type":"Feature","properties":{"class":"minor","highway":"residential","sidewalk":"unknown","lanes":0,"name":"갈현로47길","oneway":false},"geometry":{"type":"LineString","coordinates":[[126.91647,37.62863],[126.91669,37.62885]]}},{"type":"Feature","properties":{"class":"minor","highway":"residential","sidewalk":"unknown","lanes":0,"name":"","oneway":false},"geometry":{"type":"LineString","coordinates":[[126.91603,37.6282],[126.91624,37.62842],[126.91647,37.62863]]}},{"type":"Feature","properties":{"class":"minor","highway":"residential","sidewalk":"unknown","lanes":0,"name":"","oneway":false},"geometry":{"type":"LineString","coordinates":[[126.91555,37.62854],[126.91577,37.62875],[126.91599,37.62897]]}},{"type":"Feature","properties":{"class":"minor","highway":"residential","sidewalk":"unknown","lanes":0,"name":"갈현로45길","oneway":false},"geometry":{"type":"LineString","coordinates":[[126.91702,37.62726],[126.91673,37.6271]]}},{"type":"Feature","properties":{"class":"minor","highway":"residential","sidewalk":"unknown","lanes":0,"name":"","oneway":false},"geometry":{"type":"LineString","coordinates":[[126.91739,37.62746],[126.9173,37.62741]]}},{"type":"Feature","properties":{"class":"minor","highway":"residential","sidewalk":"unknown","lanes":0,"name":"","oneway":false},"geometry":{"type":"LineString","coordinates":[[126.91744,37.62678],[126.91746,37.62677],[126.91751,37.6267]]}},{"type":"Feature","properties":{"class":"minor","highway":"residential","sidewalk":"unknown","lanes":0,"name":"갈현로","oneway":false},"geometry":{"type":"LineString","coordinates":[[126.91913,37.62661],[126.91919,37.62653],[126.91934,37.62591]]}},{"type":"Feature","properties":{"class":"minor","highway":"residential","sidewalk":"unknown","lanes":0,"name":"통일로89길","oneway":false},"geometry":{"type":"LineString","coordinates":[[126.91922,37.62461],[126.91916,37.62397]]}},{"type":"Feature","properties":{"class":"minor","highway":"residential","sidewalk":"unknown","lanes":0,"name":"갈현로47길","oneway":false},"geometry":{"type":"LineString","coordinates":[[126.91916,37.62397],[126.91911,37.62338]]}},{"type":"Feature","properties":{"class":"minor","highway":"residential","sidewalk":"unknown","lanes":0,"name":"","oneway":false},"geometry":{"type":"LineString","coordinates":[[126.91946,37.62356],[126.91982,37.62355]]}},{"type":"Feature","properties":{"class":"minor","highway":"residential","sidewalk":"unknown","lanes":0,"name":"통일로89길","oneway":false},"geometry":{"type":"LineString","coordinates":[[126.9187,37.62399],[126.91877,37.62463]]}},{"type":"Feature","properties":{"class":"minor","highway":"residential","sidewalk":"unknown","lanes":0,"name":"통일로87길","oneway":false},"geometry":{"type":"LineString","coordinates":[[126.91865,37.62338],[126.91865,37.62349],[126.91866,37.62359],[126.91867,37.62371]]}},{"type":"Feature","properties":{"class":"minor","highway":"residential","sidewalk":"unknown","lanes":0,"name":"","oneway":false},"geometry":{"type":"LineString","coordinates":[[126.91863,37.62281],[126.91862,37.62308]]}},{"type":"Feature","properties":{"class":"alley","highway":"service","sidewalk":"unknown","lanes":0,"name":"갈현로47길","oneway":false},"geometry":{"type":"LineString","coordinates":[[126.91849,37.62707],[126.91853,37.62712],[126.91902,37.62757]]}},{"type":"Feature","properties":{"class":"minor","highway":"residential","sidewalk":"unknown","lanes":0,"name":"","oneway":false},"geometry":{"type":"LineString","coordinates":[[126.91632,37.6248],[126.91636,37.62483]]}},{"type":"Feature","properties":{"class":"minor","highway":"residential","sidewalk":"unknown","lanes":0,"name":"갈현로43길","oneway":false},"geometry":{"type":"LineString","coordinates":[[126.91601,37.6246],[126.91632,37.6248]]}},{"type":"Feature","properties":{"class":"minor","highway":"residential","sidewalk":"unknown","lanes":0,"name":"","oneway":false},"geometry":{"type":"LineString","coordinates":[[126.91642,37.62435],[126.91644,37.62438],[126.91666,37.62436]]}},{"type":"Feature","properties":{"class":"minor","highway":"residential","sidewalk":"unknown","lanes":0,"name":"","oneway":false},"geometry":{"type":"LineString","coordinates":[[126.91752,37.6212],[126.91774,37.6212]]}},{"type":"Feature","properties":{"class":"alley","highway":"service","sidewalk":"unknown","lanes":0,"name":"통일로83길","oneway":false},"geometry":{"type":"LineString","coordinates":[[126.91804,37.62125],[126.91813,37.62083]]}},{"type":"Feature","properties":{"class":"alley","highway":"service","sidewalk":"unknown","lanes":0,"name":"","oneway":false},"geometry":{"type":"LineString","coordinates":[[126.91486,37.63422],[126.91481,37.63392],[126.91477,37.63384],[126.91474,37.63381],[126.91468,37.63379],[126.91454,37.63378],[126.91406,37.63379],[126.91223,37.63381],[126.91218,37.63381],[126.91215,37.63379],[126.91215,37.63332],[126.91214,37.63326],[126.91211,37.63322],[126.91202,37.63316],[126.91195,37.63315],[126.91166,37.63318],[126.91139,37.63322]]}},{"type":"Feature","properties":{"class":"alley","highway":"service","sidewalk":"unknown","lanes":0,"name":"","oneway":false},"geometry":{"type":"LineString","coordinates":[[126.91488,37.63432],[126.91486,37.63422]]}},{"type":"Feature","properties":{"class":"alley","highway":"service","sidewalk":"unknown","lanes":0,"name":"","oneway":false},"geometry":{"type":"LineString","coordinates":[[126.91488,37.6344],[126.91488,37.63432]]}},{"type":"Feature","properties":{"class":"alley","highway":"service","sidewalk":"unknown","lanes":0,"name":"","oneway":true},"geometry":{"type":"LineString","coordinates":[[126.91872,37.63809],[126.91855,37.63789],[126.91852,37.63785],[126.91848,37.63777],[126.91849,37.63754],[126.9185,37.63735],[126.91852,37.63689],[126.91853,37.63684],[126.91862,37.63675],[126.91871,37.63668],[126.91882,37.63656]]}},{"type":"Feature","properties":{"class":"alley","highway":"service","sidewalk":"unknown","lanes":0,"name":"","oneway":true},"geometry":{"type":"LineString","coordinates":[[126.91855,37.63789],[126.91857,37.63754],[126.91862,37.63675]]}},{"type":"Feature","properties":{"class":"alley","highway":"service","sidewalk":"unknown","lanes":0,"name":"","oneway":false},"geometry":{"type":"LineString","coordinates":[[126.91889,37.63528],[126.9188,37.63527],[126.91875,37.63526],[126.91857,37.63527],[126.91803,37.6355],[126.91784,37.6356],[126.91772,37.63571],[126.91761,37.63583],[126.91756,37.63597],[126.91752,37.63609],[126.91752,37.63617],[126.91751,37.63622]]}},{"type":"Feature","properties":{"class":"alley","highway":"service","sidewalk":"unknown","lanes":0,"name":"","oneway":false},"geometry":{"type":"LineString","coordinates":[[126.91751,37.63622],[126.91747,37.63644],[126.91744,37.63708],[126.91736,37.6383],[126.91737,37.63836],[126.91771,37.63868],[126.91788,37.63874],[126.91822,37.63876],[126.91827,37.63884],[126.91825,37.63903],[126.91824,37.63909]]}},{"type":"Feature","properties":{"class":"alley","highway":"service","sidewalk":"unknown","lanes":0,"name":"","oneway":false},"geometry":{"type":"LineString","coordinates":[[126.91751,37.63622],[126.91761,37.63634]]}},{"type":"Feature","properties":{"class":"alley","highway":"service","sidewalk":"unknown","lanes":0,"name":"","oneway":false},"geometry":{"type":"LineString","coordinates":[[126.91545,37.63414],[126.9154,37.63394],[126.91539,37.63362],[126.91541,37.6336],[126.91543,37.63357],[126.91553,37.63356],[126.91558,37.63358],[126.9156,37.63361],[126.9156,37.63389],[126.91559,37.63393],[126.91555,37.63395],[126.9154,37.63394]]}},{"type":"Feature","properties":{"class":"minor","highway":"residential","sidewalk":"unknown","lanes":0,"name":"","oneway":false},"geometry":{"type":"LineString","coordinates":[[126.92011,37.62111],[126.92006,37.6211],[126.92,37.6211],[126.91996,37.62109]]}},{"type":"Feature","properties":{"class":"major","highway":"secondary","sidewalk":"likely","lanes":0,"name":"","oneway":false},"geometry":{"type":"LineString","coordinates":[[126.91996,37.6269],[126.91991,37.62689],[126.91987,37.62688],[126.91981,37.62686]]}},{"type":"Feature","properties":{"class":"minor","highway":"residential","sidewalk":"unknown","lanes":0,"name":"","oneway":false},"geometry":{"type":"LineString","coordinates":[[126.91981,37.62335],[126.91984,37.62335],[126.9199,37.62334],[126.91995,37.62334]]}},{"type":"Feature","properties":{"class":"major","highway":"primary","sidewalk":"likely","lanes":3,"name":"통일로","oneway":true},"geometry":{"type":"LineString","coordinates":[[126.92011,37.62111],[126.91996,37.62169],[126.91985,37.62219],[126.91985,37.62233],[126.91985,37.62242],[126.91989,37.62286],[126.91995,37.62334]]}},{"type":"Feature","properties":{"class":"major","highway":"primary","sidewalk":"likely","lanes":3,"name":"통일로","oneway":true},"geometry":{"type":"LineString","coordinates":[[126.9202,37.62598],[126.92016,37.62623],[126.91996,37.6269]]}},{"type":"Feature","properties":{"class":"major","highway":"primary","sidewalk":"likely","lanes":3,"name":"통일로","oneway":true},"geometry":{"type":"LineString","coordinates":[[126.91981,37.62686],[126.91991,37.62655],[126.92,37.62623],[126.92002,37.62603],[126.92002,37.62597]]}},{"type":"Feature","properties":{"class":"minor","highway":"residential","sidewalk":"unknown","lanes":0,"name":"","oneway":false},"geometry":{"type":"LineString","coordinates":[[126.91927,37.6287],[126.91933,37.6287],[126.91939,37.6287],[126.91948,37.62871]]}},{"type":"Feature","properties":{"class":"major","highway":"primary","sidewalk":"likely","lanes":3,"name":"통일로","oneway":true},"geometry":{"type":"LineString","coordinates":[[126.91948,37.62871],[126.91943,37.6292],[126.91939,37.63029],[126.91933,37.63047]]}},{"type":"Feature","properties":{"class":"major","highway":"primary","sidewalk":"likely","lanes":3,"name":"통일로","oneway":true},"geometry":{"type":"LineString","coordinates":[[126.91915,37.63045],[126.91916,37.63028],[126.91916,37.63011],[126.91919,37.62939],[126.91922,37.62904],[126.91927,37.6287]]}},{"type":"Feature","properties":{"class":"alley","highway":"service","sidewalk":"unknown","lanes":0,"name":"","oneway":false},"geometry":{"type":"LineString","coordinates":[[126.9006,37.62285],[126.90074,37.6229],[126.90088,37.62293]]}},{"type":"Feature","properties":{"class":"alley","highway":"service","sidewalk":"unknown","lanes":0,"name":"","oneway":false},"geometry":{"type":"LineString","coordinates":[[126.90088,37.62293],[126.90119,37.623],[126.90148,37.62307],[126.90154,37.62288],[126.90095,37.62273],[126.90088,37.62293]]}},{"type":"Feature","properties":{"class":"alley","highway":"service","sidewalk":"unknown","lanes":0,"name":"","oneway":false},"geometry":{"type":"LineString","coordinates":[[126.90148,37.62307],[126.90142,37.62321],[126.90115,37.62312],[126.90119,37.623]]}},{"type":"Feature","properties":{"class":"alley","highway":"service","sidewalk":"unknown","lanes":0,"name":"","oneway":false},"geometry":{"type":"LineString","coordinates":[[126.90209,37.62006],[126.90219,37.62008],[126.90278,37.62022],[126.903,37.6203],[126.90312,37.62034]]}},{"type":"Feature","properties":{"class":"alley","highway":"service","sidewalk":"unknown","lanes":0,"name":"","oneway":false},"geometry":{"type":"LineString","coordinates":[[126.90209,37.62006],[126.902,37.62002],[126.90195,37.61998],[126.90192,37.61983],[126.90185,37.61961]]}},{"type":"Feature","properties":{"class":"minor","highway":"residential","sidewalk":"unknown","lanes":0,"name":"","oneway":false},"geometry":{"type":"LineString","coordinates":[[126.91662,37.62776],[126.9163,37.62759]]}},{"type":"Feature","properties":{"class":"minor","highway":"residential","sidewalk":"unknown","lanes":0,"name":"갈현로39길","oneway":false},"geometry":{"type":"LineString","coordinates":[[126.91691,37.62266],[126.91608,37.62271]]}},{"type":"Feature","properties":{"class":"major","highway":"primary","sidewalk":"likely","lanes":3,"name":"서오릉로","oneway":true},"geometry":{"type":"LineString","coordinates":[[126.8994,37.62313],[126.89946,37.62308],[126.90001,37.62264],[126.90056,37.62222]]}},{"type":"Feature","properties":{"class":"major","highway":"primary","sidewalk":"likely","lanes":3,"name":"서오릉로","oneway":true},"geometry":{"type":"LineString","coordinates":[[126.90065,37.62229],[126.90011,37.62272],[126.89959,37.62313],[126.8995,37.62321]]}},{"type":"Feature","properties":{"class":"major","highway":"primary","sidewalk":"likely","lanes":3,"name":"서오릉로","oneway":true},"geometry":{"type":"LineString","coordinates":[[126.90293,37.62043],[126.9029,37.62051],[126.90266,37.62066],[126.90242,37.62084],[126.90195,37.62122],[126.90065,37.62229]]}},{"type":"Feature","properties":{"class":"major","highway":"primary","sidewalk":"likely","lanes":3,"name":"서오릉로","oneway":true},"geometry":{"type":"LineString","coordinates":[[126.90056,37.62222],[126.90187,37.62116],[126.90234,37.62077],[126.90282,37.62044],[126.90293,37.62043]]}}]}