{"type":"FeatureCollection","features":[{"type":"Feature","properties":{"class":"major","highway":"primary","sidewalk":"yes","lanes":6,"name":"경춘북로","oneway":false},"geometry":{"type":"LineString","coordinates":[[127.12661,37.64111],[127.12644,37.64105],[127.12628,37.64097],[127.12558,37.64071],[127.12519,37.64053],[127.12483,37.64037],[127.12407,37.64006],[127.12406,37.64006],[127.12312,37.63967],[127.12237,37.63938],[127.12197,37.63922],[127.1219,37.63919],[127.1213,37.63902],[127.12072,37.63883],[127.12055,37.63877],[127.12029,37.63868],[127.11985,37.63854],[127.11958,37.63845],[127.11901,37.6382],[127.1186,37.63799],[127.11822,37.63778],[127.11811,37.63773],[127.11801,37.63766],[127.11792,37.6376],[127.11775,37.63748],[127.11716,37.637],[127.11654,37.63636],[127.11628,37.63603],[127.11605,37.63568],[127.11585,37.63528],[127.11575,37.63508],[127.11567,37.63484],[127.11561,37.6346],[127.11547,37.63404],[127.11523,37.63333],[127.11494,37.63283],[127.11459,37.63223],[127.11404,37.63124],[127.11345,37.6303],[127.11287,37.62942],[127.11279,37.62932],[127.11137,37.62714],[127.11107,37.62667],[127.111,37.62654],[127.11069,37.62606],[127.10965,37.62439],[127.10851,37.62269],[127.10847,37.62263],[127.10843,37.62258],[127.10839,37.62253],[127.10808,37.62219],[127.10764,37.62175],[127.10738,37.62149],[127.10651,37.62074],[127.10643,37.62067],[127.10636,37.62063],[127.10622,37.62052]]}},{"type":"Feature","properties":{"class":"major","highway":"motorway","sidewalk":"likely","lanes":3,"name":"세종포천고속도로","oneway":true},"geometry":{"type":"LineString","coordinates":[[127.11356,37.6205],[127.11381,37.62103],[127.114,37.62139],[127.11415,37.62163],[127.1143,37.62187],[127.11448,37.62212],[127.11477,37.62247],[127.11512,37.62288],[127.1155,37.62323],[127.1159,37.62358],[127.11649,37.62408],[127.11738,37.62471],[127.11919,37.62591],[127.11963,37.62627],[127.12071,37.62711],[127.12151,37.6278]]}},{"type":"Feature","properties":{"class":"major","highway":"motorway_link","sidewalk":"likely","lanes":0,"name":"","oneway":true},"geometry":{"type":"LineString","coordinates":[[127.11364,37.6204],[127.11398,37.62114],[127.11425,37.62158],[127.11451,37.62198],[127.11481,37.62236],[127.11512,37.62273],[127.11547,37.62309],[127.11599,37.62355],[127.11648,37.62394],[127.11697,37.62429],[127.11748,37.62463],[127.11925,37.62581],[127.12024,37.62654],[127.12107,37.62723],[127.12165,37.62771]]}},{"type":"Feature","properties":{"class":"major","highway":"motorway_link","sidewalk":"likely","lanes":0,"name":"","oneway":true},"geometry":{"type":"LineString","coordinates":[[127.12129,37.62797],[127.12055,37.6273],[127.11945,37.62642],[127.1187,37.62588],[127.11795,37.62538],[127.11684,37.62467],[127.11602,37.62409],[127.11532,37.6235],[127.11474,37.62292],[127.11436,37.62247],[127.1139,37.62178],[127.11353,37.62114],[127.11326,37.62054]]}},{"type":"Feature","properties":{"class":"major","highway":"motorway","sidewalk":"likely","lanes":3,"name":"세종포천고속도로","oneway":true},"geometry":{"type":"LineString","coordinates":[[127.12141,37.62792],[127.12073,37.62732],[127.11965,37.62642],[127.11914,37.62606],[127.11618,37.62401],[127.11562,37.62355],[127.11501,37.62296],[127.11468,37.62261],[127.11445,37.6223],[127.11413,37.62188],[127.11397,37.62165],[127.11381,37.62137],[127.11337,37.62047]]}}]}