{"type":"FeatureCollection","features":[{"type":"Feature","properties":{"class":"major","highway":"trunk","sidewalk":"likely","lanes":5,"name":"자유로","oneway":true},"geometry":{"type":"LineString","coordinates":[[126.7416,37.64723],[126.75108,37.64314],[126.75255,37.6425],[126.75409,37.64179],[126.7575,37.64012],[126.75928,37.63931],[126.76054,37.63864],[126.76138,37.63811],[126.76186,37.6379],[126.76503,37.63609],[126.77349,37.6314],[126.77754,37.62917],[126.78089,37.62731],[126.78175,37.62684],[126.78955,37.62253],[126.79406,37.62],[126.80395,37.61449],[126.80474,37.61396],[126.80663,37.61265],[126.80736,37.61209],[126.80802,37.61153],[126.80976,37.60999],[126.81164,37.60813],[126.81196,37.60784],[126.81222,37.60764],[126.81252,37.60742],[126.81283,37.60723],[126.81317,37.60705],[126.81352,37.60689],[126.81393,37.60674],[126.81437,37.6066],[126.81481,37.60646],[126.8158,37.60619],[126.81699,37.60589]]}}]}