{"type":"FeatureCollection","features":[{"type":"Feature","properties":{"class":"major","highway":"primary","sidewalk":"likely","lanes":3,"name":"서오릉로","oneway":true},"geometry":{"type":"LineString","coordinates":[[126.88989,37.62762],[126.89047,37.62764],[126.89106,37.62767],[126.8915,37.6277],[126.892,37.62772],[126.89225,37.62773],[126.89247,37.62773],[126.89274,37.62771],[126.89296,37.62768],[126.89311,37.62765],[126.89328,37.62761],[126.8935,37.62756],[126.89366,37.62751],[126.89386,37.62743],[126.89406,37.62734],[126.89423,37.62725],[126.89442,37.62714],[126.89485,37.6268],[126.89515,37.62659],[126.89536,37.62642],[126.89547,37.62633],[126.89556,37.62626]]}},{"type":"Feature","properties":{"class":"major","highway":"secondary","sidewalk":"likely","lanes":1,"name":"용두로121번길","oneway":false},"geometry":{"type":"LineString","coordinates":[[126.89368,37.62042],[126.89352,37.6206],[126.89337,37.62069],[126.893,37.62084],[126.89278,37.62096],[126.89269,37.62123],[126.89261,37.62143],[126.89245,37.62161],[126.89179,37.62193],[126.89153,37.62209],[126.89133,37.62228],[126.89118,37.62249],[126.89111,37.62272],[126.89095,37.6234],[126.89092,37.62361],[126.89096,37.62382],[126.89105,37.62413],[126.89105,37.62433],[126.89098,37.62451],[126.89086,37.62469],[126.89008,37.62535],[126.8899,37.62551],[126.88982,37.62563],[126.88983,37.62602],[126.88983,37.62606]]}},{"type":"Feature","properties":{"class":"major","highway":"tertiary","sidewalk":"likely","lanes":1,"name":"용두로","oneway":false},"geometry":{"type":"LineString","coordinates":[[126.88148,37.62427],[126.88183,37.62419],[126.88246,37.62404],[126.88271,37.62394],[126.88312,37.62374],[126.8834,37.62359],[126.88366,37.62346],[126.8839,37.62338],[126.88425,37.62329],[126.88459,37.62324],[126.88518,37.62315],[126.88652,37.62298],[126.88676,37.62295],[126.88692,37.62293],[126.88745,37.62283],[126.8878,37.62273],[126.88827,37.62255],[126.88891,37.62226],[126.88948,37.622],[126.88981,37.62179],[126.89026,37.62135],[126.8907,37.6208],[126.89091,37.62061],[126.89115,37.62045],[126.89137,37.62038],[126.8915,37.62033],[126.89227,37.62009],[126.89251,37.62006],[126.8927,37.62005],[126.89289,37.62007],[126.89331,37.62019],[126.89368,37.62042]]}},{"type":"Feature","properties":{"class":"major","highway":"secondary","sidewalk":"likely","lanes":2,"name":"화랑로","oneway":false},"geometry":{"type":"LineString","coordinates":[[126.88176,37.63032],[126.88169,37.63089],[126.88148,37.63175]]}},{"type":"Feature","properties":{"class":"major","highway":"secondary","sidewalk":"likely","lanes":2,"name":"화랑로","oneway":false},"geometry":{"type":"LineString","coordinates":[[126.88148,37.63175],[126.88145,37.63208],[126.88148,37.63282],[126.88163,37.63339],[126.88169,37.63361],[126.88202,37.63434],[126.88203,37.63435],[126.88251,37.63517],[126.88257,37.63527],[126.88287,37.63579],[126.88332,37.63641],[126.88417,37.63725],[126.88484,37.63774],[126.88607,37.63848],[126.88621,37.63861],[126.8865,37.63887],[126.88676,37.63925],[126.88742,37.64102],[126.88753,37.64163],[126.88755,37.64233],[126.88756,37.64262],[126.88756,37.64273],[126.88755,37.64287]]}},{"type":"Feature","properties":{"class":"major","highway":"secondary","sidewalk":"likely","lanes":1,"name":"봉산로","oneway":false},"geometry":{"type":"LineString","coordinates":[[126.89356,37.61494],[126.89357,37.61499],[126.89361,37.61535],[126.89362,37.61552],[126.89364,37.61564],[126.89364,37.61598],[126.89353,37.61724],[126.89354,37.6176],[126.89363,37.61786],[126.89438,37.6188],[126.89448,37.61901],[126.89447,37.61907],[126.89446,37.61921],[126.89368,37.62042]]}},{"type":"Feature","properties":{"class":"minor","highway":"unclassified","sidewalk":"unknown","lanes":0,"name":"해포길","oneway":false},"geometry":{"type":"LineString","coordinates":[[126.87476,37.62351],[126.87483,37.62376],[126.875,37.62442],[126.8752,37.6248],[126.87543,37.62513],[126.87573,37.62544],[126.87607,37.62564],[126.87653,37.6259],[126.87683,37.62622],[126.87703,37.6264],[126.87809,37.62701],[126.87892,37.62762],[126.87906,37.6277],[126.87922,37.62775],[126.8795,37.62774],[126.87978,37.62773],[126.88,37.62778],[126.88019,37.6279],[126.88037,37.62808],[126.88084,37.62856],[126.88099,37.6287],[126.88113,37.62879],[126.88132,37.62887],[126.88141,37.6289],[126.88173,37.62897]]}},{"type":"Feature","properties":{"class":"major","highway":"tertiary","sidewalk":"likely","lanes":1,"name":"용두로","oneway":false},"geometry":{"type":"LineString","coordinates":[[126.89368,37.62042],[126.89407,37.62069],[126.89426,37.62083],[126.89441,37.62098],[126.89458,37.62121],[126.89495,37.62173],[126.8951,37.62188],[126.89535,37.62209],[126.89564,37.62228],[126.89601,37.62245],[126.8962,37.62254],[126.89758,37.62319],[126.89814,37.62346],[126.89819,37.62349],[126.89837,37.62357],[126.89864,37.62375]]}},{"type":"Feature","properties":{"class":"major","highway":"primary","sidewalk":"likely","lanes":2,"name":"덕양로","oneway":false},"geometry":{"type":"LineString","coordinates":[[126.89231,37.61507],[126.89204,37.61532],[126.89171,37.61567],[126.89134,37.61614],[126.89117,37.6164],[126.89103,37.6167],[126.89077,37.61729],[126.89063,37.61765],[126.89054,37.61795],[126.89036,37.61823],[126.89011,37.61863],[126.88983,37.61904],[126.88935,37.61954],[126.88876,37.61998],[126.88806,37.62045],[126.88724,37.62078],[126.88635,37.621],[126.88477,37.62131],[126.88397,37.62147],[126.88187,37.6219],[126.88128,37.62201]]}},{"type":"Feature","properties":{"class":"major","highway":"secondary","sidewalk":"likely","lanes":2,"name":"화랑로","oneway":false},"geometry":{"type":"LineString","coordinates":[[126.88148,37.62427],[126.88151,37.62491],[126.88143,37.62604],[126.88145,37.62687],[126.88151,37.62742],[126.88173,37.62897],[126.88174,37.62904]]}},{"type":"Feature","properties":{"class":"minor","highway":"unclassified","sidewalk":"unknown","lanes":0,"name":"화랑로","oneway":false},"geometry":{"type":"LineString","coordinates":[[126.88621,37.63861],[126.88612,37.63866],[126.88526,37.63913],[126.88518,37.63917]]}},{"type":"Feature","properties":{"class":"minor","highway":"unclassified","sidewalk":"unknown","lanes":0,"name":"고양대로","oneway":false},"geometry":{"type":"LineString","coordinates":[[126.88606,37.64234],[126.88607,37.64221],[126.88614,37.64174],[126.88628,37.64137],[126.88627,37.64108],[126.88589,37.63987],[126.88518,37.63917],[126.88494,37.63894],[126.8847,37.63866],[126.88419,37.63836],[126.88362,37.63792],[126.88336,37.63731],[126.88297,37.63687],[126.88287,37.63651],[126.88268,37.63614],[126.88223,37.63535],[126.88232,37.63529],[126.88245,37.63521],[126.88251,37.63517]]}},{"type":"Feature","properties":{"class":"minor","highway":"residential","sidewalk":"unknown","lanes":0,"name":"서오릉로532번길","oneway":false},"geometry":{"type":"LineString","coordinates":[[126.88233,37.6302],[126.88302,37.63051],[126.8837,37.63091],[126.88427,37.6315],[126.88458,37.63198],[126.88516,37.63258],[126.88509,37.63277],[126.88547,37.63339],[126.88552,37.63393],[126.88546,37.6341],[126.88502,37.63429],[126.88452,37.63437],[126.88437,37.63455],[126.88406,37.63471],[126.88257,37.63527]]}},{"type":"Feature","properties":{"class":"minor","highway":"residential","sidewalk":"unknown","lanes":0,"name":"서오릉로532번길","oneway":false},"geometry":{"type":"LineString","coordinates":[[126.88546,37.6341],[126.88569,37.63436],[126.886,37.63452],[126.88631,37.63472],[126.88664,37.63487],[126.88691,37.63505],[126.88715,37.63495]]}},{"type":"Feature","properties":{"class":"minor","highway":"residential","sidewalk":"unknown","lanes":0,"name":"","oneway":false},"geometry":{"type":"LineString","coordinates":[[126.88516,37.63258],[126.88574,37.63274],[126.88581,37.63303],[126.88571,37.6332],[126.88547,37.63339]]}},{"type":"Feature","properties":{"class":"minor","highway":"residential","sidewalk":"unknown","lanes":0,"name":"서오릉로","oneway":false},"geometry":{"type":"LineString","coordinates":[[126.88501,37.62889],[126.88507,37.62898],[126.88535,37.62949],[126.88549,37.6298],[126.88551,37.63012],[126.88549,37.63045],[126.88558,37.63088],[126.88557,37.63133],[126.88547,37.63174],[126.88541,37.63204],[126.88546,37.63228],[126.88562,37.63249],[126.88575,37.63262],[126.88574,37.63274],[126.88609,37.6328],[126.88653,37.63288],[126.88682,37.63302],[126.88709,37.63318],[126.8875,37.63332],[126.88773,37.63351],[126.88811,37.63379]]}},{"type":"Feature","properties":{"class":"minor","highway":"residential","sidewalk":"unknown","lanes":0,"name":"서오릉로500번길","oneway":false},"geometry":{"type":"LineString","coordinates":[[126.88528,37.62877],[126.88534,37.62887],[126.88601,37.6299],[126.8864,37.63045],[126.88681,37.63098],[126.88782,37.63242],[126.88829,37.63308],[126.88937,37.63446],[126.88949,37.63461],[126.88953,37.63466],[126.88969,37.63486],[126.88974,37.63491],[126.8901,37.63532],[126.89034,37.63559],[126.89042,37.63568],[126.89043,37.63569],[126.89044,37.6357],[126.89088,37.63623],[126.8912,37.63663],[126.89122,37.63666],[126.89178,37.63737],[126.89182,37.63744],[126.89181,37.63748],[126.8918,37.6375],[126.89176,37.63756],[126.89173,37.63762],[126.89171,37.6377],[126.8917,37.63777],[126.89168,37.63782],[126.89163,37.63786],[126.89128,37.63803],[126.8909,37.6382],[126.89085,37.63824],[126.89082,37.63828],[126.89081,37.63831],[126.89081,37.63835],[126.89083,37.6384],[126.8909,37.63851],[126.89122,37.63895],[126.89123,37.63898],[126.89123,37.63899],[126.89122,37.63901],[126.89117,37.63904],[126.89113,37.63906],[126.88952,37.63989]]}},{"type":"Feature","properties":{"class":"minor","highway":"unclassified","sidewalk":"unknown","lanes":0,"name":"화랑로","oneway":false},"geometry":{"type":"LineString","coordinates":[[126.88148,37.63282],[126.88141,37.63285],[126.88114,37.63296],[126.8809,37.63293],[126.88078,37.63296],[126.88064,37.63299],[126.88057,37.63291],[126.88015,37.63246],[126.87993,37.63212],[126.87973,37.63181],[126.87962,37.63148]]}},{"type":"Feature","properties":{"class":"minor","highway":"unclassified","sidewalk":"unknown","lanes":0,"name":"","oneway":false},"geometry":{"type":"LineString","coordinates":[[126.8798,37.63101],[126.88077,37.63055],[126.88083,37.63054],[126.88089,37.63054],[126.88093,37.63056],[126.88095,37.63059],[126.88098,37.63067],[126.88099,37.63073]]}},{"type":"Feature","properties":{"class":"minor","highway":"unclassified","sidewalk":"unknown","lanes":0,"name":"화랑로","oneway":false},"geometry":{"type":"LineString","coordinates":[[126.8794,37.62802],[126.87968,37.62799],[126.88002,37.62816],[126.88071,37.62885],[126.88125,37.62905],[126.88176,37.62921]]}},{"type":"Feature","properties":{"class":"major","highway":"secondary","sidewalk":"likely","lanes":2,"name":"화랑로","oneway":false},"geometry":{"type":"LineString","coordinates":[[126.88175,37.62913],[126.88176,37.62921],[126.88176,37.62926],[126.8818,37.62966],[126.88176,37.63032]]}},{"type":"Feature","properties":{"class":"major","highway":"secondary","sidewalk":"likely","lanes":2,"name":"","oneway":false},"geometry":{"type":"LineString","coordinates":[[126.88174,37.62904],[126.88175,37.62913]]}},{"type":"Feature","properties":{"class":"minor","highway":"unclassified","sidewalk":"unknown","lanes":0,"name":"화랑로","oneway":false},"geometry":{"type":"LineString","coordinates":[[126.88173,37.62897],[126.88215,37.62903],[126.88246,37.62903],[126.8828,37.62893],[126.88321,37.62869],[126.88351,37.62854],[126.88393,37.6284],[126.88426,37.62836],[126.88457,37.6283],[126.88495,37.62795],[126.88528,37.62768],[126.88565,37.62749],[126.88607,37.62744],[126.88656,37.62744],[126.88678,37.62743],[126.88694,37.62738],[126.8873,37.62714],[126.88772,37.62702],[126.88833,37.62691],[126.88872,37.62673],[126.88896,37.62637],[126.88916,37.62617],[126.88983,37.62602]]}},{"type":"Feature","properties":{"class":"minor","highway":"residential","sidewalk":"unknown","lanes":0,"name":"화랑로332번길","oneway":false},"geometry":{"type":"LineString","coordinates":[[126.88151,37.62491],[126.88205,37.62485],[126.88225,37.62483],[126.88254,37.62485],[126.88269,37.62496],[126.8829,37.62503],[126.8831,37.62498],[126.88362,37.62503]]}},{"type":"Feature","properties":{"class":"minor","highway":"residential","sidewalk":"unknown","lanes":0,"name":"용두로","oneway":false},"geometry":{"type":"LineString","coordinates":[[126.88246,37.62404],[126.88261,37.62436],[126.88291,37.62455],[126.88303,37.62466],[126.8831,37.62483],[126.8831,37.62498]]}},{"type":"Feature","properties":{"class":"minor","highway":"residential","sidewalk":"unknown","lanes":0,"name":"용두로35번길","oneway":false},"geometry":{"type":"LineString","coordinates":[[126.88518,37.62315],[126.88532,37.62357],[126.88541,37.62372],[126.88542,37.624],[126.88526,37.62414],[126.88531,37.62451],[126.88483,37.62468],[126.8848,37.62504],[126.88473,37.62515],[126.88457,37.62541],[126.88431,37.62566],[126.88396,37.62584],[126.88365,37.62594],[126.88332,37.62638],[126.88305,37.62659],[126.88266,37.62671],[126.88193,37.62735],[126.88151,37.62742]]}},{"type":"Feature","properties":{"class":"minor","highway":"residential","sidewalk":"unknown","lanes":0,"name":"용두로47번길","oneway":false},"geometry":{"type":"LineString","coordinates":[[126.88652,37.62298],[126.88674,37.6234],[126.88703,37.62382],[126.88706,37.62386],[126.8872,37.62413],[126.8874,37.62451],[126.88743,37.62457],[126.88766,37.6251],[126.88797,37.62537],[126.88834,37.62565],[126.88875,37.6258],[126.88932,37.62571],[126.88982,37.62563],[126.8905,37.62566],[126.89128,37.62566],[126.89206,37.62583],[126.89302,37.62624],[126.89344,37.62634],[126.8941,37.62631],[126.89446,37.62624],[126.89456,37.62625],[126.89494,37.62637],[126.89536,37.62642]]}},{"type":"Feature","properties":{"class":"minor","highway":"unclassified","sidewalk":"unknown","lanes":0,"name":"용두로121번길","oneway":false},"geometry":{"type":"LineString","coordinates":[[126.89485,37.6268],[126.89479,37.62675],[126.89474,37.62674],[126.89414,37.62675],[126.89376,37.62672],[126.89302,37.62657],[126.89263,37.62654],[126.89224,37.6264],[126.89183,37.62623],[126.89144,37.62611],[126.89108,37.62605],[126.89073,37.62607],[126.88984,37.62622]]}},{"type":"Feature","properties":{"class":"minor","highway":"residential","sidewalk":"unknown","lanes":0,"name":"용두로47번안길","oneway":false},"geometry":{"type":"LineString","coordinates":[[126.88703,37.62382],[126.88737,37.62389],[126.88752,37.62373],[126.88773,37.62334],[126.88793,37.62305],[126.88841,37.62273],[126.88881,37.62256],[126.88927,37.62245],[126.88966,37.62232],[126.89013,37.62209],[126.89042,37.62195],[126.89062,37.62171],[126.89082,37.62155],[126.89128,37.62134],[126.89152,37.62117],[126.89163,37.62124],[126.89195,37.62106],[126.8921,37.6209],[126.8923,37.62078],[126.89264,37.62085],[126.89278,37.62096]]}},{"type":"Feature","properties":{"class":"minor","highway":"residential","sidewalk":"unknown","lanes":0,"name":"용두로","oneway":false},"geometry":{"type":"LineString","coordinates":[[126.89264,37.62085],[126.89243,37.62067],[126.89226,37.62053],[126.89179,37.62047],[126.89137,37.62038]]}},{"type":"Feature","properties":{"class":"minor","highway":"residential","sidewalk":"unknown","lanes":0,"name":"용두로121번길","oneway":false},"geometry":{"type":"LineString","coordinates":[[126.89278,37.62096],[126.89327,37.62096],[126.89388,37.62116],[126.89458,37.62121]]}},{"type":"Feature","properties":{"class":"minor","highway":"unclassified","sidewalk":"unknown","lanes":0,"name":"화랑로","oneway":false},"geometry":{"type":"LineString","coordinates":[[126.88148,37.62427],[126.88155,37.62404],[126.88153,37.6238],[126.88147,37.62339],[126.88147,37.62332],[126.88144,37.62309],[126.88135,37.62262],[126.88126,37.62242]]}},{"type":"Feature","properties":{"class":"minor","highway":"unclassified","sidewalk":"unknown","lanes":0,"name":"","oneway":false},"geometry":{"type":"LineString","coordinates":[[126.88126,37.62242],[126.88135,37.62228]]}},{"type":"Feature","properties":{"class":"minor","highway":"unclassified","sidewalk":"unknown","lanes":0,"name":"화랑로286번길","oneway":false},"geometry":{"type":"LineString","coordinates":[[126.88135,37.62228],[126.88152,37.62243],[126.88168,37.62252],[126.88185,37.62257],[126.88231,37.62245],[126.88309,37.62236],[126.88337,37.62234],[126.88384,37.62238],[126.8843,37.62228],[126.88451,37.62223],[126.88476,37.6222],[126.88516,37.6222],[126.88581,37.6223],[126.88608,37.6223],[126.88637,37.62221],[126.88666,37.62208],[126.88724,37.62169],[126.88779,37.62147],[126.88867,37.62121],[126.88896,37.62108],[126.88956,37.62069],[126.88994,37.62055],[126.89015,37.62047],[126.89017,37.62044],[126.89028,37.6204],[126.89044,37.62028],[126.89061,37.6201],[126.89084,37.61979],[126.89108,37.6194],[126.89129,37.61914],[126.8916,37.61892],[126.89174,37.61883],[126.89186,37.61868],[126.89193,37.61841],[126.89195,37.6182]]}},{"type":"Feature","properties":{"class":"minor","highway":"unclassified","sidewalk":"unknown","lanes":0,"name":"용두로","oneway":false},"geometry":{"type":"LineString","coordinates":[[126.88518,37.62315],[126.88489,37.62271],[126.8846,37.62233],[126.88456,37.62228],[126.88451,37.62223]]}},{"type":"Feature","properties":{"class":"minor","highway":"unclassified","sidewalk":"unknown","lanes":0,"name":"용두로","oneway":false},"geometry":{"type":"LineString","coordinates":[[126.89115,37.62045],[126.89025,37.6206],[126.89024,37.6206],[126.89003,37.62065],[126.8896,37.62077],[126.88904,37.62115],[126.88871,37.62129],[126.88768,37.62162],[126.88727,37.62179],[126.88691,37.62205],[126.88659,37.62224],[126.88622,37.62238],[126.8859,37.6224],[126.88518,37.62229],[126.88487,37.62229],[126.8846,37.62233],[126.88379,37.62249],[126.88325,37.62246]]}},{"type":"Feature","properties":{"class":"minor","highway":"unclassified","sidewalk":"unknown","lanes":0,"name":"화랑로286번길","oneway":false},"geometry":{"type":"LineString","coordinates":[[126.87898,37.62155],[126.87976,37.6216],[126.88075,37.62172],[126.88075,37.62144],[126.88079,37.62108],[126.88079,37.62076],[126.88081,37.62034],[126.88098,37.62004]]}},{"type":"Feature","properties":{"class":"minor","highway":"unclassified","sidewalk":"unknown","lanes":0,"name":"화랑로286번길","oneway":false},"geometry":{"type":"LineString","coordinates":[[126.8843,37.62228],[126.88421,37.62215],[126.88462,37.62163],[126.88477,37.62131],[126.88493,37.6206],[126.8851,37.62022],[126.88536,37.62013],[126.88574,37.6195],[126.88626,37.61886]]}},{"type":"Feature","properties":{"class":"minor","highway":"unclassified","sidewalk":"unknown","lanes":0,"name":"화랑로286번길","oneway":false},"geometry":{"type":"LineString","coordinates":[[126.88397,37.62147],[126.88389,37.62121],[126.88386,37.62105],[126.88391,37.62071],[126.88411,37.62043],[126.88417,37.62017],[126.88398,37.61966],[126.88392,37.61949],[126.8836,37.61955],[126.8834,37.61929],[126.88334,37.61896],[126.88302,37.61869],[126.88248,37.61875],[126.88248,37.61916],[126.88258,37.61939],[126.8826,37.61989],[126.88231,37.62011],[126.88224,37.6203],[126.88245,37.62071],[126.88225,37.62121],[126.88189,37.62132],[126.88187,37.6219]]}},{"type":"Feature","properties":{"class":"minor","highway":"unclassified","sidewalk":"unknown","lanes":0,"name":"","oneway":false},"geometry":{"type":"LineString","coordinates":[[126.89024,37.6206],[126.89015,37.62047]]}},{"type":"Feature","properties":{"class":"minor","highway":"residential","sidewalk":"unknown","lanes":0,"name":"서오릉로","oneway":false},"geometry":{"type":"LineString","coordinates":[[126.89597,37.62593],[126.89615,37.62594],[126.89665,37.62595],[126.89738,37.62599],[126.89762,37.62589],[126.8978,37.62573],[126.89805,37.62525],[126.89825,37.62506],[126.89856,37.62478],[126.899,37.62431],[126.89994,37.62384],[126.90023,37.62362],[126.9006,37.62285],[126.90079,37.62249]]}},{"type":"Feature","properties":{"class":"minor","highway":"residential","sidewalk":"unknown","lanes":0,"name":"서오릉로","oneway":false},"geometry":{"type":"LineString","coordinates":[[126.8978,37.62573],[126.89845,37.62613],[126.89884,37.6262],[126.90053,37.62627]]}},{"type":"Feature","properties":{"class":"major","highway":"secondary","sidewalk":"likely","lanes":2,"name":"화랑로","oneway":false},"geometry":{"type":"LineString","coordinates":[[126.8793,37.62183],[126.87939,37.62191],[126.8798,37.62229],[126.88027,37.62267],[126.88047,37.62283],[126.88088,37.62321],[126.88096,37.62332],[126.88102,37.62339],[126.88115,37.62356],[126.88129,37.62381],[126.88136,37.62394],[126.88148,37.62427]]}},{"type":"Feature","properties":{"class":"alley","highway":"service","sidewalk":"unknown","lanes":0,"name":"","oneway":false},"geometry":{"type":"LineString","coordinates":[[126.88953,37.63466],[126.88967,37.63457],[126.88979,37.63472]]}},{"type":"Feature","properties":{"class":"alley","highway":"service","sidewalk":"unknown","lanes":0,"name":"","oneway":false},"geometry":{"type":"LineString","coordinates":[[126.88949,37.63461],[126.88885,37.63494],[126.88881,37.63496],[126.88877,37.63498],[126.88873,37.63498],[126.8887,37.63497],[126.88868,37.63496],[126.88865,37.63492],[126.88862,37.63487],[126.88856,37.6348],[126.88849,37.63469]]}},{"type":"Feature","properties":{"class":"alley","highway":"service","sidewalk":"unknown","lanes":0,"name":"","oneway":false},"geometry":{"type":"LineString","coordinates":[[126.88849,37.63469],[126.88848,37.63468],[126.88847,37.63467],[126.88845,37.63467],[126.88843,37.63467],[126.88785,37.63495]]}},{"type":"Feature","properties":{"class":"alley","highway":"service","sidewalk":"unknown","lanes":0,"name":"","oneway":false},"geometry":{"type":"LineString","coordinates":[[126.88862,37.63487],[126.88803,37.63514],[126.88794,37.63517],[126.88793,37.63518],[126.88788,37.6352],[126.88782,37.63522],[126.88775,37.63524],[126.88765,37.63525],[126.88755,37.63527],[126.88744,37.63527],[126.88734,37.63527],[126.88725,37.63527],[126.88723,37.63527],[126.8872,37.63527],[126.88712,37.63526],[126.88692,37.63522]]}},{"type":"Feature","properties":{"class":"alley","highway":"service","sidewalk":"unknown","lanes":0,"name":"","oneway":false},"geometry":{"type":"LineString","coordinates":[[126.89181,37.63513],[126.89188,37.63515],[126.89188,37.63516],[126.89192,37.63518],[126.89223,37.63556],[126.89223,37.63557],[126.89151,37.63592],[126.89136,37.63596],[126.89126,37.63601],[126.89115,37.63607],[126.89105,37.63599],[126.891,37.63597],[126.89084,37.63578],[126.8908,37.63574],[126.89075,37.63571],[126.89073,37.6357],[126.89064,37.63568],[126.89058,37.63567],[126.89054,37.63566],[126.89049,37.63567],[126.89044,37.6357]]}},{"type":"Feature","properties":{"class":"alley","highway":"service","sidewalk":"unknown","lanes":0,"name":"","oneway":false},"geometry":{"type":"LineString","coordinates":[[126.89043,37.63569],[126.88896,37.63641],[126.88873,37.63652],[126.88828,37.63674],[126.88818,37.6368],[126.88785,37.63698],[126.8876,37.6371],[126.88754,37.63713],[126.88752,37.63715],[126.88752,37.63717],[126.88752,37.6372],[126.88755,37.63727],[126.88772,37.63767],[126.88776,37.63775],[126.88823,37.63834],[126.88826,37.63837],[126.88873,37.63895],[126.88876,37.63899],[126.88952,37.63989],[126.88954,37.63995],[126.88959,37.64001],[126.88997,37.64048],[126.89002,37.64052],[126.89027,37.64081],[126.89032,37.64084],[126.89038,37.64085],[126.89044,37.64086],[126.89065,37.64084],[126.8911,37.64066],[126.89114,37.64064],[126.89121,37.64057],[126.89129,37.64045],[126.89131,37.64037],[126.8914,37.6403],[126.89173,37.64012],[126.89183,37.64007],[126.89226,37.63989],[126.89291,37.6396],[126.89315,37.63957],[126.89351,37.63953]]}},{"type":"Feature","properties":{"class":"alley","highway":"service","sidewalk":"unknown","lanes":0,"name":"","oneway":false},"geometry":{"type":"LineString","coordinates":[[126.88876,37.63899],[126.88893,37.6389],[126.88923,37.63875],[126.88958,37.63858],[126.89036,37.63819],[126.89037,37.63819],[126.89038,37.63819],[126.89111,37.63782],[126.89181,37.63748]]}},{"type":"Feature","properties":{"class":"alley","highway":"service","sidewalk":"unknown","lanes":0,"name":"","oneway":true},"geometry":{"type":"LineString","coordinates":[[126.89038,37.63819],[126.89082,37.63828]]}},{"type":"Feature","properties":{"class":"alley","highway":"service","sidewalk":"unknown","lanes":0,"name":"","oneway":false},"geometry":{"type":"LineString","coordinates":[[126.89038,37.63819],[126.88989,37.63757],[126.88936,37.6369],[126.88896,37.63641]]}},{"type":"Feature","properties":{"class":"alley","highway":"service","sidewalk":"unknown","lanes":0,"name":"","oneway":false},"geometry":{"type":"LineString","coordinates":[[126.89117,37.63904],[126.89122,37.6391],[126.89136,37.63924],[126.89148,37.63935],[126.89153,37.63937],[126.8916,37.63939],[126.89168,37.6394],[126.89173,37.63941],[126.8918,37.6394],[126.89185,37.63939],[126.89191,37.63937],[126.89198,37.63935],[126.89199,37.63935],[126.89204,37.63933],[126.89207,37.63931],[126.89212,37.63923],[126.89212,37.63922],[126.89213,37.63915],[126.89219,37.63848],[126.8925,37.63817]]}},{"type":"Feature","properties":{"class":"alley","highway":"service","sidewalk":"unknown","lanes":0,"name":"","oneway":false},"geometry":{"type":"LineString","coordinates":[[126.88885,37.63494],[126.88904,37.6352],[126.88891,37.63527]]}},{"type":"Feature","properties":{"class":"alley","highway":"service","sidewalk":"unknown","lanes":0,"name":"","oneway":false},"geometry":{"type":"LineString","coordinates":[[126.88868,37.63546],[126.88897,37.63533],[126.88891,37.63527],[126.88872,37.63504],[126.88873,37.63498]]}},{"type":"Feature","properties":{"class":"alley","highway":"service","sidewalk":"unknown","lanes":0,"name":"","oneway":false},"geometry":{"type":"LineString","coordinates":[[126.8901,37.63532],[126.88859,37.63599],[126.88839,37.63607],[126.88847,37.63621]]}},{"type":"Feature","properties":{"class":"alley","highway":"service","sidewalk":"unknown","lanes":0,"name":"","oneway":false},"geometry":{"type":"LineString","coordinates":[[126.89034,37.63559],[126.89166,37.63493]]}},{"type":"Feature","properties":{"class":"alley","highway":"service","sidewalk":"unknown","lanes":0,"name":"","oneway":false},"geometry":{"type":"LineString","coordinates":[[126.89073,37.6357],[126.8918,37.63517],[126.89182,37.63514],[126.89181,37.63513],[126.89166,37.63493],[126.89161,37.63487],[126.89143,37.63464]]}},{"type":"Feature","properties":{"class":"alley","highway":"service","sidewalk":"unknown","lanes":0,"name":"","oneway":false},"geometry":{"type":"LineString","coordinates":[[126.89126,37.63601],[126.89135,37.63609],[126.89141,37.63614],[126.89147,37.63619],[126.89154,37.63624],[126.89161,37.63627],[126.89176,37.63633],[126.89189,37.63639],[126.89201,37.63646],[126.89208,37.63651],[126.89214,37.63656],[126.89219,37.63662],[126.89221,37.63666],[126.89222,37.63669],[126.89226,37.63673],[126.8924,37.63687],[126.89246,37.63693],[126.89254,37.637],[126.89259,37.63706],[126.89265,37.63714],[126.89271,37.63722],[126.89276,37.63731],[126.89279,37.63737],[126.89279,37.63745],[126.89279,37.63753],[126.89279,37.63761],[126.89281,37.63769],[126.89284,37.63781],[126.89289,37.63788],[126.89297,37.63798],[126.89305,37.63805],[126.89309,37.63811],[126.89312,37.63816],[126.89311,37.63819],[126.89307,37.63822],[126.89295,37.63833],[126.89287,37.63839],[126.89283,37.63844],[126.8928,37.63848],[126.89277,37.63854],[126.89272,37.63861],[126.89269,37.6387],[126.89266,37.63878],[126.89267,37.63882],[126.89272,37.63884],[126.89273,37.63884],[126.89282,37.63886]]}},{"type":"Feature","properties":{"class":"alley","highway":"service","sidewalk":"unknown","lanes":0,"name":"","oneway":false},"geometry":{"type":"LineString","coordinates":[[126.89272,37.63884],[126.89212,37.63922]]}},{"type":"Feature","properties":{"class":"alley","highway":"service","sidewalk":"unknown","lanes":0,"name":"","oneway":false},"geometry":{"type":"LineString","coordinates":[[126.89273,37.63884],[126.89287,37.63941],[126.89315,37.63957]]}},{"type":"Feature","properties":{"class":"alley","highway":"service","sidewalk":"unknown","lanes":0,"name":"","oneway":false},"geometry":{"type":"LineString","coordinates":[[126.89226,37.63989],[126.8926,37.63999],[126.89298,37.63999],[126.89325,37.64001],[126.89392,37.63988],[126.89404,37.63986],[126.89429,37.63985]]}},{"type":"Feature","properties":{"class":"alley","highway":"service","sidewalk":"unknown","lanes":0,"name":"","oneway":false},"geometry":{"type":"LineString","coordinates":[[126.89351,37.63953],[126.89396,37.63933]]}},{"type":"Feature","properties":{"class":"alley","highway":"service","sidewalk":"unknown","lanes":0,"name":"","oneway":false},"geometry":{"type":"LineString","coordinates":[[126.89282,37.63886],[126.89286,37.63883],[126.8929,37.63876],[126.893,37.63859],[126.89306,37.63855],[126.89319,37.63852]]}},{"type":"Feature","properties":{"class":"alley","highway":"service","sidewalk":"unknown","lanes":0,"name":"","oneway":false},"geometry":{"type":"LineString","coordinates":[[126.8929,37.63876],[126.89317,37.63876],[126.89332,37.63879],[126.8934,37.63884]]}},{"type":"Feature","properties":{"class":"alley","highway":"service","sidewalk":"unknown","lanes":0,"name":"","oneway":false},"geometry":{"type":"LineString","coordinates":[[126.89148,37.63935],[126.89153,37.63944],[126.89158,37.63948],[126.89163,37.63951],[126.89169,37.63955],[126.89173,37.6396],[126.89178,37.63965],[126.89181,37.6397],[126.89189,37.63982]]}},{"type":"Feature","properties":{"class":"alley","highway":"service","sidewalk":"unknown","lanes":0,"name":"","oneway":false},"geometry":{"type":"LineString","coordinates":[[126.89198,37.63935],[126.89205,37.63938],[126.89207,37.6394],[126.89207,37.63942],[126.89207,37.63962]]}},{"type":"Feature","properties":{"class":"alley","highway":"service","sidewalk":"unknown","lanes":0,"name":"","oneway":false},"geometry":{"type":"LineString","coordinates":[[126.8876,37.6371],[126.88756,37.637],[126.88754,37.63696],[126.88754,37.63691],[126.88754,37.63685],[126.88755,37.63679],[126.88757,37.63674]]}},{"type":"Feature","properties":{"class":"alley","highway":"service","sidewalk":"unknown","lanes":0,"name":"","oneway":false},"geometry":{"type":"LineString","coordinates":[[126.88757,37.63674],[126.88721,37.63635]]}},{"type":"Feature","properties":{"class":"alley","highway":"service","sidewalk":"unknown","lanes":0,"name":"","oneway":false},"geometry":{"type":"LineString","coordinates":[[126.88721,37.63635],[126.88717,37.63632],[126.88713,37.63631],[126.88708,37.6363],[126.88704,37.6363],[126.88696,37.63631],[126.88681,37.63635],[126.88675,37.63637],[126.88668,37.63638],[126.88663,37.63639],[126.88658,37.63639],[126.88652,37.6364],[126.88646,37.63642],[126.88626,37.6365]]}},{"type":"Feature","properties":{"class":"alley","highway":"service","sidewalk":"unknown","lanes":0,"name":"","oneway":false},"geometry":{"type":"LineString","coordinates":[[126.88626,37.6365],[126.88622,37.6365],[126.88619,37.63648],[126.88615,37.63646],[126.88594,37.63625],[126.88592,37.63624],[126.8859,37.63623],[126.88587,37.63622],[126.88584,37.63621],[126.88581,37.63621],[126.88579,37.63621],[126.88576,37.63621],[126.88573,37.6362],[126.88569,37.63618],[126.88559,37.63612]]}},{"type":"Feature","properties":{"class":"alley","highway":"service","sidewalk":"unknown","lanes":0,"name":"","oneway":false},"geometry":{"type":"LineString","coordinates":[[126.88626,37.6365],[126.88625,37.63652],[126.88625,37.63654],[126.88627,37.63658],[126.88642,37.63673],[126.88644,37.63675],[126.88644,37.63678],[126.88643,37.6368],[126.88638,37.63699]]}},{"type":"Feature","properties":{"class":"alley","highway":"service","sidewalk":"unknown","lanes":0,"name":"","oneway":false},"geometry":{"type":"LineString","coordinates":[[126.88772,37.63767],[126.88735,37.63786],[126.88714,37.63797],[126.88706,37.63801],[126.88698,37.63805],[126.8867,37.63822],[126.88661,37.63827],[126.88657,37.63832],[126.88655,37.63837],[126.88656,37.63842],[126.8866,37.63846],[126.88665,37.63847],[126.8867,37.63847]]}},{"type":"Feature","properties":{"class":"alley","highway":"service","sidewalk":"unknown","lanes":0,"name":"","oneway":false},"geometry":{"type":"LineString","coordinates":[[126.88735,37.63786],[126.8872,37.63783],[126.88716,37.63782],[126.88712,37.63779],[126.88694,37.63762],[126.88686,37.63753],[126.88684,37.6375],[126.88679,37.63744]]}},{"type":"Feature","properties":{"class":"alley","highway":"service","sidewalk":"unknown","lanes":0,"name":"","oneway":false},"geometry":{"type":"LineString","coordinates":[[126.88684,37.6375],[126.88678,37.6375],[126.88673,37.63747],[126.88666,37.63743],[126.88655,37.63734],[126.8865,37.63729],[126.88645,37.63723],[126.8864,37.63718],[126.88638,37.63717],[126.88633,37.63714],[126.88623,37.6371],[126.8861,37.63703],[126.88598,37.63697],[126.8859,37.63692],[126.88582,37.63686],[126.88567,37.63674],[126.88556,37.63662],[126.88544,37.6365],[126.88541,37.63645],[126.88539,37.63638],[126.88538,37.63631],[126.8854,37.63627],[126.88542,37.63622],[126.88548,37.63618],[126.88556,37.63614],[126.88559,37.63612],[126.88569,37.63609],[126.88584,37.63605],[126.88594,37.63602],[126.8862,37.63598],[126.88628,37.63596],[126.88647,37.63598],[126.88656,37.63598],[126.88664,37.636],[126.88675,37.63603],[126.88685,37.63607],[126.88694,37.63611],[126.88704,37.63615],[126.88712,37.63619],[126.88718,37.6362],[126.8873,37.63621],[126.88738,37.63621],[126.88745,37.63621],[126.88752,37.63618],[126.88756,37.63615],[126.88759,37.63614],[126.88764,37.63615],[126.88768,37.63618],[126.88772,37.63622]]}},{"type":"Feature","properties":{"class":"alley","highway":"service","sidewalk":"unknown","lanes":0,"name":"","oneway":false},"geometry":{"type":"LineString","coordinates":[[126.88706,37.63801],[126.88797,37.63906],[126.888,37.63909]]}},{"type":"Feature","properties":{"class":"alley","highway":"service","sidewalk":"unknown","lanes":0,"name":"","oneway":false},"geometry":{"type":"LineString","coordinates":[[126.88797,37.63906],[126.88815,37.63911],[126.88818,37.63912],[126.88829,37.63917],[126.88843,37.63925],[126.88855,37.63934],[126.88865,37.63943],[126.88872,37.6395],[126.88929,37.64019],[126.88936,37.64028],[126.88937,37.64031],[126.88941,37.64036],[126.88942,37.64039],[126.88953,37.64053],[126.88966,37.64069],[126.88975,37.64079],[126.88906,37.64099],[126.88903,37.64097],[126.88902,37.64094],[126.88902,37.6409],[126.88907,37.64076],[126.88913,37.64064],[126.88922,37.6405],[126.88928,37.6404],[126.88932,37.64035],[126.88937,37.64031]]}},{"type":"Feature","properties":{"class":"alley","highway":"service","sidewalk":"unknown","lanes":0,"name":"","oneway":false},"geometry":{"type":"LineString","coordinates":[[126.888,37.63909],[126.88803,37.63914],[126.88845,37.63973],[126.88847,37.63978],[126.88847,37.6398],[126.88846,37.63984],[126.88843,37.63987],[126.88837,37.63991],[126.88786,37.64014],[126.88777,37.64022],[126.88799,37.64061],[126.88799,37.64099],[126.88806,37.64114],[126.8881,37.64118],[126.88817,37.6412],[126.88865,37.64125],[126.88875,37.64127],[126.88883,37.64128],[126.8889,37.6413],[126.88899,37.6413],[126.88909,37.64129],[126.8892,37.64128],[126.88929,37.64127],[126.88939,37.64122],[126.88953,37.64119],[126.88966,37.64117],[126.88985,37.64109],[126.89017,37.64097],[126.89026,37.64091]]}},{"type":"Feature","properties":{"class":"alley","highway":"service","sidewalk":"unknown","lanes":0,"name":"","oneway":false},"geometry":{"type":"LineString","coordinates":[[126.88803,37.63914],[126.8874,37.63942]]}},{"type":"Feature","properties":{"class":"alley","highway":"service","sidewalk":"unknown","lanes":0,"name":"","oneway":false},"geometry":{"type":"LineString","coordinates":[[126.8867,37.63847],[126.88675,37.63845],[126.88679,37.63846],[126.88741,37.63913],[126.8874,37.63917],[126.88736,37.6392],[126.88733,37.63925],[126.88733,37.63929],[126.88734,37.63934],[126.8874,37.63942],[126.88748,37.63947],[126.88753,37.63951],[126.8876,37.63953],[126.88766,37.63955],[126.88774,37.63961],[126.88788,37.6398]]}},{"type":"Feature","properties":{"class":"alley","highway":"service","sidewalk":"unknown","lanes":0,"name":"","oneway":false},"geometry":{"type":"LineString","coordinates":[[126.88755,37.63727],[126.88731,37.63738]]}},{"type":"Feature","properties":{"class":"alley","highway":"service","sidewalk":"unknown","lanes":0,"name":"","oneway":false},"geometry":{"type":"LineString","coordinates":[[126.88882,37.63734],[126.88849,37.6375],[126.88859,37.63763],[126.88879,37.63753],[126.88882,37.6375],[126.88891,37.63745],[126.88887,37.63739],[126.88882,37.63734],[126.88844,37.63685],[126.88828,37.63674]]}},{"type":"Feature","properties":{"class":"alley","highway":"service","sidewalk":"unknown","lanes":0,"name":"","oneway":false},"geometry":{"type":"LineString","coordinates":[[126.89122,37.63666],[126.89136,37.63664],[126.89153,37.63664],[126.89158,37.63667],[126.89161,37.63668],[126.89164,37.63668],[126.89173,37.6366]]}},{"type":"Feature","properties":{"class":"alley","highway":"service","sidewalk":"unknown","lanes":0,"name":"","oneway":false},"geometry":{"type":"LineString","coordinates":[[126.89168,37.63657],[126.89173,37.6366],[126.8919,37.63671]]}},{"type":"Feature","properties":{"class":"alley","highway":"service","sidewalk":"unknown","lanes":0,"name":"","oneway":false},"geometry":{"type":"LineString","coordinates":[[126.89123,37.63899],[126.89124,37.63898],[126.89165,37.63878]]}},{"type":"Feature","properties":{"class":"alley","highway":"service","sidewalk":"unknown","lanes":0,"name":"","oneway":false},"geometry":{"type":"LineString","coordinates":[[126.89124,37.63898],[126.89143,37.63912],[126.89144,37.63913],[126.89147,37.63916],[126.89151,37.6392],[126.89154,37.63921],[126.89157,37.63923],[126.8916,37.63923],[126.89164,37.63923],[126.89168,37.63921],[126.89172,37.63919],[126.89174,37.63917],[126.89176,37.63913],[126.89176,37.6391],[126.89176,37.63906],[126.89175,37.63904],[126.89144,37.63913]]}},{"type":"Feature","properties":{"class":"alley","highway":"service","sidewalk":"unknown","lanes":0,"name":"","oneway":false},"geometry":{"type":"LineString","coordinates":[[126.88958,37.63858],[126.88966,37.63869],[126.88998,37.6391]]}},{"type":"Feature","properties":{"class":"alley","highway":"service","sidewalk":"unknown","lanes":0,"name":"","oneway":false},"geometry":{"type":"LineString","coordinates":[[126.88966,37.63869],[126.89005,37.63849],[126.89011,37.63846]]}},{"type":"Feature","properties":{"class":"alley","highway":"service","sidewalk":"unknown","lanes":0,"name":"","oneway":false},"geometry":{"type":"LineString","coordinates":[[126.89037,37.63819],[126.89045,37.63828],[126.89055,37.63839],[126.89069,37.63857],[126.89075,37.63864],[126.89097,37.63892],[126.89109,37.63903],[126.89113,37.63906]]}},{"type":"Feature","properties":{"class":"alley","highway":"service","sidewalk":"unknown","lanes":0,"name":"","oneway":false},"geometry":{"type":"LineString","coordinates":[[126.89037,37.63819],[126.89034,37.63837]]}},{"type":"Feature","properties":{"class":"alley","highway":"service","sidewalk":"unknown","lanes":0,"name":"","oneway":true},"geometry":{"type":"LineString","coordinates":[[126.88873,37.63895],[126.88865,37.639],[126.88863,37.639],[126.88862,37.639],[126.8886,37.63899],[126.88858,37.63898],[126.88814,37.63847],[126.88813,37.63845],[126.88813,37.63844],[126.88814,37.63841],[126.88816,37.6384],[126.88818,37.63837],[126.88823,37.63834]]}},{"type":"Feature","properties":{"class":"alley","highway":"service","sidewalk":"unknown","lanes":0,"name":"","oneway":true},"geometry":{"type":"LineString","coordinates":[[126.88813,37.63845],[126.88806,37.63837]]}},{"type":"Feature","properties":{"class":"alley","highway":"service","sidewalk":"unknown","lanes":0,"name":"","oneway":true},"geometry":{"type":"LineString","coordinates":[[126.88865,37.639],[126.88856,37.63904],[126.88869,37.63919]]}},{"type":"Feature","properties":{"class":"alley","highway":"service","sidewalk":"unknown","lanes":0,"name":"","oneway":false},"geometry":{"type":"LineString","coordinates":[[126.88826,37.63837],[126.88827,37.63835],[126.88829,37.63833],[126.88831,37.63832],[126.88833,37.63832],[126.88835,37.63833],[126.88836,37.63834],[126.88843,37.63842],[126.88856,37.63836],[126.88867,37.63848],[126.8887,37.63851],[126.88885,37.63868],[126.88896,37.63882],[126.88896,37.63884],[126.88896,37.63885],[126.88894,37.63886],[126.88891,37.63887],[126.88893,37.6389]]}},{"type":"Feature","properties":{"class":"alley","highway":"service","sidewalk":"unknown","lanes":0,"name":"","oneway":false},"geometry":{"type":"LineString","coordinates":[[126.88923,37.63875],[126.88911,37.63862]]}},{"type":"Feature","properties":{"class":"alley","highway":"service","sidewalk":"unknown","lanes":0,"name":"","oneway":false},"geometry":{"type":"LineString","coordinates":[[126.88936,37.6369],[126.88895,37.6371],[126.88916,37.63737],[126.88901,37.63744]]}},{"type":"Feature","properties":{"class":"alley","highway":"service","sidewalk":"unknown","lanes":0,"name":"","oneway":false},"geometry":{"type":"LineString","coordinates":[[126.89069,37.63857],[126.89026,37.63875],[126.89044,37.63899]]}},{"type":"Feature","properties":{"class":"alley","highway":"service","sidewalk":"unknown","lanes":0,"name":"","oneway":false},"geometry":{"type":"LineString","coordinates":[[126.89026,37.63875],[126.89005,37.63849]]}},{"type":"Feature","properties":{"class":"alley","highway":"service","sidewalk":"unknown","lanes":0,"name":"","oneway":false},"geometry":{"type":"LineString","coordinates":[[126.88989,37.63757],[126.88949,37.63778],[126.88957,37.63789]]}},{"type":"Feature","properties":{"class":"alley","highway":"service","sidewalk":"unknown","lanes":0,"name":"","oneway":false},"geometry":{"type":"LineString","coordinates":[[126.88949,37.63778],[126.88933,37.63759],[126.88899,37.63775],[126.88872,37.63787],[126.88859,37.63794],[126.88838,37.63799]]}},{"type":"Feature","properties":{"class":"alley","highway":"service","sidewalk":"unknown","lanes":0,"name":"","oneway":false},"geometry":{"type":"LineString","coordinates":[[126.88899,37.63775],[126.88955,37.63843]]}},{"type":"Feature","properties":{"class":"alley","highway":"service","sidewalk":"unknown","lanes":0,"name":"","oneway":false},"geometry":{"type":"LineString","coordinates":[[126.88955,37.63843],[126.88989,37.63827],[126.88986,37.63823]]}},{"type":"Feature","properties":{"class":"alley","highway":"service","sidewalk":"unknown","lanes":0,"name":"","oneway":false},"geometry":{"type":"LineString","coordinates":[[126.88872,37.63787],[126.88902,37.63824],[126.88927,37.63854]]}},{"type":"Feature","properties":{"class":"alley","highway":"service","sidewalk":"unknown","lanes":0,"name":"","oneway":false},"geometry":{"type":"LineString","coordinates":[[126.88902,37.63824],[126.88905,37.6385]]}},{"type":"Feature","properties":{"class":"alley","highway":"service","sidewalk":"unknown","lanes":0,"name":"","oneway":false},"geometry":{"type":"LineString","coordinates":[[126.88787,37.63741],[126.88789,37.63741],[126.88804,37.63733],[126.88813,37.63745]]}},{"type":"Feature","properties":{"class":"alley","highway":"service","sidewalk":"unknown","lanes":0,"name":"","oneway":false},"geometry":{"type":"LineString","coordinates":[[126.88789,37.63741],[126.88823,37.63783],[126.88839,37.63776],[126.88827,37.6376],[126.88834,37.63757]]}},{"type":"Feature","properties":{"class":"alley","highway":"service","sidewalk":"unknown","lanes":0,"name":"","oneway":false},"geometry":{"type":"LineString","coordinates":[[126.88818,37.6368],[126.88807,37.63671],[126.88805,37.63668],[126.888,37.63661],[126.88772,37.63622]]}},{"type":"Feature","properties":{"class":"alley","highway":"service","sidewalk":"unknown","lanes":0,"name":"","oneway":false},"geometry":{"type":"LineString","coordinates":[[126.88805,37.63668],[126.88786,37.63677],[126.88781,37.6367],[126.888,37.63661]]}},{"type":"Feature","properties":{"class":"alley","highway":"service","sidewalk":"unknown","lanes":0,"name":"","oneway":false},"geometry":{"type":"LineString","coordinates":[[126.88781,37.6367],[126.88779,37.6367],[126.88776,37.63666]]}},{"type":"Feature","properties":{"class":"alley","highway":"service","sidewalk":"unknown","lanes":0,"name":"","oneway":false},"geometry":{"type":"LineString","coordinates":[[126.88734,37.63934],[126.88738,37.63965],[126.88745,37.63978]]}},{"type":"Feature","properties":{"class":"alley","highway":"service","sidewalk":"unknown","lanes":0,"name":"","oneway":false},"geometry":{"type":"LineString","coordinates":[[126.88847,37.6398],[126.88867,37.64006],[126.8887,37.64007],[126.88873,37.64008],[126.88878,37.64008]]}},{"type":"Feature","properties":{"class":"alley","highway":"service","sidewalk":"unknown","lanes":0,"name":"","oneway":false},"geometry":{"type":"LineString","coordinates":[[126.89429,37.63985],[126.89449,37.63985],[126.89452,37.63985],[126.89458,37.63986],[126.89466,37.63987],[126.89472,37.63986],[126.89479,37.63985],[126.89485,37.63984],[126.89492,37.63984]]}},{"type":"Feature","properties":{"class":"alley","highway":"service","sidewalk":"unknown","lanes":0,"name":"","oneway":false},"geometry":{"type":"LineString","coordinates":[[126.89452,37.63985],[126.89435,37.63937],[126.89432,37.63929],[126.8943,37.63925],[126.89427,37.63921],[126.89424,37.63918],[126.89422,37.63917]]}},{"type":"Feature","properties":{"class":"alley","highway":"service","sidewalk":"unknown","lanes":0,"name":"","oneway":false},"geometry":{"type":"LineString","coordinates":[[126.89188,37.63516],[126.89218,37.63501],[126.8923,37.63513],[126.8924,37.63524],[126.89255,37.63545],[126.8923,37.63558],[126.89228,37.63558],[126.89226,37.63558],[126.89224,37.63557],[126.89223,37.63556]]}},{"type":"Feature","properties":{"class":"alley","highway":"service","sidewalk":"unknown","lanes":0,"name":"","oneway":false},"geometry":{"type":"LineString","coordinates":[[126.88873,37.63652],[126.8887,37.63648]]}},{"type":"Feature","properties":{"class":"alley","highway":"service","sidewalk":"unknown","lanes":0,"name":"","oneway":false},"geometry":{"type":"LineString","coordinates":[[126.88663,37.63546],[126.88667,37.63547],[126.88671,37.63549],[126.88678,37.6355],[126.88685,37.63551],[126.88692,37.63553],[126.88699,37.63554],[126.88705,37.63555],[126.88712,37.63556],[126.88719,37.63556],[126.88722,37.63556],[126.88726,37.63557],[126.88734,37.63557],[126.88744,37.63556],[126.8875,37.63556],[126.8876,37.63556],[126.88767,37.63555],[126.88776,37.63554],[126.88785,37.63552],[126.8879,37.63551],[126.88795,37.6355],[126.88806,37.63547],[126.88814,37.63544],[126.88826,37.63539],[126.88835,37.63534],[126.88847,37.63528]]}},{"type":"Feature","properties":{"class":"alley","highway":"service","sidewalk":"unknown","lanes":0,"name":"","oneway":false},"geometry":{"type":"LineString","coordinates":[[126.88649,37.63572],[126.88655,37.63575],[126.88663,37.63577],[126.8867,37.63578],[126.88679,37.6358],[126.88685,37.63581],[126.887,37.63583],[126.88717,37.63584],[126.8872,37.63584],[126.8873,37.63585],[126.88743,37.63585],[126.88757,37.63584],[126.88776,37.63583],[126.88782,37.63582],[126.88787,37.63581],[126.88791,37.6358],[126.88793,37.63577],[126.88795,37.63574],[126.88795,37.63571],[126.88795,37.63567],[126.8879,37.63551],[126.88782,37.63522]]}},{"type":"Feature","properties":{"class":"alley","highway":"service","sidewalk":"unknown","lanes":0,"name":"","oneway":false},"geometry":{"type":"LineString","coordinates":[[126.8872,37.63584],[126.88722,37.63556],[126.88725,37.63527]]}},{"type":"Feature","properties":{"class":"major","highway":"primary","sidewalk":"likely","lanes":2,"name":"덕양로","oneway":false},"geometry":{"type":"LineString","coordinates":[[126.88063,37.62213],[126.88043,37.62218],[126.8798,37.62229],[126.8792,37.62241],[126.87564,37.62313]]}},{"type":"Feature","properties":{"class":"major","highway":"primary","sidewalk":"likely","lanes":2,"name":"","oneway":false},"geometry":{"type":"LineString","coordinates":[[126.88128,37.62201],[126.88086,37.62209],[126.88063,37.62213]]}},{"type":"Feature","properties":{"class":"major","highway":"secondary","sidewalk":"likely","lanes":1,"name":"용두로121번길","oneway":false},"geometry":{"type":"LineString","coordinates":[[126.88984,37.62618],[126.88984,37.62622],[126.88989,37.62762]]}},{"type":"Feature","properties":{"class":"major","highway":"secondary","sidewalk":"likely","lanes":1,"name":"","oneway":false},"geometry":{"type":"LineString","coordinates":[[126.88983,37.62606],[126.88984,37.62618]]}},{"type":"Feature","properties":{"class":"minor","highway":"unclassified","sidewalk":"unknown","lanes":0,"name":"화랑로","oneway":false},"geometry":{"type":"LineString","coordinates":[[126.88163,37.63339],[126.88196,37.63364],[126.88219,37.63386],[126.88238,37.63424],[126.88262,37.63498],[126.88257,37.63527]]}},{"type":"Feature","properties":{"class":"minor","highway":"unclassified","sidewalk":"unknown","lanes":0,"name":"","oneway":false},"geometry":{"type":"LineString","coordinates":[[126.88303,37.62978],[126.88312,37.62993],[126.88314,37.62996],[126.88327,37.6301],[126.88361,37.63031],[126.88374,37.6303],[126.88423,37.62983]]}},{"type":"Feature","properties":{"class":"minor","highway":"unclassified","sidewalk":"unknown","lanes":0,"name":"","oneway":false},"geometry":{"type":"LineString","coordinates":[[126.88488,37.62895],[126.88494,37.62904],[126.88508,37.62924],[126.8852,37.6294],[126.8853,37.62961],[126.88535,37.62978],[126.88543,37.63007],[126.88541,37.63026],[126.8854,37.63039],[126.88545,37.63073],[126.88546,37.63091],[126.8854,37.63097]]}},{"type":"Feature","properties":{"class":"minor","highway":"unclassified","sidewalk":"unknown","lanes":0,"name":"","oneway":false},"geometry":{"type":"LineString","coordinates":[[126.88148,37.63175],[126.88141,37.6317],[126.88125,37.63159],[126.88102,37.63081],[126.88099,37.63073]]}},{"type":"Feature","properties":{"class":"minor","highway":"unclassified","sidewalk":"unknown","lanes":0,"name":"","oneway":false},"geometry":{"type":"LineString","coordinates":[[126.88176,37.62926],[126.88204,37.62926],[126.88232,37.62928],[126.88257,37.62924],[126.88282,37.62918],[126.88318,37.62917],[126.88359,37.6292],[126.88391,37.62926],[126.88395,37.62929],[126.88399,37.62934]]}},{"type":"Feature","properties":{"class":"minor","highway":"unclassified","sidewalk":"unknown","lanes":0,"name":"","oneway":false},"geometry":{"type":"LineString","coordinates":[[126.88737,37.62788],[126.88711,37.62759],[126.88709,37.62756]]}},{"type":"Feature","properties":{"class":"minor","highway":"unclassified","sidewalk":"unknown","lanes":0,"name":"","oneway":false},"geometry":{"type":"LineString","coordinates":[[126.88709,37.62756],[126.88697,37.62741]]}},{"type":"Feature","properties":{"class":"minor","highway":"unclassified","sidewalk":"unknown","lanes":0,"name":"","oneway":false},"geometry":{"type":"LineString","coordinates":[[126.88697,37.62741],[126.88694,37.62738]]}},{"type":"Feature","properties":{"class":"minor","highway":"unclassified","sidewalk":"unknown","lanes":0,"name":"","oneway":false},"geometry":{"type":"LineString","coordinates":[[126.88407,37.6293],[126.88398,37.62913],[126.88368,37.62872],[126.88397,37.62862],[126.8844,37.62856],[126.8846,37.62852],[126.88478,37.62843],[126.8851,37.62816],[126.88532,37.62796],[126.88551,37.62781],[126.88577,37.62769],[126.88604,37.62762],[126.88643,37.62764],[126.88682,37.62766],[126.88711,37.62759],[126.88737,37.62739],[126.88765,37.62727],[126.88797,37.62721],[126.88844,37.6271],[126.88873,37.627],[126.88896,37.62682],[126.88916,37.62653],[126.88933,37.62637],[126.88955,37.62627],[126.88984,37.62622]]}},{"type":"Feature","properties":{"class":"minor","highway":"unclassified","sidewalk":"unknown","lanes":0,"name":"","oneway":false},"geometry":{"type":"LineString","coordinates":[[126.89515,37.62659],[126.89508,37.62654],[126.89504,37.62653],[126.89501,37.62653],[126.89445,37.6266],[126.89415,37.62659],[126.89375,37.62655],[126.89265,37.62637],[126.89221,37.62617],[126.89133,37.62593],[126.89073,37.62592],[126.88983,37.62602]]}},{"type":"Feature","properties":{"class":"minor","highway":"residential","sidewalk":"unknown","lanes":0,"name":"용두로47번길","oneway":false},"geometry":{"type":"LineString","coordinates":[[126.89206,37.62583],[126.89197,37.6255],[126.89196,37.6253],[126.89203,37.62512],[126.89252,37.62495],[126.89292,37.62495]]}},{"type":"Feature","properties":{"class":"minor","highway":"residential","sidewalk":"unknown","lanes":0,"name":"서오릉로","oneway":false},"geometry":{"type":"LineString","coordinates":[[126.89738,37.62599],[126.89735,37.62615],[126.89633,37.62723],[126.89601,37.62702],[126.89573,37.6269],[126.89544,37.62668],[126.89532,37.62659]]}},{"type":"Feature","properties":{"class":"minor","highway":"residential","sidewalk":"unknown","lanes":0,"name":"","oneway":false},"geometry":{"type":"LineString","coordinates":[[126.89633,37.62723],[126.8959,37.62774],[126.89551,37.62783]]}},{"type":"Feature","properties":{"class":"minor","highway":"residential","sidewalk":"unknown","lanes":0,"name":"","oneway":false},"geometry":{"type":"LineString","coordinates":[[126.89337,37.62069],[126.89338,37.62078],[126.89327,37.62096]]}},{"type":"Feature","properties":{"class":"minor","highway":"residential","sidewalk":"unknown","lanes":0,"name":"용두로","oneway":false},"geometry":{"type":"LineString","coordinates":[[126.89115,37.62045],[126.89103,37.62067],[126.89087,37.62097],[126.8907,37.62133]]}},{"type":"Feature","properties":{"class":"minor","highway":"residential","sidewalk":"unknown","lanes":0,"name":"","oneway":false},"geometry":{"type":"LineString","coordinates":[[126.89048,37.6224],[126.89042,37.6224],[126.89033,37.62221],[126.89013,37.62209],[126.88981,37.62179]]}},{"type":"Feature","properties":{"class":"minor","highway":"residential","sidewalk":"unknown","lanes":0,"name":"용두로47번길","oneway":false},"geometry":{"type":"LineString","coordinates":[[126.88773,37.62334],[126.88802,37.6237],[126.88821,37.62387],[126.88822,37.62403],[126.88798,37.62421],[126.88767,37.62436],[126.8874,37.62451]]}},{"type":"Feature","properties":{"class":"minor","highway":"residential","sidewalk":"unknown","lanes":0,"name":"용두로35번길","oneway":false},"geometry":{"type":"LineString","coordinates":[[126.88743,37.62457],[126.8872,37.62445],[126.88674,37.62431],[126.88629,37.6241],[126.88588,37.62431],[126.88573,37.62444],[126.88555,37.6245],[126.88531,37.62451]]}},{"type":"Feature","properties":{"class":"minor","highway":"residential","sidewalk":"unknown","lanes":0,"name":"용두로47번길","oneway":false},"geometry":{"type":"LineString","coordinates":[[126.88737,37.62389],[126.88731,37.62408],[126.8872,37.62413]]}},{"type":"Feature","properties":{"class":"minor","highway":"residential","sidewalk":"unknown","lanes":0,"name":"화랑로332번길","oneway":false},"geometry":{"type":"LineString","coordinates":[[126.88225,37.62483],[126.88233,37.62528]]}},{"type":"Feature","properties":{"class":"minor","highway":"unclassified","sidewalk":"unknown","lanes":0,"name":"","oneway":false},"geometry":{"type":"LineString","coordinates":[[126.88676,37.62295],[126.88679,37.62277],[126.88672,37.62249],[126.88659,37.62224]]}},{"type":"Feature","properties":{"class":"minor","highway":"unclassified","sidewalk":"unknown","lanes":0,"name":"","oneway":false},"geometry":{"type":"LineString","coordinates":[[126.88981,37.62179],[126.88979,37.62159],[126.88995,37.62128],[126.89006,37.62105],[126.89008,37.62088],[126.89003,37.62065]]}},{"type":"Feature","properties":{"class":"minor","highway":"unclassified","sidewalk":"unknown","lanes":0,"name":"화랑로286번길","oneway":false},"geometry":{"type":"LineString","coordinates":[[126.89017,37.62044],[126.89018,37.62032],[126.89016,37.6202],[126.88935,37.61954]]}},{"type":"Feature","properties":{"class":"minor","highway":"unclassified","sidewalk":"unknown","lanes":0,"name":"용두로","oneway":false},"geometry":{"type":"LineString","coordinates":[[126.89814,37.62346],[126.89809,37.62306],[126.89825,37.6228],[126.89844,37.62262],[126.89865,37.62242],[126.89886,37.62221],[126.899,37.6217],[126.89919,37.6215],[126.89918,37.62134],[126.89935,37.62104],[126.89939,37.62085],[126.89935,37.62062],[126.89937,37.6203],[126.89936,37.62012]]}},{"type":"Feature","properties":{"class":"minor","highway":"unclassified","sidewalk":"unknown","lanes":0,"name":"","oneway":false},"geometry":{"type":"LineString","coordinates":[[126.88147,37.62339],[126.88136,37.62352],[126.88132,37.62366],[126.88129,37.62381]]}},{"type":"Feature","properties":{"class":"minor","highway":"unclassified","sidewalk":"unknown","lanes":0,"name":"","oneway":false},"geometry":{"type":"LineString","coordinates":[[126.88102,37.62339],[126.88116,37.62341],[126.88133,37.6234],[126.88147,37.62332]]}},{"type":"Feature","properties":{"class":"minor","highway":"residential","sidewalk":"unknown","lanes":0,"name":"서오릉로532번길","oneway":false},"geometry":{"type":"LineString","coordinates":[[126.88509,37.63277],[126.88493,37.63295]]}},{"type":"Feature","properties":{"class":"minor","highway":"unclassified","sidewalk":"unknown","lanes":0,"name":"","oneway":false},"geometry":{"type":"LineString","coordinates":[[126.88038,37.63101],[126.88039,37.63104],[126.8804,37.63108],[126.88038,37.63113],[126.88035,37.63116],[126.87981,37.63139]]}},{"type":"Feature","properties":{"class":"major","highway":"primary","sidewalk":"likely","lanes":8,"name":"서오릉로","oneway":false},"geometry":{"type":"LineString","coordinates":[[126.88052,37.63088],[126.88098,37.63067],[126.88105,37.63063],[126.88156,37.63042],[126.88176,37.63032]]}},{"type":"Feature","properties":{"class":"minor","highway":"residential","sidewalk":"unknown","lanes":0,"name":"용두로","oneway":false},"geometry":{"type":"LineString","coordinates":[[126.8834,37.62359],[126.88365,37.62395]]}},{"type":"Feature","properties":{"class":"minor","highway":"unclassified","sidewalk":"unknown","lanes":0,"name":"","oneway":false},"geometry":{"type":"LineString","coordinates":[[126.89758,37.62319],[126.89742,37.62338],[126.89714,37.62383],[126.89688,37.62395]]}},{"type":"Feature","properties":{"class":"minor","highway":"residential","sidewalk":"unknown","lanes":0,"name":"서오릉로","oneway":false},"geometry":{"type":"LineString","coordinates":[[126.88884,37.62768],[126.88893,37.6279],[126.88899,37.62822],[126.88897,37.6283],[126.88891,37.6284],[126.88883,37.62845],[126.88818,37.62849]]}},{"type":"Feature","properties":{"class":"minor","highway":"residential","sidewalk":"unknown","lanes":0,"name":"서오릉로","oneway":false},"geometry":{"type":"LineString","coordinates":[[126.892,37.62783],[126.89197,37.62801],[126.89182,37.62812],[126.89157,37.62824],[126.89152,37.62835],[126.89127,37.62851],[126.89074,37.62855],[126.89029,37.62859],[126.8899,37.62862]]}},{"type":"Feature","properties":{"class":"minor","highway":"residential","sidewalk":"unknown","lanes":0,"name":"","oneway":false},"geometry":{"type":"LineString","coordinates":[[126.89157,37.62824],[126.89124,37.62827],[126.89037,37.62827],[126.89027,37.62835],[126.89029,37.62859]]}},{"type":"Feature","properties":{"class":"alley","highway":"service","sidewalk":"unknown","lanes":0,"name":"","oneway":false},"geometry":{"type":"LineString","coordinates":[[126.89119,37.62794],[126.89141,37.62796],[126.89145,37.62795],[126.89147,37.62791],[126.89149,37.62781]]}},{"type":"Feature","properties":{"class":"alley","highway":"service","sidewalk":"unknown","lanes":0,"name":"","oneway":false},"geometry":{"type":"LineString","coordinates":[[126.89083,37.62794],[126.89097,37.62794],[126.89101,37.62792],[126.89104,37.62789],[126.89105,37.62778]]}},{"type":"Feature","properties":{"class":"minor","highway":"unclassified","sidewalk":"unknown","lanes":0,"name":"","oneway":false},"geometry":{"type":"LineString","coordinates":[[126.89939,37.62085],[126.89929,37.62086],[126.89897,37.62075]]}},{"type":"Feature","properties":{"class":"minor","highway":"unclassified","sidewalk":"unknown","lanes":0,"name":"용두로35번길","oneway":false},"geometry":{"type":"LineString","coordinates":[[126.88332,37.62638],[126.88355,37.62654],[126.88378,37.62663]]}},{"type":"Feature","properties":{"class":"minor","highway":"residential","sidewalk":"unknown","lanes":0,"name":"","oneway":false},"geometry":{"type":"LineString","coordinates":[[126.88303,37.62466],[126.88333,37.62448]]}},{"type":"Feature","properties":{"class":"minor","highway":"residential","sidewalk":"unknown","lanes":0,"name":"","oneway":false},"geometry":{"type":"LineString","coordinates":[[126.88459,37.62324],[126.8847,37.62361],[126.88474,37.62381]]}},{"type":"Feature","properties":{"class":"minor","highway":"residential","sidewalk":"unknown","lanes":0,"name":"","oneway":false},"geometry":{"type":"LineString","coordinates":[[126.88473,37.62515],[126.8846,37.62509],[126.88415,37.62515]]}},{"type":"Feature","properties":{"class":"minor","highway":"unclassified","sidewalk":"unknown","lanes":0,"name":"","oneway":false},"geometry":{"type":"LineString","coordinates":[[126.88081,37.62034],[126.88057,37.62021],[126.88042,37.61994]]}},{"type":"Feature","properties":{"class":"major","highway":"primary_link","sidewalk":"likely","lanes":0,"name":"","oneway":true},"geometry":{"type":"LineString","coordinates":[[126.89837,37.62357],[126.89864,37.62354],[126.89879,37.62351],[126.89893,37.62348],[126.89905,37.62341]]}},{"type":"Feature","properties":{"class":"major","highway":"primary_link","sidewalk":"likely","lanes":0,"name":"","oneway":true},"geometry":{"type":"LineString","coordinates":[[126.89825,37.62406],[126.89835,37.62391],[126.89839,37.62384],[126.89841,37.62378],[126.89841,37.62368],[126.89837,37.62357]]}},{"type":"Feature","properties":{"class":"major","highway":"primary_link","sidewalk":"likely","lanes":0,"name":"","oneway":true},"geometry":{"type":"LineString","coordinates":[[126.8818,37.62966],[126.88188,37.62982],[126.88197,37.62993],[126.88208,37.62999],[126.88222,37.63001],[126.88238,37.63006]]}},{"type":"Feature","properties":{"class":"major","highway":"primary_link","sidewalk":"likely","lanes":0,"name":"","oneway":true},"geometry":{"type":"LineString","coordinates":[[126.88247,37.63002],[126.88233,37.6302],[126.88225,37.63027],[126.88217,37.63033],[126.88208,37.6304],[126.88199,37.63049],[126.88192,37.63057],[126.88184,37.63069],[126.88169,37.63089]]}},{"type":"Feature","properties":{"class":"major","highway":"primary_link","sidewalk":"likely","lanes":0,"name":"","oneway":true},"geometry":{"type":"LineString","coordinates":[[126.88169,37.63089],[126.8816,37.63078],[126.88154,37.63072],[126.88149,37.63068],[126.8814,37.63065],[126.88128,37.63064],[126.88105,37.63063]]}},{"type":"Feature","properties":{"class":"major","highway":"primary_link","sidewalk":"likely","lanes":0,"name":"","oneway":true},"geometry":{"type":"LineString","coordinates":[[126.88105,37.63063],[126.88118,37.63049],[126.88127,37.63042],[126.88133,37.63038],[126.8815,37.63025],[126.88157,37.63019],[126.88167,37.63003],[126.88172,37.62995],[126.88175,37.62985],[126.8818,37.62966]]}},{"type":"Feature","properties":{"class":"major","highway":"primary_link","sidewalk":"likely","lanes":0,"name":"","oneway":true},"geometry":{"type":"LineString","coordinates":[[126.88027,37.62267],[126.88012,37.62264],[126.87999,37.62259],[126.87989,37.62254],[126.87974,37.62248],[126.87957,37.62246],[126.87944,37.62245],[126.87936,37.62245],[126.8792,37.62241]]}},{"type":"Feature","properties":{"class":"major","highway":"primary_link","sidewalk":"likely","lanes":0,"name":"","oneway":true},"geometry":{"type":"LineString","coordinates":[[126.87939,37.62191],[126.87949,37.62194],[126.87961,37.62197],[126.87974,37.62201],[126.87987,37.62206],[126.87996,37.62209],[126.88008,37.62211],[126.88024,37.62214],[126.88043,37.62218]]}},{"type":"Feature","properties":{"class":"major","highway":"primary_link","sidewalk":"likely","lanes":0,"name":"","oneway":true},"geometry":{"type":"LineString","coordinates":[[126.88043,37.62218],[126.88035,37.62223],[126.88033,37.62226],[126.8803,37.62231],[126.88029,37.62238],[126.88027,37.62244],[126.88027,37.6225],[126.88027,37.62259],[126.88027,37.62267]]}},{"type":"Feature","properties":{"class":"major","highway":"primary","sidewalk":"likely","lanes":3,"name":"서오릉로","oneway":true},"geometry":{"type":"LineString","coordinates":[[126.8855,37.62868],[126.88562,37.62862],[126.88628,37.62835],[126.88657,37.62822],[126.88676,37.62814],[126.88693,37.62807],[126.88706,37.62801],[126.88724,37.62793],[126.88737,37.62788],[126.88759,37.62781],[126.88775,37.62775],[126.88789,37.6277],[126.88802,37.62766],[126.88823,37.62762],[126.88844,37.6276],[126.88865,37.62758],[126.88885,37.62758],[126.88906,37.62759],[126.88945,37.6276],[126.88989,37.62762]]}},{"type":"Feature","properties":{"class":"major","highway":"primary","sidewalk":"likely","lanes":4,"name":"서오릉로","oneway":true},"geometry":{"type":"LineString","coordinates":[[126.89149,37.62781],[126.89105,37.62778],[126.89047,37.62775],[126.88988,37.62773]]}},{"type":"Feature","properties":{"class":"major","highway":"primary","sidewalk":"likely","lanes":3,"name":"서오릉로","oneway":true},"geometry":{"type":"LineString","coordinates":[[126.89693,37.62514],[126.89701,37.62505],[126.89714,37.62496],[126.89774,37.62448],[126.898,37.62426],[126.89809,37.62419]]}},{"type":"Feature","properties":{"class":"major","highway":"primary","sidewalk":"likely","lanes":6,"name":"서오릉로","oneway":true},"geometry":{"type":"LineString","coordinates":[[126.89809,37.62419],[126.89825,37.62406],[126.89864,37.62375],[126.89905,37.62341],[126.8994,37.62313]]}},{"type":"Feature","properties":{"class":"major","highway":"primary","sidewalk":"likely","lanes":3,"name":"서오릉로","oneway":true},"geometry":{"type":"LineString","coordinates":[[126.8994,37.62313],[126.89946,37.62308],[126.90001,37.62264],[126.90056,37.62222]]}},{"type":"Feature","properties":{"class":"major","highway":"primary","sidewalk":"likely","lanes":6,"name":"서오릉로","oneway":true},"geometry":{"type":"LineString","coordinates":[[126.89556,37.62626],[126.89597,37.62593],[126.89659,37.62542],[126.89693,37.62514]]}},{"type":"Feature","properties":{"class":"major","highway":"primary","sidewalk":"likely","lanes":6,"name":"서오릉로","oneway":true},"geometry":{"type":"LineString","coordinates":[[126.88426,37.62922],[126.88488,37.62895],[126.88501,37.62889],[126.88528,37.62877],[126.8855,37.62868]]}},{"type":"Feature","properties":{"class":"major","highway":"primary","sidewalk":"likely","lanes":4,"name":"서오릉로","oneway":true},"geometry":{"type":"LineString","coordinates":[[126.87978,37.63114],[126.88005,37.63101],[126.88036,37.63088],[126.88052,37.63088]]}},{"type":"Feature","properties":{"class":"major","highway":"primary","sidewalk":"likely","lanes":3,"name":"서오릉로","oneway":true},"geometry":{"type":"LineString","coordinates":[[126.88356,37.62956],[126.88362,37.62948],[126.88399,37.62934],[126.88407,37.6293],[126.88415,37.62927],[126.88426,37.62922]]}},{"type":"Feature","properties":{"class":"major","highway":"primary","sidewalk":"likely","lanes":6,"name":"서오릉로","oneway":false},"geometry":{"type":"LineString","coordinates":[[126.88176,37.63032],[126.8822,37.63014],[126.88238,37.63006],[126.88247,37.63002],[126.88303,37.62978],[126.88356,37.62956]]}},{"type":"Feature","properties":{"class":"major","highway":"primary","sidewalk":"likely","lanes":3,"name":"서오릉로","oneway":true},"geometry":{"type":"LineString","coordinates":[[126.89821,37.62425],[126.8981,37.62434],[126.89783,37.62458],[126.89714,37.62514],[126.89704,37.62521]]}},{"type":"Feature","properties":{"class":"major","highway":"primary","sidewalk":"likely","lanes":3,"name":"서오릉로","oneway":true},"geometry":{"type":"LineString","coordinates":[[126.90065,37.62229],[126.90011,37.62272],[126.89959,37.62313],[126.8995,37.62321]]}},{"type":"Feature","properties":{"class":"major","highway":"primary","sidewalk":"likely","lanes":3,"name":"서오릉로","oneway":true},"geometry":{"type":"LineString","coordinates":[[126.88433,37.62931],[126.88421,37.62936],[126.88405,37.62943],[126.88369,37.62957],[126.88356,37.62956]]}},{"type":"Feature","properties":{"class":"major","highway":"primary","sidewalk":"likely","lanes":4,"name":"서오릉로","oneway":true},"geometry":{"type":"LineString","coordinates":[[126.88052,37.63088],[126.88046,37.63098],[126.88038,37.63101],[126.88013,37.63112],[126.87985,37.63124]]}},{"type":"Feature","properties":{"class":"major","highway":"primary","sidewalk":"likely","lanes":3,"name":"서오릉로","oneway":true},"geometry":{"type":"LineString","coordinates":[[126.88988,37.62773],[126.88909,37.62768],[126.88884,37.62768],[126.88864,37.62768],[126.88847,37.6277],[126.88825,37.62773],[126.88806,37.62776],[126.88793,37.62779],[126.88779,37.62783],[126.88763,37.62789],[126.88743,37.62797],[126.8873,37.62803],[126.88713,37.6281],[126.88699,37.62816],[126.88683,37.62823],[126.88663,37.62832],[126.88635,37.62844],[126.88568,37.62872],[126.88556,37.62877]]}},{"type":"Feature","properties":{"class":"major","highway":"secondary","sidewalk":"likely","lanes":1,"name":"용두로121번길","oneway":false},"geometry":{"type":"LineString","coordinates":[[126.88989,37.62762],[126.88988,37.62773]]}},{"type":"Feature","properties":{"class":"major","highway":"primary","sidewalk":"likely","lanes":3,"name":"서오릉로","oneway":true},"geometry":{"type":"LineString","coordinates":[[126.89565,37.62633],[126.89556,37.6264],[126.89532,37.62659],[126.89501,37.62685],[126.89451,37.62722],[126.89431,37.62734],[126.89413,37.62743],[126.89393,37.62753],[126.89372,37.6276],[126.89355,37.62766],[126.89331,37.62772],[126.89315,37.62775],[126.89299,37.62778],[126.89276,37.62781],[126.89248,37.62783],[126.89225,37.62784],[126.892,37.62783],[126.89149,37.62781]]}},{"type":"Feature","properties":{"class":"major","highway":"primary","sidewalk":"likely","lanes":6,"name":"서오릉로","oneway":true},"geometry":{"type":"LineString","coordinates":[[126.8995,37.62321],[126.89915,37.62349],[126.89874,37.62382],[126.89835,37.62413],[126.89821,37.62425]]}},{"type":"Feature","properties":{"class":"major","highway":"primary","sidewalk":"likely","lanes":6,"name":"서오릉로","oneway":true},"geometry":{"type":"LineString","coordinates":[[126.89704,37.62521],[126.89668,37.6255],[126.89615,37.62594],[126.89565,37.62633]]}},{"type":"Feature","properties":{"class":"major","highway":"primary","sidewalk":"likely","lanes":6,"name":"서오릉로","oneway":true},"geometry":{"type":"LineString","coordinates":[[126.88556,37.62877],[126.88534,37.62887],[126.88507,37.62898],[126.88494,37.62904],[126.88433,37.62931]]}}]}