{"type":"FeatureCollection","features":[{"type":"Feature","properties":{"class":"major","highway":"secondary","sidewalk":"likely","lanes":6,"name":"노원로","oneway":false},"geometry":{"type":"LineString","coordinates":[[127.08719,37.62161],[127.08715,37.62176]]}},{"type":"Feature","properties":{"class":"major","highway":"tertiary","sidewalk":"likely","lanes":0,"name":"중계로","oneway":false},"geometry":{"type":"LineString","coordinates":[[127.08006,37.63673],[127.08028,37.63686],[127.08124,37.63751],[127.08141,37.63764],[127.0815,37.63772],[127.08169,37.63788]]}},{"type":"Feature","properties":{"class":"major","highway":"secondary","sidewalk":"likely","lanes":0,"name":"","oneway":true},"geometry":{"type":"LineString","coordinates":[[127.08981,37.6226],[127.09032,37.62277],[127.09049,37.62283],[127.09064,37.62288],[127.0912,37.62308]]}},{"type":"Feature","properties":{"class":"minor","highway":"residential","sidewalk":"unknown","lanes":0,"name":"화랑로51가길","oneway":false},"geometry":{"type":"LineString","coordinates":[[127.09071,37.62369],[127.09059,37.62379],[127.09054,37.62384],[127.09044,37.62396],[127.09022,37.62425],[127.09019,37.62428],[127.09014,37.62434],[127.0901,37.6244],[127.09003,37.6245],[127.09,37.62454],[127.08993,37.62466],[127.09011,37.62472],[127.09011,37.62472],[127.09011,37.62472],[127.09011,37.62472],[127.09011,37.62473],[127.09007,37.62482],[127.09007,37.62482],[127.09007,37.62482],[127.09007,37.62483],[127.09008,37.62483],[127.09018,37.62486]]}},{"type":"Feature","properties":{"class":"minor","highway":"residential","sidewalk":"unknown","lanes":2,"name":"화랑로51가길","oneway":false},"geometry":{"type":"LineString","coordinates":[[127.09235,37.62629],[127.09307,37.62551],[127.09277,37.62533],[127.0925,37.62517],[127.0922,37.625],[127.09141,37.62454],[127.09139,37.62453],[127.09137,37.62452],[127.0909,37.62425],[127.09051,37.62401],[127.09044,37.62396],[127.09021,37.62371],[127.0902,37.62369],[127.09006,37.62351]]}},{"type":"Feature","properties":{"class":"minor","highway":"residential","sidewalk":"unknown","lanes":0,"name":"화랑로51가길","oneway":false},"geometry":{"type":"LineString","coordinates":[[127.09148,37.6258],[127.09169,37.62556],[127.0922,37.625],[127.0923,37.62489],[127.09233,37.62484]]}},{"type":"Feature","properties":{"class":"alley","highway":"living_street","sidewalk":"unknown","lanes":0,"name":"","oneway":false},"geometry":{"type":"LineString","coordinates":[[127.09382,37.62553],[127.09376,37.62564],[127.09371,37.62573],[127.09326,37.62661],[127.09322,37.62669],[127.09277,37.62716],[127.09231,37.62743],[127.0915,37.6277],[127.09003,37.62783],[127.09009,37.62882],[127.08922,37.62888],[127.08904,37.62816],[127.08895,37.62787],[127.08862,37.62724],[127.08862,37.62714],[127.0887,37.62704],[127.08884,37.62696],[127.08905,37.62696],[127.08936,37.62708],[127.08966,37.62761],[127.08982,37.62775],[127.09003,37.62783]]}},{"type":"Feature","properties":{"class":"major","highway":"trunk","sidewalk":"likely","lanes":2,"name":"북부간선도로","oneway":true},"geometry":{"type":"LineString","coordinates":[[127.07358,37.61628],[127.07465,37.61666],[127.07577,37.61705],[127.0778,37.61776],[127.08047,37.61877],[127.08122,37.61902],[127.08206,37.61929],[127.08352,37.61971],[127.08405,37.61985],[127.08465,37.61997],[127.08503,37.62001],[127.0854,37.62004],[127.08585,37.62003],[127.08608,37.62001],[127.08645,37.61996],[127.08687,37.61988],[127.08729,37.61976],[127.08767,37.61963],[127.08818,37.6194],[127.08945,37.6188]]}},{"type":"Feature","properties":{"class":"minor","highway":"residential","sidewalk":"unknown","lanes":0,"name":"화랑로51가길","oneway":false},"geometry":{"type":"LineString","coordinates":[[127.0909,37.62425],[127.09069,37.62448],[127.09055,37.62464],[127.09049,37.62475],[127.09026,37.62512]]}},{"type":"Feature","properties":{"class":"minor","highway":"residential","sidewalk":"unknown","lanes":0,"name":"화랑로51나길","oneway":false},"geometry":{"type":"LineString","coordinates":[[127.09235,37.62629],[127.09207,37.62614],[127.09179,37.62598],[127.09148,37.6258],[127.0914,37.62576],[127.09076,37.6254],[127.09045,37.62523],[127.09026,37.62512],[127.08978,37.62496],[127.08926,37.62478],[127.08906,37.62471]]}},{"type":"Feature","properties":{"class":"major","highway":"secondary","sidewalk":"likely","lanes":0,"name":"노원로","oneway":true},"geometry":{"type":"LineString","coordinates":[[127.08719,37.62161],[127.08713,37.62147]]}},{"type":"Feature","properties":{"class":"major","highway":"trunk_link","sidewalk":"likely","lanes":0,"name":"","oneway":true},"geometry":{"type":"LineString","coordinates":[[127.08722,37.6212],[127.0874,37.62067],[127.08753,37.62024]]}},{"type":"Feature","properties":{"class":"major","highway":"secondary","sidewalk":"likely","lanes":0,"name":"노원로","oneway":true},"geometry":{"type":"LineString","coordinates":[[127.0873,37.62154],[127.08719,37.62161]]}},{"type":"Feature","properties":{"class":"minor","highway":"residential","sidewalk":"unknown","lanes":2,"name":"노원로1가길","oneway":false},"geometry":{"type":"LineString","coordinates":[[127.08589,37.62218],[127.08583,37.62238],[127.0855,37.62348]]}},{"type":"Feature","properties":{"class":"minor","highway":"residential","sidewalk":"unknown","lanes":2,"name":"노원로1길","oneway":false},"geometry":{"type":"LineString","coordinates":[[127.08328,37.62099],[127.0834,37.62105],[127.08373,37.62119],[127.08385,37.62124],[127.08487,37.62171],[127.08578,37.62213],[127.08589,37.62218]]}},{"type":"Feature","properties":{"class":"minor","highway":"residential","sidewalk":"unknown","lanes":4,"name":"노원로1길","oneway":false},"geometry":{"type":"LineString","coordinates":[[127.08589,37.62218],[127.08601,37.62225],[127.0861,37.62229],[127.08621,37.62233],[127.08672,37.62244],[127.08681,37.62246],[127.08694,37.6225]]}},{"type":"Feature","properties":{"class":"minor","highway":"residential","sidewalk":"unknown","lanes":2,"name":"노원로1나길","oneway":false},"geometry":{"type":"LineString","coordinates":[[127.08293,37.62236],[127.08285,37.62231],[127.0828,37.62228],[127.08263,37.62213],[127.08251,37.62203],[127.08245,37.62195],[127.08242,37.62188],[127.0824,37.62181],[127.0824,37.62175],[127.0824,37.62174],[127.08246,37.62168],[127.08247,37.62165],[127.08257,37.62156],[127.08266,37.62149],[127.08279,37.62139],[127.08287,37.62132],[127.0832,37.62105],[127.08328,37.62099]]}},{"type":"Feature","properties":{"class":"minor","highway":"residential","sidewalk":"unknown","lanes":2,"name":"노원로1나길","oneway":false},"geometry":{"type":"LineString","coordinates":[[127.0855,37.62348],[127.08535,37.62342],[127.08484,37.6232],[127.08482,37.62319],[127.08473,37.62315],[127.08293,37.62236]]}},{"type":"Feature","properties":{"class":"major","highway":"trunk","sidewalk":"likely","lanes":2,"name":"북부간선도로","oneway":true},"geometry":{"type":"LineString","coordinates":[[127.08951,37.61888],[127.08923,37.61901],[127.08839,37.61938],[127.08777,37.61966],[127.08744,37.61979],[127.08706,37.61991],[127.08674,37.61999],[127.0865,37.62004],[127.08621,37.62008],[127.0859,37.62011],[127.08552,37.62012],[127.08515,37.62011],[127.0847,37.62007],[127.08425,37.61999],[127.08351,37.61979],[127.0825,37.61949],[127.08119,37.61911],[127.08043,37.61885],[127.07866,37.61818],[127.07587,37.61718],[127.07349,37.61635]]}},{"type":"Feature","properties":{"class":"major","highway":"primary","sidewalk":"likely","lanes":3,"name":"화랑로","oneway":true},"geometry":{"type":"LineString","coordinates":[[127.07862,37.61859],[127.07877,37.61863],[127.07897,37.6187],[127.07926,37.61879],[127.08011,37.61906],[127.08051,37.61916],[127.08087,37.61923],[127.0817,37.61937],[127.08229,37.61951],[127.08261,37.61959],[127.08289,37.61968],[127.08308,37.61975],[127.08432,37.62028],[127.08444,37.62034]]}},{"type":"Feature","properties":{"class":"major","highway":"primary","sidewalk":"likely","lanes":3,"name":"화랑로","oneway":true},"geometry":{"type":"LineString","coordinates":[[127.09237,37.62472],[127.09249,37.6248],[127.09332,37.62526],[127.09382,37.62553],[127.09396,37.62561],[127.09467,37.62599],[127.09516,37.62632],[127.09531,37.62644],[127.09538,37.6265],[127.0956,37.62675],[127.09605,37.62752],[127.09626,37.62785],[127.09723,37.62932],[127.09775,37.62986],[127.09795,37.63],[127.09808,37.63008],[127.09827,37.63019],[127.0998,37.63106],[127.10063,37.63181],[127.10106,37.63219],[127.10145,37.63246],[127.10211,37.63282],[127.1036,37.63368],[127.10451,37.63421],[127.10493,37.63446]]}},{"type":"Feature","properties":{"class":"major","highway":"primary","sidewalk":"likely","lanes":4,"name":"화랑로","oneway":true},"geometry":{"type":"LineString","coordinates":[[127.08719,37.62161],[127.08687,37.62148],[127.08661,37.62137],[127.08525,37.62081],[127.08464,37.62056],[127.08436,37.62044],[127.08424,37.6204],[127.08316,37.61992],[127.08283,37.6198],[127.08255,37.61971],[127.08226,37.61964],[127.08166,37.61951],[127.08163,37.61951],[127.08146,37.61948],[127.08044,37.61929],[127.07985,37.61913],[127.0787,37.61876],[127.07855,37.61871],[127.07838,37.61865],[127.07811,37.61855],[127.07789,37.61847],[127.07725,37.61825]]}},{"type":"Feature","properties":{"class":"major","highway":"primary","sidewalk":"likely","lanes":3,"name":"화랑로","oneway":true},"geometry":{"type":"LineString","coordinates":[[127.09082,37.62376],[127.09086,37.62379],[127.09127,37.62405],[127.09237,37.62472]]}},{"type":"Feature","properties":{"class":"major","highway":"primary","sidewalk":"likely","lanes":3,"name":"화랑로","oneway":true},"geometry":{"type":"LineString","coordinates":[[127.09015,37.62307],[127.0901,37.62299],[127.09004,37.62291],[127.08994,37.62281],[127.08983,37.62273],[127.08969,37.62265],[127.08952,37.62257],[127.08843,37.62213],[127.08773,37.62184],[127.08744,37.62172],[127.08719,37.62161]]}},{"type":"Feature","properties":{"class":"major","highway":"primary","sidewalk":"likely","lanes":3,"name":"화랑로","oneway":true},"geometry":{"type":"LineString","coordinates":[[127.0873,37.62154],[127.08747,37.62162],[127.08843,37.62201],[127.08848,37.62203],[127.08854,37.62206],[127.08886,37.62219],[127.08961,37.62251],[127.08981,37.6226],[127.09,37.62272],[127.09016,37.62289],[127.09024,37.62299],[127.0903,37.62309],[127.09035,37.62319]]}},{"type":"Feature","properties":{"class":"major","highway":"primary","sidewalk":"likely","lanes":3,"name":"화랑로","oneway":true},"geometry":{"type":"LineString","coordinates":[[127.09233,37.62484],[127.09076,37.62392],[127.09069,37.62387]]}},{"type":"Feature","properties":{"class":"major","highway":"secondary","sidewalk":"likely","lanes":0,"name":"공릉터널","oneway":false},"geometry":{"type":"LineString","coordinates":[[127.08211,37.63477],[127.08201,37.63492],[127.08119,37.63582],[127.08058,37.63631]]}},{"type":"Feature","properties":{"class":"minor","highway":"residential","sidewalk":"unknown","lanes":0,"name":"노원로1길","oneway":false},"geometry":{"type":"LineString","coordinates":[[127.08328,37.62099],[127.08317,37.62092],[127.08302,37.62087],[127.08292,37.62083],[127.08262,37.62072],[127.08259,37.62071],[127.08234,37.6206],[127.08213,37.62052],[127.08208,37.62051],[127.08149,37.6205],[127.08104,37.6205],[127.08098,37.62049],[127.08055,37.62048],[127.08036,37.62006],[127.08026,37.61997],[127.0802,37.61992]]}},{"type":"Feature","properties":{"class":"alley","highway":"service","sidewalk":"unknown","lanes":0,"name":"","oneway":false},"geometry":{"type":"LineString","coordinates":[[127.08285,37.63149],[127.08272,37.63149],[127.0823,37.63144],[127.08206,37.63142]]}},{"type":"Feature","properties":{"class":"alley","highway":"service","sidewalk":"unknown","lanes":0,"name":"","oneway":false},"geometry":{"type":"LineString","coordinates":[[127.07765,37.63107],[127.07788,37.63109],[127.07796,37.6311],[127.0787,37.63116],[127.0791,37.63122],[127.0794,37.63127],[127.07954,37.6313],[127.07957,37.6313],[127.07964,37.6313],[127.07986,37.63134],[127.08008,37.63137],[127.08038,37.63137],[127.08056,37.63137],[127.08101,37.63136],[127.08124,37.63136],[127.0816,37.63137],[127.08173,37.63137],[127.08177,37.63138],[127.08185,37.63138],[127.08194,37.63139],[127.08206,37.63142]]}},{"type":"Feature","properties":{"class":"alley","highway":"service","sidewalk":"unknown","lanes":0,"name":"","oneway":false},"geometry":{"type":"LineString","coordinates":[[127.08131,37.63398],[127.08159,37.63393],[127.08169,37.6339],[127.08175,37.63387],[127.0818,37.63383],[127.0819,37.63369],[127.08199,37.63352],[127.08207,37.63342],[127.08215,37.63333],[127.08222,37.63328],[127.08228,37.63325],[127.08241,37.63323],[127.0826,37.6332],[127.08269,37.63318],[127.08276,37.63315],[127.08283,37.6331],[127.08285,37.63304],[127.08286,37.63283],[127.08287,37.63266],[127.08287,37.63248],[127.08284,37.63234],[127.08279,37.6322],[127.08273,37.632],[127.08268,37.63185],[127.08265,37.6318],[127.08262,37.63176],[127.08252,37.63172],[127.08239,37.63169],[127.0823,37.63168],[127.08229,37.63167],[127.08229,37.63159],[127.08229,37.63157],[127.0823,37.63144]]}},{"type":"Feature","properties":{"class":"alley","highway":"living_street","sidewalk":"unknown","lanes":0,"name":"","oneway":false},"geometry":{"type":"LineString","coordinates":[[127.08272,37.63149],[127.08269,37.63157],[127.08268,37.63159],[127.08279,37.6319],[127.08286,37.63216],[127.08287,37.63248]]}},{"type":"Feature","properties":{"class":"alley","highway":"service","sidewalk":"unknown","lanes":0,"name":"","oneway":false},"geometry":{"type":"LineString","coordinates":[[127.08131,37.63398],[127.08122,37.634],[127.08107,37.63403],[127.08076,37.63411],[127.08045,37.63417],[127.08031,37.6342],[127.08027,37.63421],[127.08003,37.63426],[127.07997,37.6343],[127.07991,37.63424],[127.07982,37.6342],[127.07945,37.63407],[127.07926,37.63386],[127.0791,37.63368],[127.079,37.63355],[127.07897,37.63351]]}},{"type":"Feature","properties":{"class":"alley","highway":"service","sidewalk":"unknown","lanes":0,"name":"","oneway":true},"geometry":{"type":"LineString","coordinates":[[127.08021,37.6354],[127.08018,37.63531],[127.08015,37.63519],[127.0801,37.63504],[127.08012,37.63485],[127.07997,37.63439],[127.07997,37.6343]]}},{"type":"Feature","properties":{"class":"minor","highway":"residential","sidewalk":"unknown","lanes":0,"name":"노원로","oneway":false},"geometry":{"type":"LineString","coordinates":[[127.07986,37.63705],[127.08026,37.63719],[127.08052,37.63733],[127.08107,37.63763],[127.08133,37.63776],[127.08156,37.63786],[127.08169,37.63788]]}},{"type":"Feature","properties":{"class":"minor","highway":"residential","sidewalk":"unknown","lanes":0,"name":"공릉로42길","oneway":false},"geometry":{"type":"LineString","coordinates":[[127.08604,37.62559],[127.08574,37.62554],[127.08503,37.62548],[127.08475,37.62542],[127.08393,37.62509],[127.0832,37.62476],[127.082,37.62428]]}},{"type":"Feature","properties":{"class":"minor","highway":"residential","sidewalk":"unknown","lanes":0,"name":"공릉로38길","oneway":false},"geometry":{"type":"LineString","coordinates":[[127.0828,37.62228],[127.08262,37.6224],[127.08227,37.62256],[127.08089,37.62308]]}},{"type":"Feature","properties":{"class":"minor","highway":"residential","sidewalk":"unknown","lanes":0,"name":"공릉로34길","oneway":false},"geometry":{"type":"LineString","coordinates":[[127.0792,37.62221],[127.07953,37.62238],[127.07975,37.62249],[127.08001,37.62263],[127.08026,37.62276],[127.08089,37.62308]]}},{"type":"Feature","properties":{"class":"minor","highway":"residential","sidewalk":"unknown","lanes":0,"name":"공릉로34길","oneway":false},"geometry":{"type":"LineString","coordinates":[[127.07988,37.6255],[127.08011,37.62554],[127.0805,37.62563],[127.0806,37.62566],[127.08096,37.62575],[127.08106,37.62574],[127.08114,37.6257],[127.08169,37.62504],[127.08181,37.62487],[127.0819,37.62466],[127.08198,37.62446],[127.082,37.62428]]}},{"type":"Feature","properties":{"class":"minor","highway":"residential","sidewalk":"unknown","lanes":0,"name":"공릉로42길","oneway":false},"geometry":{"type":"LineString","coordinates":[[127.07965,37.62439],[127.08051,37.62423],[127.082,37.62428]]}},{"type":"Feature","properties":{"class":"minor","highway":"residential","sidewalk":"unknown","lanes":0,"name":"공릉로34길","oneway":false},"geometry":{"type":"LineString","coordinates":[[127.082,37.62428],[127.08202,37.62403],[127.08187,37.62391],[127.08126,37.62344],[127.08089,37.62308]]}},{"type":"Feature","properties":{"class":"minor","highway":"residential","sidewalk":"unknown","lanes":0,"name":"공릉로38길","oneway":false},"geometry":{"type":"LineString","coordinates":[[127.0794,37.62327],[127.08015,37.62318],[127.08089,37.62308]]}},{"type":"Feature","properties":{"class":"minor","highway":"residential","sidewalk":"unknown","lanes":0,"name":"공릉로38길","oneway":false},"geometry":{"type":"LineString","coordinates":[[127.08015,37.62318],[127.0803,37.62328],[127.08051,37.62423]]}},{"type":"Feature","properties":{"class":"minor","highway":"residential","sidewalk":"unknown","lanes":0,"name":"공릉로42길","oneway":false},"geometry":{"type":"LineString","coordinates":[[127.0806,37.62566],[127.08064,37.6255],[127.08061,37.62499],[127.08051,37.62423]]}},{"type":"Feature","properties":{"class":"minor","highway":"residential","sidewalk":"unknown","lanes":0,"name":"","oneway":false},"geometry":{"type":"LineString","coordinates":[[127.09433,37.62423],[127.09692,37.62519],[127.09749,37.62466],[127.09774,37.62444],[127.09897,37.62322],[127.0995,37.62268],[127.10087,37.62131],[127.09926,37.62034],[127.09806,37.61957],[127.0974,37.61915]]}},{"type":"Feature","properties":{"class":"minor","highway":"residential","sidewalk":"unknown","lanes":0,"name":"","oneway":false},"geometry":{"type":"LineString","coordinates":[[127.09774,37.62444],[127.0962,37.62342],[127.09711,37.62252],[127.09738,37.62224],[127.09828,37.62133],[127.09874,37.62086],[127.09926,37.62034]]}},{"type":"Feature","properties":{"class":"alley","highway":"service","sidewalk":"unknown","lanes":0,"name":"","oneway":false},"geometry":{"type":"LineString","coordinates":[[127.09738,37.62224],[127.09897,37.62322],[127.09949,37.62356],[127.09995,37.62387],[127.09996,37.62395],[127.09998,37.62402],[127.09999,37.62451],[127.09994,37.62458],[127.09985,37.62475],[127.0997,37.62487],[127.09965,37.62492],[127.09953,37.6251],[127.09943,37.62526],[127.09917,37.62565],[127.0994,37.6259],[127.09943,37.62605],[127.09941,37.62616],[127.09938,37.62625],[127.10064,37.62565],[127.10115,37.62541],[127.10121,37.62554],[127.10129,37.6259],[127.10187,37.62579],[127.10213,37.62567],[127.10229,37.62556],[127.10261,37.62548],[127.10284,37.62537]]}},{"type":"Feature","properties":{"class":"alley","highway":"service","sidewalk":"unknown","lanes":0,"name":"","oneway":false},"geometry":{"type":"LineString","coordinates":[[127.09692,37.62519],[127.09801,37.62562],[127.09848,37.62581],[127.0989,37.62601],[127.09938,37.62625],[127.09966,37.62641],[127.10001,37.62655],[127.10122,37.62701],[127.10146,37.62712],[127.10158,37.62711],[127.10236,37.62672]]}},{"type":"Feature","properties":{"class":"minor","highway":"residential","sidewalk":"unknown","lanes":0,"name":"","oneway":false},"geometry":{"type":"LineString","coordinates":[[127.09692,37.62519],[127.09639,37.62543],[127.09638,37.62544]]}},{"type":"Feature","properties":{"class":"minor","highway":"residential","sidewalk":"unknown","lanes":0,"name":"","oneway":false},"geometry":{"type":"LineString","coordinates":[[127.09844,37.61816],[127.09834,37.61819],[127.09827,37.61821],[127.09823,37.61824],[127.09803,37.61847],[127.0974,37.61915],[127.09714,37.61944],[127.09665,37.61937],[127.09603,37.61927],[127.09534,37.61917],[127.09526,37.61916],[127.09474,37.61941],[127.09439,37.61945],[127.09421,37.61947],[127.09365,37.61947],[127.09295,37.61947],[127.09265,37.61955],[127.09236,37.61962],[127.09226,37.61964],[127.092,37.61971],[127.09195,37.61973],[127.09191,37.61975],[127.09174,37.61994],[127.09208,37.62053],[127.09262,37.621]]}},{"type":"Feature","properties":{"class":"minor","highway":"residential","sidewalk":"unknown","lanes":0,"name":"","oneway":false},"geometry":{"type":"LineString","coordinates":[[127.09262,37.621],[127.09462,37.62242],[127.09379,37.62327],[127.09433,37.62423]]}},{"type":"Feature","properties":{"class":"minor","highway":"residential","sidewalk":"unknown","lanes":0,"name":"","oneway":false},"geometry":{"type":"LineString","coordinates":[[127.09462,37.62242],[127.09536,37.62169],[127.09541,37.62164],[127.09591,37.62114],[127.09616,37.6209]]}},{"type":"Feature","properties":{"class":"minor","highway":"residential","sidewalk":"unknown","lanes":0,"name":"","oneway":false},"geometry":{"type":"LineString","coordinates":[[127.09616,37.6209],[127.0963,37.62076],[127.09646,37.6206],[127.09702,37.62003],[127.09714,37.61944],[127.09763,37.61951],[127.09806,37.61957]]}},{"type":"Feature","properties":{"class":"alley","highway":"service","sidewalk":"unknown","lanes":0,"name":"","oneway":false},"geometry":{"type":"LineString","coordinates":[[127.09749,37.62466],[127.0989,37.62483],[127.09985,37.62475]]}},{"type":"Feature","properties":{"class":"minor","highway":"residential","sidewalk":"unknown","lanes":0,"name":"","oneway":false},"geometry":{"type":"LineString","coordinates":[[127.09626,37.62785],[127.09613,37.6279],[127.09602,37.62795],[127.09564,37.6281],[127.09508,37.62838],[127.09469,37.62863],[127.09454,37.62881],[127.09398,37.62962]]}},{"type":"Feature","properties":{"class":"alley","highway":"service","sidewalk":"unknown","lanes":0,"name":"","oneway":false},"geometry":{"type":"LineString","coordinates":[[127.0915,37.6277],[127.09158,37.62862],[127.09161,37.62884]]}},{"type":"Feature","properties":{"class":"minor","highway":"residential","sidewalk":"unknown","lanes":0,"name":"","oneway":false},"geometry":{"type":"LineString","coordinates":[[127.08818,37.62524],[127.08874,37.62681]]}},{"type":"Feature","properties":{"class":"minor","highway":"residential","sidewalk":"unknown","lanes":0,"name":"공릉로32길","oneway":false},"geometry":{"type":"LineString","coordinates":[[127.0792,37.62221],[127.07949,37.62199],[127.07958,37.62194],[127.07967,37.62189],[127.08012,37.62176],[127.08027,37.62184],[127.0805,37.62182],[127.08055,37.62184],[127.0808,37.62191],[127.08083,37.62192],[127.08092,37.62195],[127.08121,37.62189],[127.0813,37.62187],[127.08149,37.62183],[127.08178,37.62178],[127.08183,37.62178],[127.08205,37.62178],[127.0824,37.62175]]}},{"type":"Feature","properties":{"class":"minor","highway":"residential","sidewalk":"unknown","lanes":0,"name":"노원로1바길","oneway":false},"geometry":{"type":"LineString","coordinates":[[127.08055,37.62048],[127.08069,37.62107],[127.08079,37.62172],[127.0808,37.62191]]}},{"type":"Feature","properties":{"class":"minor","highway":"residential","sidewalk":"unknown","lanes":0,"name":"노원로1마길","oneway":false},"geometry":{"type":"LineString","coordinates":[[127.08104,37.6205],[127.08107,37.62076],[127.08116,37.62145],[127.08121,37.62189]]}},{"type":"Feature","properties":{"class":"minor","highway":"residential","sidewalk":"unknown","lanes":0,"name":"노원로1다길","oneway":false},"geometry":{"type":"LineString","coordinates":[[127.08183,37.62178],[127.0819,37.62143],[127.08194,37.62125],[127.08196,37.62111],[127.08197,37.62109],[127.08204,37.62071],[127.08213,37.62052]]}},{"type":"Feature","properties":{"class":"minor","highway":"residential","sidewalk":"unknown","lanes":0,"name":"노원로1라길","oneway":false},"geometry":{"type":"LineString","coordinates":[[127.08149,37.62183],[127.08146,37.62143],[127.0814,37.62074]]}},{"type":"Feature","properties":{"class":"minor","highway":"residential","sidewalk":"unknown","lanes":0,"name":"노원로1라길","oneway":false},"geometry":{"type":"LineString","coordinates":[[127.0814,37.62074],[127.08166,37.62073],[127.08204,37.62071]]}},{"type":"Feature","properties":{"class":"minor","highway":"residential","sidewalk":"unknown","lanes":0,"name":"노원로1라길","oneway":false},"geometry":{"type":"LineString","coordinates":[[127.08146,37.62143],[127.08175,37.62143],[127.0819,37.62143]]}},{"type":"Feature","properties":{"class":"minor","highway":"residential","sidewalk":"unknown","lanes":0,"name":"","oneway":false},"geometry":{"type":"LineString","coordinates":[[127.08194,37.62125],[127.08237,37.6213]]}},{"type":"Feature","properties":{"class":"minor","highway":"residential","sidewalk":"unknown","lanes":0,"name":"","oneway":false},"geometry":{"type":"LineString","coordinates":[[127.08197,37.62109],[127.0824,37.62115]]}},{"type":"Feature","properties":{"class":"minor","highway":"residential","sidewalk":"unknown","lanes":0,"name":"노원로1라길","oneway":false},"geometry":{"type":"LineString","coordinates":[[127.08166,37.62073],[127.08171,37.62111],[127.08175,37.62143]]}},{"type":"Feature","properties":{"class":"minor","highway":"residential","sidewalk":"unknown","lanes":0,"name":"노원로1라길","oneway":false},"geometry":{"type":"LineString","coordinates":[[127.08171,37.62111],[127.08196,37.62111]]}},{"type":"Feature","properties":{"class":"minor","highway":"residential","sidewalk":"unknown","lanes":0,"name":"노원로1길","oneway":false},"geometry":{"type":"LineString","coordinates":[[127.08266,37.62149],[127.08256,37.62144],[127.08254,37.62142],[127.08283,37.62097],[127.08292,37.62083]]}},{"type":"Feature","properties":{"class":"minor","highway":"residential","sidewalk":"unknown","lanes":0,"name":"노원로1길","oneway":false},"geometry":{"type":"LineString","coordinates":[[127.08271,37.62017],[127.08295,37.62026],[127.08301,37.62044],[127.08317,37.62092]]}},{"type":"Feature","properties":{"class":"minor","highway":"residential","sidewalk":"unknown","lanes":0,"name":"노원로1길","oneway":false},"geometry":{"type":"LineString","coordinates":[[127.08259,37.62071],[127.08283,37.62036],[127.08301,37.62044]]}},{"type":"Feature","properties":{"class":"minor","highway":"residential","sidewalk":"unknown","lanes":0,"name":"","oneway":false},"geometry":{"type":"LineString","coordinates":[[127.08563,37.62672],[127.08581,37.62675],[127.08666,37.62691]]}},{"type":"Feature","properties":{"class":"alley","highway":"service","sidewalk":"unknown","lanes":0,"name":"","oneway":false},"geometry":{"type":"LineString","coordinates":[[127.0848,37.62989],[127.08455,37.63037],[127.08435,37.63098],[127.08404,37.63228],[127.08365,37.63459],[127.08343,37.63591],[127.08327,37.63661]]}},{"type":"Feature","properties":{"class":"minor","highway":"residential","sidewalk":"unknown","lanes":0,"name":"공릉로34길","oneway":false},"geometry":{"type":"LineString","coordinates":[[127.08026,37.62276],[127.08056,37.62232]]}},{"type":"Feature","properties":{"class":"minor","highway":"residential","sidewalk":"unknown","lanes":0,"name":"공릉로34길","oneway":false},"geometry":{"type":"LineString","coordinates":[[127.08001,37.62263],[127.08028,37.62223]]}},{"type":"Feature","properties":{"class":"minor","highway":"residential","sidewalk":"unknown","lanes":0,"name":"공릉로32길","oneway":false},"geometry":{"type":"LineString","coordinates":[[127.08027,37.62184],[127.08004,37.62213]]}},{"type":"Feature","properties":{"class":"minor","highway":"residential","sidewalk":"unknown","lanes":0,"name":"공릉로32길","oneway":false},"geometry":{"type":"LineString","coordinates":[[127.07958,37.62194],[127.07978,37.62202],[127.08004,37.62213],[127.08028,37.62223]]}},{"type":"Feature","properties":{"class":"alley","highway":"service","sidewalk":"unknown","lanes":0,"name":"","oneway":false},"geometry":{"type":"LineString","coordinates":[[127.0798,37.63171],[127.07988,37.63169],[127.07994,37.63167],[127.07997,37.63166],[127.08043,37.63157],[127.08042,37.63152],[127.08039,37.63141],[127.08038,37.63137]]}},{"type":"Feature","properties":{"class":"alley","highway":"service","sidewalk":"unknown","lanes":0,"name":"","oneway":false},"geometry":{"type":"LineString","coordinates":[[127.08042,37.63152],[127.0805,37.6315],[127.081,37.63148],[127.08101,37.6314],[127.08101,37.63136]]}},{"type":"Feature","properties":{"class":"alley","highway":"service","sidewalk":"unknown","lanes":0,"name":"","oneway":false},"geometry":{"type":"LineString","coordinates":[[127.08185,37.63138],[127.08187,37.63134]]}},{"type":"Feature","properties":{"class":"alley","highway":"service","sidewalk":"unknown","lanes":0,"name":"","oneway":false},"geometry":{"type":"LineString","coordinates":[[127.08187,37.63134],[127.08187,37.63106]]}},{"type":"Feature","properties":{"class":"alley","highway":"living_street","sidewalk":"unknown","lanes":2,"name":"","oneway":false},"geometry":{"type":"LineString","coordinates":[[127.08473,37.62315],[127.08406,37.62356],[127.08405,37.62378],[127.08381,37.62385],[127.08187,37.62391]]}},{"type":"Feature","properties":{"class":"major","highway":"tertiary","sidewalk":"likely","lanes":0,"name":"","oneway":false},"geometry":{"type":"LineString","coordinates":[[127.10991,37.62818],[127.10989,37.62824],[127.10988,37.6283],[127.10953,37.6298],[127.10899,37.62944],[127.10837,37.6289],[127.10798,37.62833],[127.1074,37.62811],[127.10678,37.62784],[127.10643,37.62765],[127.1058,37.62731],[127.1055,37.62724],[127.10527,37.62722],[127.105,37.62723],[127.103,37.62766],[127.10261,37.62785],[127.10226,37.628],[127.10191,37.62811],[127.101,37.62827],[127.10051,37.62847],[127.09964,37.62905],[127.09914,37.62939],[127.09911,37.6294],[127.09909,37.62942]]}},{"type":"Feature","properties":{"class":"alley","highway":"service","sidewalk":"unknown","lanes":0,"name":"","oneway":false},"geometry":{"type":"LineString","coordinates":[[127.09767,37.62995],[127.09761,37.62999],[127.09758,37.63002],[127.09764,37.63007],[127.09749,37.6302]]}},{"type":"Feature","properties":{"class":"minor","highway":"residential","sidewalk":"unknown","lanes":0,"name":"화랑로51길","oneway":false},"geometry":{"type":"LineString","coordinates":[[127.0903,37.62339],[127.09022,37.62342],[127.09006,37.62351],[127.08991,37.62358],[127.08979,37.62365],[127.08974,37.62368],[127.0897,37.62371],[127.08967,37.62374],[127.08965,37.62376],[127.08956,37.62388],[127.0895,37.62399],[127.0894,37.62414],[127.08921,37.62446],[127.08919,37.6245],[127.08906,37.62471],[127.08902,37.62478],[127.08895,37.62487],[127.08876,37.62503],[127.08858,37.62514],[127.08843,37.62519],[127.08818,37.62524],[127.08805,37.62525],[127.08785,37.62523],[127.08644,37.62499],[127.08621,37.62496]]}},{"type":"Feature","properties":{"class":"major","highway":"primary","sidewalk":"likely","lanes":3,"name":"화랑로","oneway":true},"geometry":{"type":"LineString","coordinates":[[127.0903,37.62339],[127.09022,37.62324]]}},{"type":"Feature","properties":{"class":"major","highway":"primary_link","sidewalk":"likely","lanes":0,"name":"","oneway":true},"geometry":{"type":"LineString","coordinates":[[127.08539,37.62008],[127.08501,37.62025],[127.08498,37.62027]]}},{"type":"Feature","properties":{"class":"alley","highway":"service","sidewalk":"unknown","lanes":0,"name":"","oneway":false},"geometry":{"type":"LineString","coordinates":[[127.08023,37.62856],[127.08031,37.62894],[127.08026,37.62896],[127.0802,37.62899],[127.08016,37.62904],[127.08014,37.62907],[127.08013,37.62912],[127.08014,37.62915],[127.08005,37.62917],[127.07993,37.62919],[127.07987,37.62922],[127.07983,37.62925],[127.07981,37.62926],[127.07969,37.62943],[127.07965,37.62946],[127.07961,37.62948],[127.07955,37.6295],[127.07947,37.62951],[127.07944,37.62956],[127.07942,37.62959],[127.07936,37.62963],[127.07938,37.6297]]}},{"type":"Feature","properties":{"class":"alley","highway":"service","sidewalk":"unknown","lanes":0,"name":"","oneway":false},"geometry":{"type":"LineString","coordinates":[[127.08037,37.62918],[127.08031,37.62894],[127.08038,37.62894],[127.08046,37.62896],[127.08051,37.629],[127.08054,37.62903],[127.08055,37.62906],[127.08056,37.62909],[127.08054,37.62914],[127.08051,37.62917],[127.08047,37.6292],[127.08042,37.62921]]}},{"type":"Feature","properties":{"class":"alley","highway":"service","sidewalk":"unknown","lanes":0,"name":"","oneway":false},"geometry":{"type":"LineString","coordinates":[[127.08014,37.62915],[127.08017,37.62919],[127.08021,37.62921],[127.08025,37.62922],[127.08028,37.62923],[127.08031,37.62923]]}},{"type":"Feature","properties":{"class":"alley","highway":"service","sidewalk":"unknown","lanes":0,"name":"","oneway":false},"geometry":{"type":"LineString","coordinates":[[127.07898,37.6285],[127.07992,37.62855],[127.08023,37.62856],[127.0809,37.62858],[127.08094,37.62862],[127.08097,37.62868],[127.08106,37.62892],[127.08109,37.62895],[127.08113,37.62895],[127.08156,37.6289],[127.08161,37.62892],[127.08165,37.62895],[127.08167,37.62899],[127.0817,37.62906],[127.08173,37.62919],[127.08176,37.62932],[127.08183,37.6296],[127.08183,37.62968],[127.08183,37.62973],[127.08182,37.62977],[127.0818,37.62988],[127.08178,37.62997],[127.08177,37.63004],[127.08177,37.63006],[127.08197,37.63015],[127.08214,37.63046],[127.08227,37.63094],[127.08187,37.63098],[127.08187,37.63106]]}},{"type":"Feature","properties":{"class":"alley","highway":"service","sidewalk":"unknown","lanes":0,"name":"","oneway":false},"geometry":{"type":"LineString","coordinates":[[127.08107,37.63403],[127.08108,37.63408],[127.08117,37.63434],[127.0813,37.63471],[127.08131,37.63477],[127.08127,37.63482],[127.08122,37.63486],[127.08113,37.63489],[127.08081,37.63498],[127.08078,37.63501],[127.08073,37.63508],[127.08066,37.63516],[127.08065,37.63531],[127.08021,37.6354]]}},{"type":"Feature","properties":{"class":"alley","highway":"service","sidewalk":"unknown","lanes":0,"name":"","oneway":false},"geometry":{"type":"LineString","coordinates":[[127.07856,37.63176],[127.07861,37.63174],[127.07871,37.63172],[127.079,37.63164],[127.07913,37.63164],[127.07921,37.63168],[127.07939,37.63208],[127.07987,37.63197],[127.07992,37.63197],[127.07996,37.63199],[127.08006,37.63204],[127.08009,37.63205],[127.08023,37.63217],[127.08037,37.63232],[127.08052,37.63265],[127.08068,37.6331],[127.0807,37.63317],[127.08075,37.63316],[127.08116,37.63306],[127.08136,37.63302]]}},{"type":"Feature","properties":{"class":"minor","highway":"residential","sidewalk":"unknown","lanes":0,"name":"","oneway":true},"geometry":{"type":"LineString","coordinates":[[127.08229,37.628],[127.08256,37.6281],[127.08268,37.62814],[127.08271,37.62819],[127.08272,37.62821],[127.08274,37.62828],[127.08272,37.62836],[127.08269,37.62839],[127.08267,37.62843],[127.0826,37.62848],[127.08251,37.62851],[127.08241,37.62852],[127.08233,37.6285],[127.08225,37.62847],[127.08219,37.62843],[127.08215,37.62837],[127.08213,37.62831],[127.08213,37.62824],[127.08215,37.62818],[127.0822,37.62812],[127.08225,37.62807],[127.08229,37.628]]}},{"type":"Feature","properties":{"class":"minor","highway":"residential","sidewalk":"unknown","lanes":0,"name":"","oneway":false},"geometry":{"type":"LineString","coordinates":[[127.08229,37.628],[127.08244,37.62775],[127.08245,37.62775],[127.08253,37.62767]]}},{"type":"Feature","properties":{"class":"alley","highway":"service","sidewalk":"unknown","lanes":0,"name":"","oneway":false},"geometry":{"type":"LineString","coordinates":[[127.08233,37.6285],[127.08211,37.62856],[127.0818,37.62864],[127.08195,37.62913],[127.08215,37.62972],[127.08218,37.62981],[127.08232,37.62998],[127.08238,37.63016],[127.08258,37.63025],[127.08268,37.63056],[127.08297,37.6305],[127.08334,37.6304],[127.08341,37.63042],[127.08349,37.63045],[127.0835,37.63046],[127.08364,37.6305]]}},{"type":"Feature","properties":{"class":"alley","highway":"service","sidewalk":"unknown","lanes":0,"name":"","oneway":false},"geometry":{"type":"LineString","coordinates":[[127.08232,37.62998],[127.08285,37.62988],[127.08349,37.6301],[127.08334,37.6304]]}},{"type":"Feature","properties":{"class":"alley","highway":"service","sidewalk":"unknown","lanes":0,"name":"","oneway":false},"geometry":{"type":"LineString","coordinates":[[127.08269,37.62839],[127.08279,37.62842],[127.08289,37.62843]]}},{"type":"Feature","properties":{"class":"alley","highway":"service","sidewalk":"unknown","lanes":0,"name":"","oneway":false},"geometry":{"type":"LineString","coordinates":[[127.08229,37.628],[127.08222,37.62798],[127.08213,37.62794]]}},{"type":"Feature","properties":{"class":"alley","highway":"service","sidewalk":"unknown","lanes":0,"name":"","oneway":false},"geometry":{"type":"LineString","coordinates":[[127.0807,37.63317],[127.08066,37.63318],[127.08043,37.63326],[127.08029,37.63333],[127.08023,37.63338],[127.0802,37.63346],[127.08023,37.63354],[127.08044,37.63413],[127.08045,37.63417]]}},{"type":"Feature","properties":{"class":"alley","highway":"service","sidewalk":"unknown","lanes":0,"name":"","oneway":true},"geometry":{"type":"LineString","coordinates":[[127.08076,37.63411],[127.08071,37.63417],[127.08067,37.63422],[127.08049,37.63426],[127.08042,37.63422],[127.08031,37.6342]]}},{"type":"Feature","properties":{"class":"alley","highway":"service","sidewalk":"unknown","lanes":0,"name":"","oneway":false},"geometry":{"type":"LineString","coordinates":[[127.08122,37.634],[127.08132,37.63431],[127.08117,37.63434]]}},{"type":"Feature","properties":{"class":"alley","highway":"service","sidewalk":"unknown","lanes":0,"name":"","oneway":false},"geometry":{"type":"LineString","coordinates":[[127.08131,37.63398],[127.0811,37.63388],[127.08081,37.63394]]}},{"type":"Feature","properties":{"class":"alley","highway":"service","sidewalk":"unknown","lanes":0,"name":"","oneway":false},"geometry":{"type":"LineString","coordinates":[[127.07964,37.63108],[127.07972,37.63108],[127.07992,37.63111],[127.08015,37.63113],[127.08038,37.63114],[127.0806,37.63114],[127.08072,37.63113],[127.0808,37.63113],[127.08116,37.63109],[127.08173,37.63101],[127.08187,37.63098]]}},{"type":"Feature","properties":{"class":"alley","highway":"service","sidewalk":"unknown","lanes":0,"name":"","oneway":false},"geometry":{"type":"LineString","coordinates":[[127.08271,37.62819],[127.08331,37.62812],[127.0835,37.62821]]}},{"type":"Feature","properties":{"class":"alley","highway":"service","sidewalk":"unknown","lanes":0,"name":"","oneway":true},"geometry":{"type":"LineString","coordinates":[[127.07996,37.63199],[127.08001,37.63206],[127.08015,37.63255],[127.07909,37.6328],[127.07888,37.63219],[127.07924,37.63211],[127.07939,37.63208]]}},{"type":"Feature","properties":{"class":"minor","highway":"residential","sidewalk":"unknown","lanes":0,"name":"","oneway":false},"geometry":{"type":"LineString","coordinates":[[127.09874,37.62086],[127.09824,37.62057],[127.09779,37.62104],[127.09828,37.62133]]}},{"type":"Feature","properties":{"class":"alley","highway":"service","sidewalk":"unknown","lanes":0,"name":"","oneway":false},"geometry":{"type":"LineString","coordinates":[[127.09801,37.62562],[127.09769,37.62597],[127.098,37.62615],[127.0985,37.62645],[127.0989,37.62601]]}},{"type":"Feature","properties":{"class":"alley","highway":"service","sidewalk":"unknown","lanes":0,"name":"","oneway":false},"geometry":{"type":"LineString","coordinates":[[127.09143,37.62281],[127.09153,37.62269]]}},{"type":"Feature","properties":{"class":"alley","highway":"service","sidewalk":"unknown","lanes":0,"name":"","oneway":false},"geometry":{"type":"LineString","coordinates":[[127.09126,37.62301],[127.09143,37.62281]]}},{"type":"Feature","properties":{"class":"major","highway":"tertiary","sidewalk":"likely","lanes":0,"name":"","oneway":false},"geometry":{"type":"LineString","coordinates":[[127.0912,37.62308],[127.09126,37.62301]]}},{"type":"Feature","properties":{"class":"minor","highway":"residential","sidewalk":"unknown","lanes":0,"name":"","oneway":false},"geometry":{"type":"LineString","coordinates":[[127.09702,37.62003],[127.09728,37.61977],[127.09763,37.61951]]}},{"type":"Feature","properties":{"class":"minor","highway":"residential","sidewalk":"unknown","lanes":0,"name":"","oneway":false},"geometry":{"type":"LineString","coordinates":[[127.08995,37.62136],[127.0898,37.62147],[127.08958,37.62164],[127.08947,37.62173],[127.08886,37.62219]]}},{"type":"Feature","properties":{"class":"minor","highway":"residential","sidewalk":"unknown","lanes":0,"name":"","oneway":false},"geometry":{"type":"LineString","coordinates":[[127.09174,37.61994],[127.09147,37.62016],[127.09141,37.6202],[127.09112,37.62044],[127.09107,37.62048],[127.09067,37.62081],[127.09049,37.62095],[127.0904,37.62102],[127.09021,37.62117],[127.09018,37.62119]]}},{"type":"Feature","properties":{"class":"alley","highway":"service","sidewalk":"unknown","lanes":0,"name":"","oneway":false},"geometry":{"type":"LineString","coordinates":[[127.0989,37.62483],[127.0989,37.62494],[127.09911,37.62519],[127.09924,37.62523],[127.09943,37.62526]]}},{"type":"Feature","properties":{"class":"major","highway":"secondary","sidewalk":"likely","lanes":0,"name":"","oneway":true},"geometry":{"type":"LineString","coordinates":[[127.09365,37.6239],[127.09374,37.62401]]}},{"type":"Feature","properties":{"class":"minor","highway":"residential","sidewalk":"unknown","lanes":0,"name":"","oneway":false},"geometry":{"type":"LineString","coordinates":[[127.09629,37.62548],[127.09628,37.62549]]}},{"type":"Feature","properties":{"class":"minor","highway":"residential","sidewalk":"unknown","lanes":0,"name":"","oneway":false},"geometry":{"type":"LineString","coordinates":[[127.09638,37.62544],[127.09629,37.62548]]}},{"type":"Feature","properties":{"class":"minor","highway":"residential","sidewalk":"unknown","lanes":0,"name":"","oneway":false},"geometry":{"type":"LineString","coordinates":[[127.09628,37.62549],[127.09593,37.62569]]}},{"type":"Feature","properties":{"class":"minor","highway":"residential","sidewalk":"unknown","lanes":0,"name":"","oneway":false},"geometry":{"type":"LineString","coordinates":[[127.09593,37.62569],[127.09588,37.62573],[127.09586,37.62575],[127.09525,37.62624],[127.09516,37.62632],[127.09506,37.62639]]}},{"type":"Feature","properties":{"class":"minor","highway":"residential","sidewalk":"unknown","lanes":0,"name":"","oneway":false},"geometry":{"type":"LineString","coordinates":[[127.0819,37.62143],[127.08226,37.62147]]}},{"type":"Feature","properties":{"class":"minor","highway":"residential","sidewalk":"unknown","lanes":0,"name":"노원로1마길","oneway":false},"geometry":{"type":"LineString","coordinates":[[127.08107,37.62076],[127.0814,37.62074]]}},{"type":"Feature","properties":{"class":"minor","highway":"residential","sidewalk":"unknown","lanes":0,"name":"노원로1마길","oneway":false},"geometry":{"type":"LineString","coordinates":[[127.08116,37.62145],[127.08146,37.62143]]}},{"type":"Feature","properties":{"class":"minor","highway":"residential","sidewalk":"unknown","lanes":0,"name":"공릉로32길","oneway":false},"geometry":{"type":"LineString","coordinates":[[127.08056,37.62232],[127.08083,37.62192]]}},{"type":"Feature","properties":{"class":"minor","highway":"residential","sidewalk":"unknown","lanes":0,"name":"공릉로34길","oneway":false},"geometry":{"type":"LineString","coordinates":[[127.08004,37.62213],[127.07975,37.62249]]}},{"type":"Feature","properties":{"class":"minor","highway":"residential","sidewalk":"unknown","lanes":0,"name":"공릉로32길","oneway":false},"geometry":{"type":"LineString","coordinates":[[127.08028,37.62223],[127.08055,37.62184]]}},{"type":"Feature","properties":{"class":"major","highway":"trunk_link","sidewalk":"likely","lanes":0,"name":"","oneway":true},"geometry":{"type":"LineString","coordinates":[[127.08776,37.62014],[127.08761,37.62041],[127.08752,37.62072],[127.08734,37.62141],[127.0873,37.62154]]}},{"type":"Feature","properties":{"class":"minor","highway":"residential","sidewalk":"unknown","lanes":0,"name":"","oneway":false},"geometry":{"type":"LineString","coordinates":[[127.09018,37.62119],[127.08995,37.62136]]}},{"type":"Feature","properties":{"class":"major","highway":"secondary","sidewalk":"likely","lanes":0,"name":"","oneway":true},"geometry":{"type":"LineString","coordinates":[[127.09374,37.62401],[127.0936,37.62399],[127.09114,37.62317]]}},{"type":"Feature","properties":{"class":"major","highway":"secondary","sidewalk":"likely","lanes":0,"name":"","oneway":true},"geometry":{"type":"LineString","coordinates":[[127.09057,37.62298],[127.09024,37.62299],[127.0901,37.62299]]}},{"type":"Feature","properties":{"class":"major","highway":"tertiary","sidewalk":"likely","lanes":0,"name":"","oneway":false},"geometry":{"type":"LineString","coordinates":[[127.0912,37.62308],[127.09114,37.62317]]}},{"type":"Feature","properties":{"class":"major","highway":"secondary","sidewalk":"likely","lanes":0,"name":"","oneway":true},"geometry":{"type":"LineString","coordinates":[[127.0912,37.62308],[127.0917,37.62324],[127.09245,37.62349],[127.09365,37.6239]]}},{"type":"Feature","properties":{"class":"major","highway":"secondary","sidewalk":"likely","lanes":0,"name":"","oneway":true},"geometry":{"type":"LineString","coordinates":[[127.09114,37.62317],[127.09058,37.62298],[127.09057,37.62298],[127.0903,37.62309]]}},{"type":"Feature","properties":{"class":"major","highway":"secondary","sidewalk":"likely","lanes":6,"name":"노원로","oneway":false},"geometry":{"type":"LineString","coordinates":[[127.08499,37.62803],[127.08491,37.62819],[127.08489,37.62823],[127.08441,37.62909],[127.08428,37.62933],[127.08364,37.6305],[127.08317,37.63135],[127.08316,37.63139],[127.08313,37.63151],[127.08313,37.63169],[127.08316,37.63228],[127.08316,37.63278],[127.08314,37.63299],[127.08311,37.63321],[127.08302,37.63341],[127.0829,37.6336],[127.08211,37.63477]]}},{"type":"Feature","properties":{"class":"major","highway":"secondary","sidewalk":"likely","lanes":6,"name":"노원로","oneway":false},"geometry":{"type":"LineString","coordinates":[[127.08715,37.62176],[127.08712,37.62187],[127.08704,37.62214],[127.08694,37.6225],[127.0869,37.62265],[127.08665,37.62349],[127.08644,37.62418],[127.08624,37.62487],[127.08621,37.62496],[127.08604,37.62559],[127.08563,37.62672],[127.08552,37.627],[127.08501,37.62799],[127.08499,37.62803]]}},{"type":"Feature","properties":{"class":"major","highway":"primary","sidewalk":"likely","lanes":2,"name":"화랑로","oneway":true},"geometry":{"type":"LineString","coordinates":[[127.10487,37.63455],[127.10433,37.63419],[127.10354,37.63375],[127.10343,37.63368],[127.10245,37.63313],[127.10155,37.63264],[127.10103,37.63232],[127.10039,37.63178],[127.09982,37.63121],[127.09944,37.63096],[127.09829,37.63031],[127.09821,37.63026],[127.098,37.63014],[127.0978,37.63003],[127.09767,37.62995],[127.09733,37.62959],[127.09707,37.62931],[127.0965,37.62845],[127.09613,37.6279],[127.09579,37.62732],[127.09544,37.62675],[127.09521,37.62651],[127.09519,37.62649],[127.09506,37.62639],[127.09468,37.6261],[127.09388,37.6257],[127.09376,37.62564],[127.09296,37.62518],[127.09233,37.62484]]}},{"type":"Feature","properties":{"class":"major","highway":"secondary","sidewalk":"likely","lanes":0,"name":"신내로","oneway":false},"geometry":{"type":"LineString","coordinates":[[127.08481,37.62016],[127.08453,37.6203],[127.08447,37.62032],[127.08444,37.62034]]}},{"type":"Feature","properties":{"class":"major","highway":"primary","sidewalk":"likely","lanes":3,"name":"화랑로","oneway":true},"geometry":{"type":"LineString","coordinates":[[127.08444,37.62034],[127.08472,37.62045],[127.08497,37.62056],[127.08693,37.62139],[127.08713,37.62147],[127.08722,37.62151],[127.0873,37.62154]]}},{"type":"Feature","properties":{"class":"major","highway":"tertiary","sidewalk":"likely","lanes":0,"name":"신내로","oneway":false},"geometry":{"type":"LineString","coordinates":[[127.08444,37.62034],[127.08442,37.62035],[127.08436,37.62044]]}},{"type":"Feature","properties":{"class":"major","highway":"primary_link","sidewalk":"likely","lanes":0,"name":"","oneway":true},"geometry":{"type":"LineString","coordinates":[[127.0855,37.6199],[127.08548,37.61995],[127.08547,37.61998],[127.08544,37.62003],[127.08542,37.62005],[127.08539,37.62008]]}},{"type":"Feature","properties":{"class":"minor","highway":"residential","sidewalk":"unknown","lanes":0,"name":"","oneway":false},"geometry":{"type":"LineString","coordinates":[[127.09374,37.62401],[127.09433,37.62423]]}},{"type":"Feature","properties":{"class":"major","highway":"tertiary","sidewalk":"likely","lanes":0,"name":"","oneway":false},"geometry":{"type":"LineString","coordinates":[[127.09901,37.62947],[127.09818,37.63002],[127.09808,37.63008],[127.098,37.63014]]}},{"type":"Feature","properties":{"class":"major","highway":"tertiary","sidewalk":"likely","lanes":0,"name":"","oneway":false},"geometry":{"type":"LineString","coordinates":[[127.09909,37.62942],[127.09901,37.62947]]}},{"type":"Feature","properties":{"class":"alley","highway":"service","sidewalk":"unknown","lanes":0,"name":"","oneway":false},"geometry":{"type":"LineString","coordinates":[[127.09994,37.62458],[127.1001,37.62462],[127.09995,37.62497],[127.09978,37.62519],[127.09953,37.6251]]}},{"type":"Feature","properties":{"class":"alley","highway":"service","sidewalk":"unknown","lanes":0,"name":"","oneway":false},"geometry":{"type":"LineString","coordinates":[[127.09995,37.62497],[127.0997,37.62487]]}},{"type":"Feature","properties":{"class":"alley","highway":"service","sidewalk":"unknown","lanes":0,"name":"","oneway":false},"geometry":{"type":"LineString","coordinates":[[127.09966,37.62641],[127.09987,37.62673],[127.09985,37.62678],[127.09873,37.62793]]}},{"type":"Feature","properties":{"class":"alley","highway":"service","sidewalk":"unknown","lanes":0,"name":"","oneway":false},"geometry":{"type":"LineString","coordinates":[[127.098,37.62615],[127.09759,37.62657],[127.09757,37.62663],[127.09776,37.62683],[127.09818,37.6271],[127.09828,37.62701],[127.09852,37.62716]]}},{"type":"Feature","properties":{"class":"alley","highway":"service","sidewalk":"unknown","lanes":0,"name":"","oneway":false},"geometry":{"type":"LineString","coordinates":[[127.09439,37.61945],[127.09449,37.62022]]}},{"type":"Feature","properties":{"class":"alley","highway":"service","sidewalk":"unknown","lanes":0,"name":"","oneway":false},"geometry":{"type":"LineString","coordinates":[[127.09536,37.62169],[127.09458,37.62119],[127.09447,37.62112],[127.09434,37.62103],[127.09362,37.62057],[127.09347,37.62048],[127.09344,37.62045]]}},{"type":"Feature","properties":{"class":"alley","highway":"service","sidewalk":"unknown","lanes":0,"name":"","oneway":false},"geometry":{"type":"LineString","coordinates":[[127.09447,37.62112],[127.09463,37.62095]]}},{"type":"Feature","properties":{"class":"alley","highway":"service","sidewalk":"unknown","lanes":0,"name":"","oneway":false},"geometry":{"type":"LineString","coordinates":[[127.09434,37.62103],[127.0945,37.62085]]}},{"type":"Feature","properties":{"class":"alley","highway":"service","sidewalk":"unknown","lanes":0,"name":"","oneway":false},"geometry":{"type":"LineString","coordinates":[[127.09362,37.62057],[127.09377,37.6204],[127.09363,37.62031],[127.09358,37.62036],[127.09347,37.62048]]}},{"type":"Feature","properties":{"class":"alley","highway":"service","sidewalk":"unknown","lanes":0,"name":"","oneway":false},"geometry":{"type":"LineString","coordinates":[[127.09358,37.62036],[127.09353,37.62033],[127.0936,37.62025],[127.09363,37.62021],[127.09342,37.62006],[127.09268,37.61969],[127.09265,37.61955]]}},{"type":"Feature","properties":{"class":"alley","highway":"service","sidewalk":"unknown","lanes":0,"name":"","oneway":false},"geometry":{"type":"LineString","coordinates":[[127.09591,37.62114],[127.09514,37.62063],[127.09463,37.62114],[127.09458,37.62119]]}},{"type":"Feature","properties":{"class":"alley","highway":"service","sidewalk":"unknown","lanes":0,"name":"","oneway":false},"geometry":{"type":"LineString","coordinates":[[127.09463,37.62114],[127.09541,37.62164]]}},{"type":"Feature","properties":{"class":"alley","highway":"service","sidewalk":"unknown","lanes":0,"name":"","oneway":false},"geometry":{"type":"LineString","coordinates":[[127.09534,37.61917],[127.09519,37.62],[127.09521,37.62054],[127.09514,37.62063]]}},{"type":"Feature","properties":{"class":"alley","highway":"service","sidewalk":"unknown","lanes":0,"name":"","oneway":false},"geometry":{"type":"LineString","coordinates":[[127.09519,37.62],[127.09556,37.62015],[127.09626,37.62058]]}},{"type":"Feature","properties":{"class":"alley","highway":"service","sidewalk":"unknown","lanes":0,"name":"","oneway":false},"geometry":{"type":"LineString","coordinates":[[127.09626,37.62058],[127.0963,37.62076]]}},{"type":"Feature","properties":{"class":"alley","highway":"service","sidewalk":"unknown","lanes":0,"name":"","oneway":false},"geometry":{"type":"LineString","coordinates":[[127.09626,37.62058],[127.09646,37.6206]]}},{"type":"Feature","properties":{"class":"alley","highway":"service","sidewalk":"unknown","lanes":0,"name":"","oneway":false},"geometry":{"type":"LineString","coordinates":[[127.09711,37.62252],[127.09647,37.62213],[127.09597,37.62182],[127.0958,37.62172]]}},{"type":"Feature","properties":{"class":"alley","highway":"service","sidewalk":"unknown","lanes":0,"name":"","oneway":false},"geometry":{"type":"LineString","coordinates":[[127.09647,37.62213],[127.09704,37.62159]]}},{"type":"Feature","properties":{"class":"alley","highway":"service","sidewalk":"unknown","lanes":0,"name":"","oneway":false},"geometry":{"type":"LineString","coordinates":[[127.09597,37.62182],[127.09655,37.62125]]}},{"type":"Feature","properties":{"class":"alley","highway":"service","sidewalk":"unknown","lanes":0,"name":"","oneway":false},"geometry":{"type":"LineString","coordinates":[[127.09655,37.62125],[127.09704,37.62159],[127.09709,37.62163],[127.09763,37.62107],[127.09779,37.62104]]}},{"type":"Feature","properties":{"class":"alley","highway":"service","sidewalk":"unknown","lanes":0,"name":"","oneway":false},"geometry":{"type":"LineString","coordinates":[[127.0995,37.62268],[127.10002,37.62301],[127.09949,37.62356]]}},{"type":"Feature","properties":{"class":"alley","highway":"service","sidewalk":"unknown","lanes":0,"name":"","oneway":false},"geometry":{"type":"LineString","coordinates":[[127.09848,37.62581],[127.0985,37.62574],[127.09829,37.62543]]}},{"type":"Feature","properties":{"class":"alley","highway":"service","sidewalk":"unknown","lanes":0,"name":"","oneway":false},"geometry":{"type":"LineString","coordinates":[[127.09639,37.62543],[127.09649,37.62559],[127.09685,37.62581],[127.09693,37.62587],[127.09707,37.62596],[127.09711,37.62598]]}},{"type":"Feature","properties":{"class":"alley","highway":"service","sidewalk":"unknown","lanes":0,"name":"","oneway":false},"geometry":{"type":"LineString","coordinates":[[127.09693,37.62587],[127.09713,37.62567],[127.09727,37.62575],[127.09707,37.62596]]}},{"type":"Feature","properties":{"class":"alley","highway":"service","sidewalk":"unknown","lanes":0,"name":"","oneway":false},"geometry":{"type":"LineString","coordinates":[[127.09996,37.62395],[127.10034,37.62408],[127.10078,37.62402],[127.1014,37.62393],[127.10183,37.62387],[127.10238,37.62379]]}},{"type":"Feature","properties":{"class":"alley","highway":"service","sidewalk":"unknown","lanes":0,"name":"","oneway":false},"geometry":{"type":"LineString","coordinates":[[127.0985,37.62645],[127.09893,37.62673],[127.09852,37.62716]]}},{"type":"Feature","properties":{"class":"alley","highway":"service","sidewalk":"unknown","lanes":0,"name":"","oneway":false},"geometry":{"type":"LineString","coordinates":[[127.09207,37.62614],[127.09277,37.62533]]}},{"type":"Feature","properties":{"class":"alley","highway":"service","sidewalk":"unknown","lanes":0,"name":"","oneway":false},"geometry":{"type":"LineString","coordinates":[[127.09179,37.62598],[127.0925,37.62517]]}},{"type":"Feature","properties":{"class":"minor","highway":"residential","sidewalk":"unknown","lanes":0,"name":"","oneway":false},"geometry":{"type":"LineString","coordinates":[[127.08919,37.6245],[127.08936,37.62456],[127.08937,37.62456],[127.08938,37.62456],[127.08938,37.62456],[127.08939,37.62456],[127.08947,37.62442],[127.08982,37.62409],[127.08983,37.62408],[127.08984,37.62408],[127.08985,37.62408],[127.08986,37.62408],[127.0899,37.62409],[127.09022,37.62425],[127.09032,37.6243],[127.09069,37.62448]]}},{"type":"Feature","properties":{"class":"minor","highway":"residential","sidewalk":"unknown","lanes":0,"name":"화랑로51가길","oneway":false},"geometry":{"type":"LineString","coordinates":[[127.0899,37.62409],[127.09009,37.62384],[127.0902,37.62369]]}},{"type":"Feature","properties":{"class":"alley","highway":"service","sidewalk":"unknown","lanes":0,"name":"","oneway":false},"geometry":{"type":"LineString","coordinates":[[127.07964,37.63025],[127.07961,37.63013],[127.08006,37.63005],[127.08008,37.63013],[127.08009,37.63018],[127.07993,37.6302]]}},{"type":"Feature","properties":{"class":"alley","highway":"service","sidewalk":"unknown","lanes":0,"name":"","oneway":false},"geometry":{"type":"LineString","coordinates":[[127.07952,37.63045],[127.07957,37.63044],[127.07997,37.63038],[127.08017,37.63035],[127.08014,37.63021]]}},{"type":"Feature","properties":{"class":"alley","highway":"service","sidewalk":"unknown","lanes":0,"name":"","oneway":false},"geometry":{"type":"LineString","coordinates":[[127.08155,37.62978],[127.08183,37.62973]]}},{"type":"Feature","properties":{"class":"alley","highway":"service","sidewalk":"unknown","lanes":0,"name":"","oneway":false},"geometry":{"type":"LineString","coordinates":[[127.08177,37.63006],[127.08164,37.63009],[127.08141,37.63013],[127.08133,37.62982],[127.08155,37.62978],[127.08164,37.63009]]}},{"type":"Feature","properties":{"class":"alley","highway":"service","sidewalk":"unknown","lanes":0,"name":"","oneway":false},"geometry":{"type":"LineString","coordinates":[[127.08313,37.63151],[127.08296,37.6315],[127.08285,37.63149]]}},{"type":"Feature","properties":{"class":"alley","highway":"service","sidewalk":"unknown","lanes":0,"name":"","oneway":false},"geometry":{"type":"LineString","coordinates":[[127.08199,37.63352],[127.08204,37.63371],[127.08196,37.63405],[127.08188,37.63408],[127.0816,37.63416],[127.08157,37.63419],[127.08156,37.63422],[127.08158,37.63436]]}},{"type":"Feature","properties":{"class":"alley","highway":"service","sidewalk":"unknown","lanes":0,"name":"","oneway":false},"geometry":{"type":"LineString","coordinates":[[127.08905,37.62696],[127.08898,37.62683],[127.08984,37.62649]]}},{"type":"Feature","properties":{"class":"alley","highway":"service","sidewalk":"unknown","lanes":0,"name":"","oneway":false},"geometry":{"type":"LineString","coordinates":[[127.09386,37.62647],[127.09365,37.6264]]}},{"type":"Feature","properties":{"class":"alley","highway":"service","sidewalk":"unknown","lanes":0,"name":"","oneway":false},"geometry":{"type":"LineString","coordinates":[[127.09379,37.62615],[127.09365,37.6264],[127.09351,37.62668]]}},{"type":"Feature","properties":{"class":"alley","highway":"service","sidewalk":"unknown","lanes":0,"name":"","oneway":false},"geometry":{"type":"LineString","coordinates":[[127.09326,37.62661],[127.09351,37.62668]]}},{"type":"Feature","properties":{"class":"alley","highway":"service","sidewalk":"unknown","lanes":0,"name":"","oneway":false},"geometry":{"type":"LineString","coordinates":[[127.09351,37.62668],[127.09371,37.62674],[127.09386,37.62647],[127.09399,37.62621],[127.09379,37.62615]]}},{"type":"Feature","properties":{"class":"alley","highway":"service","sidewalk":"unknown","lanes":0,"name":"","oneway":false},"geometry":{"type":"LineString","coordinates":[[127.09356,37.62741],[127.09327,37.62724],[127.0931,37.6274]]}},{"type":"Feature","properties":{"class":"alley","highway":"service","sidewalk":"unknown","lanes":0,"name":"","oneway":false},"geometry":{"type":"LineString","coordinates":[[127.09277,37.62716],[127.0931,37.6274]]}},{"type":"Feature","properties":{"class":"alley","highway":"service","sidewalk":"unknown","lanes":0,"name":"","oneway":false},"geometry":{"type":"LineString","coordinates":[[127.0931,37.6274],[127.09339,37.6276],[127.09356,37.62741]]}},{"type":"Feature","properties":{"class":"alley","highway":"service","sidewalk":"unknown","lanes":0,"name":"","oneway":false},"geometry":{"type":"LineString","coordinates":[[127.09158,37.62862],[127.09097,37.62868],[127.091,37.62887]]}},{"type":"Feature","properties":{"class":"alley","highway":"service","sidewalk":"unknown","lanes":0,"name":"","oneway":false},"geometry":{"type":"LineString","coordinates":[[127.0901,37.62902],[127.09055,37.629]]}},{"type":"Feature","properties":{"class":"alley","highway":"service","sidewalk":"unknown","lanes":0,"name":"","oneway":false},"geometry":{"type":"LineString","coordinates":[[127.09009,37.62882],[127.0901,37.62902],[127.09011,37.62918]]}},{"type":"Feature","properties":{"class":"major","highway":"primary","sidewalk":"likely","lanes":3,"name":"화랑로","oneway":true},"geometry":{"type":"LineString","coordinates":[[127.09069,37.62387],[127.09066,37.62384],[127.09059,37.62379],[127.09053,37.62372],[127.09048,37.62367],[127.0903,37.62339]]}},{"type":"Feature","properties":{"class":"major","highway":"primary","sidewalk":"likely","lanes":3,"name":"화랑로","oneway":true},"geometry":{"type":"LineString","coordinates":[[127.09035,37.62319],[127.0904,37.62329],[127.09046,37.62338],[127.09063,37.62359],[127.09071,37.62369],[127.09078,37.62373],[127.09082,37.62376]]}},{"type":"Feature","properties":{"class":"major","highway":"secondary","sidewalk":"likely","lanes":0,"name":"노원로","oneway":false},"geometry":{"type":"LineString","coordinates":[[127.07872,37.63751],[127.07903,37.63738],[127.07966,37.63701],[127.08006,37.63673]]}},{"type":"Feature","properties":{"class":"major","highway":"tertiary","sidewalk":"likely","lanes":0,"name":"중계로","oneway":false},"geometry":{"type":"LineString","coordinates":[[127.08169,37.63788],[127.08211,37.6382],[127.08248,37.63859],[127.08268,37.63891],[127.08281,37.63929],[127.08288,37.63961],[127.08288,37.63964],[127.0829,37.63978],[127.0829,37.63985],[127.08292,37.64069]]}},{"type":"Feature","properties":{"class":"major","highway":"secondary","sidewalk":"likely","lanes":0,"name":"노원로","oneway":false},"geometry":{"type":"LineString","coordinates":[[127.08006,37.63673],[127.0801,37.63669],[127.08058,37.63631]]}},{"type":"Feature","properties":{"class":"alley","highway":"service","sidewalk":"unknown","lanes":0,"name":"","oneway":false},"geometry":{"type":"LineString","coordinates":[[127.0898,37.62147],[127.08987,37.62154],[127.08966,37.62169],[127.08958,37.62164]]}},{"type":"Feature","properties":{"class":"alley","highway":"pedestrian","sidewalk":"unknown","lanes":0,"name":"","oneway":false},"geometry":{"type":"LineString","coordinates":[[127.09026,37.62243],[127.0904,37.62243],[127.09042,37.62242],[127.09045,37.62242],[127.09055,37.62233],[127.09056,37.62218],[127.09049,37.62213],[127.09047,37.62211],[127.09045,37.6221],[127.09042,37.62208],[127.09023,37.6221],[127.09011,37.62221],[127.09012,37.62223],[127.09012,37.62226],[127.09012,37.6223],[127.09013,37.62234],[127.09024,37.62242],[127.09026,37.62243]]}},{"type":"Feature","properties":{"class":"major","highway":"secondary","sidewalk":"likely","lanes":0,"name":"신내로","oneway":false},"geometry":{"type":"LineString","coordinates":[[127.08524,37.62],[127.08522,37.62],[127.08511,37.62005]]}},{"type":"Feature","properties":{"class":"alley","highway":"service","sidewalk":"unknown","lanes":0,"name":"","oneway":false},"geometry":{"type":"LineString","coordinates":[[127.08713,37.61993],[127.08714,37.61995],[127.08714,37.61996],[127.08713,37.61997],[127.08712,37.61998],[127.08711,37.61999],[127.087,37.62001],[127.0868,37.62004],[127.08672,37.62006],[127.08662,37.62007],[127.08651,37.62007],[127.08623,37.6201],[127.08622,37.62009],[127.08621,37.62009],[127.08619,37.62001],[127.08619,37.61996],[127.08619,37.61995],[127.08619,37.61993],[127.08621,37.61992],[127.08645,37.61982],[127.0866,37.61976],[127.08674,37.6197],[127.08676,37.61969],[127.08678,37.61969],[127.08679,37.6197],[127.0868,37.61971],[127.087,37.62001]]}},{"type":"Feature","properties":{"class":"alley","highway":"service","sidewalk":"unknown","lanes":0,"name":"","oneway":false},"geometry":{"type":"LineString","coordinates":[[127.0866,37.61976],[127.0868,37.62004]]}},{"type":"Feature","properties":{"class":"alley","highway":"service","sidewalk":"unknown","lanes":0,"name":"","oneway":false},"geometry":{"type":"LineString","coordinates":[[127.08662,37.62007],[127.08645,37.61982]]}},{"type":"Feature","properties":{"class":"alley","highway":"service","sidewalk":"unknown","lanes":0,"name":"","oneway":false},"geometry":{"type":"LineString","coordinates":[[127.08001,37.62738],[127.07998,37.62742],[127.07985,37.62763],[127.07979,37.62774],[127.07978,37.62775],[127.07977,37.62794],[127.07977,37.62803],[127.07976,37.62811],[127.07974,37.62819],[127.07974,37.6282],[127.07973,37.62821],[127.07972,37.62822],[127.07972,37.62823],[127.07954,37.62842]]}},{"type":"Feature","properties":{"class":"alley","highway":"service","sidewalk":"unknown","lanes":0,"name":"","oneway":false},"geometry":{"type":"LineString","coordinates":[[127.07976,37.62811],[127.08062,37.62814]]}},{"type":"Feature","properties":{"class":"alley","highway":"service","sidewalk":"unknown","lanes":0,"name":"","oneway":false},"geometry":{"type":"LineString","coordinates":[[127.07977,37.62794],[127.08074,37.62798],[127.08097,37.62799],[127.0811,37.62791],[127.08112,37.62791],[127.08113,37.6279],[127.08117,37.6279],[127.08143,37.62791]]}},{"type":"Feature","properties":{"class":"alley","highway":"service","sidewalk":"unknown","lanes":0,"name":"","oneway":false},"geometry":{"type":"LineString","coordinates":[[127.07985,37.62763],[127.08054,37.62767]]}},{"type":"Feature","properties":{"class":"alley","highway":"service","sidewalk":"unknown","lanes":0,"name":"","oneway":false},"geometry":{"type":"LineString","coordinates":[[127.07954,37.62842],[127.08095,37.62846],[127.08098,37.62846],[127.081,37.62846],[127.08101,37.62845],[127.08102,37.62844],[127.08103,37.62843],[127.08103,37.62841],[127.08103,37.62839],[127.08104,37.62831],[127.08104,37.62828],[127.08103,37.62826],[127.08102,37.62825],[127.08096,37.62821],[127.08095,37.6282],[127.08095,37.62818],[127.08097,37.62799]]}},{"type":"Feature","properties":{"class":"alley","highway":"service","sidewalk":"unknown","lanes":0,"name":"","oneway":false},"geometry":{"type":"LineString","coordinates":[[127.08074,37.62798],[127.08076,37.62777],[127.08076,37.62775],[127.08076,37.62773],[127.08074,37.62772],[127.08073,37.62771],[127.0807,37.6277],[127.08067,37.62769]]}},{"type":"Feature","properties":{"class":"alley","highway":"service","sidewalk":"unknown","lanes":0,"name":"","oneway":false},"geometry":{"type":"LineString","coordinates":[[127.08103,37.62841],[127.08112,37.62839],[127.08113,37.62839],[127.08115,37.62839],[127.08116,37.62838],[127.08117,37.62838],[127.08122,37.62829],[127.08123,37.62828],[127.08123,37.62827],[127.08123,37.62826],[127.08124,37.6281],[127.08125,37.62809],[127.08125,37.62809],[127.08126,37.62808],[127.0815,37.62809],[127.0815,37.62809],[127.08151,37.62808],[127.08151,37.62808],[127.08152,37.62793],[127.08152,37.62792],[127.08151,37.62792],[127.08151,37.62792],[127.08143,37.62791]]}},{"type":"Feature","properties":{"class":"alley","highway":"service","sidewalk":"unknown","lanes":0,"name":"","oneway":false},"geometry":{"type":"LineString","coordinates":[[127.08048,37.6275],[127.08051,37.62745],[127.08051,37.62744],[127.08052,37.62743],[127.08053,37.62742],[127.08055,37.62742],[127.08065,37.62741],[127.08071,37.62741],[127.08076,37.62741],[127.08082,37.62741],[127.08088,37.6274],[127.08091,37.6274],[127.08201,37.62719],[127.08215,37.62717],[127.08222,37.62716],[127.08225,37.62715],[127.08228,37.62715],[127.0823,37.62716],[127.08233,37.62716],[127.08235,37.62717],[127.08238,37.62718],[127.08246,37.62721]]}},{"type":"Feature","properties":{"class":"alley","highway":"service","sidewalk":"unknown","lanes":0,"name":"","oneway":false},"geometry":{"type":"LineString","coordinates":[[127.08201,37.62719],[127.08228,37.62728],[127.08233,37.62729],[127.08236,37.6273],[127.0824,37.62731],[127.08247,37.62731],[127.08249,37.62731],[127.08251,37.62732],[127.08306,37.62753],[127.08309,37.62754],[127.08312,37.62754],[127.08315,37.62754],[127.08318,37.62754],[127.08321,37.62755],[127.08337,37.62761],[127.08339,37.62761],[127.08341,37.62761],[127.08343,37.6276],[127.08348,37.62754]]}},{"type":"Feature","properties":{"class":"alley","highway":"service","sidewalk":"unknown","lanes":0,"name":"","oneway":false},"geometry":{"type":"LineString","coordinates":[[127.08225,37.62715],[127.08229,37.62714],[127.0823,37.62712],[127.08231,37.62711],[127.08231,37.62709],[127.08229,37.627],[127.08218,37.62665],[127.08217,37.62662],[127.08216,37.62661],[127.08214,37.62661],[127.08201,37.62657],[127.08198,37.62657],[127.08128,37.62654],[127.0807,37.62652],[127.08067,37.62652],[127.08064,37.62651],[127.08063,37.62649],[127.08064,37.62632],[127.08064,37.6263],[127.08066,37.62629],[127.08069,37.62629],[127.08206,37.62637],[127.08211,37.62638],[127.08216,37.62639],[127.08222,37.62641],[127.08257,37.62654],[127.0828,37.62663],[127.08346,37.6269]]}},{"type":"Feature","properties":{"class":"alley","highway":"service","sidewalk":"unknown","lanes":0,"name":"","oneway":false},"geometry":{"type":"LineString","coordinates":[[127.08229,37.627],[127.08252,37.62661],[127.08257,37.62654]]}},{"type":"Feature","properties":{"class":"alley","highway":"service","sidewalk":"unknown","lanes":0,"name":"","oneway":false},"geometry":{"type":"LineString","coordinates":[[127.08128,37.62654],[127.08128,37.62665]]}},{"type":"Feature","properties":{"class":"alley","highway":"service","sidewalk":"unknown","lanes":0,"name":"","oneway":false},"geometry":{"type":"LineString","coordinates":[[127.08128,37.62665],[127.08128,37.62667],[127.08129,37.62668],[127.08131,37.62671],[127.08131,37.62674],[127.08132,37.6268],[127.08132,37.62683],[127.08132,37.62685],[127.08135,37.62695],[127.08136,37.62697],[127.08136,37.62699],[127.08134,37.627],[127.08119,37.62703]]}},{"type":"Feature","properties":{"class":"alley","highway":"service","sidewalk":"unknown","lanes":0,"name":"","oneway":false},"geometry":{"type":"LineString","coordinates":[[127.08128,37.62665],[127.08124,37.6267],[127.08124,37.62672],[127.08123,37.62674],[127.08123,37.62678],[127.08124,37.62681],[127.08124,37.62683],[127.08125,37.6269]]}},{"type":"Feature","properties":{"class":"alley","highway":"service","sidewalk":"unknown","lanes":0,"name":"","oneway":false},"geometry":{"type":"LineString","coordinates":[[127.08252,37.62661],[127.08268,37.62668]]}},{"type":"Feature","properties":{"class":"alley","highway":"service","sidewalk":"unknown","lanes":0,"name":"","oneway":false},"geometry":{"type":"LineString","coordinates":[[127.0807,37.62652],[127.08066,37.62701],[127.08065,37.62703],[127.08064,37.62705],[127.08062,37.62709],[127.08059,37.62715],[127.08059,37.62717],[127.08058,37.62719],[127.08059,37.62721],[127.08065,37.62741]]}},{"type":"Feature","properties":{"class":"alley","highway":"service","sidewalk":"unknown","lanes":0,"name":"","oneway":false},"geometry":{"type":"LineString","coordinates":[[127.08062,37.62709],[127.08068,37.62711],[127.0807,37.62712],[127.08072,37.62712],[127.0808,37.6271]]}},{"type":"Feature","properties":{"class":"alley","highway":"living_street","sidewalk":"unknown","lanes":0,"name":"공릉로46가길","oneway":false},"geometry":{"type":"LineString","coordinates":[[127.08032,37.62745],[127.08031,37.6274],[127.08025,37.62716],[127.08025,37.62715],[127.08025,37.62713],[127.08026,37.62711],[127.08026,37.62711],[127.08027,37.6271],[127.08029,37.62709],[127.08047,37.62704],[127.08048,37.62704],[127.08049,37.62703],[127.08049,37.62702],[127.08049,37.62701],[127.08049,37.62701],[127.08045,37.62689],[127.08045,37.62688],[127.08045,37.62688],[127.08045,37.62687],[127.08046,37.62687],[127.08055,37.62684],[127.08056,37.62684],[127.08057,37.62683],[127.08057,37.62681],[127.08056,37.62657]]}},{"type":"Feature","properties":{"class":"major","highway":"tertiary","sidewalk":"likely","lanes":0,"name":"공릉로46길","oneway":false},"geometry":{"type":"LineString","coordinates":[[127.07928,37.62697],[127.07939,37.62704],[127.07957,37.62716],[127.07988,37.62733],[127.07992,37.62735],[127.08001,37.62738],[127.08012,37.6274],[127.08032,37.62745],[127.08045,37.62749],[127.08048,37.6275],[127.08056,37.62752],[127.08064,37.62754],[127.08088,37.62762],[127.08111,37.62767],[127.08128,37.62769],[127.08143,37.6277],[127.0816,37.62768],[127.08172,37.62764],[127.08193,37.62759],[127.08212,37.62755],[127.08225,37.62756],[127.08238,37.62759],[127.08253,37.62767],[127.08273,37.62775],[127.08331,37.62798],[127.08362,37.62809],[127.08388,37.62811],[127.08402,37.62811],[127.08415,37.62808],[127.08475,37.62797],[127.08484,37.62799],[127.08499,37.62803]]}},{"type":"Feature","properties":{"class":"alley","highway":"living_street","sidewalk":"unknown","lanes":0,"name":"공릉로46가길","oneway":false},"geometry":{"type":"LineString","coordinates":[[127.07923,37.62688],[127.07927,37.62684],[127.0793,37.62683],[127.07941,37.62677],[127.07943,37.62676],[127.07955,37.62674],[127.07959,37.62672],[127.07964,37.62671],[127.07969,37.62669],[127.07973,37.62667],[127.07993,37.62658],[127.07996,37.62658],[127.08003,37.62657],[127.08021,37.62655],[127.08023,37.62655],[127.08024,37.62655],[127.0803,37.62655],[127.08052,37.62654],[127.08054,37.62655],[127.08056,37.62655],[127.08056,37.62657]]}},{"type":"Feature","properties":{"class":"alley","highway":"living_street","sidewalk":"unknown","lanes":0,"name":"공릉로46가길","oneway":false},"geometry":{"type":"LineString","coordinates":[[127.07973,37.62667],[127.0798,37.6268],[127.07981,37.62681],[127.07983,37.62682],[127.07984,37.62683],[127.07989,37.62684],[127.07991,37.62684],[127.07993,37.62685],[127.07998,37.62695],[127.08,37.62697],[127.08002,37.62698],[127.08008,37.62701],[127.08026,37.62711]]}},{"type":"Feature","properties":{"class":"alley","highway":"service","sidewalk":"unknown","lanes":0,"name":"공릉로46가길","oneway":false},"geometry":{"type":"LineString","coordinates":[[127.08008,37.62701],[127.08018,37.62692],[127.08019,37.62691],[127.08021,37.62692],[127.08022,37.62692],[127.08023,37.62694],[127.08024,37.62695],[127.08024,37.62702]]}},{"type":"Feature","properties":{"class":"alley","highway":"living_street","sidewalk":"unknown","lanes":0,"name":"공릉로","oneway":false},"geometry":{"type":"LineString","coordinates":[[127.08056,37.62634],[127.08,37.62642],[127.07972,37.62646],[127.07971,37.62646],[127.0797,37.62646],[127.07969,37.62646],[127.07969,37.62645],[127.07968,37.62645],[127.07964,37.62629],[127.07963,37.62627],[127.07963,37.62626],[127.07961,37.62625],[127.07959,37.62623],[127.07956,37.62621]]}},{"type":"Feature","properties":{"class":"alley","highway":"living_street","sidewalk":"unknown","lanes":0,"name":"공릉로","oneway":false},"geometry":{"type":"LineString","coordinates":[[127.08003,37.62657],[127.08,37.62642]]}},{"type":"Feature","properties":{"class":"alley","highway":"service","sidewalk":"unknown","lanes":0,"name":"","oneway":false},"geometry":{"type":"LineString","coordinates":[[127.07964,37.62629],[127.07972,37.6263],[127.07974,37.6263],[127.07978,37.62629],[127.08019,37.62615],[127.08026,37.62612],[127.08029,37.6261],[127.08031,37.62607],[127.08044,37.62578],[127.08045,37.62575],[127.0805,37.62563]]}},{"type":"Feature","properties":{"class":"alley","highway":"service","sidewalk":"unknown","lanes":0,"name":"","oneway":false},"geometry":{"type":"LineString","coordinates":[[127.08045,37.62575],[127.08104,37.62589],[127.08108,37.62591],[127.08112,37.62593],[127.08131,37.62603],[127.08132,37.62605],[127.08132,37.62607],[127.08127,37.62616],[127.08125,37.62617],[127.08121,37.62618],[127.08119,37.62618],[127.081,37.62617],[127.08074,37.62611]]}},{"type":"Feature","properties":{"class":"alley","highway":"service","sidewalk":"unknown","lanes":0,"name":"","oneway":false},"geometry":{"type":"LineString","coordinates":[[127.08045,37.62575],[127.08022,37.62567]]}},{"type":"Feature","properties":{"class":"alley","highway":"service","sidewalk":"unknown","lanes":0,"name":"","oneway":false},"geometry":{"type":"LineString","coordinates":[[127.07985,37.62584],[127.08,37.62589],[127.08014,37.62566],[127.08015,37.62565],[127.08018,37.62565],[127.08022,37.62567]]}},{"type":"Feature","properties":{"class":"alley","highway":"service","sidewalk":"unknown","lanes":0,"name":"공릉로46가길","oneway":false},"geometry":{"type":"LineString","coordinates":[[127.08033,37.62669],[127.0803,37.62666],[127.0803,37.62666],[127.0803,37.62665],[127.0803,37.62655]]}},{"type":"Feature","properties":{"class":"alley","highway":"service","sidewalk":"unknown","lanes":0,"name":"","oneway":false},"geometry":{"type":"LineString","coordinates":[[127.08843,37.62213],[127.08848,37.62203],[127.08859,37.62184],[127.08876,37.62157],[127.08888,37.62136],[127.08902,37.62113],[127.0891,37.62099],[127.08911,37.62096],[127.0891,37.62093],[127.08907,37.62091],[127.08872,37.62066],[127.08861,37.62058],[127.08858,37.62056],[127.08802,37.62034],[127.08799,37.62034],[127.08795,37.62034],[127.08793,37.62035],[127.08791,37.62037],[127.08787,37.62045],[127.08785,37.62049],[127.08785,37.62051],[127.08779,37.62075],[127.08773,37.621],[127.08771,37.62108],[127.08766,37.62122],[127.08762,37.62134],[127.08759,37.62138],[127.08759,37.62141],[127.08759,37.62143],[127.08762,37.62145],[127.08776,37.62151],[127.08803,37.62162],[127.08829,37.62172],[127.08859,37.62184]]}},{"type":"Feature","properties":{"class":"alley","highway":"service","sidewalk":"unknown","lanes":0,"name":"","oneway":false},"geometry":{"type":"LineString","coordinates":[[127.08773,37.621],[127.08831,37.62123]]}},{"type":"Feature","properties":{"class":"alley","highway":"service","sidewalk":"unknown","lanes":0,"name":"","oneway":false},"geometry":{"type":"LineString","coordinates":[[127.08846,37.62102],[127.08779,37.62075]]}},{"type":"Feature","properties":{"class":"alley","highway":"service","sidewalk":"unknown","lanes":0,"name":"","oneway":false},"geometry":{"type":"LineString","coordinates":[[127.08857,37.6208],[127.08785,37.62051]]}},{"type":"Feature","properties":{"class":"alley","highway":"service","sidewalk":"unknown","lanes":0,"name":"","oneway":false},"geometry":{"type":"LineString","coordinates":[[127.08856,37.62093],[127.08872,37.62066]]}},{"type":"Feature","properties":{"class":"alley","highway":"service","sidewalk":"unknown","lanes":0,"name":"","oneway":false},"geometry":{"type":"LineString","coordinates":[[127.08888,37.62136],[127.08946,37.62158]]}},{"type":"Feature","properties":{"class":"alley","highway":"service","sidewalk":"unknown","lanes":0,"name":"","oneway":false},"geometry":{"type":"LineString","coordinates":[[127.08876,37.62157],[127.08918,37.62173]]}},{"type":"Feature","properties":{"class":"alley","highway":"service","sidewalk":"unknown","lanes":0,"name":"","oneway":false},"geometry":{"type":"LineString","coordinates":[[127.08776,37.62151],[127.08795,37.62119]]}},{"type":"Feature","properties":{"class":"alley","highway":"service","sidewalk":"unknown","lanes":0,"name":"","oneway":false},"geometry":{"type":"LineString","coordinates":[[127.08803,37.62162],[127.08822,37.62129]]}},{"type":"Feature","properties":{"class":"alley","highway":"service","sidewalk":"unknown","lanes":0,"name":"","oneway":false},"geometry":{"type":"LineString","coordinates":[[127.08829,37.62172],[127.0885,37.62138]]}},{"type":"Feature","properties":{"class":"alley","highway":"service","sidewalk":"unknown","lanes":0,"name":"","oneway":false},"geometry":{"type":"LineString","coordinates":[[127.08902,37.62113],[127.08934,37.62126]]}},{"type":"Feature","properties":{"class":"alley","highway":"service","sidewalk":"unknown","lanes":0,"name":"","oneway":false},"geometry":{"type":"LineString","coordinates":[[127.0891,37.62093],[127.0893,37.62107]]}},{"type":"Feature","properties":{"class":"alley","highway":"service","sidewalk":"unknown","lanes":0,"name":"","oneway":false},"geometry":{"type":"LineString","coordinates":[[127.0904,37.62102],[127.09034,37.62097],[127.08981,37.62055],[127.08948,37.6203],[127.08925,37.62012],[127.08923,37.62011],[127.08921,37.62011],[127.0892,37.62012],[127.08915,37.62015],[127.08914,37.62017],[127.08913,37.62018],[127.08914,37.6202],[127.08934,37.62035],[127.08936,37.62036],[127.08939,37.62036],[127.08941,37.62036],[127.08942,37.62035],[127.08948,37.6203]]}},{"type":"Feature","properties":{"class":"alley","highway":"service","sidewalk":"unknown","lanes":0,"name":"","oneway":false},"geometry":{"type":"LineString","coordinates":[[127.09147,37.62016],[127.0914,37.6201],[127.09097,37.61976],[127.09095,37.61974],[127.09092,37.61973],[127.0909,37.61973],[127.09087,37.61973],[127.09084,37.61973],[127.09082,37.61974],[127.08981,37.62055]]}},{"type":"Feature","properties":{"class":"alley","highway":"service","sidewalk":"unknown","lanes":0,"name":"","oneway":false},"geometry":{"type":"LineString","coordinates":[[127.09021,37.62117],[127.09041,37.6212],[127.09054,37.62123],[127.09071,37.62129],[127.09082,37.62133],[127.09088,37.62135],[127.09093,37.62138],[127.09105,37.62146],[127.09111,37.6215]]}},{"type":"Feature","properties":{"class":"alley","highway":"service","sidewalk":"unknown","lanes":0,"name":"","oneway":false},"geometry":{"type":"LineString","coordinates":[[127.09111,37.6215],[127.09126,37.62137],[127.09156,37.62113],[127.09166,37.62104],[127.09168,37.62101],[127.09168,37.62099],[127.09168,37.62097]]}},{"type":"Feature","properties":{"class":"alley","highway":"service","sidewalk":"unknown","lanes":0,"name":"","oneway":false},"geometry":{"type":"LineString","coordinates":[[127.09168,37.62097],[127.09107,37.62048]]}},{"type":"Feature","properties":{"class":"alley","highway":"service","sidewalk":"unknown","lanes":0,"name":"","oneway":false},"geometry":{"type":"LineString","coordinates":[[127.09087,37.62096],[127.09071,37.62084],[127.09067,37.62081]]}},{"type":"Feature","properties":{"class":"alley","highway":"service","sidewalk":"unknown","lanes":0,"name":"","oneway":false},"geometry":{"type":"LineString","coordinates":[[127.09111,37.6215],[127.09109,37.62152],[127.09108,37.62154],[127.09108,37.6216],[127.09109,37.62162],[127.0911,37.62164],[127.09112,37.62166],[127.09136,37.62184],[127.09143,37.62188]]}},{"type":"Feature","properties":{"class":"alley","highway":"service","sidewalk":"unknown","lanes":0,"name":"","oneway":false},"geometry":{"type":"LineString","coordinates":[[127.09136,37.62184],[127.09138,37.62188],[127.09139,37.62191],[127.09143,37.6222],[127.09144,37.62223],[127.09146,37.6223],[127.09149,37.62235],[127.09152,37.6224],[127.09156,37.62244],[127.09177,37.62262],[127.09179,37.62263],[127.09189,37.62271],[127.0919,37.62272],[127.09189,37.62275],[127.09188,37.62278],[127.09187,37.62279],[127.09184,37.6228],[127.09181,37.6228],[127.09178,37.6228],[127.09175,37.6228],[127.09172,37.62279],[127.09163,37.62274],[127.09153,37.62269],[127.09148,37.62266],[127.09146,37.62264],[127.09145,37.62262],[127.09145,37.6226],[127.09152,37.6224]]}},{"type":"Feature","properties":{"class":"alley","highway":"service","sidewalk":"unknown","lanes":0,"name":"","oneway":false},"geometry":{"type":"LineString","coordinates":[[127.09163,37.62274],[127.09177,37.62262]]}},{"type":"Feature","properties":{"class":"alley","highway":"service","sidewalk":"unknown","lanes":0,"name":"","oneway":false},"geometry":{"type":"LineString","coordinates":[[127.09143,37.62188],[127.09145,37.62189],[127.09147,37.6219],[127.09151,37.62191],[127.09154,37.62191],[127.09157,37.62191],[127.0916,37.6219],[127.09164,37.62188],[127.0918,37.62173],[127.09207,37.62149],[127.0922,37.62137],[127.09249,37.62112]]}},{"type":"Feature","properties":{"class":"alley","highway":"service","sidewalk":"unknown","lanes":0,"name":"","oneway":false},"geometry":{"type":"LineString","coordinates":[[127.09126,37.62137],[127.0918,37.62173]]}},{"type":"Feature","properties":{"class":"alley","highway":"pedestrian","sidewalk":"unknown","lanes":0,"name":"","oneway":false},"geometry":{"type":"LineString","coordinates":[[127.09009,37.62023],[127.08992,37.62008],[127.08983,37.62001],[127.08979,37.61998],[127.08986,37.61993],[127.08989,37.61996],[127.09016,37.62018],[127.09012,37.62021],[127.09009,37.62023]]}},{"type":"Feature","properties":{"class":"alley","highway":"service","sidewalk":"unknown","lanes":0,"name":"","oneway":false},"geometry":{"type":"LineString","coordinates":[[127.09112,37.62044],[127.09106,37.6204],[127.09087,37.62024]]}},{"type":"Feature","properties":{"class":"alley","highway":"service","sidewalk":"unknown","lanes":0,"name":"","oneway":false},"geometry":{"type":"LineString","coordinates":[[127.09156,37.62113],[127.09207,37.62149]]}},{"type":"Feature","properties":{"class":"minor","highway":"residential","sidewalk":"unknown","lanes":0,"name":"노원로1길","oneway":false},"geometry":{"type":"LineString","coordinates":[[127.08694,37.6225],[127.08724,37.62262],[127.08755,37.62274]]}},{"type":"Feature","properties":{"class":"alley","highway":"service","sidewalk":"unknown","lanes":0,"name":"","oneway":false},"geometry":{"type":"LineString","coordinates":[[127.08777,37.62244],[127.08759,37.62269],[127.08755,37.62274],[127.08752,37.62275],[127.08748,37.62276],[127.08747,37.62278],[127.0871,37.6233],[127.08708,37.62333],[127.08707,37.62337],[127.08705,37.62341],[127.08698,37.62366],[127.08698,37.62368],[127.08699,37.6237],[127.087,37.62371],[127.08742,37.62391],[127.08744,37.62392],[127.08747,37.62392],[127.08754,37.62393],[127.08758,37.62393],[127.08761,37.62393],[127.08766,37.62394],[127.08801,37.62406],[127.08805,37.62408],[127.0883,37.62418]]}},{"type":"Feature","properties":{"class":"alley","highway":"service","sidewalk":"unknown","lanes":0,"name":"","oneway":false},"geometry":{"type":"LineString","coordinates":[[127.08898,37.62459],[127.08827,37.62428],[127.08826,37.62428],[127.08826,37.62427],[127.08826,37.62426],[127.08826,37.62426],[127.08826,37.62425],[127.08826,37.62424],[127.0883,37.62418],[127.08842,37.62401],[127.08847,37.62395],[127.08851,37.62389],[127.08854,37.62385],[127.08855,37.62383],[127.08856,37.62379],[127.08857,37.62377],[127.08858,37.62374],[127.0886,37.62371],[127.08864,37.62368],[127.08869,37.62364],[127.08873,37.62361],[127.08876,37.62358],[127.08881,37.62351],[127.08884,37.62346],[127.08898,37.62327],[127.08902,37.62321],[127.08906,37.62314]]}},{"type":"Feature","properties":{"class":"alley","highway":"service","sidewalk":"unknown","lanes":0,"name":"","oneway":false},"geometry":{"type":"LineString","coordinates":[[127.08842,37.62401],[127.08903,37.62426],[127.08905,37.62427],[127.08906,37.62427],[127.08907,37.62426],[127.08908,37.62425],[127.08913,37.6242],[127.08913,37.62418],[127.08914,37.62417],[127.08913,37.62416],[127.08912,37.62415],[127.08851,37.62389]]}},{"type":"Feature","properties":{"class":"alley","highway":"service","sidewalk":"unknown","lanes":0,"name":"","oneway":false},"geometry":{"type":"LineString","coordinates":[[127.08873,37.62406],[127.08847,37.62395]]}},{"type":"Feature","properties":{"class":"alley","highway":"service","sidewalk":"unknown","lanes":0,"name":"","oneway":false},"geometry":{"type":"LineString","coordinates":[[127.08869,37.62364],[127.0892,37.62386],[127.0895,37.62399]]}},{"type":"Feature","properties":{"class":"alley","highway":"service","sidewalk":"unknown","lanes":0,"name":"","oneway":false},"geometry":{"type":"LineString","coordinates":[[127.08881,37.62351],[127.08926,37.6237],[127.08927,37.62371],[127.08928,37.62372],[127.08928,37.62374],[127.08928,37.62375],[127.0892,37.62386]]}},{"type":"Feature","properties":{"class":"alley","highway":"service","sidewalk":"unknown","lanes":0,"name":"","oneway":false},"geometry":{"type":"LineString","coordinates":[[127.08869,37.6234],[127.08884,37.62346]]}},{"type":"Feature","properties":{"class":"alley","highway":"service","sidewalk":"unknown","lanes":0,"name":"","oneway":false},"geometry":{"type":"LineString","coordinates":[[127.08887,37.62306],[127.08906,37.62314],[127.08937,37.62326],[127.08939,37.62328],[127.08941,37.62329],[127.08941,37.6233],[127.08941,37.62332],[127.08936,37.62338],[127.08935,37.6234],[127.08933,37.6234],[127.08931,37.6234],[127.08929,37.6234],[127.08898,37.62327]]}},{"type":"Feature","properties":{"class":"alley","highway":"service","sidewalk":"unknown","lanes":0,"name":"","oneway":false},"geometry":{"type":"LineString","coordinates":[[127.08927,37.62331],[127.08902,37.62321]]}},{"type":"Feature","properties":{"class":"alley","highway":"service","sidewalk":"unknown","lanes":0,"name":"","oneway":false},"geometry":{"type":"LineString","coordinates":[[127.08408,37.62088],[127.08389,37.62119],[127.08385,37.62124]]}},{"type":"Feature","properties":{"class":"minor","highway":"residential","sidewalk":"unknown","lanes":0,"name":"노원로1가길","oneway":false},"geometry":{"type":"LineString","coordinates":[[127.0855,37.62348],[127.08535,37.62407]]}},{"type":"Feature","properties":{"class":"minor","highway":"residential","sidewalk":"unknown","lanes":0,"name":"노원로1가길","oneway":false},"geometry":{"type":"LineString","coordinates":[[127.08535,37.62407],[127.08607,37.62418],[127.08612,37.62418],[127.08617,37.62418],[127.08628,37.62418],[127.08633,37.62417],[127.08638,37.62417],[127.08644,37.62418]]}},{"type":"Feature","properties":{"class":"alley","highway":"service","sidewalk":"unknown","lanes":0,"name":"","oneway":false},"geometry":{"type":"LineString","coordinates":[[127.08535,37.62407],[127.08523,37.62406],[127.08515,37.62406],[127.08404,37.62403],[127.084,37.62404],[127.08397,37.62406],[127.08395,37.62408],[127.08391,37.62413],[127.0839,37.62415],[127.08391,37.62417],[127.08393,37.6242],[127.08396,37.62421],[127.08401,37.62424],[127.08408,37.62427],[127.0841,37.62428],[127.08411,37.6243],[127.08412,37.62433],[127.08414,37.62466],[127.08413,37.62469],[127.08413,37.62471],[127.08412,37.62472],[127.08408,37.62478],[127.08406,37.62479],[127.08405,37.62479],[127.08403,37.62479],[127.08374,37.62468],[127.08372,37.62467],[127.08371,37.62466],[127.08371,37.62464],[127.08371,37.62463],[127.08396,37.62421]]}},{"type":"Feature","properties":{"class":"alley","highway":"service","sidewalk":"unknown","lanes":0,"name":"","oneway":false},"geometry":{"type":"LineString","coordinates":[[127.08413,37.62471],[127.08382,37.62459]]}},{"type":"Feature","properties":{"class":"alley","highway":"service","sidewalk":"unknown","lanes":0,"name":"","oneway":false},"geometry":{"type":"LineString","coordinates":[[127.08414,37.62466],[127.08441,37.62475],[127.08445,37.62476],[127.08448,37.62476],[127.08452,37.62476],[127.08498,37.62474],[127.08501,37.62474],[127.08502,37.62473],[127.08503,37.62472],[127.08504,37.62471],[127.08504,37.6247],[127.08504,37.62469],[127.08505,37.62433]]}},{"type":"Feature","properties":{"class":"alley","highway":"service","sidewalk":"unknown","lanes":0,"name":"","oneway":false},"geometry":{"type":"LineString","coordinates":[[127.08412,37.62433],[127.08496,37.62434],[127.08498,37.62434],[127.08501,37.62434],[127.08505,37.62433],[127.08514,37.62431],[127.08517,37.62431],[127.0852,37.62431],[127.08524,37.62431],[127.08534,37.62431],[127.08536,37.62431],[127.08538,37.62431],[127.08543,37.62432],[127.08553,37.62433],[127.08585,37.62438],[127.08589,37.62438],[127.08592,37.62437],[127.08595,37.62436],[127.08597,37.62435],[127.08612,37.62418]]}},{"type":"Feature","properties":{"class":"alley","highway":"service","sidewalk":"unknown","lanes":0,"name":"","oneway":false},"geometry":{"type":"LineString","coordinates":[[127.08591,37.62473],[127.08557,37.62473],[127.08555,37.62473],[127.08553,37.62472],[127.08552,37.62471],[127.08552,37.6247],[127.08553,37.62433]]}},{"type":"Feature","properties":{"class":"alley","highway":"service","sidewalk":"unknown","lanes":0,"name":"","oneway":false},"geometry":{"type":"LineString","coordinates":[[127.08535,37.62407],[127.08534,37.62431]]}},{"type":"Feature","properties":{"class":"major","highway":"primary","sidewalk":"likely","lanes":3,"name":"화랑로","oneway":true},"geometry":{"type":"LineString","coordinates":[[127.09022,37.62324],[127.09015,37.62307]]}},{"type":"Feature","properties":{"class":"major","highway":"primary_link","sidewalk":"likely","lanes":0,"name":"","oneway":true},"geometry":{"type":"LineString","coordinates":[[127.08773,37.62184],[127.08754,37.62181],[127.08748,37.62181],[127.08742,37.62181],[127.08741,37.62181],[127.08739,37.62182],[127.08735,37.62185],[127.08704,37.62214]]}},{"type":"Feature","properties":{"class":"alley","highway":"pedestrian","sidewalk":"unknown","lanes":0,"name":"","oneway":false},"geometry":{"type":"LineString","coordinates":[[127.08732,37.62185],[127.08735,37.6218],[127.08737,37.62177],[127.08739,37.62176],[127.08741,37.62176],[127.08742,37.62176],[127.08743,37.62176],[127.08751,37.62179],[127.08751,37.6218],[127.08749,37.62179],[127.08745,37.62179],[127.08743,37.62179],[127.0874,37.62179],[127.08738,37.62181],[127.08735,37.62183],[127.08734,37.62184],[127.08733,37.62184],[127.08732,37.62185]]}},{"type":"Feature","properties":{"class":"major","highway":"primary_link","sidewalk":"likely","lanes":0,"name":"","oneway":true},"geometry":{"type":"LineString","coordinates":[[127.08498,37.62027],[127.08494,37.6203],[127.08491,37.62033],[127.08489,37.62036],[127.08488,37.6204],[127.08488,37.62043],[127.08489,37.62045],[127.0849,37.62048],[127.08492,37.62051],[127.08497,37.62056]]}},{"type":"Feature","properties":{"class":"major","highway":"secondary","sidewalk":"likely","lanes":0,"name":"신내로","oneway":false},"geometry":{"type":"LineString","coordinates":[[127.08511,37.62005],[127.08481,37.62016]]}},{"type":"Feature","properties":{"class":"alley","highway":"service","sidewalk":"unknown","lanes":0,"name":"","oneway":false},"geometry":{"type":"LineString","coordinates":[[127.09032,37.6243],[127.09026,37.6244],[127.09025,37.62441],[127.09025,37.62442],[127.09026,37.62443],[127.09026,37.62443],[127.09055,37.62456]]}},{"type":"Feature","properties":{"class":"minor","highway":"residential","sidewalk":"unknown","lanes":0,"name":"화랑로51가길","oneway":false},"geometry":{"type":"LineString","coordinates":[[127.08993,37.62466],[127.08991,37.6247],[127.08989,37.62471],[127.08988,37.62471],[127.08986,37.62471],[127.08986,37.62471],[127.08969,37.62465]]}},{"type":"Feature","properties":{"class":"minor","highway":"residential","sidewalk":"unknown","lanes":0,"name":"화랑로51가길","oneway":false},"geometry":{"type":"LineString","coordinates":[[127.08986,37.62443],[127.09003,37.6245]]}},{"type":"Feature","properties":{"class":"minor","highway":"residential","sidewalk":"unknown","lanes":0,"name":"화랑로51가길","oneway":false},"geometry":{"type":"LineString","coordinates":[[127.09,37.62454],[127.09018,37.6246],[127.09019,37.62461],[127.0902,37.62462],[127.09021,37.62463],[127.09022,37.62464],[127.09023,37.62465],[127.09039,37.6247]]}},{"type":"Feature","properties":{"class":"alley","highway":"service","sidewalk":"unknown","lanes":0,"name":"화랑로51가길","oneway":false},"geometry":{"type":"LineString","coordinates":[[127.08982,37.62479],[127.08986,37.62471]]}},{"type":"Feature","properties":{"class":"alley","highway":"service","sidewalk":"unknown","lanes":0,"name":"","oneway":false},"geometry":{"type":"LineString","coordinates":[[127.09131,37.62462],[127.09139,37.62453]]}},{"type":"Feature","properties":{"class":"major","highway":"trunk_link","sidewalk":"likely","lanes":0,"name":"","oneway":true},"geometry":{"type":"LineString","coordinates":[[127.08713,37.62147],[127.08718,37.62134],[127.08722,37.6212]]}},{"type":"Feature","properties":{"class":"major","highway":"trunk_link","sidewalk":"likely","lanes":0,"name":"","oneway":true},"geometry":{"type":"LineString","coordinates":[[127.0882,37.61968],[127.08791,37.61994],[127.08782,37.62006],[127.08776,37.62014]]}},{"type":"Feature","properties":{"class":"major","highway":"trunk_link","sidewalk":"likely","lanes":0,"name":"","oneway":true},"geometry":{"type":"LineString","coordinates":[[127.08753,37.62024],[127.0876,37.62001],[127.08763,37.61992]]}},{"type":"Feature","properties":{"class":"alley","highway":"service","sidewalk":"unknown","lanes":0,"name":"","oneway":false},"geometry":{"type":"LineString","coordinates":[[127.07938,37.6297],[127.07982,37.62963],[127.08001,37.6296]]}},{"type":"Feature","properties":{"class":"alley","highway":"service","sidewalk":"unknown","lanes":0,"name":"","oneway":false},"geometry":{"type":"LineString","coordinates":[[127.08106,37.63072],[127.08108,37.63078],[127.08108,37.63079],[127.08116,37.63109]]}},{"type":"Feature","properties":{"class":"alley","highway":"service","sidewalk":"unknown","lanes":0,"name":"","oneway":false},"geometry":{"type":"LineString","coordinates":[[127.08187,37.63098],[127.08184,37.6308]]}},{"type":"Feature","properties":{"class":"alley","highway":"service","sidewalk":"unknown","lanes":0,"name":"","oneway":false},"geometry":{"type":"LineString","coordinates":[[127.07956,37.63064],[127.07962,37.63064],[127.08035,37.63053],[127.08037,37.63062]]}},{"type":"Feature","properties":{"class":"alley","highway":"service","sidewalk":"unknown","lanes":0,"name":"","oneway":false},"geometry":{"type":"LineString","coordinates":[[127.08122,37.63112],[127.08116,37.63109]]}},{"type":"Feature","properties":{"class":"alley","highway":"service","sidewalk":"unknown","lanes":0,"name":"","oneway":false},"geometry":{"type":"LineString","coordinates":[[127.08441,37.62909],[127.08451,37.62924],[127.0848,37.6297],[127.0848,37.62989],[127.08459,37.62999],[127.08434,37.63048],[127.08368,37.63177]]}},{"type":"Feature","properties":{"class":"alley","highway":"service","sidewalk":"unknown","lanes":0,"name":"","oneway":false},"geometry":{"type":"LineString","coordinates":[[127.09866,37.62796],[127.09869,37.62794],[127.09873,37.62793],[127.09877,37.62793],[127.09881,37.62795],[127.09883,37.62798],[127.09883,37.62802],[127.09881,37.62805],[127.09878,37.62807],[127.09873,37.62808],[127.09869,37.62807],[127.09866,37.62805],[127.09864,37.62802],[127.09864,37.62799],[127.09866,37.62796]]}}]}