{"type":"FeatureCollection","features":[{"type":"Feature","properties":{"class":"alley","highway":"pedestrian","sidewalk":"unknown","lanes":0,"name":"","oneway":false},"geometry":{"type":"LineString","coordinates":[[126.96085,37.62624],[126.96095,37.62624],[126.96094,37.62619],[126.96092,37.62614],[126.96083,37.62614],[126.96081,37.6262],[126.96085,37.62624]]}},{"type":"Feature","properties":{"class":"alley","highway":"service","sidewalk":"unknown","lanes":0,"name":"승가사 가는길","oneway":false},"geometry":{"type":"LineString","coordinates":[[126.958,37.61347],[126.95798,37.61365],[126.95798,37.61387],[126.95801,37.61403],[126.95808,37.61416],[126.95818,37.61423],[126.95814,37.61443],[126.95825,37.61457],[126.95837,37.61485],[126.95843,37.61502],[126.95844,37.61529],[126.95852,37.61554],[126.9586,37.61571],[126.95871,37.61587],[126.95879,37.61604],[126.95883,37.61629],[126.95892,37.61639],[126.95905,37.61652],[126.95916,37.61664],[126.95907,37.6168],[126.95906,37.61695],[126.95914,37.61711],[126.95908,37.61729],[126.959,37.61746],[126.95898,37.61756],[126.95899,37.61769],[126.9591,37.61781],[126.95919,37.61791],[126.95922,37.61809],[126.95906,37.61828],[126.95895,37.61851],[126.95887,37.6187],[126.95896,37.61887],[126.9591,37.61923],[126.95917,37.61956],[126.95935,37.6199],[126.95946,37.62005],[126.95956,37.62015],[126.95967,37.62022],[126.95973,37.62028],[126.95984,37.6204],[126.95989,37.6205],[126.95991,37.62056],[126.95994,37.62073],[126.96002,37.62091],[126.96006,37.621],[126.96016,37.62115],[126.96023,37.62121],[126.96029,37.6213],[126.96032,37.6214],[126.96033,37.6215],[126.96036,37.62167],[126.96037,37.62178],[126.96038,37.62189],[126.96038,37.62197],[126.96036,37.62205],[126.96035,37.62214],[126.96034,37.62226],[126.96033,37.62237],[126.9603,37.62253],[126.96035,37.62262],[126.9604,37.62271],[126.96041,37.62278],[126.96042,37.62287],[126.96039,37.62294],[126.96036,37.623],[126.96038,37.62313],[126.96043,37.62325],[126.96051,37.62335],[126.96059,37.6235],[126.96063,37.62357],[126.96066,37.62367],[126.96067,37.62375],[126.96068,37.62386],[126.96068,37.6239],[126.96064,37.62399],[126.96058,37.62405],[126.96051,37.62408],[126.96048,37.62414],[126.96052,37.62425],[126.96057,37.62434],[126.96055,37.62438],[126.96053,37.62446],[126.96057,37.62453],[126.9606,37.62462],[126.96067,37.62473],[126.96073,37.62485],[126.96075,37.62497],[126.96075,37.62513]]}}]}