{"type":"FeatureCollection","features":[{"type":"Feature","properties":{"class":"minor","highway":"residential","sidewalk":"unknown","lanes":0,"name":"의상봉길","oneway":false},"geometry":{"type":"LineString","coordinates":[[126.93859,37.65324],[126.93893,37.65324],[126.93954,37.65323],[126.93985,37.65325],[126.94019,37.6532],[126.94083,37.65308],[126.94147,37.65306],[126.94188,37.65306],[126.9423,37.65301],[126.94285,37.65282],[126.94318,37.65288],[126.94332,37.65287],[126.94347,37.65281],[126.94385,37.6525],[126.94424,37.65217],[126.94433,37.65199],[126.94439,37.65178],[126.94435,37.65135],[126.94434,37.65125],[126.94438,37.65115],[126.94453,37.65097],[126.94475,37.65083],[126.94493,37.65077],[126.94503,37.65075],[126.94554,37.65062]]}},{"type":"Feature","properties":{"class":"minor","highway":"residential","sidewalk":"unknown","lanes":0,"name":"","oneway":false},"geometry":{"type":"LineString","coordinates":[[126.94825,37.65888],[126.94894,37.65931],[126.94934,37.65918],[126.94983,37.65907],[126.94998,37.65908],[126.95021,37.65897],[126.95029,37.65883]]}},{"type":"Feature","properties":{"class":"minor","highway":"residential","sidewalk":"unknown","lanes":0,"name":"대서문길","oneway":false},"geometry":{"type":"LineString","coordinates":[[126.94643,37.65843],[126.94677,37.65788],[126.947,37.65749],[126.94706,37.65738],[126.94716,37.65719],[126.9473,37.65701],[126.94748,37.65683],[126.9477,37.65665],[126.9479,37.65648],[126.94798,37.65642],[126.94809,37.65633],[126.94851,37.65599],[126.94873,37.65579],[126.94894,37.65561],[126.94929,37.65518],[126.94935,37.65511]]}},{"type":"Feature","properties":{"class":"minor","highway":"residential","sidewalk":"unknown","lanes":0,"name":"북한산로384번길","oneway":false},"geometry":{"type":"LineString","coordinates":[[126.94934,37.65918],[126.94928,37.65938],[126.9492,37.65967],[126.94914,37.65992],[126.94908,37.66016]]}},{"type":"Feature","properties":{"class":"minor","highway":"residential","sidewalk":"unknown","lanes":0,"name":"대서문길","oneway":false},"geometry":{"type":"LineString","coordinates":[[126.94935,37.65511],[126.94945,37.65503],[126.94965,37.65498],[126.95022,37.65485],[126.95055,37.65478],[126.95082,37.65465],[126.95099,37.65446],[126.95114,37.65422],[126.95148,37.65364],[126.95152,37.65354],[126.95155,37.65343],[126.95167,37.65293],[126.95168,37.65291],[126.95173,37.65286],[126.95189,37.6528],[126.95211,37.65275],[126.95234,37.65273],[126.95248,37.65273],[126.95254,37.65276],[126.9526,37.65286],[126.95256,37.65297],[126.95236,37.65316],[126.95235,37.65319],[126.95237,37.65332],[126.95238,37.6534],[126.9525,37.6535],[126.95262,37.65351],[126.95279,37.65348],[126.95314,37.65336],[126.95333,37.65327],[126.95341,37.65318],[126.95344,37.65304],[126.95345,37.65295],[126.95348,37.65285],[126.95351,37.65278],[126.95358,37.65272],[126.95372,37.65268],[126.95388,37.65267],[126.95411,37.65268],[126.95443,37.65271],[126.95467,37.65278],[126.95474,37.6528],[126.95491,37.65286],[126.95506,37.65285],[126.95542,37.65272],[126.95559,37.65267],[126.95577,37.65266],[126.95591,37.65272],[126.95601,37.65282],[126.95605,37.65293],[126.95603,37.65299],[126.95599,37.65309],[126.95587,37.65331],[126.95583,37.65344],[126.95587,37.6535],[126.95593,37.65358],[126.95601,37.65362],[126.95622,37.65359],[126.95636,37.65359],[126.95654,37.65364],[126.95674,37.65377],[126.95692,37.65384],[126.95732,37.65387],[126.95753,37.65391],[126.95769,37.65401],[126.95778,37.65404],[126.95785,37.65404],[126.95799,37.65391],[126.95816,37.65369],[126.9583,37.65357],[126.95845,37.65345],[126.95857,37.65342],[126.95868,37.65346],[126.95872,37.65359],[126.95871,37.65373],[126.95867,37.65388],[126.95872,37.65393],[126.9588,37.65396],[126.9589,37.65395],[126.95919,37.65386],[126.95968,37.65374],[126.95985,37.65368],[126.95997,37.65362],[126.96023,37.65339],[126.96046,37.65324],[126.96083,37.65301],[126.96105,37.65293],[126.96133,37.6529],[126.96156,37.6529],[126.96172,37.65288]]}},{"type":"Feature","properties":{"class":"minor","highway":"residential","sidewalk":"unknown","lanes":2,"name":"진관길","oneway":false},"geometry":{"type":"LineString","coordinates":[[126.93861,37.64236],[126.9387,37.64232],[126.93876,37.6423],[126.93899,37.64222],[126.93933,37.64212],[126.93941,37.6421],[126.93964,37.64201],[126.93984,37.64194],[126.9399,37.64191],[126.93998,37.64188],[126.94057,37.64164],[126.94096,37.64144],[126.94129,37.64129],[126.94134,37.64126],[126.94141,37.64124],[126.94159,37.64123],[126.94171,37.64122],[126.94185,37.64121],[126.94203,37.64119],[126.94223,37.64116],[126.94244,37.64113],[126.94256,37.64111],[126.94263,37.64109],[126.94273,37.64107],[126.9428,37.64104],[126.94295,37.64099],[126.94316,37.64085]]}},{"type":"Feature","properties":{"class":"alley","highway":"service","sidewalk":"unknown","lanes":0,"name":"","oneway":false},"geometry":{"type":"LineString","coordinates":[[126.95169,37.64226],[126.95171,37.64227],[126.95175,37.64226],[126.95183,37.64226],[126.95193,37.64224],[126.95204,37.64221],[126.95213,37.64219],[126.95222,37.64217],[126.95238,37.64217],[126.95255,37.64217],[126.95267,37.64218],[126.95284,37.6422]]}},{"type":"Feature","properties":{"class":"minor","highway":"residential","sidewalk":"unknown","lanes":0,"name":"진관길","oneway":true},"geometry":{"type":"LineString","coordinates":[[126.93959,37.64233],[126.94005,37.64218],[126.94009,37.64216],[126.94038,37.64219],[126.94063,37.64219],[126.94072,37.64214],[126.94086,37.64204],[126.94098,37.64194],[126.94101,37.64191],[126.94105,37.64172],[126.941,37.64151],[126.94099,37.64148],[126.94096,37.64144]]}},{"type":"Feature","properties":{"class":"alley","highway":"service","sidewalk":"unknown","lanes":0,"name":"연서로54길","oneway":false},"geometry":{"type":"LineString","coordinates":[[126.94411,37.64363],[126.94417,37.64373],[126.94419,37.64378],[126.94421,37.64385],[126.94422,37.64405],[126.94423,37.64415],[126.94431,37.64421],[126.94449,37.64429],[126.94456,37.64435],[126.94464,37.64445],[126.94472,37.64448],[126.9448,37.64447],[126.9448,37.64446],[126.94495,37.6444],[126.94543,37.64433],[126.94556,37.64438],[126.94568,37.64448],[126.94608,37.64455],[126.9462,37.64451],[126.9462,37.64451],[126.94668,37.64415],[126.94712,37.64372],[126.94713,37.64362],[126.94711,37.64336],[126.94711,37.64336],[126.94688,37.6429],[126.94685,37.64275],[126.94693,37.6427],[126.94693,37.6427],[126.94705,37.64268],[126.94718,37.64266],[126.94729,37.64268],[126.94741,37.64271],[126.94757,37.64273],[126.94764,37.64274],[126.94771,37.64275]]}},{"type":"Feature","properties":{"class":"minor","highway":"residential","sidewalk":"unknown","lanes":0,"name":"대서문길","oneway":false},"geometry":{"type":"LineString","coordinates":[[126.94935,37.65511],[126.94957,37.65522],[126.94977,37.65532]]}},{"type":"Feature","properties":{"class":"alley","highway":"service","sidewalk":"unknown","lanes":0,"name":"","oneway":false},"geometry":{"type":"LineString","coordinates":[[126.947,37.65749],[126.94702,37.65718],[126.94703,37.65704],[126.94699,37.65693]]}},{"type":"Feature","properties":{"class":"minor","highway":"residential","sidewalk":"unknown","lanes":0,"name":"대서문길","oneway":false},"geometry":{"type":"LineString","coordinates":[[126.94798,37.65642],[126.9482,37.65657],[126.94848,37.6568],[126.94919,37.65625],[126.949,37.65612]]}},{"type":"Feature","properties":{"class":"minor","highway":"residential","sidewalk":"unknown","lanes":0,"name":"연서로50길","oneway":false},"geometry":{"type":"LineString","coordinates":[[126.94075,37.64053],[126.94069,37.64055],[126.94055,37.6406],[126.94029,37.6406],[126.94008,37.64054],[126.93963,37.64006],[126.93929,37.63977],[126.93906,37.63949],[126.93885,37.63924],[126.93871,37.63888]]}},{"type":"Feature","properties":{"class":"major","highway":"tertiary","sidewalk":"likely","lanes":2,"name":"북한산로","oneway":false},"geometry":{"type":"LineString","coordinates":[[126.94771,37.65883],[126.9478,37.65888],[126.94794,37.65898],[126.94811,37.6591],[126.94829,37.65926],[126.94842,37.65939],[126.94857,37.65953],[126.94883,37.65986],[126.94908,37.66016],[126.94931,37.66044],[126.94958,37.6608],[126.95024,37.66164],[126.95091,37.66248]]}},{"type":"Feature","properties":{"class":"major","highway":"secondary","sidewalk":"likely","lanes":4,"name":"북한천다리","oneway":false},"geometry":{"type":"LineString","coordinates":[[126.94708,37.65859],[126.9474,37.6587],[126.94753,37.65875],[126.94771,37.65883]]}},{"type":"Feature","properties":{"class":"alley","highway":"service","sidewalk":"unknown","lanes":0,"name":"진관길","oneway":false},"geometry":{"type":"LineString","coordinates":[[126.94502,37.63927],[126.94496,37.63931],[126.94491,37.6394],[126.9448,37.63959],[126.94466,37.63999],[126.94449,37.64016],[126.94425,37.64024],[126.9441,37.64027],[126.94399,37.64031],[126.94379,37.64042],[126.94348,37.64062],[126.9432,37.64082],[126.94316,37.64085]]}},{"type":"Feature","properties":{"class":"minor","highway":"residential","sidewalk":"unknown","lanes":0,"name":"","oneway":false},"geometry":{"type":"LineString","coordinates":[[126.94054,37.64459],[126.94,37.64449]]}},{"type":"Feature","properties":{"class":"minor","highway":"residential","sidewalk":"unknown","lanes":0,"name":"연서로54길","oneway":false},"geometry":{"type":"LineString","coordinates":[[126.94,37.64449],[126.93991,37.64442],[126.93986,37.64431],[126.93977,37.64416],[126.93963,37.64411],[126.93949,37.64411],[126.93939,37.64412]]}},{"type":"Feature","properties":{"class":"major","highway":"secondary","sidewalk":"likely","lanes":4,"name":"북한산로","oneway":false},"geometry":{"type":"LineString","coordinates":[[126.94643,37.65843],[126.94708,37.65859]]}},{"type":"Feature","properties":{"class":"major","highway":"secondary","sidewalk":"likely","lanes":4,"name":"북한산로","oneway":false},"geometry":{"type":"LineString","coordinates":[[126.93843,37.65307],[126.93859,37.65324],[126.93939,37.65415],[126.93957,37.65436],[126.93991,37.65474],[126.94034,37.65523],[126.94072,37.65563],[126.9413,37.65627],[126.94169,37.65668],[126.94206,37.657],[126.94237,37.65718],[126.9427,37.65736],[126.94334,37.65762],[126.94409,37.65782],[126.9455,37.65819],[126.94643,37.65843]]}},{"type":"Feature","properties":{"class":"alley","highway":"service","sidewalk":"unknown","lanes":0,"name":"","oneway":false},"geometry":{"type":"LineString","coordinates":[[126.94072,37.64461],[126.94067,37.6448],[126.94062,37.64489],[126.9404,37.645],[126.94024,37.64515],[126.94011,37.64529],[126.93999,37.64537],[126.9399,37.64542],[126.93985,37.64547],[126.93977,37.64589],[126.93967,37.64607],[126.93955,37.64612],[126.93947,37.64624],[126.93879,37.6469],[126.93861,37.64716],[126.93852,37.64731]]}},{"type":"Feature","properties":{"class":"alley","highway":"service","sidewalk":"unknown","lanes":0,"name":"","oneway":false},"geometry":{"type":"LineString","coordinates":[[126.93845,37.64731],[126.93852,37.64731],[126.93867,37.64732],[126.93919,37.64733],[126.93948,37.64732],[126.94002,37.64723],[126.94095,37.64724],[126.94108,37.64724],[126.94115,37.64724],[126.94121,37.64724],[126.94126,37.64722],[126.9417,37.64696],[126.94223,37.64664],[126.94228,37.64659],[126.94249,37.64638],[126.94292,37.64613],[126.94309,37.64604],[126.94311,37.64602],[126.94327,37.64593],[126.94328,37.64592],[126.94334,37.64586],[126.94359,37.64558],[126.94363,37.64554],[126.94389,37.64521],[126.94392,37.64517],[126.94395,37.6451]]}},{"type":"Feature","properties":{"class":"minor","highway":"unclassified","sidewalk":"unknown","lanes":0,"name":"의상봉길","oneway":false},"geometry":{"type":"LineString","coordinates":[[126.93954,37.65323],[126.9395,37.65305],[126.9395,37.65301],[126.9395,37.65293],[126.93952,37.65283],[126.93964,37.65264],[126.93994,37.65236],[126.94011,37.652],[126.94026,37.65171],[126.94036,37.65155],[126.94046,37.65143],[126.94078,37.65125],[126.94103,37.65112],[126.94126,37.65097],[126.94135,37.6508],[126.9414,37.65051],[126.94134,37.65027]]}},{"type":"Feature","properties":{"class":"minor","highway":"residential","sidewalk":"unknown","lanes":0,"name":"연서로50길","oneway":true},"geometry":{"type":"LineString","coordinates":[[126.93951,37.64123],[126.93985,37.64104],[126.94006,37.64094],[126.9402,37.64095],[126.94034,37.64102],[126.9404,37.64114],[126.94045,37.64128],[126.94041,37.64138],[126.94015,37.64149],[126.93976,37.64167]]}},{"type":"Feature","properties":{"class":"minor","highway":"residential","sidewalk":"unknown","lanes":0,"name":"","oneway":false},"geometry":{"type":"LineString","coordinates":[[126.93985,37.64104],[126.94015,37.64149]]}},{"type":"Feature","properties":{"class":"minor","highway":"residential","sidewalk":"unknown","lanes":0,"name":"대서문길","oneway":false},"geometry":{"type":"LineString","coordinates":[[126.94716,37.65719],[126.94738,37.65728]]}},{"type":"Feature","properties":{"class":"minor","highway":"residential","sidewalk":"unknown","lanes":0,"name":"대서문길","oneway":false},"geometry":{"type":"LineString","coordinates":[[126.949,37.65612],[126.94886,37.65603],[126.9482,37.65657],[126.94777,37.65688],[126.94756,37.65707],[126.94738,37.65728]]}},{"type":"Feature","properties":{"class":"minor","highway":"residential","sidewalk":"unknown","lanes":0,"name":"대서문길","oneway":false},"geometry":{"type":"LineString","coordinates":[[126.94738,37.65728],[126.94705,37.65791],[126.94735,37.658],[126.94742,37.65795],[126.94751,37.65734],[126.94738,37.65728]]}},{"type":"Feature","properties":{"class":"minor","highway":"residential","sidewalk":"unknown","lanes":0,"name":"대서문길","oneway":false},"geometry":{"type":"LineString","coordinates":[[126.94977,37.65532],[126.94993,37.65538],[126.95008,37.65545],[126.95021,37.65548],[126.95039,37.65543],[126.95046,37.65542],[126.95064,37.65536],[126.95066,37.65529],[126.95063,37.6552],[126.9506,37.65511],[126.95055,37.65498],[126.95047,37.65499],[126.95034,37.65502],[126.95018,37.65506],[126.94995,37.65512],[126.94989,37.65519],[126.94983,37.65526],[126.94977,37.65532]]}},{"type":"Feature","properties":{"class":"minor","highway":"residential","sidewalk":"unknown","lanes":0,"name":"대서문길","oneway":false},"geometry":{"type":"LineString","coordinates":[[126.94977,37.65532],[126.94949,37.65569],[126.94929,37.65588],[126.949,37.65612]]}},{"type":"Feature","properties":{"class":"alley","highway":"service","sidewalk":"unknown","lanes":0,"name":"","oneway":false},"geometry":{"type":"LineString","coordinates":[[126.94929,37.65518],[126.94943,37.65523],[126.94945,37.65527],[126.94942,37.65531],[126.94938,37.65533],[126.94933,37.65534],[126.94906,37.65571],[126.94884,37.6559],[126.94822,37.65642],[126.94814,37.65637],[126.94809,37.65633]]}},{"type":"Feature","properties":{"class":"minor","highway":"residential","sidewalk":"unknown","lanes":0,"name":"대서문길","oneway":false},"geometry":{"type":"LineString","coordinates":[[126.94901,37.65497],[126.94916,37.65512],[126.94935,37.65511]]}},{"type":"Feature","properties":{"class":"minor","highway":"residential","sidewalk":"unknown","lanes":0,"name":"대서문길","oneway":false},"geometry":{"type":"LineString","coordinates":[[126.9479,37.65648],[126.94776,37.6563],[126.94715,37.65578],[126.94701,37.65554]]}},{"type":"Feature","properties":{"class":"alley","highway":"service","sidewalk":"unknown","lanes":0,"name":"","oneway":false},"geometry":{"type":"LineString","coordinates":[[126.94776,37.6563],[126.94785,37.65624],[126.94786,37.65616],[126.94784,37.65609],[126.94782,37.65605],[126.94765,37.6559],[126.94777,37.6558],[126.9482,37.65541],[126.94841,37.65522],[126.94847,37.65519],[126.94852,37.6552],[126.94885,37.65531],[126.94879,37.6554],[126.9485,37.6553]]}},{"type":"Feature","properties":{"class":"minor","highway":"residential","sidewalk":"unknown","lanes":0,"name":"북한산로368번길","oneway":false},"geometry":{"type":"LineString","coordinates":[[126.94794,37.65898],[126.94795,37.65887],[126.94825,37.65888],[126.94842,37.6588],[126.94859,37.65856],[126.94874,37.65843],[126.94914,37.65788],[126.94929,37.65782],[126.94952,37.65768]]}},{"type":"Feature","properties":{"class":"minor","highway":"residential","sidewalk":"unknown","lanes":0,"name":"북한산로","oneway":false},"geometry":{"type":"LineString","coordinates":[[126.94795,37.65887],[126.94782,37.65874],[126.9477,37.65864],[126.94763,37.65853],[126.94769,37.65818],[126.94791,37.65803],[126.94801,37.65786],[126.94803,37.65775],[126.948,37.65752],[126.94803,37.65736]]}},{"type":"Feature","properties":{"class":"minor","highway":"residential","sidewalk":"unknown","lanes":0,"name":"북한산로368번길","oneway":false},"geometry":{"type":"LineString","coordinates":[[126.94874,37.65843],[126.94883,37.65859],[126.94889,37.65864],[126.94909,37.6586],[126.94968,37.65832],[126.94985,37.65786]]}},{"type":"Feature","properties":{"class":"minor","highway":"residential","sidewalk":"unknown","lanes":0,"name":"북한산로368번길","oneway":false},"geometry":{"type":"LineString","coordinates":[[126.9501,37.65777],[126.94999,37.65784],[126.94985,37.65786],[126.94967,37.6578],[126.94952,37.65768],[126.94945,37.65751],[126.94939,37.65737],[126.94939,37.65723],[126.94948,37.65705],[126.94962,37.65688],[126.94982,37.65667],[126.95001,37.65649],[126.95014,37.65636],[126.9503,37.65626],[126.95047,37.65618],[126.95056,37.65607],[126.95063,37.65593],[126.95064,37.65588]]}},{"type":"Feature","properties":{"class":"minor","highway":"residential","sidewalk":"unknown","lanes":0,"name":"북한산로","oneway":false},"geometry":{"type":"LineString","coordinates":[[126.93903,37.65436],[126.93945,37.65501],[126.94015,37.65589]]}},{"type":"Feature","properties":{"class":"minor","highway":"residential","sidewalk":"unknown","lanes":0,"name":"흥국사길","oneway":false},"geometry":{"type":"LineString","coordinates":[[126.94206,37.657],[126.94171,37.65731]]}},{"type":"Feature","properties":{"class":"minor","highway":"unclassified","sidewalk":"unknown","lanes":0,"name":"흥국사길","oneway":false},"geometry":{"type":"LineString","coordinates":[[126.94109,37.65978],[126.94126,37.66014],[126.9415,37.66023],[126.94158,37.66044]]}},{"type":"Feature","properties":{"class":"minor","highway":"residential","sidewalk":"unknown","lanes":0,"name":"","oneway":false},"geometry":{"type":"LineString","coordinates":[[126.94171,37.65731],[126.94145,37.65754]]}},{"type":"Feature","properties":{"class":"minor","highway":"residential","sidewalk":"unknown","lanes":0,"name":"흥국사길","oneway":false},"geometry":{"type":"LineString","coordinates":[[126.94145,37.65754],[126.94139,37.6576],[126.94158,37.65778],[126.94166,37.65802],[126.94175,37.6584],[126.94178,37.65851],[126.9417,37.6592],[126.94151,37.65947],[126.94109,37.65978],[126.94095,37.65989]]}},{"type":"Feature","properties":{"class":"minor","highway":"residential","sidewalk":"unknown","lanes":0,"name":"지담길","oneway":false},"geometry":{"type":"LineString","coordinates":[[126.94139,37.6576],[126.9413,37.65766],[126.941,37.65786],[126.94075,37.65791],[126.9407,37.65766],[126.94033,37.65757],[126.93992,37.65768],[126.93957,37.65742],[126.93933,37.65713],[126.93905,37.65688],[126.93909,37.65666]]}},{"type":"Feature","properties":{"class":"alley","highway":"service","sidewalk":"unknown","lanes":0,"name":"","oneway":false},"geometry":{"type":"LineString","coordinates":[[126.94356,37.64498],[126.94395,37.6451],[126.94448,37.64503],[126.94486,37.64544],[126.94442,37.64585],[126.9443,37.64593],[126.94424,37.64596],[126.94419,37.64598],[126.94415,37.64597],[126.94412,37.64597],[126.94359,37.64558]]}},{"type":"Feature","properties":{"class":"alley","highway":"service","sidewalk":"unknown","lanes":0,"name":"","oneway":false},"geometry":{"type":"LineString","coordinates":[[126.94228,37.64659],[126.94287,37.64725],[126.9429,37.64733],[126.9429,37.6474],[126.94288,37.64748],[126.94283,37.64756],[126.94258,37.64788],[126.94256,37.64795],[126.94255,37.64801],[126.94259,37.64807],[126.94265,37.64813],[126.94273,37.64818],[126.9428,37.64821],[126.94288,37.64824],[126.94302,37.64827],[126.94313,37.64827],[126.94317,37.64828],[126.94326,37.64829],[126.94332,37.64829],[126.94344,37.6483],[126.94351,37.64834],[126.94354,37.64841],[126.94352,37.64849],[126.9435,37.64856],[126.94342,37.64862],[126.9433,37.64871],[126.94317,37.64883],[126.94299,37.649],[126.9429,37.64924],[126.94289,37.64933],[126.94287,37.64947],[126.94283,37.64959],[126.94281,37.64966],[126.94284,37.64969],[126.94289,37.6497],[126.94295,37.64969],[126.94301,37.64965],[126.94305,37.6496]]}},{"type":"Feature","properties":{"class":"alley","highway":"service","sidewalk":"unknown","lanes":0,"name":"","oneway":false},"geometry":{"type":"LineString","coordinates":[[126.94415,37.64597],[126.94413,37.64615],[126.94405,37.64633],[126.94362,37.64677],[126.94301,37.64717]]}},{"type":"Feature","properties":{"class":"alley","highway":"service","sidewalk":"unknown","lanes":0,"name":"","oneway":false},"geometry":{"type":"LineString","coordinates":[[126.94228,37.64659],[126.9416,37.64603],[126.94152,37.64591],[126.9415,37.64578]]}},{"type":"Feature","properties":{"class":"alley","highway":"service","sidewalk":"unknown","lanes":0,"name":"","oneway":false},"geometry":{"type":"LineString","coordinates":[[126.9415,37.64578],[126.94148,37.64567],[126.94131,37.64534],[126.94128,37.64528]]}},{"type":"Feature","properties":{"class":"alley","highway":"service","sidewalk":"unknown","lanes":0,"name":"","oneway":false},"geometry":{"type":"LineString","coordinates":[[126.94228,37.64659],[126.94263,37.64654]]}},{"type":"Feature","properties":{"class":"alley","highway":"service","sidewalk":"unknown","lanes":0,"name":"","oneway":false},"geometry":{"type":"LineString","coordinates":[[126.9417,37.64696],[126.94155,37.6468],[126.94143,37.64678]]}},{"type":"Feature","properties":{"class":"alley","highway":"service","sidewalk":"unknown","lanes":0,"name":"","oneway":false},"geometry":{"type":"LineString","coordinates":[[126.94317,37.64828],[126.94317,37.64824],[126.94318,37.6482],[126.94322,37.64816],[126.94328,37.64811],[126.94339,37.64806],[126.94382,37.64792]]}},{"type":"Feature","properties":{"class":"alley","highway":"service","sidewalk":"unknown","lanes":0,"name":"","oneway":false},"geometry":{"type":"LineString","coordinates":[[126.94395,37.6451],[126.94396,37.64464],[126.94398,37.64457],[126.94399,37.64449],[126.94403,37.64442],[126.94409,37.64437]]}},{"type":"Feature","properties":{"class":"alley","highway":"service","sidewalk":"unknown","lanes":0,"name":"","oneway":false},"geometry":{"type":"LineString","coordinates":[[126.94128,37.64528],[126.94129,37.64522],[126.94098,37.64508],[126.94093,37.64521],[126.94084,37.64526]]}},{"type":"Feature","properties":{"class":"alley","highway":"service","sidewalk":"unknown","lanes":0,"name":"","oneway":false},"geometry":{"type":"LineString","coordinates":[[126.94413,37.64615],[126.94412,37.64634],[126.94424,37.64642],[126.94424,37.64655],[126.94416,37.64665],[126.94415,37.64671],[126.9441,37.64676],[126.94408,37.64675],[126.94406,37.64677],[126.94397,37.64674],[126.94393,37.64678]]}},{"type":"Feature","properties":{"class":"alley","highway":"service","sidewalk":"unknown","lanes":0,"name":"","oneway":false},"geometry":{"type":"LineString","coordinates":[[126.94389,37.64521],[126.94396,37.64518],[126.94403,37.64517]]}},{"type":"Feature","properties":{"class":"alley","highway":"service","sidewalk":"unknown","lanes":0,"name":"","oneway":false},"geometry":{"type":"LineString","coordinates":[[126.94328,37.64592],[126.9431,37.64583],[126.94296,37.64572],[126.94294,37.64567],[126.94295,37.64564],[126.94297,37.6456],[126.94316,37.6455]]}},{"type":"Feature","properties":{"class":"alley","highway":"service","sidewalk":"unknown","lanes":0,"name":"","oneway":false},"geometry":{"type":"LineString","coordinates":[[126.94309,37.64645],[126.94331,37.64631]]}},{"type":"Feature","properties":{"class":"alley","highway":"service","sidewalk":"unknown","lanes":0,"name":"","oneway":false},"geometry":{"type":"LineString","coordinates":[[126.94309,37.64604],[126.94329,37.64623]]}},{"type":"Feature","properties":{"class":"alley","highway":"service","sidewalk":"unknown","lanes":0,"name":"","oneway":false},"geometry":{"type":"LineString","coordinates":[[126.94395,37.6451],[126.94411,37.64471]]}},{"type":"Feature","properties":{"class":"alley","highway":"service","sidewalk":"unknown","lanes":0,"name":"","oneway":false},"geometry":{"type":"LineString","coordinates":[[126.94108,37.64724],[126.94112,37.64732],[126.94104,37.64744]]}},{"type":"Feature","properties":{"class":"alley","highway":"service","sidewalk":"unknown","lanes":0,"name":"","oneway":false},"geometry":{"type":"LineString","coordinates":[[126.94289,37.64933],[126.94273,37.64934]]}},{"type":"Feature","properties":{"class":"alley","highway":"service","sidewalk":"unknown","lanes":0,"name":"","oneway":false},"geometry":{"type":"LineString","coordinates":[[126.94227,37.64924],[126.94222,37.64922],[126.94218,37.6492],[126.94214,37.6492],[126.94211,37.6492],[126.94205,37.64923]]}},{"type":"Feature","properties":{"class":"alley","highway":"service","sidewalk":"unknown","lanes":0,"name":"","oneway":false},"geometry":{"type":"LineString","coordinates":[[126.94249,37.64638],[126.94262,37.64649],[126.94278,37.64646],[126.94288,37.64644],[126.94295,37.64642],[126.94297,37.6464],[126.94317,37.64629]]}},{"type":"Feature","properties":{"class":"alley","highway":"service","sidewalk":"unknown","lanes":0,"name":"","oneway":false},"geometry":{"type":"LineString","coordinates":[[126.94297,37.6464],[126.94288,37.64632],[126.94299,37.64621],[126.94292,37.64613]]}},{"type":"Feature","properties":{"class":"minor","highway":"residential","sidewalk":"unknown","lanes":0,"name":"흥국사길","oneway":false},"geometry":{"type":"LineString","coordinates":[[126.94095,37.65989],[126.94084,37.66007]]}},{"type":"Feature","properties":{"class":"minor","highway":"residential","sidewalk":"unknown","lanes":2,"name":"연서로48길","oneway":false},"geometry":{"type":"LineString","coordinates":[[126.93815,37.63769],[126.93818,37.63771],[126.93849,37.63797],[126.93872,37.63819],[126.93903,37.63856],[126.93906,37.6386],[126.9391,37.63866],[126.93949,37.63925],[126.93966,37.63946],[126.94003,37.63975],[126.94008,37.63979],[126.94014,37.63984],[126.94075,37.64053],[126.94083,37.64063],[126.94109,37.64093],[126.94119,37.64104],[126.94131,37.64122],[126.94134,37.64126]]}},{"type":"Feature","properties":{"class":"minor","highway":"residential","sidewalk":"unknown","lanes":0,"name":"","oneway":false},"geometry":{"type":"LineString","coordinates":[[126.94033,37.65757],[126.94036,37.65748],[126.94039,37.65738],[126.94042,37.65735],[126.94046,37.65735],[126.94072,37.65741],[126.9409,37.65745],[126.94101,37.65749],[126.94124,37.65763],[126.9413,37.65766]]}},{"type":"Feature","properties":{"class":"minor","highway":"residential","sidewalk":"unknown","lanes":0,"name":"연서로54길","oneway":false},"geometry":{"type":"LineString","coordinates":[[126.94054,37.64459],[126.94072,37.64461],[126.94096,37.64435],[126.94113,37.64427],[126.94132,37.64417],[126.94161,37.64393],[126.94182,37.64377],[126.94213,37.64363],[126.94235,37.64348],[126.94252,37.64339],[126.94304,37.64339],[126.94348,37.64341],[126.94377,37.64345],[126.94392,37.64349],[126.94401,37.64354],[126.94407,37.6436],[126.94411,37.64363]]}},{"type":"Feature","properties":{"class":"minor","highway":"residential","sidewalk":"unknown","lanes":0,"name":"","oneway":false},"geometry":{"type":"LineString","coordinates":[[126.94385,37.6525],[126.9443,37.65275]]}},{"type":"Feature","properties":{"class":"minor","highway":"residential","sidewalk":"unknown","lanes":0,"name":"","oneway":false},"geometry":{"type":"LineString","coordinates":[[126.93957,37.65436],[126.93989,37.65423],[126.9402,37.65455],[126.93991,37.65474]]}},{"type":"Feature","properties":{"class":"minor","highway":"residential","sidewalk":"unknown","lanes":0,"name":"지담길","oneway":false},"geometry":{"type":"LineString","coordinates":[[126.94075,37.65791],[126.94064,37.65799],[126.94058,37.65811],[126.94069,37.6583],[126.94091,37.65853],[126.94122,37.65856],[126.94157,37.65846],[126.94175,37.6584]]}},{"type":"Feature","properties":{"class":"minor","highway":"residential","sidewalk":"unknown","lanes":0,"name":"","oneway":false},"geometry":{"type":"LineString","coordinates":[[126.94968,37.65832],[126.94971,37.6585],[126.94991,37.65862],[126.94999,37.65877]]}},{"type":"Feature","properties":{"class":"minor","highway":"residential","sidewalk":"unknown","lanes":0,"name":"","oneway":false},"geometry":{"type":"LineString","coordinates":[[126.95062,37.65581],[126.95052,37.65561]]}},{"type":"Feature","properties":{"class":"minor","highway":"residential","sidewalk":"unknown","lanes":0,"name":"","oneway":false},"geometry":{"type":"LineString","coordinates":[[126.95064,37.65588],[126.95062,37.65581]]}},{"type":"Feature","properties":{"class":"minor","highway":"residential","sidewalk":"unknown","lanes":0,"name":"","oneway":false},"geometry":{"type":"LineString","coordinates":[[126.95052,37.65561],[126.95053,37.65554],[126.95046,37.65542]]}},{"type":"Feature","properties":{"class":"alley","highway":"service","sidewalk":"unknown","lanes":0,"name":"","oneway":false},"geometry":{"type":"LineString","coordinates":[[126.94086,37.64324],[126.94078,37.64332],[126.94075,37.64335],[126.94073,37.64342],[126.94078,37.64347],[126.94081,37.64353],[126.94079,37.64365],[126.94077,37.64384],[126.94078,37.64391],[126.94083,37.644],[126.94093,37.6442],[126.94096,37.64435]]}},{"type":"Feature","properties":{"class":"alley","highway":"service","sidewalk":"unknown","lanes":0,"name":"연서로54길","oneway":false},"geometry":{"type":"LineString","coordinates":[[126.94771,37.64275],[126.94815,37.64274]]}},{"type":"Feature","properties":{"class":"alley","highway":"service","sidewalk":"unknown","lanes":0,"name":"연서로54길","oneway":false},"geometry":{"type":"LineString","coordinates":[[126.94815,37.64274],[126.94918,37.64285],[126.94927,37.64286],[126.94932,37.64287],[126.9496,37.64286],[126.94993,37.64282],[126.95012,37.64274],[126.95044,37.64258],[126.95057,37.64255],[126.95078,37.64255],[126.951,37.64253],[126.95134,37.6424],[126.95154,37.64228],[126.95169,37.64226]]}},{"type":"Feature","properties":{"class":"alley","highway":"service","sidewalk":"unknown","lanes":0,"name":"","oneway":false},"geometry":{"type":"LineString","coordinates":[[126.94273,37.64107],[126.94272,37.64102],[126.94271,37.641],[126.94267,37.64078],[126.94265,37.64068],[126.94263,37.64055]]}},{"type":"Feature","properties":{"class":"alley","highway":"service","sidewalk":"unknown","lanes":0,"name":"","oneway":false},"geometry":{"type":"LineString","coordinates":[[126.94256,37.64111],[126.94255,37.64106],[126.94255,37.64104],[126.94249,37.6407],[126.94246,37.64056]]}},{"type":"Feature","properties":{"class":"alley","highway":"service","sidewalk":"unknown","lanes":0,"name":"","oneway":false},"geometry":{"type":"LineString","coordinates":[[126.94232,37.64082],[126.94231,37.64072],[126.94229,37.64058]]}},{"type":"Feature","properties":{"class":"alley","highway":"service","sidewalk":"unknown","lanes":0,"name":"","oneway":false},"geometry":{"type":"LineString","coordinates":[[126.94223,37.64083],[126.94221,37.64072],[126.94231,37.64072],[126.94249,37.6407],[126.94265,37.64068],[126.94279,37.64067],[126.94292,37.64066],[126.94299,37.64067],[126.94312,37.6408],[126.94313,37.64081],[126.94316,37.64085]]}},{"type":"Feature","properties":{"class":"alley","highway":"service","sidewalk":"unknown","lanes":0,"name":"","oneway":false},"geometry":{"type":"LineString","coordinates":[[126.94284,37.64089],[126.94279,37.64067],[126.94277,37.64058]]}},{"type":"Feature","properties":{"class":"alley","highway":"service","sidewalk":"unknown","lanes":0,"name":"","oneway":false},"geometry":{"type":"LineString","coordinates":[[126.94292,37.64066],[126.94295,37.64084]]}},{"type":"Feature","properties":{"class":"alley","highway":"service","sidewalk":"unknown","lanes":0,"name":"","oneway":false},"geometry":{"type":"LineString","coordinates":[[126.94758,37.65654],[126.94738,37.65637],[126.94725,37.65628],[126.94696,37.65605],[126.94686,37.65599],[126.94673,37.65609],[126.94661,37.6562],[126.94648,37.65631],[126.94635,37.65643],[126.9463,37.65648],[126.94629,37.65658],[126.94629,37.65677],[126.94628,37.65697],[126.94627,37.65728],[126.94634,37.65736],[126.94655,37.65743],[126.94661,37.65741],[126.9467,37.65728],[126.94679,37.65716],[126.94688,37.65702],[126.94699,37.65693],[126.94716,37.65684],[126.9473,37.65676],[126.94744,37.65665],[126.94758,37.65654]]}},{"type":"Feature","properties":{"class":"alley","highway":"service","sidewalk":"unknown","lanes":0,"name":"","oneway":false},"geometry":{"type":"LineString","coordinates":[[126.9477,37.65665],[126.94763,37.65658],[126.94758,37.65654]]}},{"type":"Feature","properties":{"class":"alley","highway":"service","sidewalk":"unknown","lanes":0,"name":"","oneway":false},"geometry":{"type":"LineString","coordinates":[[126.94699,37.65693],[126.94635,37.65643]]}},{"type":"Feature","properties":{"class":"alley","highway":"service","sidewalk":"unknown","lanes":0,"name":"","oneway":false},"geometry":{"type":"LineString","coordinates":[[126.9467,37.65728],[126.94628,37.65697]]}},{"type":"Feature","properties":{"class":"alley","highway":"service","sidewalk":"unknown","lanes":0,"name":"","oneway":false},"geometry":{"type":"LineString","coordinates":[[126.94679,37.65716],[126.94629,37.65677]]}},{"type":"Feature","properties":{"class":"alley","highway":"service","sidewalk":"unknown","lanes":0,"name":"","oneway":false},"geometry":{"type":"LineString","coordinates":[[126.94688,37.65702],[126.94629,37.65658]]}},{"type":"Feature","properties":{"class":"alley","highway":"service","sidewalk":"unknown","lanes":0,"name":"","oneway":false},"geometry":{"type":"LineString","coordinates":[[126.94716,37.65684],[126.94686,37.65661],[126.94699,37.65651],[126.94712,37.65639],[126.94725,37.65628]]}},{"type":"Feature","properties":{"class":"alley","highway":"service","sidewalk":"unknown","lanes":0,"name":"","oneway":false},"geometry":{"type":"LineString","coordinates":[[126.9473,37.65676],[126.94699,37.65651],[126.94661,37.6562]]}},{"type":"Feature","properties":{"class":"alley","highway":"service","sidewalk":"unknown","lanes":0,"name":"","oneway":false},"geometry":{"type":"LineString","coordinates":[[126.94744,37.65665],[126.94712,37.65639]]}},{"type":"Feature","properties":{"class":"alley","highway":"service","sidewalk":"unknown","lanes":0,"name":"","oneway":false},"geometry":{"type":"LineString","coordinates":[[126.94648,37.65631],[126.94677,37.65654]]}},{"type":"Feature","properties":{"class":"alley","highway":"service","sidewalk":"unknown","lanes":0,"name":"","oneway":false},"geometry":{"type":"LineString","coordinates":[[126.94673,37.65609],[126.94704,37.65633]]}},{"type":"Feature","properties":{"class":"alley","highway":"service","sidewalk":"unknown","lanes":0,"name":"","oneway":false},"geometry":{"type":"LineString","coordinates":[[126.94738,37.65637],[126.94749,37.65627],[126.94709,37.65595],[126.94696,37.65605]]}},{"type":"Feature","properties":{"class":"alley","highway":"service","sidewalk":"unknown","lanes":0,"name":"","oneway":false},"geometry":{"type":"LineString","coordinates":[[126.94782,37.65605],[126.9479,37.65596],[126.94788,37.65589],[126.94777,37.6558]]}},{"type":"Feature","properties":{"class":"alley","highway":"service","sidewalk":"unknown","lanes":0,"name":"","oneway":false},"geometry":{"type":"LineString","coordinates":[[126.94847,37.65519],[126.9485,37.65524],[126.9485,37.6553],[126.94831,37.65548],[126.9482,37.65541]]}},{"type":"Feature","properties":{"class":"minor","highway":"residential","sidewalk":"unknown","lanes":0,"name":"북한산로","oneway":false},"geometry":{"type":"LineString","coordinates":[[126.94829,37.65926],[126.94809,37.65933]]}},{"type":"Feature","properties":{"class":"minor","highway":"residential","sidewalk":"unknown","lanes":0,"name":"","oneway":false},"geometry":{"type":"LineString","coordinates":[[126.94809,37.65933],[126.94776,37.65942]]}},{"type":"Feature","properties":{"class":"minor","highway":"residential","sidewalk":"unknown","lanes":0,"name":"북한산로","oneway":false},"geometry":{"type":"LineString","coordinates":[[126.94776,37.65942],[126.94764,37.65946]]}},{"type":"Feature","properties":{"class":"minor","highway":"residential","sidewalk":"unknown","lanes":0,"name":"북한산로","oneway":false},"geometry":{"type":"LineString","coordinates":[[126.94842,37.65939],[126.94827,37.65946],[126.94824,37.65952],[126.94842,37.65999],[126.94855,37.66038],[126.94868,37.6607],[126.94862,37.66094]]}}]}