{"type":"FeatureCollection","features":[{"type":"Feature","properties":{"class":"major","highway":"primary","sidewalk":"yes","lanes":6,"name":"경춘북로","oneway":false},"geometry":{"type":"LineString","coordinates":[[127.12661,37.64111],[127.12644,37.64105],[127.12628,37.64097],[127.12558,37.64071],[127.12519,37.64053],[127.12483,37.64037],[127.12407,37.64006],[127.12406,37.64006],[127.12312,37.63967],[127.12237,37.63938],[127.12197,37.63922],[127.1219,37.63919],[127.1213,37.63902],[127.12072,37.63883],[127.12055,37.63877],[127.12029,37.63868],[127.11985,37.63854],[127.11958,37.63845],[127.11901,37.6382],[127.1186,37.63799],[127.11822,37.63778],[127.11811,37.63773],[127.11801,37.63766],[127.11792,37.6376],[127.11775,37.63748],[127.11716,37.637],[127.11654,37.63636],[127.11628,37.63603],[127.11605,37.63568],[127.11585,37.63528],[127.11575,37.63508],[127.11567,37.63484],[127.11561,37.6346],[127.11547,37.63404],[127.11523,37.63333],[127.11494,37.63283],[127.11459,37.63223],[127.11404,37.63124],[127.11345,37.6303],[127.11287,37.62942],[127.11279,37.62932],[127.11137,37.62714],[127.11107,37.62667],[127.111,37.62654],[127.11069,37.62606],[127.10965,37.62439],[127.10851,37.62269],[127.10847,37.62263],[127.10843,37.62258],[127.10839,37.62253],[127.10808,37.62219],[127.10764,37.62175],[127.10738,37.62149],[127.10651,37.62074],[127.10643,37.62067],[127.10636,37.62063],[127.10622,37.62052]]}}]}