{"type":"FeatureCollection","features":[{"type":"Feature","properties":{"class":"major","highway":"motorway","sidewalk":"likely","lanes":4,"name":"수도권제1순환고속도로","oneway":true},"geometry":{"type":"LineString","coordinates":[[127.11382,37.66397],[127.11386,37.66391],[127.11441,37.66312],[127.1157,37.66127],[127.11674,37.65978]]}},{"type":"Feature","properties":{"class":"major","highway":"tertiary","sidewalk":"likely","lanes":0,"name":"불암로","oneway":true},"geometry":{"type":"LineString","coordinates":[[127.11128,37.64561],[127.11081,37.64628],[127.1106,37.6466],[127.11043,37.64695],[127.11036,37.64717],[127.11031,37.64741],[127.11029,37.64764],[127.1103,37.64787],[127.1103,37.64791]]}},{"type":"Feature","properties":{"class":"major","highway":"motorway","sidewalk":"likely","lanes":4,"name":"수도권제1순환고속도로","oneway":true},"geometry":{"type":"LineString","coordinates":[[127.11688,37.65991],[127.1158,37.66144],[127.11456,37.66325],[127.11406,37.66399],[127.11401,37.66406]]}},{"type":"Feature","properties":{"class":"alley","highway":"service","sidewalk":"unknown","lanes":0,"name":"","oneway":false},"geometry":{"type":"LineString","coordinates":[[127.11008,37.64662],[127.1096,37.64659],[127.10923,37.64637]]}},{"type":"Feature","properties":{"class":"major","highway":"primary_link","sidewalk":"likely","lanes":0,"name":"불암로","oneway":true},"geometry":{"type":"LineString","coordinates":[[127.11224,37.64134],[127.11223,37.6415],[127.11223,37.64154],[127.11224,37.64162],[127.11232,37.64192],[127.11233,37.64203],[127.11235,37.64212],[127.11237,37.64235],[127.11235,37.64264],[127.11233,37.6429],[127.11232,37.64309],[127.1123,37.64332],[127.1122,37.64384]]}},{"type":"Feature","properties":{"class":"minor","highway":"residential","sidewalk":"unknown","lanes":0,"name":"","oneway":false},"geometry":{"type":"LineString","coordinates":[[127.10923,37.64637],[127.10959,37.64612],[127.11075,37.64553],[127.11086,37.6455],[127.11091,37.64549],[127.11099,37.64549],[127.11114,37.64555],[127.11128,37.64561]]}},{"type":"Feature","properties":{"class":"major","highway":"secondary","sidewalk":"likely","lanes":6,"name":"금강로","oneway":true},"geometry":{"type":"LineString","coordinates":[[127.1169,37.64239],[127.11673,37.64237],[127.11639,37.64235],[127.11613,37.64233],[127.11436,37.64216],[127.1141,37.64212],[127.11358,37.64202],[127.11317,37.6419],[127.11277,37.64173],[127.11237,37.64156],[127.11223,37.6415]]}},{"type":"Feature","properties":{"class":"major","highway":"tertiary","sidewalk":"likely","lanes":3,"name":"순화궁로","oneway":true},"geometry":{"type":"LineString","coordinates":[[127.11194,37.6504],[127.11198,37.65034],[127.11206,37.65021],[127.11327,37.64932],[127.11344,37.6492]]}},{"type":"Feature","properties":{"class":"minor","highway":"residential","sidewalk":"unknown","lanes":4,"name":"별내4로","oneway":false},"geometry":{"type":"LineString","coordinates":[[127.11174,37.64503],[127.11183,37.6451],[127.11202,37.64514],[127.1125,37.64524],[127.11283,37.64531],[127.11293,37.64533],[127.11313,37.64539],[127.1133,37.64547],[127.11348,37.64559]]}},{"type":"Feature","properties":{"class":"major","highway":"tertiary","sidewalk":"likely","lanes":4,"name":"별내5로","oneway":true},"geometry":{"type":"LineString","coordinates":[[127.11378,37.64949],[127.11394,37.64954],[127.11477,37.6501],[127.11544,37.65061],[127.11555,37.65072],[127.11567,37.6509],[127.11634,37.65208],[127.11649,37.65233],[127.11668,37.65261],[127.11696,37.65311],[127.11704,37.65328],[127.11708,37.6535],[127.11711,37.65372]]}},{"type":"Feature","properties":{"class":"minor","highway":"residential","sidewalk":"unknown","lanes":4,"name":"","oneway":false},"geometry":{"type":"LineString","coordinates":[[127.11348,37.64559],[127.11354,37.64564],[127.11356,37.64566]]}},{"type":"Feature","properties":{"class":"minor","highway":"residential","sidewalk":"unknown","lanes":4,"name":"별내4로","oneway":false},"geometry":{"type":"LineString","coordinates":[[127.11378,37.64582],[127.11384,37.64587],[127.11429,37.64619],[127.11482,37.64658],[127.11517,37.64683],[127.1158,37.64726],[127.11592,37.64735]]}},{"type":"Feature","properties":{"class":"minor","highway":"residential","sidewalk":"unknown","lanes":0,"name":"불암로109번길","oneway":false},"geometry":{"type":"LineString","coordinates":[[127.10923,37.64637],[127.10905,37.64647],[127.10856,37.64691],[127.10847,37.647],[127.10823,37.64729],[127.10799,37.64763],[127.10758,37.64821],[127.1073,37.6486],[127.10708,37.6491],[127.107,37.64939],[127.10705,37.64945],[127.10712,37.64954],[127.10718,37.64961],[127.10729,37.64973],[127.10758,37.64981],[127.10794,37.64992],[127.10854,37.65021],[127.11097,37.65085]]}},{"type":"Feature","properties":{"class":"minor","highway":"residential","sidewalk":"unknown","lanes":0,"name":"","oneway":false},"geometry":{"type":"LineString","coordinates":[[127.11174,37.64503],[127.11168,37.64499],[127.1116,37.64494]]}},{"type":"Feature","properties":{"class":"major","highway":"secondary","sidewalk":"likely","lanes":6,"name":"금강로","oneway":true},"geometry":{"type":"LineString","coordinates":[[127.11224,37.64134],[127.11243,37.64145],[127.11282,37.64165],[127.11326,37.64181],[127.11376,37.64194],[127.11418,37.64202],[127.11458,37.64207],[127.11676,37.64229],[127.11712,37.64227],[127.11754,37.64229],[127.11826,37.64232],[127.11872,37.64231],[127.11928,37.64225],[127.11934,37.64224],[127.11967,37.64219],[127.11992,37.64214]]}},{"type":"Feature","properties":{"class":"alley","highway":"living_street","sidewalk":"unknown","lanes":0,"name":"","oneway":false},"geometry":{"type":"LineString","coordinates":[[127.11518,37.65281],[127.11503,37.65254],[127.11471,37.65211],[127.11447,37.65179],[127.11419,37.65141],[127.11399,37.65116],[127.11374,37.65082],[127.11348,37.65047],[127.11325,37.65017]]}},{"type":"Feature","properties":{"class":"alley","highway":"living_street","sidewalk":"unknown","lanes":0,"name":"별내5로5번길","oneway":false},"geometry":{"type":"LineString","coordinates":[[127.11391,37.64966],[127.11359,37.64991],[127.11325,37.65017],[127.11292,37.65042],[127.11261,37.65064],[127.11326,37.6515],[127.11341,37.6517],[127.11346,37.65176],[127.11428,37.65282],[127.11466,37.65268],[127.11503,37.65254],[127.11544,37.65238],[127.11582,37.65224]]}},{"type":"Feature","properties":{"class":"alley","highway":"living_street","sidewalk":"unknown","lanes":0,"name":"별내5로23번길","oneway":false},"geometry":{"type":"LineString","coordinates":[[127.11555,37.65072],[127.11544,37.65078],[127.11506,37.651],[127.11419,37.65141],[127.1138,37.6516],[127.11346,37.65176]]}},{"type":"Feature","properties":{"class":"alley","highway":"living_street","sidewalk":"unknown","lanes":0,"name":"","oneway":false},"geometry":{"type":"LineString","coordinates":[[127.11326,37.6515],[127.11361,37.65134],[127.11399,37.65116],[127.11483,37.65076]]}},{"type":"Feature","properties":{"class":"alley","highway":"living_street","sidewalk":"unknown","lanes":0,"name":"","oneway":false},"geometry":{"type":"LineString","coordinates":[[127.11529,37.65137],[127.11447,37.65179]]}},{"type":"Feature","properties":{"class":"alley","highway":"living_street","sidewalk":"unknown","lanes":0,"name":"","oneway":false},"geometry":{"type":"LineString","coordinates":[[127.11466,37.65268],[127.1138,37.6516]]}},{"type":"Feature","properties":{"class":"alley","highway":"living_street","sidewalk":"unknown","lanes":0,"name":"","oneway":false},"geometry":{"type":"LineString","coordinates":[[127.11292,37.65042],[127.11361,37.65134]]}},{"type":"Feature","properties":{"class":"alley","highway":"living_street","sidewalk":"unknown","lanes":0,"name":"","oneway":false},"geometry":{"type":"LineString","coordinates":[[127.11403,37.6502],[127.11348,37.65047]]}},{"type":"Feature","properties":{"class":"alley","highway":"living_street","sidewalk":"unknown","lanes":0,"name":"","oneway":false},"geometry":{"type":"LineString","coordinates":[[127.11374,37.65082],[127.11444,37.65049]]}},{"type":"Feature","properties":{"class":"minor","highway":"residential","sidewalk":"unknown","lanes":0,"name":"식송1로","oneway":false},"geometry":{"type":"LineString","coordinates":[[127.1144,37.65476],[127.11454,37.6552],[127.11457,37.65531],[127.11492,37.65621],[127.11531,37.65748],[127.11542,37.65789],[127.11554,37.65829],[127.1156,37.65848],[127.1157,37.65867],[127.11582,37.65892],[127.11593,37.65913],[127.11595,37.65932],[127.11594,37.65954],[127.11588,37.65971],[127.11576,37.65991],[127.11533,37.6606],[127.11504,37.661],[127.11475,37.66141],[127.11466,37.66153],[127.11464,37.66156],[127.11423,37.66215],[127.11408,37.66231],[127.11362,37.66272],[127.11342,37.66292],[127.11337,37.66298],[127.11266,37.66403],[127.11227,37.6646],[127.11218,37.66474],[127.11186,37.66521],[127.11184,37.66523]]}},{"type":"Feature","properties":{"class":"minor","highway":"residential","sidewalk":"unknown","lanes":0,"name":"","oneway":false},"geometry":{"type":"LineString","coordinates":[[127.11115,37.65136],[127.11155,37.65115],[127.11176,37.65103]]}},{"type":"Feature","properties":{"class":"alley","highway":"living_street","sidewalk":"unknown","lanes":0,"name":"","oneway":false},"geometry":{"type":"LineString","coordinates":[[127.11155,37.65115],[127.1121,37.65186],[127.11258,37.65246],[127.11302,37.65302],[127.11308,37.65313],[127.11309,37.65323],[127.11305,37.65336],[127.11301,37.65349]]}},{"type":"Feature","properties":{"class":"alley","highway":"living_street","sidewalk":"unknown","lanes":0,"name":"","oneway":false},"geometry":{"type":"LineString","coordinates":[[127.1121,37.65186],[127.11166,37.65206],[127.11128,37.65223],[127.11123,37.65215],[127.11115,37.65195],[127.11107,37.65171],[127.11107,37.65164],[127.11115,37.65158],[127.11125,37.65152]]}},{"type":"Feature","properties":{"class":"alley","highway":"living_street","sidewalk":"unknown","lanes":0,"name":"","oneway":false},"geometry":{"type":"LineString","coordinates":[[127.11128,37.65223],[127.11132,37.65236],[127.11137,37.65248],[127.11144,37.65261],[127.1115,37.65268],[127.11155,37.65274],[127.11161,37.65276],[127.11171,37.65277],[127.11181,37.65275],[127.11212,37.65261]]}},{"type":"Feature","properties":{"class":"alley","highway":"living_street","sidewalk":"unknown","lanes":0,"name":"","oneway":false},"geometry":{"type":"LineString","coordinates":[[127.11231,37.65286],[127.11208,37.65328],[127.11223,37.65347],[127.11228,37.65352],[127.11235,37.65354],[127.11246,37.65351],[127.11271,37.65337]]}},{"type":"Feature","properties":{"class":"minor","highway":"residential","sidewalk":"unknown","lanes":0,"name":"","oneway":false},"geometry":{"type":"LineString","coordinates":[[127.11533,37.6606],[127.11508,37.66049],[127.11455,37.66029],[127.11427,37.66018],[127.11429,37.65902],[127.11467,37.65892],[127.11508,37.65883],[127.11545,37.65873],[127.1157,37.65867]]}},{"type":"Feature","properties":{"class":"minor","highway":"residential","sidewalk":"unknown","lanes":0,"name":"식송2로","oneway":false},"geometry":{"type":"LineString","coordinates":[[127.11525,37.65615],[127.11492,37.65621],[127.11466,37.65626],[127.1143,37.65632],[127.11418,37.65636],[127.11409,37.65645],[127.11395,37.65664],[127.11396,37.65677],[127.11399,37.65691],[127.11423,37.65768],[127.11435,37.65808],[127.1144,37.65832],[127.11448,37.65855],[127.11467,37.65892],[127.11478,37.6592],[127.11482,37.65936],[127.11483,37.65954],[127.11469,37.65995],[127.11455,37.66029],[127.11441,37.66072],[127.11504,37.661]]}},{"type":"Feature","properties":{"class":"minor","highway":"residential","sidewalk":"unknown","lanes":0,"name":"","oneway":false},"geometry":{"type":"LineString","coordinates":[[127.11435,37.65808],[127.11542,37.65789]]}},{"type":"Feature","properties":{"class":"minor","highway":"residential","sidewalk":"unknown","lanes":0,"name":"","oneway":false},"geometry":{"type":"LineString","coordinates":[[127.11448,37.65855],[127.11554,37.65829]]}},{"type":"Feature","properties":{"class":"minor","highway":"residential","sidewalk":"unknown","lanes":0,"name":"","oneway":false},"geometry":{"type":"LineString","coordinates":[[127.11463,37.65761],[127.11437,37.65674],[127.11441,37.6567],[127.11476,37.65664]]}},{"type":"Feature","properties":{"class":"minor","highway":"residential","sidewalk":"unknown","lanes":0,"name":"불암로109번길","oneway":false},"geometry":{"type":"LineString","coordinates":[[127.11097,37.65085],[127.11117,37.65078],[127.11149,37.65068],[127.11153,37.65066],[127.11165,37.6506]]}},{"type":"Feature","properties":{"class":"major","highway":"tertiary","sidewalk":"likely","lanes":0,"name":"불암로","oneway":true},"geometry":{"type":"LineString","coordinates":[[127.11131,37.64989],[127.1118,37.6505],[127.11268,37.65164]]}},{"type":"Feature","properties":{"class":"major","highway":"tertiary_link","sidewalk":"likely","lanes":0,"name":"불암로","oneway":true},"geometry":{"type":"LineString","coordinates":[[127.11037,37.64831],[127.11045,37.64845],[127.11056,37.64869],[127.1107,37.64894],[127.11097,37.64931],[127.11123,37.64962],[127.11143,37.64989],[127.11174,37.65027],[127.11187,37.65044],[127.112,37.6506],[127.11209,37.65072],[127.11221,37.6509],[127.11243,37.65117],[127.11273,37.65156],[127.11281,37.65166],[127.11299,37.65189],[127.11317,37.65211],[127.1135,37.65253],[127.11389,37.65304],[127.11403,37.65324],[127.1142,37.65351],[127.11439,37.65394]]}},{"type":"Feature","properties":{"class":"major","highway":"tertiary_link","sidewalk":"likely","lanes":0,"name":"불암로","oneway":true},"geometry":{"type":"LineString","coordinates":[[127.11425,37.65396],[127.11394,37.65357],[127.11383,37.65345],[127.11371,37.65327],[127.11249,37.65167],[127.1122,37.65132],[127.11188,37.65089],[127.11175,37.65072],[127.11165,37.6506],[127.11148,37.65038],[127.11119,37.65001],[127.11112,37.64993],[127.11093,37.64972],[127.11073,37.64947],[127.11056,37.64924],[127.11041,37.64901],[127.11031,37.64885],[127.11022,37.64849],[127.11019,37.64834]]}},{"type":"Feature","properties":{"class":"major","highway":"tertiary_link","sidewalk":"likely","lanes":0,"name":"불암로","oneway":true},"geometry":{"type":"LineString","coordinates":[[127.11143,37.64989],[127.11144,37.64998],[127.11141,37.65003],[127.11135,37.65006],[127.11128,37.65006],[127.11119,37.65001]]}},{"type":"Feature","properties":{"class":"major","highway":"tertiary_link","sidewalk":"likely","lanes":0,"name":"","oneway":true},"geometry":{"type":"LineString","coordinates":[[127.11249,37.65167],[127.11248,37.65162],[127.1125,37.65157],[127.11254,37.65154],[127.11259,37.65152],[127.11265,37.65153],[127.11273,37.65156]]}},{"type":"Feature","properties":{"class":"minor","highway":"residential","sidewalk":"unknown","lanes":0,"name":"","oneway":false},"geometry":{"type":"LineString","coordinates":[[127.10201,37.65048],[127.10196,37.65066],[127.10194,37.65103],[127.10196,37.6513],[127.10196,37.65151],[127.10205,37.65165],[127.10236,37.65192],[127.10239,37.65196],[127.10272,37.65215],[127.103,37.65226],[127.1032,37.65233],[127.10338,37.65235],[127.10355,37.65228],[127.10381,37.65218],[127.104,37.65214],[127.10433,37.65211],[127.10455,37.65209],[127.1047,37.65201],[127.10498,37.65182],[127.1052,37.65152],[127.10547,37.65122],[127.10561,37.65104],[127.10591,37.65085],[127.10619,37.65071],[127.10638,37.65058],[127.10651,37.65044],[127.1066,37.65034],[127.10673,37.65007],[127.10683,37.64978],[127.10693,37.64964],[127.10705,37.64945]]}},{"type":"Feature","properties":{"class":"minor","highway":"residential","sidewalk":"unknown","lanes":0,"name":"","oneway":false},"geometry":{"type":"LineString","coordinates":[[127.102,37.65608],[127.10214,37.65599],[127.10226,37.65591],[127.10239,37.65584],[127.10252,37.65583],[127.10274,37.65586],[127.10315,37.65596],[127.1033,37.65598],[127.10356,37.65599],[127.10381,37.65587],[127.10395,37.65582],[127.10396,37.65582],[127.10404,37.65577],[127.10416,37.65567],[127.10423,37.6555],[127.10435,37.65521],[127.1045,37.6549],[127.10465,37.65466],[127.10474,37.65442],[127.10485,37.65402],[127.10498,37.6536],[127.10501,37.65351],[127.10506,37.65336],[127.10507,37.65323],[127.10495,37.65293],[127.1048,37.65271],[127.10476,37.65265],[127.10468,37.65256],[127.10463,37.65241],[127.10459,37.65223],[127.10455,37.65209]]}},{"type":"Feature","properties":{"class":"minor","highway":"residential","sidewalk":"unknown","lanes":0,"name":"","oneway":false},"geometry":{"type":"LineString","coordinates":[[127.10246,37.65533],[127.10263,37.6554],[127.10278,37.65539],[127.10312,37.65525],[127.10352,37.65508],[127.10357,37.655],[127.10354,37.6549],[127.10333,37.65451],[127.10315,37.6541],[127.10407,37.65367],[127.1043,37.65354],[127.10441,37.65344],[127.10458,37.65319],[127.10464,37.65305],[127.10467,37.65288],[127.10476,37.65265]]}},{"type":"Feature","properties":{"class":"minor","highway":"residential","sidewalk":"unknown","lanes":0,"name":"","oneway":false},"geometry":{"type":"LineString","coordinates":[[127.09606,37.65638],[127.09594,37.6562],[127.09587,37.65607],[127.09581,37.65599],[127.09582,37.65589],[127.09587,37.65585],[127.09603,37.65587],[127.09619,37.65593],[127.09634,37.65594],[127.09654,37.65579],[127.09661,37.65571],[127.09671,37.65559],[127.0968,37.65557],[127.09683,37.65564],[127.09689,37.65569],[127.097,37.65575],[127.0971,37.65573],[127.09723,37.65567],[127.09735,37.65562],[127.0974,37.65564],[127.09746,37.65568],[127.09748,37.65574],[127.09753,37.65578],[127.09763,37.65576],[127.09784,37.65563],[127.09791,37.65556],[127.09811,37.65549],[127.09825,37.65551],[127.09853,37.65556],[127.09885,37.65558],[127.09897,37.65567],[127.0992,37.65573],[127.0994,37.65576],[127.09953,37.65574],[127.09963,37.65565],[127.0998,37.65557],[127.09991,37.65553],[127.10002,37.65549],[127.10017,37.65549],[127.1004,37.6555],[127.10071,37.65541],[127.10132,37.65541],[127.10152,37.65543],[127.10171,37.65548],[127.10214,37.6555],[127.1024,37.65545],[127.10269,37.65552],[127.1029,37.65558],[127.103,37.65566],[127.10314,37.65575],[127.10334,37.6558],[127.10358,37.65585],[127.10381,37.65587]]}},{"type":"Feature","properties":{"class":"alley","highway":"service","sidewalk":"unknown","lanes":0,"name":"","oneway":false},"geometry":{"type":"LineString","coordinates":[[127.10801,37.64586],[127.10756,37.64575],[127.10732,37.64577],[127.10716,37.64582],[127.10697,37.64604],[127.10689,37.64627],[127.10682,37.64645],[127.10671,37.64655],[127.10656,37.64659],[127.10633,37.64659],[127.10606,37.64657],[127.10551,37.64656],[127.10533,37.64667],[127.10496,37.64691],[127.10444,37.64719]]}},{"type":"Feature","properties":{"class":"alley","highway":"service","sidewalk":"unknown","lanes":0,"name":"","oneway":false},"geometry":{"type":"LineString","coordinates":[[127.10758,37.64981],[127.10782,37.65079],[127.10797,37.65142]]}},{"type":"Feature","properties":{"class":"alley","highway":"service","sidewalk":"unknown","lanes":0,"name":"","oneway":false},"geometry":{"type":"LineString","coordinates":[[127.10797,37.65142],[127.10916,37.65126]]}},{"type":"Feature","properties":{"class":"alley","highway":"service","sidewalk":"unknown","lanes":0,"name":"","oneway":false},"geometry":{"type":"LineString","coordinates":[[127.10797,37.65142],[127.10692,37.6516],[127.10687,37.65163],[127.10683,37.65172],[127.1072,37.65319]]}},{"type":"Feature","properties":{"class":"alley","highway":"service","sidewalk":"unknown","lanes":0,"name":"","oneway":false},"geometry":{"type":"LineString","coordinates":[[127.10516,37.65353],[127.10527,37.65355],[127.106,37.65341],[127.1072,37.65319],[127.10769,37.65314],[127.10859,37.653],[127.10954,37.65284],[127.11015,37.65276],[127.11026,37.65272],[127.11096,37.65259]]}},{"type":"Feature","properties":{"class":"alley","highway":"service","sidewalk":"unknown","lanes":0,"name":"","oneway":false},"geometry":{"type":"LineString","coordinates":[[127.10954,37.65284],[127.10935,37.65208],[127.10925,37.6516],[127.10916,37.65126]]}},{"type":"Feature","properties":{"class":"alley","highway":"service","sidewalk":"unknown","lanes":0,"name":"","oneway":false},"geometry":{"type":"LineString","coordinates":[[127.11096,37.65259],[127.11104,37.65258],[127.1111,37.6526],[127.1112,37.65281],[127.11125,37.65288],[127.11136,37.653],[127.11136,37.65304],[127.11138,37.65317],[127.11134,37.65334]]}},{"type":"Feature","properties":{"class":"alley","highway":"service","sidewalk":"unknown","lanes":0,"name":"","oneway":false},"geometry":{"type":"LineString","coordinates":[[127.11015,37.65276],[127.11024,37.65306],[127.11029,37.65331],[127.11037,37.65368],[127.11044,37.65399],[127.11058,37.65437]]}},{"type":"Feature","properties":{"class":"alley","highway":"service","sidewalk":"unknown","lanes":0,"name":"","oneway":false},"geometry":{"type":"LineString","coordinates":[[127.1072,37.65319],[127.10727,37.65358],[127.10737,37.65391],[127.10778,37.65382],[127.10791,37.65387],[127.10799,37.65393],[127.10804,37.65406],[127.10819,37.6546],[127.10835,37.65525],[127.10837,37.65535],[127.10844,37.65542],[127.10853,37.65548],[127.10862,37.65546],[127.10886,37.65539],[127.10902,37.65527],[127.10906,37.65514],[127.10933,37.65486],[127.10939,37.65474],[127.10929,37.65429],[127.10914,37.65375],[127.1091,37.65359],[127.10918,37.65351],[127.10936,37.65346],[127.11029,37.65331]]}},{"type":"Feature","properties":{"class":"alley","highway":"service","sidewalk":"unknown","lanes":0,"name":"","oneway":false},"geometry":{"type":"LineString","coordinates":[[127.10527,37.65355],[127.10528,37.65375],[127.1053,37.65402],[127.10538,37.65404],[127.10557,37.65406],[127.10564,37.6542],[127.10612,37.65418],[127.10631,37.65416]]}},{"type":"Feature","properties":{"class":"alley","highway":"service","sidewalk":"unknown","lanes":0,"name":"","oneway":false},"geometry":{"type":"LineString","coordinates":[[127.11307,37.64483],[127.11303,37.64484],[127.11301,37.64487],[127.113,37.6449],[127.113,37.64493],[127.11301,37.64495],[127.11303,37.64498],[127.11306,37.645],[127.1131,37.64501],[127.11314,37.645],[127.11318,37.64499],[127.11321,37.64497],[127.11323,37.64494],[127.11323,37.64491],[127.11323,37.64491],[127.11322,37.64488],[127.1132,37.64485],[127.11318,37.64483],[127.11314,37.64482],[127.1131,37.64482],[127.11307,37.64483]]}},{"type":"Feature","properties":{"class":"alley","highway":"service","sidewalk":"unknown","lanes":0,"name":"","oneway":false},"geometry":{"type":"LineString","coordinates":[[127.11306,37.645],[127.11283,37.64531]]}},{"type":"Feature","properties":{"class":"alley","highway":"service","sidewalk":"unknown","lanes":0,"name":"","oneway":false},"geometry":{"type":"LineString","coordinates":[[127.11323,37.64491],[127.11343,37.64485],[127.11359,37.64481],[127.11366,37.64472],[127.11365,37.64453],[127.11375,37.6444],[127.11398,37.64415],[127.11402,37.64411],[127.11407,37.64403],[127.1141,37.64371],[127.11391,37.64353],[127.11377,37.64348],[127.11343,37.64354],[127.11335,37.64363],[127.11332,37.64374],[127.11334,37.64387],[127.1133,37.644],[127.11318,37.64438],[127.1131,37.64467],[127.11308,37.6447],[127.11282,37.64484],[127.11252,37.64479],[127.11247,37.64477],[127.11245,37.64471],[127.1125,37.64462],[127.11261,37.64459],[127.1131,37.64467]]}},{"type":"Feature","properties":{"class":"alley","highway":"service","sidewalk":"unknown","lanes":0,"name":"","oneway":false},"geometry":{"type":"LineString","coordinates":[[127.11318,37.64438],[127.11262,37.64428],[127.11259,37.64435]]}},{"type":"Feature","properties":{"class":"alley","highway":"service","sidewalk":"unknown","lanes":0,"name":"","oneway":false},"geometry":{"type":"LineString","coordinates":[[127.11334,37.64387],[127.11279,37.64379],[127.11274,37.6438],[127.11272,37.64385]]}},{"type":"Feature","properties":{"class":"alley","highway":"service","sidewalk":"unknown","lanes":0,"name":"","oneway":false},"geometry":{"type":"LineString","coordinates":[[127.1133,37.644],[127.11359,37.64392],[127.11356,37.64383]]}},{"type":"Feature","properties":{"class":"alley","highway":"service","sidewalk":"unknown","lanes":0,"name":"","oneway":false},"geometry":{"type":"LineString","coordinates":[[127.1141,37.64371],[127.1148,37.64373],[127.11487,37.64377],[127.11494,37.64393]]}},{"type":"Feature","properties":{"class":"alley","highway":"service","sidewalk":"unknown","lanes":0,"name":"","oneway":false},"geometry":{"type":"LineString","coordinates":[[127.11398,37.64415],[127.11408,37.64422],[127.11458,37.6441]]}},{"type":"Feature","properties":{"class":"alley","highway":"service","sidewalk":"unknown","lanes":0,"name":"","oneway":false},"geometry":{"type":"LineString","coordinates":[[127.11343,37.64485],[127.11352,37.64514],[127.11389,37.64505]]}},{"type":"Feature","properties":{"class":"major","highway":"tertiary","sidewalk":"likely","lanes":6,"name":"별내중앙로","oneway":false},"geometry":{"type":"LineString","coordinates":[[127.11795,37.65136],[127.1178,37.65151],[127.11762,37.65168],[127.11743,37.65184],[127.1173,37.65195],[127.11715,37.65204],[127.11689,37.65218],[127.11649,37.65233],[127.11639,37.65236],[127.11598,37.6525],[127.11518,37.65281],[127.1148,37.65295],[127.11403,37.65324]]}},{"type":"Feature","properties":{"class":"alley","highway":"service","sidewalk":"unknown","lanes":0,"name":"","oneway":false},"geometry":{"type":"LineString","coordinates":[[127.11283,37.64531],[127.11274,37.64545],[127.11265,37.64557],[127.1123,37.64602],[127.11223,37.64606],[127.11216,37.64606],[127.11188,37.64595],[127.11169,37.64588],[127.11152,37.64612],[127.11171,37.6462],[127.11188,37.64595]]}},{"type":"Feature","properties":{"class":"alley","highway":"service","sidewalk":"unknown","lanes":0,"name":"","oneway":false},"geometry":{"type":"LineString","coordinates":[[127.11265,37.64557],[127.11256,37.64554],[127.1123,37.64543],[127.11218,37.64537],[127.11211,37.64534],[127.11205,37.64535]]}},{"type":"Feature","properties":{"class":"alley","highway":"service","sidewalk":"unknown","lanes":0,"name":"","oneway":false},"geometry":{"type":"LineString","coordinates":[[127.1123,37.64543],[127.11214,37.64566],[127.11202,37.64561],[127.11218,37.64537]]}},{"type":"Feature","properties":{"class":"alley","highway":"service","sidewalk":"unknown","lanes":0,"name":"","oneway":false},"geometry":{"type":"LineString","coordinates":[[127.11265,37.64557],[127.11274,37.64559],[127.11301,37.64571],[127.11305,37.64571],[127.11312,37.64568]]}},{"type":"Feature","properties":{"class":"alley","highway":"service","sidewalk":"unknown","lanes":0,"name":"","oneway":false},"geometry":{"type":"LineString","coordinates":[[127.11517,37.64683],[127.11473,37.64721],[127.11464,37.64728],[127.1145,37.64735],[127.11441,37.64739],[127.11429,37.64745],[127.11408,37.64766]]}},{"type":"Feature","properties":{"class":"alley","highway":"service","sidewalk":"unknown","lanes":0,"name":"","oneway":false},"geometry":{"type":"LineString","coordinates":[[127.11429,37.64619],[127.11412,37.64633],[127.11385,37.64646],[127.11374,37.6465],[127.1137,37.64652],[127.11368,37.64653],[127.1134,37.64659],[127.11337,37.64661],[127.1133,37.64664],[127.11319,37.64671],[127.113,37.64687],[127.11286,37.64699]]}},{"type":"Feature","properties":{"class":"alley","highway":"service","sidewalk":"unknown","lanes":0,"name":"","oneway":false},"geometry":{"type":"LineString","coordinates":[[127.11392,37.64754],[127.11378,37.64766],[127.11417,37.64793],[127.1143,37.64782],[127.11408,37.64766],[127.11392,37.64754],[127.1133,37.6471],[127.113,37.64687],[127.11273,37.64668],[127.11268,37.64665]]}},{"type":"Feature","properties":{"class":"alley","highway":"service","sidewalk":"unknown","lanes":0,"name":"","oneway":false},"geometry":{"type":"LineString","coordinates":[[127.1133,37.6471],[127.11317,37.64721],[127.11286,37.64699],[127.1126,37.64681],[127.11273,37.64668]]}},{"type":"Feature","properties":{"class":"alley","highway":"service","sidewalk":"unknown","lanes":0,"name":"","oneway":false},"geometry":{"type":"LineString","coordinates":[[127.11374,37.6465],[127.11473,37.64721],[127.11486,37.6473],[127.11501,37.64741],[127.1151,37.64747]]}},{"type":"Feature","properties":{"class":"alley","highway":"service","sidewalk":"unknown","lanes":0,"name":"","oneway":false},"geometry":{"type":"LineString","coordinates":[[127.11337,37.64661],[127.11332,37.64647],[127.11361,37.6464],[127.11368,37.64644],[127.1137,37.64652]]}},{"type":"Feature","properties":{"class":"major","highway":"tertiary","sidewalk":"likely","lanes":0,"name":"","oneway":false},"geometry":{"type":"LineString","coordinates":[[127.11355,37.6493],[127.11344,37.6492]]}},{"type":"Feature","properties":{"class":"alley","highway":"service","sidewalk":"unknown","lanes":0,"name":"","oneway":false},"geometry":{"type":"LineString","coordinates":[[127.11278,37.64865],[127.11263,37.64877]]}},{"type":"Feature","properties":{"class":"alley","highway":"service","sidewalk":"unknown","lanes":0,"name":"","oneway":false},"geometry":{"type":"LineString","coordinates":[[127.11477,37.6501],[127.11524,37.6498],[127.11492,37.64948],[127.11475,37.64932],[127.11462,37.64919],[127.1145,37.64907],[127.11415,37.6493],[127.11428,37.64942],[127.11462,37.64919]]}},{"type":"Feature","properties":{"class":"alley","highway":"living_street","sidewalk":"unknown","lanes":0,"name":"","oneway":false},"geometry":{"type":"LineString","coordinates":[[127.11582,37.65224],[127.1155,37.65172],[127.11529,37.65137],[127.11506,37.651],[127.11483,37.65076],[127.11444,37.65049],[127.11403,37.6502],[127.11359,37.64991]]}},{"type":"Feature","properties":{"class":"alley","highway":"service","sidewalk":"unknown","lanes":0,"name":"","oneway":false},"geometry":{"type":"LineString","coordinates":[[127.11412,37.65422],[127.11383,37.65434],[127.1137,37.6544],[127.11356,37.65456],[127.11347,37.65461],[127.11323,37.65471]]}},{"type":"Feature","properties":{"class":"minor","highway":"residential","sidewalk":"unknown","lanes":0,"name":"식송1로","oneway":false},"geometry":{"type":"LineString","coordinates":[[127.11422,37.65442],[127.1144,37.65476]]}},{"type":"Feature","properties":{"class":"minor","highway":"residential","sidewalk":"unknown","lanes":0,"name":"식송1로","oneway":false},"geometry":{"type":"LineString","coordinates":[[127.11112,37.64993],[127.11103,37.65006],[127.11101,37.65021],[127.11097,37.65085],[127.11101,37.65106],[127.11108,37.65122],[127.11115,37.65136],[127.11125,37.65152],[127.11166,37.65206],[127.11212,37.65261],[127.11215,37.65266],[127.11231,37.65286],[127.11271,37.65337],[127.11285,37.65344],[127.11301,37.65349],[127.11329,37.65354],[127.11351,37.65358],[127.11367,37.65363],[127.11377,37.65369],[127.11388,37.65378],[127.11397,37.65393],[127.11412,37.65422],[127.11422,37.65442]]}},{"type":"Feature","properties":{"class":"major","highway":"tertiary","sidewalk":"likely","lanes":0,"name":"불암로","oneway":true},"geometry":{"type":"LineString","coordinates":[[127.11268,37.65164],[127.11394,37.65328],[127.11439,37.65394],[127.11449,37.65409],[127.11463,37.65432]]}},{"type":"Feature","properties":{"class":"major","highway":"primary_link","sidewalk":"likely","lanes":0,"name":"","oneway":true},"geometry":{"type":"LineString","coordinates":[[127.11277,37.64173],[127.11261,37.64171],[127.11251,37.64173],[127.11242,37.64175],[127.11236,37.6418],[127.11232,37.64192]]}},{"type":"Feature","properties":{"class":"major","highway":"primary","sidewalk":"likely","lanes":0,"name":"담터지하도로","oneway":true},"geometry":{"type":"LineString","coordinates":[[127.11206,37.64387],[127.1121,37.64362],[127.11214,37.64303],[127.11217,37.64254],[127.11216,37.64226],[127.11214,37.64206]]}},{"type":"Feature","properties":{"class":"major","highway":"primary","sidewalk":"likely","lanes":0,"name":"담터지하도로","oneway":true},"geometry":{"type":"LineString","coordinates":[[127.11224,37.64206],[127.11226,37.64225],[127.11227,37.64255],[127.11225,37.64303],[127.1122,37.64384]]}},{"type":"Feature","properties":{"class":"major","highway":"primary","sidewalk":"likely","lanes":2,"name":"담터지하도로","oneway":true},"geometry":{"type":"LineString","coordinates":[[127.11135,37.64084],[127.11003,37.63977],[127.10941,37.63935]]}},{"type":"Feature","properties":{"class":"major","highway":"primary","sidewalk":"likely","lanes":2,"name":"담터지하도로","oneway":true},"geometry":{"type":"LineString","coordinates":[[127.10951,37.63927],[127.11144,37.64077]]}},{"type":"Feature","properties":{"class":"major","highway":"primary","sidewalk":"likely","lanes":0,"name":"담터지하도로","oneway":true},"geometry":{"type":"LineString","coordinates":[[127.11214,37.64206],[127.1121,37.64184],[127.11199,37.64155],[127.11181,37.64126],[127.11161,37.64105],[127.11135,37.64084]]}},{"type":"Feature","properties":{"class":"major","highway":"primary","sidewalk":"likely","lanes":0,"name":"담터지하도로","oneway":true},"geometry":{"type":"LineString","coordinates":[[127.11144,37.64077],[127.11171,37.64098],[127.11189,37.64121],[127.11208,37.64151],[127.11219,37.64181],[127.11224,37.64206]]}},{"type":"Feature","properties":{"class":"major","highway":"tertiary","sidewalk":"likely","lanes":4,"name":"별내5로","oneway":true},"geometry":{"type":"LineString","coordinates":[[127.11699,37.65374],[127.11697,37.65351],[127.11692,37.65331],[127.11685,37.65314],[127.11659,37.65265],[127.11639,37.65236],[127.11624,37.6521],[127.11557,37.65095],[127.11544,37.65078],[127.11535,37.65068],[127.11468,37.65019],[127.11391,37.64966],[127.11387,37.64963],[127.11378,37.64949]]}},{"type":"Feature","properties":{"class":"major","highway":"primary_link","sidewalk":"likely","lanes":2,"name":"화랑로","oneway":true},"geometry":{"type":"LineString","coordinates":[[127.11223,37.6415],[127.11216,37.64146],[127.11167,37.64119],[127.11153,37.64109],[127.11149,37.64107]]}},{"type":"Feature","properties":{"class":"major","highway":"primary_link","sidewalk":"likely","lanes":2,"name":"화랑로","oneway":true},"geometry":{"type":"LineString","coordinates":[[127.10951,37.63927],[127.10982,37.63946],[127.11024,37.63972],[127.11118,37.64043],[127.1115,37.64068],[127.11169,37.64084],[127.11181,37.64094],[127.11224,37.64134]]}},{"type":"Feature","properties":{"class":"major","highway":"tertiary_link","sidewalk":"likely","lanes":0,"name":"","oneway":true},"geometry":{"type":"LineString","coordinates":[[127.11188,37.65089],[127.11186,37.65084],[127.11186,37.65079],[127.11188,37.65075],[127.11192,37.65072],[127.11198,37.6507],[127.11204,37.65071],[127.11209,37.65072]]}},{"type":"Feature","properties":{"class":"major","highway":"tertiary","sidewalk":"likely","lanes":0,"name":"불암로","oneway":true},"geometry":{"type":"LineString","coordinates":[[127.11462,37.65465],[127.11447,37.65437]]}},{"type":"Feature","properties":{"class":"major","highway":"tertiary","sidewalk":"likely","lanes":0,"name":"불암로","oneway":true},"geometry":{"type":"LineString","coordinates":[[127.11447,37.65437],[127.11425,37.65396],[127.11384,37.65331],[127.11261,37.65169]]}},{"type":"Feature","properties":{"class":"major","highway":"tertiary","sidewalk":"likely","lanes":0,"name":"불암로","oneway":true},"geometry":{"type":"LineString","coordinates":[[127.11261,37.65169],[127.11172,37.65054],[127.11123,37.64992]]}},{"type":"Feature","properties":{"class":"major","highway":"tertiary","sidewalk":"likely","lanes":0,"name":"불암로","oneway":true},"geometry":{"type":"LineString","coordinates":[[127.11123,37.64992],[127.11091,37.64951],[127.11068,37.64922],[127.11055,37.649],[127.11034,37.64868],[127.11019,37.64834],[127.11019,37.64831]]}},{"type":"Feature","properties":{"class":"major","highway":"tertiary","sidewalk":"likely","lanes":0,"name":"불암로","oneway":true},"geometry":{"type":"LineString","coordinates":[[127.11019,37.64831],[127.11013,37.64796]]}},{"type":"Feature","properties":{"class":"major","highway":"tertiary","sidewalk":"likely","lanes":0,"name":"불암로","oneway":true},"geometry":{"type":"LineString","coordinates":[[127.11013,37.64796],[127.11012,37.6476],[127.11019,37.64718],[127.1103,37.64685],[127.11045,37.64655],[127.11075,37.64605],[127.11098,37.64576],[127.11108,37.64563],[127.11114,37.64555],[127.11148,37.6451],[127.1116,37.64494]]}},{"type":"Feature","properties":{"class":"major","highway":"tertiary","sidewalk":"likely","lanes":0,"name":"불암로","oneway":true},"geometry":{"type":"LineString","coordinates":[[127.11036,37.64828],[127.11037,37.64831],[127.11039,37.64845],[127.11048,37.64872],[127.11062,37.64897],[127.1109,37.64935],[127.11116,37.64967],[127.11126,37.64981],[127.11131,37.64989]]}},{"type":"Feature","properties":{"class":"major","highway":"tertiary","sidewalk":"likely","lanes":0,"name":"불암로","oneway":true},"geometry":{"type":"LineString","coordinates":[[127.1103,37.64791],[127.11035,37.64823],[127.11036,37.64828]]}},{"type":"Feature","properties":{"class":"major","highway":"tertiary","sidewalk":"likely","lanes":8,"name":"순화궁로","oneway":false},"geometry":{"type":"LineString","coordinates":[[127.11165,37.6506],[127.11187,37.65044],[127.11194,37.6504]]}},{"type":"Feature","properties":{"class":"alley","highway":"service","sidewalk":"unknown","lanes":0,"name":"","oneway":false},"geometry":{"type":"LineString","coordinates":[[127.11258,37.65746],[127.11257,37.6577]]}},{"type":"Feature","properties":{"class":"minor","highway":"residential","sidewalk":"unknown","lanes":0,"name":"","oneway":false},"geometry":{"type":"LineString","coordinates":[[127.11454,37.6552],[127.11411,37.65527]]}},{"type":"Feature","properties":{"class":"minor","highway":"residential","sidewalk":"unknown","lanes":0,"name":"","oneway":false},"geometry":{"type":"LineString","coordinates":[[127.1136,37.65698],[127.11371,37.65738],[127.11375,37.6576]]}},{"type":"Feature","properties":{"class":"minor","highway":"residential","sidewalk":"unknown","lanes":0,"name":"","oneway":false},"geometry":{"type":"LineString","coordinates":[[127.11399,37.65691],[127.1136,37.65698],[127.11331,37.65704],[127.11231,37.65706],[127.11225,37.65709],[127.11225,37.65743],[127.11229,37.65746],[127.11258,37.65746],[127.11323,37.65745],[127.11371,37.65738]]}},{"type":"Feature","properties":{"class":"minor","highway":"residential","sidewalk":"unknown","lanes":0,"name":"","oneway":false},"geometry":{"type":"LineString","coordinates":[[127.11423,37.65768],[127.11463,37.65761],[127.11503,37.65753],[127.11531,37.65748]]}},{"type":"Feature","properties":{"class":"major","highway":"primary_link","sidewalk":"likely","lanes":0,"name":"","oneway":true},"geometry":{"type":"LineString","coordinates":[[127.11207,37.64209],[127.112,37.64174],[127.11192,37.6415],[127.11155,37.64113],[127.11149,37.64107]]}},{"type":"Feature","properties":{"class":"major","highway":"primary_link","sidewalk":"likely","lanes":0,"name":"","oneway":true},"geometry":{"type":"LineString","coordinates":[[127.11207,37.64209],[127.11207,37.64199],[127.1121,37.64193],[127.11217,37.6419],[127.11225,37.6419],[127.11229,37.64193],[127.11233,37.64203]]}},{"type":"Feature","properties":{"class":"major","highway":"primary_link","sidewalk":"likely","lanes":0,"name":"","oneway":true},"geometry":{"type":"LineString","coordinates":[[127.11169,37.64084],[127.11167,37.64098],[127.11163,37.64104],[127.11153,37.64109]]}},{"type":"Feature","properties":{"class":"major","highway":"tertiary","sidewalk":"likely","lanes":3,"name":"순화궁로","oneway":true},"geometry":{"type":"LineString","coordinates":[[127.11355,37.6493],[127.11338,37.64941],[127.11218,37.65028],[127.112,37.65036],[127.11194,37.6504]]}},{"type":"Feature","properties":{"class":"major","highway":"tertiary","sidewalk":"likely","lanes":4,"name":"별내5로","oneway":false},"geometry":{"type":"LineString","coordinates":[[127.11355,37.6493],[127.11366,37.64939],[127.11378,37.64949]]}},{"type":"Feature","properties":{"class":"major","highway":"tertiary","sidewalk":"likely","lanes":3,"name":"순화궁로","oneway":true},"geometry":{"type":"LineString","coordinates":[[127.11344,37.6492],[127.11359,37.64908],[127.11537,37.64777],[127.11578,37.64746],[127.11592,37.64735]]}},{"type":"Feature","properties":{"class":"alley","highway":"service","sidewalk":"unknown","lanes":0,"name":"","oneway":false},"geometry":{"type":"LineString","coordinates":[[127.11344,37.6492],[127.11335,37.64913],[127.11278,37.64865],[127.1127,37.64858]]}},{"type":"Feature","properties":{"class":"major","highway":"tertiary","sidewalk":"likely","lanes":3,"name":"순화궁로","oneway":true},"geometry":{"type":"LineString","coordinates":[[127.11605,37.64744],[127.11591,37.64755],[127.11549,37.64785],[127.11371,37.64917],[127.11355,37.6493]]}},{"type":"Feature","properties":{"class":"major","highway":"primary_link","sidewalk":"likely","lanes":0,"name":"불암로","oneway":true},"geometry":{"type":"LineString","coordinates":[[127.11206,37.64387],[127.11204,37.64368],[127.11204,37.64341],[127.11206,37.64307],[127.11206,37.64302],[127.11208,37.64255],[127.11207,37.64209]]}},{"type":"Feature","properties":{"class":"minor","highway":"residential","sidewalk":"unknown","lanes":0,"name":"","oneway":false},"geometry":{"type":"LineString","coordinates":[[127.1116,37.64494],[127.11144,37.64483],[127.11077,37.64446],[127.11004,37.64411],[127.10976,37.644],[127.10931,37.64382],[127.10905,37.64371],[127.10781,37.64317]]}},{"type":"Feature","properties":{"class":"major","highway":"tertiary","sidewalk":"likely","lanes":0,"name":"불암로","oneway":true},"geometry":{"type":"LineString","coordinates":[[127.11174,37.64503],[127.11128,37.64561]]}},{"type":"Feature","properties":{"class":"major","highway":"primary_link","sidewalk":"likely","lanes":0,"name":"불암로","oneway":true},"geometry":{"type":"LineString","coordinates":[[127.11207,37.64209],[127.11206,37.64201],[127.11208,37.64189],[127.11211,37.6417],[127.11215,37.64153],[127.11216,37.64146],[127.11224,37.64134]]}},{"type":"Feature","properties":{"class":"major","highway":"tertiary","sidewalk":"likely","lanes":0,"name":"불암로","oneway":true},"geometry":{"type":"LineString","coordinates":[[127.1122,37.64384],[127.11212,37.64413],[127.11201,37.64449],[127.11188,37.64475],[127.11174,37.64503]]}},{"type":"Feature","properties":{"class":"major","highway":"tertiary","sidewalk":"likely","lanes":0,"name":"불암로","oneway":true},"geometry":{"type":"LineString","coordinates":[[127.1116,37.64494],[127.1117,37.64477],[127.11186,37.64446],[127.11201,37.64405],[127.11206,37.64387]]}},{"type":"Feature","properties":{"class":"major","highway":"primary_link","sidewalk":"likely","lanes":2,"name":"화랑로","oneway":true},"geometry":{"type":"LineString","coordinates":[[127.11149,37.64107],[127.11123,37.64088],[127.11,37.63989],[127.10979,37.63968],[127.10941,37.63935]]}},{"type":"Feature","properties":{"class":"alley","highway":"service","sidewalk":"unknown","lanes":0,"name":"","oneway":false},"geometry":{"type":"LineString","coordinates":[[127.10834,37.64237],[127.10869,37.64258]]}},{"type":"Feature","properties":{"class":"alley","highway":"service","sidewalk":"unknown","lanes":0,"name":"","oneway":false},"geometry":{"type":"LineString","coordinates":[[127.10526,37.64402],[127.10501,37.64453],[127.10506,37.64455]]}},{"type":"Feature","properties":{"class":"alley","highway":"service","sidewalk":"unknown","lanes":0,"name":"","oneway":false},"geometry":{"type":"LineString","coordinates":[[127.10737,37.63982],[127.10805,37.64035],[127.1081,37.64038],[127.10818,37.6404],[127.1089,37.64045],[127.10898,37.64047],[127.10903,37.64051],[127.10912,37.64071]]}},{"type":"Feature","properties":{"class":"alley","highway":"service","sidewalk":"unknown","lanes":0,"name":"","oneway":false},"geometry":{"type":"LineString","coordinates":[[127.1078,37.64078],[127.10795,37.6408]]}},{"type":"Feature","properties":{"class":"alley","highway":"service","sidewalk":"unknown","lanes":0,"name":"","oneway":false},"geometry":{"type":"LineString","coordinates":[[127.10798,37.6406],[127.10784,37.64058],[127.1078,37.64078],[127.10778,37.64087]]}},{"type":"Feature","properties":{"class":"alley","highway":"service","sidewalk":"unknown","lanes":0,"name":"","oneway":false},"geometry":{"type":"LineString","coordinates":[[127.10798,37.64064],[127.10854,37.64067],[127.10912,37.64071]]}},{"type":"Feature","properties":{"class":"alley","highway":"service","sidewalk":"unknown","lanes":0,"name":"","oneway":false},"geometry":{"type":"LineString","coordinates":[[127.1085,37.64088],[127.10852,37.64077],[127.10854,37.64067]]}},{"type":"Feature","properties":{"class":"alley","highway":"service","sidewalk":"unknown","lanes":0,"name":"","oneway":false},"geometry":{"type":"LineString","coordinates":[[127.10843,37.64092],[127.10795,37.64088]]}},{"type":"Feature","properties":{"class":"alley","highway":"service","sidewalk":"unknown","lanes":0,"name":"","oneway":false},"geometry":{"type":"LineString","coordinates":[[127.10843,37.64092],[127.10843,37.6409],[127.10845,37.64089],[127.10848,37.64088],[127.1085,37.64088],[127.10853,37.64088],[127.10855,37.6409],[127.10856,37.64091],[127.10856,37.64094],[127.10855,37.64096],[127.10854,37.64097],[127.10851,37.64098],[127.10849,37.64098],[127.10846,37.64098],[127.10844,37.64096],[127.10843,37.64094],[127.10843,37.64092]]}},{"type":"Feature","properties":{"class":"alley","highway":"service","sidewalk":"unknown","lanes":0,"name":"","oneway":false},"geometry":{"type":"LineString","coordinates":[[127.10877,37.64096],[127.10856,37.64094]]}},{"type":"Feature","properties":{"class":"alley","highway":"service","sidewalk":"unknown","lanes":0,"name":"","oneway":false},"geometry":{"type":"LineString","coordinates":[[127.10888,37.64147],[127.10892,37.64117],[127.10882,37.64111],[127.10877,37.64106],[127.10877,37.64096],[127.10879,37.64079],[127.10852,37.64077],[127.10796,37.64074]]}},{"type":"Feature","properties":{"class":"alley","highway":"service","sidewalk":"unknown","lanes":0,"name":"","oneway":false},"geometry":{"type":"LineString","coordinates":[[127.10706,37.64051],[127.10702,37.6406]]}},{"type":"Feature","properties":{"class":"alley","highway":"service","sidewalk":"unknown","lanes":0,"name":"","oneway":false},"geometry":{"type":"LineString","coordinates":[[127.10678,37.64038],[127.10706,37.64051],[127.10719,37.6404],[127.1073,37.64034],[127.10746,37.64033],[127.10779,37.64036],[127.10792,37.64038],[127.108,37.64044],[127.10798,37.6406],[127.10798,37.64064],[127.10796,37.64074],[127.10795,37.6408],[127.10795,37.64088],[127.10794,37.64095]]}},{"type":"Feature","properties":{"class":"alley","highway":"service","sidewalk":"unknown","lanes":0,"name":"","oneway":true},"geometry":{"type":"LineString","coordinates":[[127.10578,37.64212],[127.10574,37.64212],[127.1057,37.64212],[127.10566,37.6421],[127.10564,37.64208],[127.10562,37.64205],[127.10562,37.64202],[127.10562,37.64199],[127.10564,37.64196],[127.10567,37.64194],[127.10571,37.64193],[127.10575,37.64193],[127.10578,37.64193],[127.10582,37.64195],[127.10585,37.64197],[127.10586,37.642],[127.10587,37.64203],[127.10586,37.64206],[127.10584,37.64209],[127.10581,37.64211],[127.10578,37.64212]]}},{"type":"Feature","properties":{"class":"alley","highway":"service","sidewalk":"unknown","lanes":0,"name":"","oneway":true},"geometry":{"type":"LineString","coordinates":[[127.10773,37.64304],[127.10776,37.64305],[127.10779,37.64307],[127.10781,37.64309],[127.10782,37.64312],[127.10782,37.64314],[127.10781,37.64317],[127.10779,37.64319],[127.10776,37.64321],[127.10773,37.64322],[127.10769,37.64321],[127.10766,37.64321],[127.10763,37.64319],[127.10761,37.64317],[127.1076,37.64314],[127.1076,37.64311],[127.10761,37.64309],[127.10763,37.64306],[127.10766,37.64305],[127.1077,37.64304],[127.10773,37.64304]]}},{"type":"Feature","properties":{"class":"alley","highway":"service","sidewalk":"unknown","lanes":0,"name":"","oneway":false},"geometry":{"type":"LineString","coordinates":[[127.10672,37.64206],[127.10605,37.64192],[127.10608,37.64182],[127.10681,37.64196]]}},{"type":"Feature","properties":{"class":"alley","highway":"service","sidewalk":"unknown","lanes":0,"name":"","oneway":false},"geometry":{"type":"LineString","coordinates":[[127.10489,37.64398],[127.1049,37.64389]]}},{"type":"Feature","properties":{"class":"alley","highway":"service","sidewalk":"unknown","lanes":0,"name":"","oneway":false},"geometry":{"type":"LineString","coordinates":[[127.10547,37.64361],[127.10554,37.64343],[127.10569,37.64346]]}},{"type":"Feature","properties":{"class":"alley","highway":"service","sidewalk":"unknown","lanes":0,"name":"","oneway":false},"geometry":{"type":"LineString","coordinates":[[127.10469,37.64205],[127.10475,37.64196],[127.10513,37.64203],[127.10584,37.64181]]}},{"type":"Feature","properties":{"class":"alley","highway":"service","sidewalk":"unknown","lanes":0,"name":"","oneway":false},"geometry":{"type":"LineString","coordinates":[[127.10562,37.64205],[127.10527,37.6422],[127.10518,37.64221],[127.10508,37.6422],[127.10469,37.64205],[127.10455,37.64203]]}},{"type":"Feature","properties":{"class":"alley","highway":"service","sidewalk":"unknown","lanes":0,"name":"","oneway":false},"geometry":{"type":"LineString","coordinates":[[127.10604,37.64361],[127.10663,37.64377]]}},{"type":"Feature","properties":{"class":"alley","highway":"service","sidewalk":"unknown","lanes":0,"name":"","oneway":false},"geometry":{"type":"LineString","coordinates":[[127.10608,37.64354],[127.10614,37.64342],[127.10643,37.6435],[127.10672,37.64359],[127.10663,37.64377],[127.10645,37.64415]]}},{"type":"Feature","properties":{"class":"alley","highway":"service","sidewalk":"unknown","lanes":0,"name":"","oneway":false},"geometry":{"type":"LineString","coordinates":[[127.10596,37.6435],[127.10608,37.64354],[127.10604,37.64361],[127.10596,37.64375]]}},{"type":"Feature","properties":{"class":"alley","highway":"service","sidewalk":"unknown","lanes":0,"name":"","oneway":false},"geometry":{"type":"LineString","coordinates":[[127.11021,37.64166],[127.11039,37.64131]]}},{"type":"Feature","properties":{"class":"alley","highway":"service","sidewalk":"unknown","lanes":0,"name":"","oneway":false},"geometry":{"type":"LineString","coordinates":[[127.10842,37.64224],[127.10872,37.64154],[127.10879,37.6415],[127.10888,37.64147],[127.10978,37.64154],[127.11021,37.64166],[127.11067,37.6418],[127.11083,37.64149],[127.11122,37.64159],[127.111,37.64218]]}},{"type":"Feature","properties":{"class":"alley","highway":"service","sidewalk":"unknown","lanes":0,"name":"","oneway":false},"geometry":{"type":"LineString","coordinates":[[127.10586,37.64206],[127.1065,37.6423],[127.10672,37.64206],[127.10681,37.64196],[127.10687,37.64192],[127.10698,37.64191],[127.10842,37.64224],[127.10834,37.64237],[127.10829,37.64245],[127.10773,37.64304]]}},{"type":"Feature","properties":{"class":"alley","highway":"service","sidewalk":"unknown","lanes":0,"name":"","oneway":false},"geometry":{"type":"LineString","coordinates":[[127.10578,37.64212],[127.10614,37.64263],[127.10615,37.64265]]}},{"type":"Feature","properties":{"class":"alley","highway":"service","sidewalk":"unknown","lanes":0,"name":"","oneway":false},"geometry":{"type":"LineString","coordinates":[[127.10579,37.64356],[127.10574,37.64364]]}},{"type":"Feature","properties":{"class":"alley","highway":"service","sidewalk":"unknown","lanes":0,"name":"","oneway":true},"geometry":{"type":"LineString","coordinates":[[127.10596,37.6435],[127.10594,37.64353],[127.10591,37.64355],[127.10587,37.64356],[127.10583,37.64356],[127.10579,37.64356],[127.10575,37.64354],[127.10572,37.64352],[127.1057,37.6435],[127.10569,37.64346],[127.10569,37.64343],[127.10571,37.6434],[127.10573,37.64338],[127.10576,37.64336],[127.1058,37.64334],[127.10584,37.64334],[127.10588,37.64335],[127.10592,37.64336],[127.10594,37.64338],[127.10596,37.64341],[127.10597,37.64344],[127.10597,37.64347],[127.10596,37.6435]]}},{"type":"Feature","properties":{"class":"alley","highway":"service","sidewalk":"unknown","lanes":0,"name":"","oneway":false},"geometry":{"type":"LineString","coordinates":[[127.10761,37.64317],[127.10754,37.64319],[127.1073,37.64378],[127.10734,37.64383],[127.10748,37.64386],[127.10752,37.64389],[127.10753,37.64393],[127.10747,37.6441],[127.1074,37.64419],[127.10728,37.64428],[127.10718,37.64435],[127.10712,37.64437],[127.10704,37.64436],[127.10682,37.64431],[127.10668,37.64425],[127.10659,37.64421],[127.10648,37.64416],[127.10645,37.64415],[127.10609,37.644],[127.10603,37.64395],[127.106,37.64389],[127.10596,37.64375],[127.10594,37.64371],[127.10588,37.64369],[127.10574,37.64364],[127.10555,37.64359],[127.10547,37.64361],[127.10534,37.64362],[127.10526,37.64402],[127.10489,37.64398],[127.10355,37.64382],[127.10336,37.64372],[127.10322,37.6436],[127.1031,37.64341],[127.10314,37.64286],[127.10313,37.64255],[127.10313,37.64251],[127.10316,37.64237],[127.10328,37.64214],[127.10353,37.64201],[127.10384,37.64193],[127.1043,37.64196],[127.10455,37.64203],[127.10466,37.64211],[127.1051,37.64227],[127.1052,37.64229],[127.1053,37.64228],[127.10566,37.6421]]}},{"type":"Feature","properties":{"class":"alley","highway":"service","sidewalk":"unknown","lanes":0,"name":"","oneway":false},"geometry":{"type":"LineString","coordinates":[[127.09843,37.65904],[127.09865,37.65897],[127.09881,37.65892],[127.099,37.65883],[127.09905,37.65881],[127.09926,37.65873],[127.09944,37.65874],[127.09964,37.65874],[127.09991,37.65873],[127.10035,37.65859],[127.1006,37.65856],[127.10075,37.65852],[127.1008,37.65852],[127.10099,37.65851],[127.10115,37.65854]]}},{"type":"Feature","properties":{"class":"alley","highway":"service","sidewalk":"unknown","lanes":0,"name":"","oneway":false},"geometry":{"type":"LineString","coordinates":[[127.102,37.65608],[127.10174,37.65636],[127.10156,37.65654],[127.1015,37.65688],[127.10151,37.65722],[127.10167,37.65765],[127.10172,37.6579],[127.10166,37.65807],[127.10133,37.65837],[127.10122,37.65847],[127.10115,37.65854],[127.10115,37.65867],[127.101,37.65877],[127.10085,37.6589],[127.10054,37.65896],[127.10051,37.65895],[127.10042,37.65894]]}},{"type":"Feature","properties":{"class":"minor","highway":"unclassified","sidewalk":"unknown","lanes":0,"name":"","oneway":false},"geometry":{"type":"LineString","coordinates":[[127.10068,37.65436],[127.10084,37.65412],[127.10093,37.65393],[127.10098,37.6537],[127.101,37.65359],[127.10106,37.65352],[127.10125,37.65339],[127.10136,37.65324],[127.10161,37.65286],[127.10163,37.65268],[127.10172,37.6523],[127.1017,37.65205],[127.10161,37.65189],[127.10178,37.65184],[127.10195,37.65184],[127.1021,37.65186],[127.10236,37.65192]]}},{"type":"Feature","properties":{"class":"minor","highway":"unclassified","sidewalk":"unknown","lanes":0,"name":"","oneway":false},"geometry":{"type":"LineString","coordinates":[[127.1028,37.64796],[127.10239,37.64794],[127.10214,37.64786],[127.10196,37.64787],[127.10177,37.64792],[127.10156,37.64798],[127.1014,37.64799],[127.10125,37.64795],[127.10103,37.64763],[127.10057,37.64774]]}},{"type":"Feature","properties":{"class":"minor","highway":"unclassified","sidewalk":"unknown","lanes":0,"name":"","oneway":false},"geometry":{"type":"LineString","coordinates":[[127.10799,37.64763],[127.10772,37.64757],[127.1071,37.64744],[127.10689,37.64743],[127.10674,37.64748],[127.10642,37.64774],[127.1063,37.64792],[127.10521,37.64825],[127.10452,37.64846],[127.10438,37.64849],[127.10409,37.64866],[127.10379,37.64877],[127.10359,37.64877],[127.10355,37.64876],[127.10349,37.64879],[127.10329,37.64865],[127.10319,37.64855],[127.10313,37.64844],[127.10307,37.64823],[127.10301,37.64806],[127.10294,37.64798],[127.1029,37.64797],[127.1028,37.64796]]}},{"type":"Feature","properties":{"class":"minor","highway":"residential","sidewalk":"unknown","lanes":0,"name":"","oneway":false},"geometry":{"type":"LineString","coordinates":[[127.10385,37.65677],[127.10387,37.65688],[127.10401,37.65712],[127.10416,37.65731],[127.10424,37.6574]]}},{"type":"Feature","properties":{"class":"minor","highway":"residential","sidewalk":"unknown","lanes":0,"name":"","oneway":false},"geometry":{"type":"LineString","coordinates":[[127.10385,37.65677],[127.10388,37.65662],[127.10401,37.65632],[127.10405,37.65622],[127.10406,37.65611],[127.10406,37.65602],[127.10404,37.65594],[127.10396,37.65582]]}},{"type":"Feature","properties":{"class":"minor","highway":"residential","sidewalk":"unknown","lanes":0,"name":"","oneway":true},"geometry":{"type":"LineString","coordinates":[[127.11075,37.64553],[127.11148,37.6451]]}},{"type":"Feature","properties":{"class":"alley","highway":"service","sidewalk":"unknown","lanes":0,"name":"","oneway":true},"geometry":{"type":"LineString","coordinates":[[127.10801,37.64586],[127.10815,37.64587],[127.10837,37.64598],[127.10871,37.6463]]}},{"type":"Feature","properties":{"class":"alley","highway":"service","sidewalk":"unknown","lanes":0,"name":"","oneway":true},"geometry":{"type":"LineString","coordinates":[[127.10871,37.6463],[127.10841,37.64612],[127.10801,37.64586]]}},{"type":"Feature","properties":{"class":"alley","highway":"service","sidewalk":"unknown","lanes":0,"name":"","oneway":false},"geometry":{"type":"LineString","coordinates":[[127.10905,37.64647],[127.10894,37.64644],[127.10871,37.6463]]}},{"type":"Feature","properties":{"class":"minor","highway":"residential","sidewalk":"unknown","lanes":0,"name":"","oneway":true},"geometry":{"type":"LineString","coordinates":[[127.11098,37.64576],[127.11098,37.64566],[127.11095,37.64561],[127.11091,37.64555],[127.11083,37.64553],[127.11075,37.64553]]}},{"type":"Feature","properties":{"class":"minor","highway":"residential","sidewalk":"unknown","lanes":0,"name":"","oneway":false},"geometry":{"type":"LineString","coordinates":[[127.11004,37.64411],[127.11029,37.64376],[127.11054,37.64344],[127.11141,37.6436],[127.11204,37.64368]]}},{"type":"Feature","properties":{"class":"minor","highway":"residential","sidewalk":"unknown","lanes":0,"name":"","oneway":false},"geometry":{"type":"LineString","coordinates":[[127.11029,37.64376],[127.11113,37.64401],[127.11176,37.64425]]}},{"type":"Feature","properties":{"class":"minor","highway":"residential","sidewalk":"unknown","lanes":0,"name":"","oneway":false},"geometry":{"type":"LineString","coordinates":[[127.11077,37.64446],[127.11113,37.64401],[127.11141,37.6436]]}},{"type":"Feature","properties":{"class":"alley","highway":"service","sidewalk":"unknown","lanes":0,"name":"","oneway":false},"geometry":{"type":"LineString","coordinates":[[127.10606,37.64657],[127.10552,37.64599],[127.10504,37.64567],[127.10424,37.64536],[127.10354,37.64664]]}},{"type":"Feature","properties":{"class":"alley","highway":"service","sidewalk":"unknown","lanes":0,"name":"","oneway":false},"geometry":{"type":"LineString","coordinates":[[127.10801,37.64586],[127.10837,37.64518]]}},{"type":"Feature","properties":{"class":"alley","highway":"service","sidewalk":"unknown","lanes":0,"name":"","oneway":false},"geometry":{"type":"LineString","coordinates":[[127.10716,37.64582],[127.10644,37.64547],[127.10563,37.64597]]}},{"type":"Feature","properties":{"class":"minor","highway":"residential","sidewalk":"unknown","lanes":0,"name":"","oneway":false},"geometry":{"type":"LineString","coordinates":[[127.10349,37.64879],[127.10329,37.64893],[127.10318,37.64902],[127.1032,37.64918],[127.10329,37.64923],[127.10353,37.64919],[127.10433,37.64924],[127.10457,37.64921],[127.10471,37.64924],[127.10496,37.64933],[127.10533,37.64931],[127.10571,37.64932],[127.10631,37.64949],[127.10644,37.64949],[127.10665,37.6494],[127.107,37.64939]]}},{"type":"Feature","properties":{"class":"minor","highway":"residential","sidewalk":"unknown","lanes":0,"name":"","oneway":false},"geometry":{"type":"LineString","coordinates":[[127.10665,37.6494],[127.10631,37.64903],[127.10609,37.64893],[127.10566,37.64888],[127.10521,37.64868],[127.10495,37.64853],[127.10438,37.64849]]}},{"type":"Feature","properties":{"class":"minor","highway":"residential","sidewalk":"unknown","lanes":0,"name":"","oneway":false},"geometry":{"type":"LineString","coordinates":[[127.1032,37.64918],[127.10258,37.64958],[127.10213,37.64981]]}},{"type":"Feature","properties":{"class":"alley","highway":"service","sidewalk":"unknown","lanes":0,"name":"","oneway":false},"geometry":{"type":"LineString","coordinates":[[127.10506,37.65351],[127.10516,37.65353]]}},{"type":"Feature","properties":{"class":"alley","highway":"service","sidewalk":"unknown","lanes":0,"name":"","oneway":false},"geometry":{"type":"LineString","coordinates":[[127.10501,37.65351],[127.10506,37.65351]]}},{"type":"Feature","properties":{"class":"minor","highway":"residential","sidewalk":"unknown","lanes":4,"name":"","oneway":false},"geometry":{"type":"LineString","coordinates":[[127.11356,37.64566],[127.11378,37.64582]]}},{"type":"Feature","properties":{"class":"alley","highway":"service","sidewalk":"unknown","lanes":0,"name":"","oneway":false},"geometry":{"type":"LineString","coordinates":[[127.11023,37.64811],[127.11017,37.64772]]}},{"type":"Feature","properties":{"class":"alley","highway":"service","sidewalk":"unknown","lanes":0,"name":"","oneway":false},"geometry":{"type":"LineString","coordinates":[[127.11017,37.64772],[127.11026,37.64716],[127.11047,37.64663],[127.1108,37.64614],[127.11113,37.64568],[127.11108,37.64563],[127.11091,37.64549]]}},{"type":"Feature","properties":{"class":"minor","highway":"residential","sidewalk":"unknown","lanes":0,"name":"","oneway":false},"geometry":{"type":"LineString","coordinates":[[127.10183,37.64923],[127.1027,37.64899],[127.10318,37.64902]]}},{"type":"Feature","properties":{"class":"alley","highway":"service","sidewalk":"unknown","lanes":0,"name":"","oneway":true},"geometry":{"type":"LineString","coordinates":[[127.10584,37.64334],[127.10588,37.64324],[127.10598,37.64303],[127.10615,37.64265]]}},{"type":"Feature","properties":{"class":"alley","highway":"service","sidewalk":"unknown","lanes":0,"name":"","oneway":true},"geometry":{"type":"LineString","coordinates":[[127.1062,37.64272],[127.10605,37.64305],[127.10596,37.64326],[127.10592,37.64336]]}},{"type":"Feature","properties":{"class":"alley","highway":"service","sidewalk":"unknown","lanes":0,"name":"","oneway":false},"geometry":{"type":"LineString","coordinates":[[127.1065,37.6423],[127.10682,37.64245],[127.10664,37.64282]]}},{"type":"Feature","properties":{"class":"alley","highway":"service","sidewalk":"unknown","lanes":2,"name":"","oneway":false},"geometry":{"type":"LineString","coordinates":[[127.10744,37.63954],[127.10743,37.63958],[127.10741,37.6397],[127.10739,37.63976],[127.10737,37.63982],[127.10724,37.63999],[127.10705,37.64018],[127.10678,37.64038],[127.10674,37.64042],[127.10669,37.64047],[127.10667,37.64051],[127.1065,37.64079],[127.10611,37.64137],[127.10587,37.64175],[127.10584,37.64181],[127.10578,37.64193]]}},{"type":"Feature","properties":{"class":"alley","highway":"service","sidewalk":"unknown","lanes":0,"name":"","oneway":false},"geometry":{"type":"LineString","coordinates":[[127.10615,37.64265],[127.1062,37.64272]]}},{"type":"Feature","properties":{"class":"alley","highway":"service","sidewalk":"unknown","lanes":0,"name":"","oneway":false},"geometry":{"type":"LineString","coordinates":[[127.10664,37.64282],[127.10639,37.64274],[127.10614,37.64263]]}},{"type":"Feature","properties":{"class":"alley","highway":"service","sidewalk":"unknown","lanes":0,"name":"","oneway":false},"geometry":{"type":"LineString","coordinates":[[127.10763,37.64306],[127.10739,37.64298],[127.10664,37.64282]]}}]}