{"type":"FeatureCollection","features":[{"type":"Feature","properties":{"class":"major","highway":"primary","sidewalk":"likely","lanes":3,"name":"","oneway":false},"geometry":{"type":"LineString","coordinates":[[126.87916,37.64438],[126.88008,37.64376]]}},{"type":"Feature","properties":{"class":"minor","highway":"unclassified","sidewalk":"unknown","lanes":0,"name":"","oneway":false},"geometry":{"type":"LineString","coordinates":[[126.88068,37.64337],[126.88054,37.64327],[126.88023,37.64303],[126.88015,37.64296],[126.88003,37.64284],[126.87994,37.6427],[126.87984,37.6425],[126.87982,37.64227],[126.8798,37.64206],[126.87987,37.64164],[126.87989,37.64154],[126.87989,37.64133],[126.87985,37.64108],[126.87981,37.64093],[126.8798,37.64092],[126.87965,37.6407],[126.87907,37.64021],[126.879,37.64016],[126.87886,37.64005],[126.8787,37.63985],[126.87862,37.63956],[126.87855,37.639],[126.87821,37.63854],[126.87809,37.6383],[126.87755,37.63832],[126.87741,37.63848],[126.87731,37.6387],[126.8773,37.63884]]}},{"type":"Feature","properties":{"class":"major","highway":"tertiary","sidewalk":"likely","lanes":2,"name":"덕수천1로","oneway":false},"geometry":{"type":"LineString","coordinates":[[126.8796,37.64682],[126.8797,37.64689],[126.87979,37.64694],[126.88038,37.64729],[126.88061,37.6474],[126.88086,37.6475],[126.88096,37.64755],[126.8811,37.6476],[126.88189,37.64788],[126.88261,37.64809],[126.88324,37.64827],[126.88334,37.6483],[126.88345,37.64833],[126.8837,37.6484],[126.88427,37.64851],[126.88441,37.64853]]}},{"type":"Feature","properties":{"class":"major","highway":"primary","sidewalk":"likely","lanes":3,"name":"권율대로","oneway":false},"geometry":{"type":"LineString","coordinates":[[126.87647,37.6518],[126.87714,37.65191],[126.87742,37.65198],[126.87766,37.65207],[126.87806,37.65225],[126.8783,37.65237],[126.8784,37.65242],[126.87851,37.6525],[126.87874,37.65266],[126.87904,37.6529],[126.87972,37.65355],[126.88039,37.65421],[126.88051,37.65432],[126.88058,37.6544],[126.88079,37.65461],[126.88091,37.65481],[126.88107,37.65507],[126.88124,37.65554],[126.88134,37.65592],[126.88139,37.6563],[126.88136,37.65709],[126.88138,37.65748],[126.88142,37.6577],[126.88149,37.65792],[126.88167,37.65827],[126.88191,37.65862],[126.88229,37.65901]]}},{"type":"Feature","properties":{"class":"alley","highway":"service","sidewalk":"unknown","lanes":0,"name":"","oneway":false},"geometry":{"type":"LineString","coordinates":[[126.88096,37.64755],[126.88091,37.64763],[126.88089,37.64766],[126.88076,37.64788],[126.88062,37.648],[126.88047,37.64812],[126.88031,37.64829],[126.8802,37.64843],[126.8801,37.64859],[126.88006,37.64874],[126.87999,37.6489],[126.87987,37.649],[126.87969,37.64905],[126.87951,37.64904],[126.87936,37.649],[126.87924,37.64891],[126.87916,37.64879],[126.87911,37.64861],[126.87904,37.64844],[126.87893,37.64826],[126.87877,37.64806],[126.87857,37.6478],[126.87843,37.64759],[126.87838,37.64752]]}},{"type":"Feature","properties":{"class":"alley","highway":"service","sidewalk":"unknown","lanes":0,"name":"","oneway":false},"geometry":{"type":"LineString","coordinates":[[126.87999,37.6489],[126.88012,37.64895]]}},{"type":"Feature","properties":{"class":"alley","highway":"service","sidewalk":"unknown","lanes":0,"name":"","oneway":false},"geometry":{"type":"LineString","coordinates":[[126.87981,37.65077],[126.87991,37.65077],[126.87992,37.65078],[126.88003,37.65081],[126.88001,37.65089],[126.87995,37.65096],[126.87989,37.65091],[126.87984,37.65083],[126.87981,37.65077]]}},{"type":"Feature","properties":{"class":"minor","highway":"residential","sidewalk":"unknown","lanes":0,"name":"권율대로","oneway":false},"geometry":{"type":"LineString","coordinates":[[126.88051,37.65432],[126.88035,37.65437],[126.88023,37.65442],[126.88013,37.65447],[126.87999,37.65455]]}},{"type":"Feature","properties":{"class":"minor","highway":"residential","sidewalk":"unknown","lanes":0,"name":"권율대로","oneway":false},"geometry":{"type":"LineString","coordinates":[[126.88013,37.65447],[126.87961,37.65399],[126.87903,37.65407],[126.8788,37.65408]]}},{"type":"Feature","properties":{"class":"major","highway":"primary","sidewalk":"likely","lanes":4,"name":"삼송로","oneway":false},"geometry":{"type":"LineString","coordinates":[[126.87738,37.64963],[126.87765,37.64959],[126.87776,37.64958],[126.87803,37.64957],[126.87835,37.64959],[126.87868,37.64962],[126.87895,37.64969],[126.87934,37.6498],[126.88061,37.65012],[126.88149,37.65036],[126.88258,37.65065],[126.88293,37.65076],[126.88311,37.65081]]}}]}