{"type":"FeatureCollection","features":[{"type":"Feature","properties":{"class":"major","highway":"primary_link","sidewalk":"likely","lanes":2,"name":"통일로","oneway":true},"geometry":{"type":"LineString","coordinates":[[126.89916,37.64977],[126.89964,37.64939],[126.90017,37.64905],[126.90234,37.64776],[126.9025,37.64768],[126.90335,37.64734],[126.90358,37.64727]]}},{"type":"Feature","properties":{"class":"major","highway":"primary_link","sidewalk":"likely","lanes":2,"name":"통일로","oneway":true},"geometry":{"type":"LineString","coordinates":[[126.90923,37.6458],[126.90887,37.64604],[126.9079,37.64654]]}},{"type":"Feature","properties":{"class":"major","highway":"primary","sidewalk":"likely","lanes":0,"name":"","oneway":false},"geometry":{"type":"LineString","coordinates":[[126.90374,37.64755],[126.90358,37.64727]]}},{"type":"Feature","properties":{"class":"major","highway":"primary","sidewalk":"likely","lanes":3,"name":"통일로","oneway":true},"geometry":{"type":"LineString","coordinates":[[126.89916,37.64977],[126.90241,37.64785]]}},{"type":"Feature","properties":{"class":"major","highway":"primary","sidewalk":"likely","lanes":3,"name":"통일로","oneway":true},"geometry":{"type":"LineString","coordinates":[[126.90241,37.64785],[126.90278,37.64767],[126.90279,37.64767],[126.90325,37.64749],[126.90353,37.64739],[126.90376,37.64732],[126.90396,37.64728],[126.9042,37.64722],[126.90445,37.64718],[126.90466,37.64715],[126.90511,37.64711]]}},{"type":"Feature","properties":{"class":"major","highway":"primary_link","sidewalk":"likely","lanes":2,"name":"통일로","oneway":true},"geometry":{"type":"LineString","coordinates":[[126.90358,37.64727],[126.90384,37.6472],[126.90432,37.64708]]}},{"type":"Feature","properties":{"class":"major","highway":"primary","sidewalk":"likely","lanes":3,"name":"통일로","oneway":true},"geometry":{"type":"LineString","coordinates":[[126.90511,37.64711],[126.90546,37.64706],[126.90592,37.64699],[126.90619,37.64693],[126.90651,37.64685],[126.90679,37.64675],[126.90703,37.64666],[126.90762,37.64638],[126.90911,37.64569]]}},{"type":"Feature","properties":{"class":"major","highway":"primary","sidewalk":"likely","lanes":3,"name":"통일로","oneway":true},"geometry":{"type":"LineString","coordinates":[[126.90923,37.6458],[126.90772,37.6465],[126.90714,37.64675],[126.90655,37.64694],[126.90624,37.64703],[126.90602,37.64708],[126.90579,37.64713],[126.90554,37.64716],[126.90513,37.64721]]}},{"type":"Feature","properties":{"class":"major","highway":"primary","sidewalk":"likely","lanes":3,"name":"통일로","oneway":true},"geometry":{"type":"LineString","coordinates":[[126.91684,37.63903],[126.91679,37.63926],[126.91669,37.63954],[126.91661,37.63979],[126.91648,37.64007],[126.91602,37.64103],[126.91587,37.64135],[126.91563,37.64203],[126.91548,37.64243],[126.91542,37.64256],[126.91524,37.64279],[126.91507,37.64299],[126.91491,37.64313],[126.91478,37.64323],[126.91466,37.64332]]}},{"type":"Feature","properties":{"class":"major","highway":"primary","sidewalk":"likely","lanes":3,"name":"통일로","oneway":true},"geometry":{"type":"LineString","coordinates":[[126.90911,37.64569],[126.90999,37.64528],[126.91128,37.6447],[126.91208,37.64433],[126.91245,37.64414]]}},{"type":"Feature","properties":{"class":"major","highway":"primary_link","sidewalk":"likely","lanes":2,"name":"통일로","oneway":true},"geometry":{"type":"LineString","coordinates":[[126.90374,37.64755],[126.90357,37.6476],[126.90321,37.64771],[126.90258,37.64798],[126.90201,37.64831],[126.90039,37.64927],[126.89992,37.64952],[126.8993,37.64983]]}},{"type":"Feature","properties":{"class":"minor","highway":"residential","sidewalk":"unknown","lanes":2,"name":"진관3로","oneway":false},"geometry":{"type":"LineString","coordinates":[[126.92153,37.64308],[126.92146,37.64307],[126.92107,37.64303],[126.92069,37.64301],[126.92063,37.643],[126.92012,37.64298],[126.91958,37.64296],[126.9195,37.64296],[126.919,37.64298],[126.91857,37.64303],[126.91852,37.64303],[126.91847,37.64304],[126.91842,37.64304],[126.91835,37.64303]]}},{"type":"Feature","properties":{"class":"minor","highway":"residential","sidewalk":"unknown","lanes":1,"name":"진관3로","oneway":true},"geometry":{"type":"LineString","coordinates":[[126.91859,37.63978],[126.91868,37.63987],[126.9186,37.64078],[126.91854,37.64149],[126.91852,37.64187],[126.91851,37.64195],[126.91851,37.64268],[126.91852,37.64298],[126.91852,37.64303],[126.91853,37.64309],[126.91862,37.64371],[126.91864,37.64384],[126.91873,37.64441],[126.91876,37.64464],[126.91878,37.64476],[126.91879,37.64485]]}},{"type":"Feature","properties":{"class":"minor","highway":"residential","sidewalk":"unknown","lanes":1,"name":"진관3로","oneway":true},"geometry":{"type":"LineString","coordinates":[[126.91857,37.64485],[126.91856,37.64474],[126.91854,37.64464],[126.91851,37.64442],[126.91845,37.64384],[126.91843,37.64372],[126.91836,37.64309],[126.91835,37.64303],[126.91835,37.64298],[126.91833,37.64268],[126.91833,37.64254],[126.91834,37.64195],[126.91834,37.64193],[126.91835,37.64148],[126.91845,37.64032],[126.91849,37.63984],[126.91859,37.63978]]}},{"type":"Feature","properties":{"class":"minor","highway":"residential","sidewalk":"unknown","lanes":0,"name":"","oneway":true},"geometry":{"type":"LineString","coordinates":[[126.91843,37.64372],[126.91853,37.64372],[126.91858,37.64371],[126.91862,37.64371]]}},{"type":"Feature","properties":{"class":"major","highway":"primary_link","sidewalk":"likely","lanes":2,"name":"삼송로","oneway":true},"geometry":{"type":"LineString","coordinates":[[126.90044,37.65372],[126.90005,37.65383],[126.89944,37.65386],[126.89879,37.65387],[126.89852,37.65386]]}},{"type":"Feature","properties":{"class":"minor","highway":"residential","sidewalk":"unknown","lanes":0,"name":"","oneway":false},"geometry":{"type":"LineString","coordinates":[[126.91606,37.64043],[126.91596,37.64039],[126.91569,37.64029],[126.91579,37.64017]]}},{"type":"Feature","properties":{"class":"alley","highway":"service","sidewalk":"unknown","lanes":0,"name":"","oneway":false},"geometry":{"type":"LineString","coordinates":[[126.91951,37.64008],[126.91947,37.6401],[126.91944,37.64012],[126.91922,37.64025],[126.9191,37.64037],[126.91907,37.64053],[126.91918,37.64086],[126.91929,37.64106],[126.91944,37.64122],[126.91949,37.64128],[126.91962,37.64144],[126.91978,37.64168],[126.91979,37.64171],[126.91983,37.64185],[126.91987,37.64201],[126.92007,37.64213],[126.92029,37.64215],[126.92055,37.64215],[126.92076,37.64218],[126.92101,37.64221],[126.92151,37.64225],[126.92154,37.64225],[126.9216,37.64226]]}},{"type":"Feature","properties":{"class":"alley","highway":"service","sidewalk":"unknown","lanes":0,"name":"","oneway":false},"geometry":{"type":"LineString","coordinates":[[126.91868,37.64133],[126.91889,37.64132],[126.91919,37.64129],[126.91944,37.64122],[126.91964,37.64117],[126.91986,37.64107]]}},{"type":"Feature","properties":{"class":"alley","highway":"service","sidewalk":"unknown","lanes":0,"name":"","oneway":false},"geometry":{"type":"LineString","coordinates":[[126.91918,37.64086],[126.91961,37.6407]]}},{"type":"Feature","properties":{"class":"alley","highway":"service","sidewalk":"unknown","lanes":0,"name":"","oneway":false},"geometry":{"type":"LineString","coordinates":[[126.9191,37.64037],[126.91891,37.64035]]}},{"type":"Feature","properties":{"class":"alley","highway":"service","sidewalk":"unknown","lanes":0,"name":"","oneway":false},"geometry":{"type":"LineString","coordinates":[[126.91979,37.64171],[126.91997,37.64165]]}},{"type":"Feature","properties":{"class":"alley","highway":"service","sidewalk":"unknown","lanes":0,"name":"","oneway":false},"geometry":{"type":"LineString","coordinates":[[126.90135,37.6592],[126.90178,37.65909],[126.90196,37.65895],[126.90217,37.65864],[126.9024,37.65834],[126.90245,37.65827],[126.90249,37.65822],[126.9026,37.65825],[126.90269,37.6583],[126.90304,37.6585],[126.90303,37.65871],[126.90303,37.65873],[126.90303,37.65876]]}},{"type":"Feature","properties":{"class":"alley","highway":"service","sidewalk":"unknown","lanes":0,"name":"","oneway":false},"geometry":{"type":"LineString","coordinates":[[126.9167,37.64264],[126.91641,37.64254],[126.91577,37.64234],[126.91601,37.6418],[126.91616,37.64143],[126.91622,37.64129],[126.91643,37.64078],[126.91668,37.64021],[126.91686,37.63976]]}},{"type":"Feature","properties":{"class":"alley","highway":"service","sidewalk":"unknown","lanes":0,"name":"","oneway":false},"geometry":{"type":"LineString","coordinates":[[126.91743,37.64142],[126.91765,37.64141],[126.91782,37.64142],[126.9179,37.64143],[126.91828,37.64147],[126.91831,37.64147],[126.91835,37.64148]]}},{"type":"Feature","properties":{"class":"alley","highway":"service","sidewalk":"unknown","lanes":0,"name":"","oneway":false},"geometry":{"type":"LineString","coordinates":[[126.91577,37.64234],[126.9157,37.64246],[126.91557,37.64272],[126.91553,37.64282],[126.91552,37.64293],[126.9156,37.64347]]}},{"type":"Feature","properties":{"class":"alley","highway":"service","sidewalk":"unknown","lanes":0,"name":"","oneway":false},"geometry":{"type":"LineString","coordinates":[[126.91768,37.64296],[126.91766,37.64304],[126.91759,37.64337],[126.91751,37.64377],[126.91749,37.64383],[126.91748,37.64389],[126.91741,37.64399],[126.9172,37.64412],[126.91709,37.64415],[126.91703,37.64415],[126.91654,37.64414],[126.9163,37.64413],[126.9161,37.64412],[126.91594,37.64406],[126.91584,37.64394]]}},{"type":"Feature","properties":{"class":"alley","highway":"service","sidewalk":"unknown","lanes":0,"name":"","oneway":false},"geometry":{"type":"LineString","coordinates":[[126.9214,37.64446],[126.92134,37.64446],[126.92131,37.64446],[126.92104,37.64443],[126.92035,37.64438],[126.92015,37.64422],[126.92,37.6441],[126.91973,37.64399],[126.91954,37.64384],[126.91954,37.64378],[126.91955,37.64335],[126.91957,37.64303],[126.91958,37.64301],[126.91958,37.64296]]}},{"type":"Feature","properties":{"class":"alley","highway":"service","sidewalk":"unknown","lanes":0,"name":"","oneway":false},"geometry":{"type":"LineString","coordinates":[[126.91954,37.64384],[126.91936,37.64399],[126.91927,37.64409],[126.91923,37.64418],[126.91913,37.64419],[126.91882,37.64419]]}},{"type":"Feature","properties":{"class":"minor","highway":"residential","sidewalk":"unknown","lanes":2,"name":"진관3로","oneway":false},"geometry":{"type":"LineString","coordinates":[[126.92034,37.64094],[126.92029,37.64089],[126.91982,37.6404],[126.91951,37.64008],[126.91945,37.64003],[126.91931,37.63991],[126.91909,37.63981],[126.91871,37.63979],[126.91859,37.63978]]}},{"type":"Feature","properties":{"class":"minor","highway":"residential","sidewalk":"unknown","lanes":1,"name":"동축로","oneway":false},"geometry":{"type":"LineString","coordinates":[[126.90374,37.64755],[126.90379,37.64765],[126.90393,37.64802],[126.90383,37.64836],[126.90399,37.6487],[126.90402,37.64877],[126.90405,37.64884],[126.90425,37.64897],[126.90455,37.64901],[126.90586,37.64862],[126.90785,37.64803],[126.90876,37.64777],[126.90885,37.64775],[126.90893,37.64772],[126.90953,37.64751],[126.90992,37.64734],[126.91069,37.6469],[126.9112,37.6465],[126.91194,37.64592],[126.91302,37.64508],[126.91312,37.64499],[126.91352,37.64471],[126.91371,37.6446],[126.9139,37.64453],[126.91404,37.6445],[126.91419,37.64449],[126.91497,37.64452],[126.91525,37.64454]]}},{"type":"Feature","properties":{"class":"minor","highway":"residential","sidewalk":"unknown","lanes":0,"name":"","oneway":false},"geometry":{"type":"LineString","coordinates":[[126.90885,37.64775],[126.90882,37.6477],[126.90815,37.64684]]}},{"type":"Feature","properties":{"class":"minor","highway":"residential","sidewalk":"unknown","lanes":0,"name":"","oneway":false},"geometry":{"type":"LineString","coordinates":[[126.91312,37.64499],[126.91308,37.64494],[126.91258,37.6443],[126.91255,37.64425]]}},{"type":"Feature","properties":{"class":"alley","highway":"service","sidewalk":"unknown","lanes":0,"name":"","oneway":false},"geometry":{"type":"LineString","coordinates":[[126.9167,37.64264],[126.91687,37.6427],[126.91697,37.64273],[126.91716,37.6428]]}},{"type":"Feature","properties":{"class":"alley","highway":"service","sidewalk":"unknown","lanes":0,"name":"","oneway":false},"geometry":{"type":"LineString","coordinates":[[126.91716,37.6428],[126.91746,37.6429],[126.91768,37.64296],[126.91798,37.643],[126.91822,37.64301],[126.91831,37.64303],[126.91835,37.64303]]}},{"type":"Feature","properties":{"class":"alley","highway":"service","sidewalk":"unknown","lanes":0,"name":"","oneway":false},"geometry":{"type":"LineString","coordinates":[[126.91743,37.64142],[126.91736,37.64143],[126.9173,37.64144],[126.91719,37.64145],[126.91716,37.64146]]}},{"type":"Feature","properties":{"class":"alley","highway":"service","sidewalk":"unknown","lanes":0,"name":"","oneway":false},"geometry":{"type":"LineString","coordinates":[[126.91716,37.64146],[126.91714,37.64146],[126.91696,37.64147],[126.91683,37.64145],[126.91622,37.64129]]}},{"type":"Feature","properties":{"class":"major","highway":"primary","sidewalk":"likely","lanes":6,"name":"북한산로","oneway":false},"geometry":{"type":"LineString","coordinates":[[126.91485,37.64365],[126.91491,37.64378],[126.91494,37.64384],[126.915,37.64397]]}},{"type":"Feature","properties":{"class":"major","highway":"primary","sidewalk":"likely","lanes":3,"name":"북한산로","oneway":false},"geometry":{"type":"LineString","coordinates":[[126.91454,37.64318],[126.91459,37.64324],[126.91462,37.64327],[126.91466,37.64332]]}},{"type":"Feature","properties":{"class":"major","highway":"secondary","sidewalk":"likely","lanes":4,"name":"북한산로","oneway":false},"geometry":{"type":"LineString","coordinates":[[126.91525,37.64454],[126.91658,37.64467],[126.91748,37.64476],[126.91857,37.64485],[126.91879,37.64485],[126.91885,37.64486],[126.91946,37.64491],[126.91992,37.64495],[126.92004,37.64497],[126.9212,37.64508],[126.9213,37.64509]]}},{"type":"Feature","properties":{"class":"major","highway":"primary","sidewalk":"likely","lanes":3,"name":"통일로","oneway":true},"geometry":{"type":"LineString","coordinates":[[126.91246,37.64429],[126.91129,37.64482],[126.90991,37.64548],[126.9096,37.64563],[126.90923,37.6458]]}},{"type":"Feature","properties":{"class":"major","highway":"primary","sidewalk":"likely","lanes":3,"name":"통일로","oneway":true},"geometry":{"type":"LineString","coordinates":[[126.91454,37.64318],[126.91466,37.6431],[126.91476,37.64299],[126.91479,37.64297],[126.91501,37.64276],[126.91523,37.64244],[126.91546,37.64189],[126.91573,37.64124],[126.91585,37.64091],[126.91606,37.64043],[126.91642,37.63977],[126.91658,37.63921],[126.9166,37.63901]]}},{"type":"Feature","properties":{"class":"minor","highway":"residential","sidewalk":"unknown","lanes":0,"name":"","oneway":false},"geometry":{"type":"LineString","coordinates":[[126.90815,37.64684],[126.908,37.64665],[126.9079,37.64654]]}},{"type":"Feature","properties":{"class":"major","highway":"primary","sidewalk":"likely","lanes":6,"name":"북한산로","oneway":false},"geometry":{"type":"LineString","coordinates":[[126.91466,37.64332],[126.91476,37.64342],[126.91481,37.64355],[126.91485,37.64365]]}},{"type":"Feature","properties":{"class":"major","highway":"primary_link","sidewalk":"likely","lanes":2,"name":"통일로","oneway":true},"geometry":{"type":"LineString","coordinates":[[126.9079,37.64654],[126.90731,37.6468],[126.90718,37.64684],[126.90679,37.64698],[126.9062,37.64715],[126.90568,37.64726],[126.90514,37.64731],[126.90463,37.64737],[126.90442,37.64739],[126.90391,37.64751],[126.90374,37.64755]]}},{"type":"Feature","properties":{"class":"major","highway":"primary","sidewalk":"likely","lanes":3,"name":"삼송로","oneway":false},"geometry":{"type":"LineString","coordinates":[[126.90044,37.65372],[126.90218,37.65358],[126.90231,37.65357],[126.90258,37.65352],[126.90295,37.65346],[126.9031,37.65344],[126.90333,37.6534],[126.90373,37.65334],[126.90471,37.65314],[126.9058,37.65289],[126.90588,37.65287],[126.90628,37.65276],[126.90677,37.65263],[126.90712,37.65253],[126.90756,37.65238],[126.90771,37.65234],[126.90907,37.65192],[126.91037,37.65152],[126.9105,37.65147]]}},{"type":"Feature","properties":{"class":"minor","highway":"residential","sidewalk":"unknown","lanes":1,"name":"오금1로","oneway":false},"geometry":{"type":"LineString","coordinates":[[126.89523,37.6635],[126.89528,37.66341],[126.89556,37.66262],[126.89582,37.66211],[126.89589,37.66198],[126.89594,37.66191],[126.89599,37.66183],[126.89612,37.66164],[126.89619,37.66155],[126.89626,37.66146],[126.89637,37.66133],[126.89664,37.66108],[126.89697,37.66091],[126.89725,37.66079],[126.89752,37.66071],[126.89769,37.66066],[126.89788,37.66058],[126.89838,37.6604],[126.89923,37.65999],[126.8993,37.65996],[126.89936,37.65992],[126.89988,37.6596],[126.90003,37.65952],[126.90024,37.65946],[126.90039,37.65942],[126.90073,37.65944],[126.90082,37.65944],[126.90091,37.65943],[126.90108,37.65941],[126.90123,37.65936],[126.9015,37.65929],[126.90178,37.6592],[126.90198,37.65914],[126.90221,37.65906],[126.90226,37.65905],[126.90241,37.65896],[126.90258,37.65887],[126.90279,37.65879],[126.90298,37.65876],[126.90303,37.65876],[126.90335,37.65875],[126.90362,37.65872],[126.90378,37.65869],[126.90392,37.65865],[126.90407,37.6586],[126.90437,37.65853],[126.90459,37.65849],[126.90479,37.6585],[126.90501,37.65852],[126.90508,37.65852],[126.90541,37.65863],[126.90562,37.6587],[126.90622,37.65893],[126.90642,37.65904],[126.90653,37.65914],[126.90657,37.65917],[126.90667,37.65928],[126.90688,37.65946],[126.90767,37.65979],[126.90772,37.65982]]}},{"type":"Feature","properties":{"class":"major","highway":"primary","sidewalk":"likely","lanes":3,"name":"고양대로","oneway":false},"geometry":{"type":"LineString","coordinates":[[126.88755,37.64287],[126.88764,37.6429],[126.88929,37.64348],[126.88943,37.64353],[126.89151,37.64427],[126.892,37.64443],[126.89211,37.64448],[126.89237,37.64459],[126.89255,37.64465],[126.89295,37.6448],[126.89433,37.64525],[126.89456,37.64533],[126.89474,37.64539],[126.89529,37.64559],[126.89591,37.64584],[126.89606,37.64589],[126.89671,37.64615],[126.89715,37.64631],[126.89769,37.6465],[126.8985,37.6468],[126.89868,37.64687],[126.89925,37.64699],[126.89952,37.64701],[126.89986,37.64704],[126.90015,37.64704],[126.90054,37.64705],[126.90112,37.64707]]}},{"type":"Feature","properties":{"class":"minor","highway":"residential","sidewalk":"unknown","lanes":0,"name":"고양대로2002번길","oneway":false},"geometry":{"type":"LineString","coordinates":[[126.90112,37.64707],[126.90113,37.64695],[126.90117,37.64686],[126.90133,37.64658],[126.90136,37.64639],[126.9013,37.64627],[126.90126,37.64591],[126.90126,37.64558],[126.90129,37.64545],[126.90138,37.64532],[126.90165,37.64494],[126.90195,37.64468],[126.902,37.64445],[126.90204,37.64422],[126.90214,37.64408],[126.90244,37.64391],[126.90263,37.64364],[126.90283,37.64319],[126.90342,37.64256]]}},{"type":"Feature","properties":{"class":"minor","highway":"residential","sidewalk":"unknown","lanes":0,"name":"통일로214번길","oneway":false},"geometry":{"type":"LineString","coordinates":[[126.89764,37.65504],[126.89787,37.65506],[126.89795,37.65507],[126.89809,37.65508],[126.89821,37.65509],[126.89844,37.65511],[126.89955,37.65508],[126.9005,37.65501],[126.90092,37.65503],[126.90114,37.65506],[126.9013,37.65503],[126.90147,37.65491],[126.90149,37.65468]]}},{"type":"Feature","properties":{"class":"minor","highway":"residential","sidewalk":"unknown","lanes":1,"name":"","oneway":false},"geometry":{"type":"LineString","coordinates":[[126.90095,37.65965],[126.9011,37.65998]]}},{"type":"Feature","properties":{"class":"minor","highway":"residential","sidewalk":"unknown","lanes":1,"name":"오금3로","oneway":false},"geometry":{"type":"LineString","coordinates":[[126.9011,37.65998],[126.90118,37.66016],[126.90122,37.66024],[126.90125,37.66031],[126.90161,37.66108],[126.90164,37.66114]]}},{"type":"Feature","properties":{"class":"major","highway":"primary_link","sidewalk":"likely","lanes":0,"name":"","oneway":true},"geometry":{"type":"LineString","coordinates":[[126.9025,37.64768],[126.90255,37.64756],[126.90258,37.64747],[126.90257,37.64742],[126.90251,37.64733],[126.90241,37.64723],[126.90221,37.64713]]}},{"type":"Feature","properties":{"class":"major","highway":"primary_link","sidewalk":"likely","lanes":0,"name":"","oneway":true},"geometry":{"type":"LineString","coordinates":[[126.90316,37.64706],[126.90362,37.64707],[126.90373,37.64706],[126.90432,37.64708]]}},{"type":"Feature","properties":{"class":"major","highway":"primary_link","sidewalk":"likely","lanes":2,"name":"통일로","oneway":true},"geometry":{"type":"LineString","coordinates":[[126.90432,37.64708],[126.90456,37.64703],[126.90461,37.64703],[126.90508,37.64701],[126.90537,37.64698],[126.90593,37.6469],[126.90646,37.64678],[126.90694,37.64662],[126.90727,37.64648],[126.90802,37.64613],[126.90849,37.64592],[126.90911,37.64569]]}},{"type":"Feature","properties":{"class":"major","highway":"primary","sidewalk":"likely","lanes":3,"name":"고양대로","oneway":false},"geometry":{"type":"LineString","coordinates":[[126.90358,37.64727],[126.90337,37.64721],[126.90308,37.64715],[126.90272,37.64712]]}},{"type":"Feature","properties":{"class":"major","highway":"primary_link","sidewalk":"likely","lanes":2,"name":"삼송로","oneway":true},"geometry":{"type":"LineString","coordinates":[[126.89863,37.6536],[126.89943,37.65362],[126.90002,37.65363],[126.90044,37.65372]]}},{"type":"Feature","properties":{"class":"major","highway":"primary","sidewalk":"likely","lanes":3,"name":"고양대로","oneway":false},"geometry":{"type":"LineString","coordinates":[[126.90112,37.64707],[126.9013,37.64708],[126.90221,37.64713]]}},{"type":"Feature","properties":{"class":"major","highway":"primary","sidewalk":"likely","lanes":3,"name":"고양대로","oneway":false},"geometry":{"type":"LineString","coordinates":[[126.90221,37.64713],[126.90272,37.64712]]}},{"type":"Feature","properties":{"class":"alley","highway":"service","sidewalk":"unknown","lanes":0,"name":"","oneway":false},"geometry":{"type":"LineString","coordinates":[[126.91759,37.64337],[126.91793,37.64341],[126.91804,37.64347]]}},{"type":"Feature","properties":{"class":"alley","highway":"service","sidewalk":"unknown","lanes":0,"name":"","oneway":false},"geometry":{"type":"LineString","coordinates":[[126.91703,37.64415],[126.91684,37.64431]]}},{"type":"Feature","properties":{"class":"alley","highway":"service","sidewalk":"unknown","lanes":0,"name":"","oneway":false},"geometry":{"type":"LineString","coordinates":[[126.91654,37.64414],[126.91636,37.64429]]}},{"type":"Feature","properties":{"class":"alley","highway":"service","sidewalk":"unknown","lanes":0,"name":"","oneway":false},"geometry":{"type":"LineString","coordinates":[[126.9161,37.64412],[126.91601,37.64418],[126.916,37.64418],[126.91588,37.64426]]}},{"type":"Feature","properties":{"class":"alley","highway":"service","sidewalk":"unknown","lanes":0,"name":"","oneway":false},"geometry":{"type":"LineString","coordinates":[[126.9163,37.64413],[126.91621,37.64389],[126.91625,37.64381]]}},{"type":"Feature","properties":{"class":"alley","highway":"service","sidewalk":"unknown","lanes":0,"name":"","oneway":false},"geometry":{"type":"LineString","coordinates":[[126.91833,37.64254],[126.91829,37.64254],[126.91826,37.64254],[126.91812,37.64254],[126.91771,37.64254]]}},{"type":"Feature","properties":{"class":"alley","highway":"service","sidewalk":"unknown","lanes":0,"name":"","oneway":false},"geometry":{"type":"LineString","coordinates":[[126.91845,37.64032],[126.9184,37.64032],[126.91836,37.64032],[126.91819,37.6403],[126.91819,37.64044]]}},{"type":"Feature","properties":{"class":"alley","highway":"service","sidewalk":"unknown","lanes":0,"name":"","oneway":false},"geometry":{"type":"LineString","coordinates":[[126.91643,37.64078],[126.91676,37.64088]]}},{"type":"Feature","properties":{"class":"alley","highway":"service","sidewalk":"unknown","lanes":0,"name":"","oneway":false},"geometry":{"type":"LineString","coordinates":[[126.91668,37.64021],[126.91681,37.64025],[126.91712,37.64033]]}},{"type":"Feature","properties":{"class":"alley","highway":"service","sidewalk":"unknown","lanes":0,"name":"","oneway":false},"geometry":{"type":"LineString","coordinates":[[126.91681,37.64025],[126.91675,37.64042]]}},{"type":"Feature","properties":{"class":"alley","highway":"service","sidewalk":"unknown","lanes":0,"name":"","oneway":false},"geometry":{"type":"LineString","coordinates":[[126.91984,37.64257],[126.92066,37.64262],[126.92063,37.64294],[126.92063,37.64296],[126.92063,37.643]]}},{"type":"Feature","properties":{"class":"alley","highway":"service","sidewalk":"unknown","lanes":0,"name":"","oneway":false},"geometry":{"type":"LineString","coordinates":[[126.919,37.64334],[126.91955,37.64335],[126.92003,37.64334],[126.92003,37.6434]]}},{"type":"Feature","properties":{"class":"alley","highway":"service","sidewalk":"unknown","lanes":0,"name":"","oneway":false},"geometry":{"type":"LineString","coordinates":[[126.9157,37.64246],[126.91588,37.64251]]}},{"type":"Feature","properties":{"class":"alley","highway":"service","sidewalk":"unknown","lanes":0,"name":"","oneway":false},"geometry":{"type":"LineString","coordinates":[[126.91616,37.64143],[126.91631,37.64147]]}},{"type":"Feature","properties":{"class":"alley","highway":"service","sidewalk":"unknown","lanes":0,"name":"","oneway":false},"geometry":{"type":"LineString","coordinates":[[126.9179,37.64143],[126.9179,37.64137]]}},{"type":"Feature","properties":{"class":"alley","highway":"service","sidewalk":"unknown","lanes":0,"name":"","oneway":false},"geometry":{"type":"LineString","coordinates":[[126.91812,37.64254],[126.91812,37.64248]]}},{"type":"Feature","properties":{"class":"minor","highway":"residential","sidewalk":"unknown","lanes":0,"name":"통일로214번안길","oneway":false},"geometry":{"type":"LineString","coordinates":[[126.89872,37.65543],[126.89958,37.65537],[126.89999,37.65533],[126.90051,37.6553]]}},{"type":"Feature","properties":{"class":"minor","highway":"residential","sidewalk":"unknown","lanes":0,"name":"통일로214번안길","oneway":false},"geometry":{"type":"LineString","coordinates":[[126.89878,37.6557],[126.89961,37.65566],[126.9005,37.65559]]}},{"type":"Feature","properties":{"class":"minor","highway":"residential","sidewalk":"unknown","lanes":0,"name":"통일로214번안길","oneway":false},"geometry":{"type":"LineString","coordinates":[[126.89905,37.65595],[126.89964,37.65592],[126.90014,37.6559],[126.90058,37.65584]]}},{"type":"Feature","properties":{"class":"minor","highway":"residential","sidewalk":"unknown","lanes":0,"name":"통일로214번안길","oneway":false},"geometry":{"type":"LineString","coordinates":[[126.89909,37.65625],[126.89967,37.6562],[126.90058,37.65617]]}},{"type":"Feature","properties":{"class":"minor","highway":"residential","sidewalk":"unknown","lanes":0,"name":"삼송로221번길","oneway":false},"geometry":{"type":"LineString","coordinates":[[126.89878,37.65416],[126.89983,37.65418],[126.90049,37.65415],[126.90175,37.65416],[126.90223,37.65414],[126.90265,37.65413],[126.90306,37.65411],[126.9034,37.6541],[126.90369,37.65407],[126.90387,37.65403],[126.90396,37.65401],[126.90391,37.65369],[126.90404,37.65364]]}},{"type":"Feature","properties":{"class":"minor","highway":"residential","sidewalk":"unknown","lanes":0,"name":"삼송로","oneway":false},"geometry":{"type":"LineString","coordinates":[[126.90481,37.6536],[126.90516,37.65346],[126.9058,37.65314],[126.9058,37.65303],[126.9058,37.65289]]}},{"type":"Feature","properties":{"class":"minor","highway":"residential","sidewalk":"unknown","lanes":0,"name":"","oneway":false},"geometry":{"type":"LineString","coordinates":[[126.90516,37.65346],[126.90515,37.65375]]}},{"type":"Feature","properties":{"class":"minor","highway":"residential","sidewalk":"unknown","lanes":0,"name":"","oneway":false},"geometry":{"type":"LineString","coordinates":[[126.90712,37.65253],[126.90726,37.65262],[126.90737,37.65269],[126.9076,37.6529],[126.90767,37.65299],[126.9077,37.65305],[126.90776,37.65314],[126.90779,37.65319]]}},{"type":"Feature","properties":{"class":"minor","highway":"residential","sidewalk":"unknown","lanes":0,"name":"삼송로","oneway":false},"geometry":{"type":"LineString","coordinates":[[126.9034,37.6541],[126.90335,37.65354],[126.90333,37.6534]]}},{"type":"Feature","properties":{"class":"minor","highway":"residential","sidewalk":"unknown","lanes":0,"name":"삼송로","oneway":false},"geometry":{"type":"LineString","coordinates":[[126.90306,37.65411],[126.90298,37.6536],[126.90295,37.65346]]}},{"type":"Feature","properties":{"class":"minor","highway":"residential","sidewalk":"unknown","lanes":0,"name":"삼송로","oneway":false},"geometry":{"type":"LineString","coordinates":[[126.90265,37.65413],[126.9026,37.65365],[126.90258,37.65352]]}},{"type":"Feature","properties":{"class":"minor","highway":"residential","sidewalk":"unknown","lanes":0,"name":"고양대로2002번길","oneway":false},"geometry":{"type":"LineString","coordinates":[[126.90015,37.64704],[126.90016,37.64687],[126.9002,37.64625],[126.90023,37.64611],[126.90026,37.64594],[126.90029,37.64576],[126.90031,37.64569],[126.90041,37.64533],[126.90054,37.64518],[126.90067,37.64501],[126.90096,37.6447],[126.9012,37.64442],[126.90139,37.64413],[126.9015,37.64395],[126.9016,37.64382],[126.90184,37.64352],[126.90216,37.64322],[126.90248,37.64292],[126.90247,37.64287],[126.90267,37.64259],[126.90279,37.64249],[126.90299,37.64222],[126.90301,37.64211]]}},{"type":"Feature","properties":{"class":"minor","highway":"residential","sidewalk":"unknown","lanes":0,"name":"고양대로2002번길","oneway":false},"geometry":{"type":"LineString","coordinates":[[126.90023,37.64611],[126.90106,37.64624],[126.9013,37.64627]]}},{"type":"Feature","properties":{"class":"minor","highway":"residential","sidewalk":"unknown","lanes":0,"name":"고양대로2002번길","oneway":false},"geometry":{"type":"LineString","coordinates":[[126.90041,37.64533],[126.90085,37.64547],[126.90126,37.64558]]}},{"type":"Feature","properties":{"class":"minor","highway":"residential","sidewalk":"unknown","lanes":0,"name":"고양대로2002번길","oneway":false},"geometry":{"type":"LineString","coordinates":[[126.90165,37.64494],[126.9012,37.64442]]}},{"type":"Feature","properties":{"class":"minor","highway":"residential","sidewalk":"unknown","lanes":0,"name":"","oneway":false},"geometry":{"type":"LineString","coordinates":[[126.9016,37.64382],[126.90214,37.64408]]}},{"type":"Feature","properties":{"class":"minor","highway":"residential","sidewalk":"unknown","lanes":0,"name":"고양대로2002번길","oneway":false},"geometry":{"type":"LineString","coordinates":[[126.90139,37.64413],[126.90106,37.64396],[126.9008,37.64384],[126.90048,37.64355],[126.9003,37.64322],[126.9001,37.64294],[126.89986,37.64271],[126.89952,37.64251],[126.89909,37.6418]]}},{"type":"Feature","properties":{"class":"minor","highway":"residential","sidewalk":"unknown","lanes":0,"name":"","oneway":false},"geometry":{"type":"LineString","coordinates":[[126.90247,37.64287],[126.90213,37.6427]]}},{"type":"Feature","properties":{"class":"minor","highway":"residential","sidewalk":"unknown","lanes":0,"name":"","oneway":false},"geometry":{"type":"LineString","coordinates":[[126.90244,37.64391],[126.90257,37.64398],[126.90312,37.64409]]}},{"type":"Feature","properties":{"class":"alley","highway":"service","sidewalk":"unknown","lanes":0,"name":"","oneway":false},"geometry":{"type":"LineString","coordinates":[[126.90139,37.64413],[126.90175,37.64426]]}},{"type":"Feature","properties":{"class":"minor","highway":"residential","sidewalk":"unknown","lanes":0,"name":"고양대로2024번길","oneway":false},"geometry":{"type":"LineString","coordinates":[[126.90373,37.64706],[126.90373,37.64698],[126.90373,37.64678],[126.90381,37.6465],[126.9038,37.64615],[126.90386,37.64588],[126.90388,37.64521]]}},{"type":"Feature","properties":{"class":"minor","highway":"residential","sidewalk":"unknown","lanes":0,"name":"통일로","oneway":false},"geometry":{"type":"LineString","coordinates":[[126.90508,37.64701],[126.90508,37.64694],[126.90502,37.64663],[126.90485,37.64625],[126.90426,37.64519],[126.90388,37.64521]]}},{"type":"Feature","properties":{"class":"minor","highway":"residential","sidewalk":"unknown","lanes":0,"name":"통일로","oneway":false},"geometry":{"type":"LineString","coordinates":[[126.90999,37.64528],[126.90988,37.64518],[126.90966,37.64498],[126.9092,37.64479],[126.9086,37.64466],[126.90828,37.64449],[126.90777,37.6435],[126.90754,37.64328],[126.90728,37.64329],[126.90706,37.6435],[126.90664,37.64392],[126.90637,37.64429],[126.9062,37.64434],[126.90599,37.64436],[126.90586,37.64419],[126.90586,37.64386],[126.90596,37.64366],[126.90621,37.64351],[126.90655,37.64303],[126.90654,37.64282],[126.90648,37.64259],[126.90648,37.64241],[126.90665,37.64211],[126.90667,37.64205]]}},{"type":"Feature","properties":{"class":"minor","highway":"residential","sidewalk":"unknown","lanes":0,"name":"통일로","oneway":false},"geometry":{"type":"LineString","coordinates":[[126.90802,37.64613],[126.90797,37.64604],[126.90775,37.64569],[126.90732,37.64557],[126.90694,37.64487],[126.90692,37.64475],[126.90726,37.64465],[126.90737,37.64455],[126.90728,37.64329]]}},{"type":"Feature","properties":{"class":"minor","highway":"residential","sidewalk":"unknown","lanes":0,"name":"","oneway":false},"geometry":{"type":"LineString","coordinates":[[126.90039,37.65942],[126.90035,37.65938],[126.90015,37.65915],[126.89985,37.65886]]}},{"type":"Feature","properties":{"class":"alley","highway":"service","sidewalk":"unknown","lanes":0,"name":"","oneway":false},"geometry":{"type":"LineString","coordinates":[[126.90304,37.6585],[126.90349,37.65851],[126.90401,37.65837],[126.90443,37.65827],[126.90465,37.65823],[126.90482,37.65823],[126.90498,37.65823],[126.90505,37.65826],[126.90508,37.65827],[126.90512,37.65828],[126.90518,37.65831],[126.9053,37.65829],[126.90555,37.65825],[126.90605,37.6581]]}},{"type":"Feature","properties":{"class":"alley","highway":"service","sidewalk":"unknown","lanes":0,"name":"오금1로4길","oneway":false},"geometry":{"type":"LineString","coordinates":[[126.90553,37.65851],[126.90597,37.65837],[126.90613,37.65839],[126.90628,37.65843],[126.90648,37.65852],[126.90666,37.65866],[126.90672,37.65874],[126.90687,37.65884],[126.90689,37.65886],[126.90659,37.65915],[126.90657,37.65917]]}},{"type":"Feature","properties":{"class":"minor","highway":"residential","sidewalk":"unknown","lanes":1,"name":"오금1로","oneway":false},"geometry":{"type":"LineString","coordinates":[[126.90772,37.65982],[126.90778,37.65984],[126.90878,37.66016],[126.90921,37.66026],[126.90927,37.66028],[126.90934,37.66029],[126.91035,37.66053]]}},{"type":"Feature","properties":{"class":"alley","highway":"service","sidewalk":"unknown","lanes":0,"name":"","oneway":false},"geometry":{"type":"LineString","coordinates":[[126.9095,37.65949],[126.90993,37.65886]]}},{"type":"Feature","properties":{"class":"alley","highway":"service","sidewalk":"unknown","lanes":0,"name":"오금4로1길","oneway":false},"geometry":{"type":"LineString","coordinates":[[126.91069,37.6606],[126.91071,37.66056],[126.91078,37.66045],[126.91106,37.65995],[126.91115,37.65981],[126.91123,37.65969],[126.91158,37.65976],[126.91204,37.65983]]}},{"type":"Feature","properties":{"class":"major","highway":"primary_link","sidewalk":"likely","lanes":0,"name":"","oneway":true},"geometry":{"type":"LineString","coordinates":[[126.90463,37.64737],[126.90453,37.6473],[126.9045,37.64726],[126.90449,37.64723],[126.90449,37.64717],[126.9045,37.64712],[126.90461,37.64703]]}},{"type":"Feature","properties":{"class":"minor","highway":"residential","sidewalk":"unknown","lanes":0,"name":"","oneway":false},"geometry":{"type":"LineString","coordinates":[[126.91129,37.64482],[126.91133,37.64487],[126.91145,37.64503],[126.91147,37.64506],[126.91156,37.64518],[126.91157,37.6452]]}},{"type":"Feature","properties":{"class":"minor","highway":"residential","sidewalk":"unknown","lanes":0,"name":"","oneway":true},"geometry":{"type":"LineString","coordinates":[[126.91157,37.6452],[126.9116,37.64523],[126.91161,37.64524],[126.91164,37.64532],[126.91168,37.64537],[126.91173,37.6454],[126.91178,37.64541],[126.91184,37.6454],[126.91192,37.64535],[126.91233,37.64516],[126.91301,37.645],[126.91312,37.64499]]}},{"type":"Feature","properties":{"class":"minor","highway":"residential","sidewalk":"unknown","lanes":2,"name":"지효로","oneway":false},"geometry":{"type":"LineString","coordinates":[[126.91486,37.64999],[126.91478,37.64986],[126.91451,37.6494],[126.91446,37.64931],[126.91416,37.64876],[126.91411,37.64868]]}},{"type":"Feature","properties":{"class":"major","highway":"primary","sidewalk":"likely","lanes":2,"name":"삼송로","oneway":false},"geometry":{"type":"LineString","coordinates":[[126.89852,37.65372],[126.89931,37.65374],[126.90044,37.65372]]}},{"type":"Feature","properties":{"class":"alley","highway":"service","sidewalk":"unknown","lanes":0,"name":"","oneway":false},"geometry":{"type":"LineString","coordinates":[[126.90756,37.65238],[126.90751,37.65229],[126.90724,37.65187],[126.90824,37.65148],[126.90827,37.65139],[126.90828,37.65136],[126.90839,37.651],[126.9085,37.65091],[126.90962,37.65053],[126.9099,37.65105],[126.91004,37.65131],[126.91309,37.65028],[126.91223,37.64856],[126.91191,37.64866],[126.90913,37.6496],[126.90936,37.65004],[126.90824,37.65042],[126.90734,37.65073],[126.90656,37.65122],[126.90639,37.65124],[126.90626,37.65126],[126.90546,37.65173],[126.90543,37.65171],[126.90534,37.65165],[126.90314,37.65241]]}},{"type":"Feature","properties":{"class":"alley","highway":"service","sidewalk":"unknown","lanes":0,"name":"","oneway":false},"geometry":{"type":"LineString","coordinates":[[126.90839,37.651],[126.90814,37.65108],[126.90828,37.65136]]}},{"type":"Feature","properties":{"class":"alley","highway":"service","sidewalk":"unknown","lanes":0,"name":"","oneway":false},"geometry":{"type":"LineString","coordinates":[[126.9085,37.65091],[126.90848,37.65087],[126.90843,37.65078],[126.90839,37.65071],[126.90836,37.65065],[126.90833,37.65059],[126.90831,37.65055],[126.90829,37.65052],[126.90824,37.65042]]}},{"type":"Feature","properties":{"class":"alley","highway":"service","sidewalk":"unknown","lanes":0,"name":"","oneway":false},"geometry":{"type":"LineString","coordinates":[[126.90827,37.65139],[126.9095,37.65119],[126.9099,37.65105]]}},{"type":"Feature","properties":{"class":"alley","highway":"service","sidewalk":"unknown","lanes":0,"name":"","oneway":false},"geometry":{"type":"LineString","coordinates":[[126.91191,37.64866],[126.91186,37.64855]]}},{"type":"Feature","properties":{"class":"alley","highway":"service","sidewalk":"unknown","lanes":0,"name":"","oneway":false},"geometry":{"type":"LineString","coordinates":[[126.91186,37.64855],[126.91173,37.64824]]}},{"type":"Feature","properties":{"class":"alley","highway":"service","sidewalk":"unknown","lanes":0,"name":"","oneway":false},"geometry":{"type":"LineString","coordinates":[[126.91173,37.64824],[126.91166,37.64808]]}},{"type":"Feature","properties":{"class":"alley","highway":"service","sidewalk":"unknown","lanes":0,"name":"","oneway":false},"geometry":{"type":"LineString","coordinates":[[126.90546,37.65173],[126.90512,37.65191],[126.90322,37.65255]]}},{"type":"Feature","properties":{"class":"major","highway":"primary","sidewalk":"likely","lanes":2,"name":"지정로","oneway":false},"geometry":{"type":"LineString","coordinates":[[126.91837,37.6509],[126.91839,37.65092],[126.91872,37.65125],[126.91893,37.6515],[126.91943,37.65213],[126.91951,37.65223],[126.91958,37.65233],[126.91998,37.65288],[126.92032,37.65349],[126.92049,37.65389],[126.92057,37.65408],[126.92059,37.65415],[126.92062,37.65424],[126.92069,37.65467],[126.92075,37.65514],[126.9208,37.65568],[126.9208,37.65591],[126.9208,37.6561],[126.92076,37.65624]]}},{"type":"Feature","properties":{"class":"major","highway":"secondary","sidewalk":"likely","lanes":2,"name":"일영로","oneway":false},"geometry":{"type":"LineString","coordinates":[[126.92076,37.65624],[126.92073,37.65639],[126.92071,37.6565],[126.92067,37.65671],[126.92042,37.65738],[126.91998,37.65876],[126.91972,37.65947],[126.91961,37.65989],[126.91958,37.66002],[126.91957,37.66015],[126.91958,37.66048],[126.91963,37.66104],[126.91967,37.66159],[126.91974,37.66254],[126.91973,37.66347],[126.91974,37.6636],[126.91975,37.66378],[126.91977,37.66391],[126.91977,37.66395]]}},{"type":"Feature","properties":{"class":"major","highway":"secondary","sidewalk":"likely","lanes":2,"name":"지축로","oneway":false},"geometry":{"type":"LineString","coordinates":[[126.92107,37.64838],[126.92095,37.64838],[126.92067,37.64841],[126.92035,37.64841],[126.91985,37.64845],[126.91924,37.64854],[126.91919,37.64854]]}},{"type":"Feature","properties":{"class":"minor","highway":"residential","sidewalk":"unknown","lanes":1,"name":"안진3길","oneway":false},"geometry":{"type":"LineString","coordinates":[[126.91393,37.64782],[126.91391,37.64769],[126.91372,37.64718],[126.9137,37.64711],[126.91367,37.64704],[126.91352,37.64663],[126.9135,37.64656]]}},{"type":"Feature","properties":{"class":"minor","highway":"unclassified","sidewalk":"unknown","lanes":0,"name":"","oneway":false},"geometry":{"type":"LineString","coordinates":[[126.91354,37.64619],[126.91252,37.64699],[126.91192,37.64747]]}},{"type":"Feature","properties":{"class":"minor","highway":"unclassified","sidewalk":"unknown","lanes":0,"name":"","oneway":false},"geometry":{"type":"LineString","coordinates":[[126.91302,37.64553],[126.91306,37.64559],[126.91341,37.64603],[126.91354,37.64619]]}},{"type":"Feature","properties":{"class":"major","highway":"secondary","sidewalk":"likely","lanes":1,"name":"오부자로","oneway":false},"geometry":{"type":"LineString","coordinates":[[126.9105,37.65147],[126.91056,37.65158],[126.91071,37.65185],[126.91091,37.65207],[126.91117,37.6523],[126.91143,37.65247],[126.9115,37.65251],[126.91159,37.65255],[126.91186,37.65265],[126.9123,37.65278],[126.91307,37.65297],[126.91315,37.65299],[126.91322,37.65301],[126.91352,37.65309],[126.91388,37.65319],[126.91423,37.65329],[126.91431,37.65331],[126.91441,37.65333],[126.9148,37.65341],[126.91526,37.65345],[126.91536,37.65345],[126.91549,37.65346],[126.91564,37.65345],[126.91585,37.65342],[126.9161,37.65337],[126.9167,37.65322],[126.91675,37.6532]]}},{"type":"Feature","properties":{"class":"major","highway":"secondary","sidewalk":"likely","lanes":1,"name":"오부자로","oneway":false},"geometry":{"type":"LineString","coordinates":[[126.91693,37.65315],[126.91705,37.6531],[126.91839,37.65266],[126.91848,37.65263],[126.91858,37.65259],[126.91934,37.65231],[126.91951,37.65223]]}},{"type":"Feature","properties":{"class":"major","highway":"secondary","sidewalk":"likely","lanes":2,"name":"지축로","oneway":false},"geometry":{"type":"LineString","coordinates":[[126.91714,37.64919],[126.91733,37.64912],[126.91752,37.64905],[126.91823,37.64882],[126.91884,37.64862],[126.91892,37.6486],[126.91896,37.64859]]}},{"type":"Feature","properties":{"class":"major","highway":"secondary","sidewalk":"likely","lanes":2,"name":"","oneway":false},"geometry":{"type":"LineString","coordinates":[[126.91919,37.64854],[126.91907,37.64857],[126.91896,37.64859]]}},{"type":"Feature","properties":{"class":"major","highway":"primary","sidewalk":"likely","lanes":2,"name":"지정로","oneway":false},"geometry":{"type":"LineString","coordinates":[[126.91714,37.64919],[126.91722,37.64933],[126.91749,37.6497],[126.91787,37.65025],[126.91791,37.65032],[126.91798,37.65042],[126.91826,37.65077]]}},{"type":"Feature","properties":{"class":"major","highway":"primary","sidewalk":"likely","lanes":2,"name":"","oneway":false},"geometry":{"type":"LineString","coordinates":[[126.91826,37.65077],[126.91837,37.6509]]}},{"type":"Feature","properties":{"class":"minor","highway":"residential","sidewalk":"unknown","lanes":1,"name":"지효로","oneway":false},"geometry":{"type":"LineString","coordinates":[[126.91401,37.64832],[126.91395,37.64791]]}},{"type":"Feature","properties":{"class":"alley","highway":"service","sidewalk":"unknown","lanes":0,"name":"","oneway":false},"geometry":{"type":"LineString","coordinates":[[126.91791,37.65032],[126.91778,37.65038],[126.91768,37.6504],[126.91738,37.65053]]}},{"type":"Feature","properties":{"class":"alley","highway":"service","sidewalk":"unknown","lanes":0,"name":"","oneway":false},"geometry":{"type":"LineString","coordinates":[[126.91486,37.64999],[126.91492,37.6501],[126.91495,37.65015],[126.91502,37.6503],[126.91469,37.65042]]}},{"type":"Feature","properties":{"class":"alley","highway":"service","sidewalk":"unknown","lanes":0,"name":"","oneway":false},"geometry":{"type":"LineString","coordinates":[[126.91502,37.6503],[126.91506,37.65038]]}},{"type":"Feature","properties":{"class":"minor","highway":"residential","sidewalk":"unknown","lanes":0,"name":"지축1로","oneway":false},"geometry":{"type":"LineString","coordinates":[[126.91348,37.64976],[126.91439,37.64944],[126.91451,37.6494],[126.91465,37.64935],[126.91542,37.64908],[126.91615,37.64884],[126.9162,37.64874],[126.91592,37.64818],[126.91588,37.64811],[126.91579,37.64814],[126.91504,37.64837],[126.91422,37.64865],[126.91411,37.64868],[126.91403,37.64871],[126.91359,37.64889],[126.91311,37.64906],[126.91304,37.6491],[126.91303,37.64916],[126.91305,37.64921],[126.91335,37.64972],[126.91348,37.64976]]}},{"type":"Feature","properties":{"class":"minor","highway":"residential","sidewalk":"unknown","lanes":0,"name":"","oneway":false},"geometry":{"type":"LineString","coordinates":[[126.91757,37.6472],[126.91784,37.6476],[126.91788,37.64766],[126.91815,37.64825],[126.91818,37.64831]]}},{"type":"Feature","properties":{"class":"minor","highway":"residential","sidewalk":"unknown","lanes":0,"name":"지축2로","oneway":false},"geometry":{"type":"LineString","coordinates":[[126.91884,37.64862],[126.9188,37.64851],[126.9187,37.64827],[126.91855,37.64821],[126.91818,37.64831],[126.91804,37.64834],[126.91764,37.64845],[126.91749,37.64843],[126.91724,37.64784],[126.91721,37.64777],[126.91714,37.64779],[126.91677,37.64789],[126.91661,37.64794]]}},{"type":"Feature","properties":{"class":"minor","highway":"residential","sidewalk":"unknown","lanes":0,"name":"오부자1길","oneway":false},"geometry":{"type":"LineString","coordinates":[[126.91526,37.65309],[126.91524,37.65269],[126.91521,37.65264],[126.91467,37.65251],[126.91434,37.65243],[126.91419,37.65239],[126.91407,37.65236],[126.91351,37.6522],[126.91343,37.65223],[126.91329,37.65257],[126.91317,37.65293],[126.91315,37.65299]]}},{"type":"Feature","properties":{"class":"minor","highway":"residential","sidewalk":"unknown","lanes":0,"name":"오부자1길","oneway":false},"geometry":{"type":"LineString","coordinates":[[126.91526,37.65309],[126.91449,37.65288],[126.91418,37.65281],[126.91404,37.65277],[126.9139,37.65273],[126.91329,37.65257]]}},{"type":"Feature","properties":{"class":"minor","highway":"residential","sidewalk":"unknown","lanes":0,"name":"","oneway":false},"geometry":{"type":"LineString","coordinates":[[126.91431,37.65331],[126.91434,37.65323],[126.91449,37.65288],[126.91467,37.65251]]}},{"type":"Feature","properties":{"class":"minor","highway":"residential","sidewalk":"unknown","lanes":0,"name":"오부자로","oneway":false},"geometry":{"type":"LineString","coordinates":[[126.91315,37.65299],[126.91312,37.65306],[126.91298,37.65345],[126.91284,37.6538],[126.91224,37.65427],[126.9119,37.65405],[126.9112,37.65412],[126.91078,37.65396],[126.90999,37.65384],[126.90981,37.65391],[126.90966,37.6541],[126.90932,37.65458],[126.90901,37.65459],[126.90855,37.65485],[126.90855,37.65496],[126.90838,37.65501]]}},{"type":"Feature","properties":{"class":"alley","highway":"service","sidewalk":"unknown","lanes":0,"name":"","oneway":false},"geometry":{"type":"LineString","coordinates":[[126.91298,37.65345],[126.91292,37.65345],[126.91282,37.65342]]}},{"type":"Feature","properties":{"class":"alley","highway":"service","sidewalk":"unknown","lanes":0,"name":"","oneway":false},"geometry":{"type":"LineString","coordinates":[[126.91165,37.65229],[126.91157,37.6524],[126.91155,37.65243],[126.9115,37.65251],[126.91146,37.65258],[126.91143,37.65263],[126.91133,37.65277]]}},{"type":"Feature","properties":{"class":"minor","highway":"residential","sidewalk":"unknown","lanes":0,"name":"","oneway":false},"geometry":{"type":"LineString","coordinates":[[126.91953,37.65497],[126.91951,37.65497],[126.91846,37.65502],[126.91708,37.65509],[126.91703,37.65506],[126.91695,37.65493],[126.91686,37.65488],[126.9162,37.65493],[126.91615,37.65485],[126.91589,37.65454],[126.91581,37.65449],[126.91531,37.65457],[126.91436,37.65433],[126.9141,37.65427],[126.91403,37.65418],[126.91416,37.65377],[126.91429,37.65336],[126.91431,37.65331]]}},{"type":"Feature","properties":{"class":"minor","highway":"residential","sidewalk":"unknown","lanes":0,"name":"","oneway":false},"geometry":{"type":"LineString","coordinates":[[126.92076,37.65624],[126.92067,37.65618],[126.92043,37.65597],[126.92038,37.65584],[126.9197,37.655],[126.91967,37.65498],[126.91964,37.65497]]}},{"type":"Feature","properties":{"class":"minor","highway":"residential","sidewalk":"unknown","lanes":0,"name":"","oneway":false},"geometry":{"type":"LineString","coordinates":[[126.91964,37.65497],[126.91953,37.65497]]}},{"type":"Feature","properties":{"class":"minor","highway":"residential","sidewalk":"unknown","lanes":0,"name":"오부자2길","oneway":false},"geometry":{"type":"LineString","coordinates":[[126.91848,37.65263],[126.91844,37.65256],[126.91829,37.65227],[126.91791,37.65157],[126.91793,37.65154],[126.91796,37.65149],[126.91844,37.65136],[126.9186,37.65131],[126.91872,37.65125]]}},{"type":"Feature","properties":{"class":"alley","highway":"service","sidewalk":"unknown","lanes":0,"name":"","oneway":false},"geometry":{"type":"LineString","coordinates":[[126.9208,37.64768],[126.9207,37.6478],[126.92061,37.64792],[126.92051,37.64804],[126.91991,37.64775],[126.92001,37.64762],[126.9201,37.6475],[126.9207,37.6478]]}},{"type":"Feature","properties":{"class":"minor","highway":"residential","sidewalk":"unknown","lanes":1,"name":"안진로","oneway":false},"geometry":{"type":"LineString","coordinates":[[126.9135,37.64656],[126.91355,37.64651],[126.91367,37.64642],[126.91466,37.64595],[126.91473,37.64592],[126.91487,37.64586],[126.9151,37.64581],[126.9153,37.64584],[126.91547,37.64586],[126.91558,37.64587],[126.91576,37.64588],[126.91595,37.6459],[126.91642,37.64595],[126.9174,37.64604],[126.91751,37.64605],[126.91801,37.64612],[126.91837,37.64618],[126.91846,37.64619],[126.91924,37.6463],[126.91935,37.64632]]}},{"type":"Feature","properties":{"class":"major","highway":"primary","sidewalk":"likely","lanes":3,"name":"지정로","oneway":false},"geometry":{"type":"LineString","coordinates":[[126.91576,37.64588],[126.91579,37.64595],[126.91604,37.64661],[126.91613,37.64682],[126.91637,37.64739],[126.91642,37.64751],[126.91657,37.64786],[126.91661,37.64794],[126.91705,37.64901],[126.91714,37.64919]]}},{"type":"Feature","properties":{"class":"minor","highway":"residential","sidewalk":"unknown","lanes":0,"name":"안진1길","oneway":false},"geometry":{"type":"LineString","coordinates":[[126.9135,37.64656],[126.91323,37.64678],[126.91287,37.64707],[126.91244,37.64743],[126.91266,37.64797],[126.91313,37.64791],[126.91329,37.64789],[126.91356,37.64786],[126.91385,37.64783],[126.91393,37.64782]]}},{"type":"Feature","properties":{"class":"minor","highway":"residential","sidewalk":"unknown","lanes":0,"name":"안진2길","oneway":false},"geometry":{"type":"LineString","coordinates":[[126.91313,37.64791],[126.91306,37.6477],[126.91287,37.64707]]}},{"type":"Feature","properties":{"class":"minor","highway":"residential","sidewalk":"unknown","lanes":0,"name":"안진2길","oneway":false},"geometry":{"type":"LineString","coordinates":[[126.91306,37.6477],[126.91351,37.64765],[126.91338,37.64721],[126.91323,37.64678]]}},{"type":"Feature","properties":{"class":"minor","highway":"residential","sidewalk":"unknown","lanes":0,"name":"","oneway":false},"geometry":{"type":"LineString","coordinates":[[126.9137,37.64711],[126.91376,37.6471],[126.91404,37.64704],[126.91452,37.64693],[126.91499,37.64684],[126.91548,37.64673],[126.91589,37.64664],[126.91604,37.64661]]}},{"type":"Feature","properties":{"class":"minor","highway":"residential","sidewalk":"unknown","lanes":0,"name":"안진4길","oneway":false},"geometry":{"type":"LineString","coordinates":[[126.9148,37.64767],[126.91439,37.64776],[126.91428,37.64773],[126.91404,37.64704],[126.91392,37.64673],[126.91398,37.64667],[126.9144,37.64658],[126.91452,37.64693],[126.9148,37.64767]]}},{"type":"Feature","properties":{"class":"minor","highway":"residential","sidewalk":"unknown","lanes":0,"name":"","oneway":false},"geometry":{"type":"LineString","coordinates":[[126.9144,37.64658],[126.91433,37.64641]]}},{"type":"Feature","properties":{"class":"minor","highway":"residential","sidewalk":"unknown","lanes":0,"name":"안진5길","oneway":false},"geometry":{"type":"LineString","coordinates":[[126.91526,37.64759],[126.91499,37.64684],[126.91469,37.64603],[126.91466,37.64595]]}},{"type":"Feature","properties":{"class":"minor","highway":"residential","sidewalk":"unknown","lanes":0,"name":"안진6길","oneway":false},"geometry":{"type":"LineString","coordinates":[[126.91613,37.64682],[126.91629,37.64678],[126.91674,37.64666],[126.91692,37.64661],[126.91713,37.64651],[126.91726,37.64639],[126.91738,37.64627],[126.91748,37.6461],[126.91751,37.64605]]}},{"type":"Feature","properties":{"class":"minor","highway":"residential","sidewalk":"unknown","lanes":0,"name":"안진7길","oneway":false},"geometry":{"type":"LineString","coordinates":[[126.91703,37.64733],[126.91716,37.64736],[126.91757,37.6472],[126.91769,37.64713],[126.91781,37.64706],[126.91806,37.64684],[126.91826,37.64663],[126.91837,37.64642],[126.91844,37.64624],[126.91846,37.64619]]}},{"type":"Feature","properties":{"class":"minor","highway":"residential","sidewalk":"unknown","lanes":0,"name":"","oneway":false},"geometry":{"type":"LineString","coordinates":[[126.91713,37.64651],[126.91741,37.64681],[126.91769,37.64713]]}},{"type":"Feature","properties":{"class":"minor","highway":"residential","sidewalk":"unknown","lanes":0,"name":"안진6길","oneway":false},"geometry":{"type":"LineString","coordinates":[[126.9169,37.64703],[126.91718,37.64693],[126.91741,37.64681],[126.91766,37.64664],[126.91789,37.64638],[126.91798,37.64617],[126.91801,37.64612]]}},{"type":"Feature","properties":{"class":"alley","highway":"service","sidewalk":"unknown","lanes":0,"name":"","oneway":false},"geometry":{"type":"LineString","coordinates":[[126.91712,37.64033],[126.91711,37.64038]]}},{"type":"Feature","properties":{"class":"alley","highway":"service","sidewalk":"unknown","lanes":0,"name":"","oneway":false},"geometry":{"type":"LineString","coordinates":[[126.91804,37.64347],[126.91811,37.64348]]}},{"type":"Feature","properties":{"class":"alley","highway":"service","sidewalk":"unknown","lanes":0,"name":"","oneway":false},"geometry":{"type":"LineString","coordinates":[[126.92003,37.6434],[126.92002,37.64345],[126.91994,37.64349]]}},{"type":"Feature","properties":{"class":"alley","highway":"service","sidewalk":"unknown","lanes":0,"name":"","oneway":false},"geometry":{"type":"LineString","coordinates":[[126.91891,37.64035],[126.91884,37.64039]]}},{"type":"Feature","properties":{"class":"minor","highway":"unclassified","sidewalk":"unknown","lanes":0,"name":"","oneway":false},"geometry":{"type":"LineString","coordinates":[[126.91302,37.64553],[126.91298,37.64548]]}},{"type":"Feature","properties":{"class":"major","highway":"secondary","sidewalk":"likely","lanes":1,"name":"오부자로","oneway":false},"geometry":{"type":"LineString","coordinates":[[126.92103,37.64984],[126.92103,37.64993],[126.92104,37.6508],[126.92102,37.65115],[126.92095,37.65145],[126.92075,37.65166],[126.9205,37.65185],[126.92044,37.65189],[126.92037,37.65193],[126.91967,37.65217],[126.91951,37.65223]]}},{"type":"Feature","properties":{"class":"major","highway":"primary","sidewalk":"likely","lanes":3,"name":"지축로","oneway":false},"geometry":{"type":"LineString","coordinates":[[126.9105,37.65147],[126.91069,37.65141],[126.91234,37.65084],[126.91351,37.65044],[126.91403,37.65027],[126.9147,37.65005],[126.91486,37.64999],[126.91502,37.64994],[126.91576,37.64968],[126.91697,37.64925],[126.91714,37.64919]]}},{"type":"Feature","properties":{"class":"minor","highway":"residential","sidewalk":"unknown","lanes":0,"name":"오부자2길","oneway":false},"geometry":{"type":"LineString","coordinates":[[126.91829,37.65227],[126.91878,37.65212],[126.91882,37.65204],[126.91844,37.65136]]}},{"type":"Feature","properties":{"class":"alley","highway":"service","sidewalk":"unknown","lanes":0,"name":"","oneway":false},"geometry":{"type":"LineString","coordinates":[[126.91506,37.65038],[126.91509,37.65042],[126.91516,37.65046]]}},{"type":"Feature","properties":{"class":"alley","highway":"service","sidewalk":"unknown","lanes":0,"name":"","oneway":false},"geometry":{"type":"LineString","coordinates":[[126.91738,37.65053],[126.91723,37.65054]]}},{"type":"Feature","properties":{"class":"alley","highway":"service","sidewalk":"unknown","lanes":0,"name":"","oneway":false},"geometry":{"type":"LineString","coordinates":[[126.91133,37.65277],[126.91126,37.65289]]}},{"type":"Feature","properties":{"class":"alley","highway":"service","sidewalk":"unknown","lanes":0,"name":"","oneway":false},"geometry":{"type":"LineString","coordinates":[[126.91165,37.65229],[126.9117,37.6522]]}},{"type":"Feature","properties":{"class":"alley","highway":"service","sidewalk":"unknown","lanes":0,"name":"","oneway":false},"geometry":{"type":"LineString","coordinates":[[126.91848,37.65263],[126.91851,37.65268],[126.91857,37.65277],[126.91861,37.65282]]}},{"type":"Feature","properties":{"class":"alley","highway":"service","sidewalk":"unknown","lanes":0,"name":"","oneway":false},"geometry":{"type":"LineString","coordinates":[[126.91861,37.65282],[126.91867,37.65291]]}},{"type":"Feature","properties":{"class":"alley","highway":"service","sidewalk":"unknown","lanes":0,"name":"","oneway":false},"geometry":{"type":"LineString","coordinates":[[126.92017,37.65424],[126.91999,37.65428]]}},{"type":"Feature","properties":{"class":"minor","highway":"residential","sidewalk":"unknown","lanes":1,"name":"안진로","oneway":false},"geometry":{"type":"LineString","coordinates":[[126.91959,37.64635],[126.92025,37.64645],[126.92033,37.64646],[126.92041,37.64647],[126.92111,37.64657],[126.92121,37.64659]]}},{"type":"Feature","properties":{"class":"minor","highway":"residential","sidewalk":"unknown","lanes":1,"name":"","oneway":false},"geometry":{"type":"LineString","coordinates":[[126.91935,37.64632],[126.91959,37.64635]]}},{"type":"Feature","properties":{"class":"major","highway":"primary_link","sidewalk":"likely","lanes":3,"name":"고양대로","oneway":true},"geometry":{"type":"LineString","coordinates":[[126.90272,37.64712],[126.90316,37.64706]]}},{"type":"Feature","properties":{"class":"alley","highway":"service","sidewalk":"unknown","lanes":0,"name":"","oneway":false},"geometry":{"type":"LineString","coordinates":[[126.90815,37.64684],[126.90822,37.64681],[126.90824,37.6468],[126.90852,37.64667]]}},{"type":"Feature","properties":{"class":"alley","highway":"service","sidewalk":"unknown","lanes":0,"name":"","oneway":false},"geometry":{"type":"LineString","coordinates":[[126.90852,37.64667],[126.90931,37.6462],[126.90952,37.64643],[126.90977,37.64633],[126.90992,37.64651],[126.90972,37.64671],[126.90919,37.64694],[126.90899,37.64669],[126.90897,37.6467],[126.90868,37.64684],[126.90852,37.64667]]}},{"type":"Feature","properties":{"class":"alley","highway":"service","sidewalk":"unknown","lanes":0,"name":"","oneway":false},"geometry":{"type":"LineString","coordinates":[[126.90897,37.6467],[126.90952,37.64643]]}},{"type":"Feature","properties":{"class":"alley","highway":"service","sidewalk":"unknown","lanes":0,"name":"","oneway":false},"geometry":{"type":"LineString","coordinates":[[126.90977,37.64633],[126.91006,37.64617]]}},{"type":"Feature","properties":{"class":"minor","highway":"residential","sidewalk":"unknown","lanes":0,"name":"","oneway":false},"geometry":{"type":"LineString","coordinates":[[126.90091,37.65471],[126.9005,37.65472]]}},{"type":"Feature","properties":{"class":"minor","highway":"residential","sidewalk":"unknown","lanes":0,"name":"삼송로","oneway":false},"geometry":{"type":"LineString","coordinates":[[126.90223,37.65414],[126.9022,37.65383],[126.90219,37.65371],[126.90218,37.65358]]}},{"type":"Feature","properties":{"class":"minor","highway":"residential","sidewalk":"unknown","lanes":0,"name":"","oneway":false},"geometry":{"type":"LineString","coordinates":[[126.90387,37.65403],[126.90396,37.65422],[126.90402,37.65446]]}},{"type":"Feature","properties":{"class":"minor","highway":"residential","sidewalk":"unknown","lanes":0,"name":"","oneway":false},"geometry":{"type":"LineString","coordinates":[[126.90628,37.65276],[126.90637,37.65289],[126.90641,37.65296],[126.90662,37.65311],[126.90665,37.65319]]}},{"type":"Feature","properties":{"class":"minor","highway":"residential","sidewalk":"unknown","lanes":0,"name":"","oneway":false},"geometry":{"type":"LineString","coordinates":[[126.90216,37.64322],[126.90179,37.64303]]}},{"type":"Feature","properties":{"class":"minor","highway":"residential","sidewalk":"unknown","lanes":0,"name":"","oneway":false},"geometry":{"type":"LineString","coordinates":[[126.91961,37.65989],[126.91973,37.65989],[126.91984,37.65989],[126.92011,37.6599],[126.92032,37.66006],[126.92049,37.66016],[126.92082,37.66026],[126.92109,37.66027],[126.9212,37.66021]]}},{"type":"Feature","properties":{"class":"minor","highway":"residential","sidewalk":"unknown","lanes":0,"name":"일영로","oneway":false},"geometry":{"type":"LineString","coordinates":[[126.91998,37.65876],[126.9199,37.65872],[126.91985,37.65869],[126.91927,37.65828],[126.91918,37.6581]]}},{"type":"Feature","properties":{"class":"alley","highway":"service","sidewalk":"unknown","lanes":0,"name":"","oneway":false},"geometry":{"type":"LineString","coordinates":[[126.90667,37.64205],[126.90669,37.64156]]}},{"type":"Feature","properties":{"class":"alley","highway":"service","sidewalk":"unknown","lanes":0,"name":"","oneway":false},"geometry":{"type":"LineString","coordinates":[[126.90669,37.64156],[126.90664,37.64146],[126.90685,37.64105],[126.90694,37.64097]]}},{"type":"Feature","properties":{"class":"alley","highway":"service","sidewalk":"unknown","lanes":0,"name":"","oneway":false},"geometry":{"type":"LineString","coordinates":[[126.90694,37.64097],[126.90695,37.64115],[126.90676,37.6415],[126.90669,37.64156]]}},{"type":"Feature","properties":{"class":"alley","highway":"service","sidewalk":"unknown","lanes":0,"name":"","oneway":false},"geometry":{"type":"LineString","coordinates":[[126.90694,37.64097],[126.90721,37.64069]]}},{"type":"Feature","properties":{"class":"minor","highway":"unclassified","sidewalk":"unknown","lanes":0,"name":"","oneway":false},"geometry":{"type":"LineString","coordinates":[[126.91367,37.64642],[126.91364,37.64635],[126.91354,37.64619]]}},{"type":"Feature","properties":{"class":"alley","highway":"service","sidewalk":"unknown","lanes":0,"name":"","oneway":false},"geometry":{"type":"LineString","coordinates":[[126.9095,37.65949],[126.90965,37.65961],[126.91039,37.66041]]}},{"type":"Feature","properties":{"class":"alley","highway":"service","sidewalk":"unknown","lanes":0,"name":"","oneway":false},"geometry":{"type":"LineString","coordinates":[[126.90927,37.66028],[126.90929,37.66025],[126.9093,37.66023],[126.90933,37.66015],[126.90939,37.66003],[126.90947,37.65985],[126.90921,37.6596],[126.90921,37.65943],[126.90964,37.65877]]}},{"type":"Feature","properties":{"class":"minor","highway":"residential","sidewalk":"unknown","lanes":1,"name":"오금4로","oneway":false},"geometry":{"type":"LineString","coordinates":[[126.90788,37.65951],[126.90775,37.65978],[126.90772,37.65982],[126.90771,37.65985],[126.90765,37.65996],[126.90763,37.66001]]}},{"type":"Feature","properties":{"class":"alley","highway":"service","sidewalk":"unknown","lanes":0,"name":"","oneway":false},"geometry":{"type":"LineString","coordinates":[[126.90998,37.66013],[126.90939,37.66003],[126.9085,37.65981],[126.90799,37.65964],[126.90804,37.65953],[126.90879,37.65916],[126.90877,37.65896],[126.90881,37.65881],[126.90926,37.65888]]}},{"type":"Feature","properties":{"class":"alley","highway":"service","sidewalk":"unknown","lanes":0,"name":"","oneway":false},"geometry":{"type":"LineString","coordinates":[[126.91204,37.65983],[126.91213,37.65999],[126.91221,37.66012]]}},{"type":"Feature","properties":{"class":"alley","highway":"service","sidewalk":"unknown","lanes":0,"name":"","oneway":false},"geometry":{"type":"LineString","coordinates":[[126.91125,37.66089],[126.91128,37.66086],[126.91129,37.66084],[126.91145,37.66063],[126.91187,37.6601],[126.9118,37.66003],[126.91127,37.65996]]}},{"type":"Feature","properties":{"class":"alley","highway":"service","sidewalk":"unknown","lanes":0,"name":"","oneway":false},"geometry":{"type":"LineString","coordinates":[[126.90508,37.65827],[126.90502,37.65849],[126.90501,37.65852]]}},{"type":"Feature","properties":{"class":"alley","highway":"service","sidewalk":"unknown","lanes":0,"name":"","oneway":false},"geometry":{"type":"LineString","coordinates":[[126.90498,37.65823],[126.90501,37.65792]]}},{"type":"Feature","properties":{"class":"alley","highway":"service","sidewalk":"unknown","lanes":0,"name":"","oneway":false},"geometry":{"type":"LineString","coordinates":[[126.90226,37.65905],[126.90227,37.65907],[126.90228,37.65908],[126.9024,37.65926],[126.90272,37.65908],[126.90299,37.65901],[126.90303,37.65901],[126.90365,37.65899],[126.90383,37.65896],[126.9041,37.65888],[126.90437,37.6588],[126.90454,37.65876],[126.9047,37.65875],[126.90491,37.65877],[126.90514,37.65881],[126.9054,37.6589],[126.90577,37.65902],[126.90606,37.65913],[126.90621,37.65921],[126.90629,37.65931],[126.90652,37.65919],[126.90655,37.65918],[126.90657,37.65917]]}},{"type":"Feature","properties":{"class":"minor","highway":"residential","sidewalk":"unknown","lanes":0,"name":"","oneway":false},"geometry":{"type":"LineString","coordinates":[[126.90002,37.65363],[126.90001,37.65357],[126.8998,37.65298],[126.89978,37.65292],[126.89987,37.65289],[126.90028,37.6528],[126.90034,37.65279],[126.9009,37.65266],[126.90096,37.65265],[126.90169,37.65248],[126.90177,37.65246]]}},{"type":"Feature","properties":{"class":"minor","highway":"residential","sidewalk":"unknown","lanes":0,"name":"","oneway":false},"geometry":{"type":"LineString","coordinates":[[126.90907,37.65192],[126.90913,37.65202],[126.90923,37.65217],[126.90946,37.65244],[126.90928,37.65272],[126.90904,37.65284],[126.90899,37.65304],[126.90901,37.65333],[126.90911,37.6535],[126.90884,37.65391],[126.90874,37.65387]]}},{"type":"Feature","properties":{"class":"minor","highway":"residential","sidewalk":"unknown","lanes":0,"name":"지효로","oneway":false},"geometry":{"type":"LineString","coordinates":[[126.91395,37.64791],[126.91395,37.64789],[126.91393,37.64782]]}},{"type":"Feature","properties":{"class":"minor","highway":"residential","sidewalk":"unknown","lanes":0,"name":"","oneway":false},"geometry":{"type":"LineString","coordinates":[[126.91721,37.64777],[126.91729,37.64775],[126.91777,37.64762],[126.91784,37.6476]]}},{"type":"Feature","properties":{"class":"minor","highway":"residential","sidewalk":"unknown","lanes":0,"name":"안진5길","oneway":false},"geometry":{"type":"LineString","coordinates":[[126.9151,37.64581],[126.91512,37.64589],[126.91548,37.64673],[126.91579,37.64745],[126.91575,37.64752],[126.91559,37.64754],[126.91526,37.64759]]}},{"type":"Feature","properties":{"class":"minor","highway":"residential","sidewalk":"unknown","lanes":0,"name":"","oneway":false},"geometry":{"type":"LineString","coordinates":[[126.91526,37.64759],[126.9148,37.64767]]}},{"type":"Feature","properties":{"class":"minor","highway":"residential","sidewalk":"unknown","lanes":0,"name":"지축1로","oneway":false},"geometry":{"type":"LineString","coordinates":[[126.91588,37.64811],[126.91643,37.64798],[126.91661,37.64794]]}},{"type":"Feature","properties":{"class":"minor","highway":"residential","sidewalk":"unknown","lanes":0,"name":"","oneway":false},"geometry":{"type":"LineString","coordinates":[[126.91588,37.64811],[126.91585,37.64805],[126.91559,37.64754]]}},{"type":"Feature","properties":{"class":"minor","highway":"residential","sidewalk":"unknown","lanes":0,"name":"","oneway":false},"geometry":{"type":"LineString","coordinates":[[126.91642,37.64595],[126.91644,37.646],[126.91674,37.64666],[126.9169,37.64703],[126.91703,37.64733]]}},{"type":"Feature","properties":{"class":"minor","highway":"residential","sidewalk":"unknown","lanes":1,"name":"지효로","oneway":false},"geometry":{"type":"LineString","coordinates":[[126.91411,37.64868],[126.91408,37.6486],[126.91401,37.64832]]}},{"type":"Feature","properties":{"class":"minor","highway":"residential","sidewalk":"unknown","lanes":0,"name":"","oneway":false},"geometry":{"type":"LineString","coordinates":[[126.91128,37.6447],[126.91124,37.64457],[126.91123,37.64452],[126.91138,37.6442],[126.91166,37.64389],[126.91159,37.64361]]}},{"type":"Feature","properties":{"class":"minor","highway":"unclassified","sidewalk":"unknown","lanes":0,"name":"","oneway":false},"geometry":{"type":"LineString","coordinates":[[126.91961,37.65989],[126.91953,37.65987],[126.91924,37.65976],[126.91896,37.6597],[126.91887,37.65959]]}},{"type":"Feature","properties":{"class":"major","highway":"secondary","sidewalk":"likely","lanes":1,"name":"","oneway":false},"geometry":{"type":"LineString","coordinates":[[126.91675,37.6532],[126.91693,37.65315]]}},{"type":"Feature","properties":{"class":"minor","highway":"residential","sidewalk":"unknown","lanes":0,"name":"삼송로221번길","oneway":false},"geometry":{"type":"LineString","coordinates":[[126.9005,37.65501],[126.9005,37.65472],[126.90049,37.65415]]}},{"type":"Feature","properties":{"class":"minor","highway":"residential","sidewalk":"unknown","lanes":0,"name":"통일로214번길","oneway":false},"geometry":{"type":"LineString","coordinates":[[126.90092,37.65503],[126.90091,37.65471],[126.90091,37.65464]]}},{"type":"Feature","properties":{"class":"alley","highway":"service","sidewalk":"unknown","lanes":0,"name":"","oneway":false},"geometry":{"type":"LineString","coordinates":[[126.91436,37.65433],[126.91438,37.65427],[126.91441,37.6542]]}},{"type":"Feature","properties":{"class":"alley","highway":"service","sidewalk":"unknown","lanes":0,"name":"","oneway":false},"geometry":{"type":"LineString","coordinates":[[126.91429,37.65387],[126.9142,37.65415],[126.91441,37.6542],[126.91467,37.65428],[126.91484,37.65433],[126.91507,37.65439],[126.91533,37.65443],[126.91545,37.65437],[126.91547,37.65425]]}},{"type":"Feature","properties":{"class":"alley","highway":"service","sidewalk":"unknown","lanes":0,"name":"","oneway":false},"geometry":{"type":"LineString","coordinates":[[126.91467,37.65428],[126.91472,37.65413]]}},{"type":"Feature","properties":{"class":"alley","highway":"service","sidewalk":"unknown","lanes":0,"name":"","oneway":false},"geometry":{"type":"LineString","coordinates":[[126.91484,37.65433],[126.91488,37.65417]]}},{"type":"Feature","properties":{"class":"alley","highway":"service","sidewalk":"unknown","lanes":0,"name":"","oneway":false},"geometry":{"type":"LineString","coordinates":[[126.91282,37.65342],[126.91268,37.65346]]}},{"type":"Feature","properties":{"class":"alley","highway":"service","sidewalk":"unknown","lanes":0,"name":"","oneway":false},"geometry":{"type":"LineString","coordinates":[[126.91416,37.65377],[126.91424,37.65379],[126.91429,37.6538]]}},{"type":"Feature","properties":{"class":"alley","highway":"service","sidewalk":"unknown","lanes":0,"name":"","oneway":false},"geometry":{"type":"LineString","coordinates":[[126.91429,37.6538],[126.91443,37.65383]]}},{"type":"Feature","properties":{"class":"alley","highway":"service","sidewalk":"unknown","lanes":0,"name":"","oneway":false},"geometry":{"type":"LineString","coordinates":[[126.91547,37.65425],[126.91542,37.65412]]}},{"type":"Feature","properties":{"class":"alley","highway":"service","sidewalk":"unknown","lanes":0,"name":"","oneway":false},"geometry":{"type":"LineString","coordinates":[[126.91791,37.65032],[126.91803,37.65027],[126.91809,37.65023],[126.91828,37.65012]]}},{"type":"Feature","properties":{"class":"alley","highway":"service","sidewalk":"unknown","lanes":0,"name":"","oneway":false},"geometry":{"type":"LineString","coordinates":[[126.9184,37.65002],[126.91841,37.65005],[126.91841,37.65007],[126.9184,37.65009],[126.91838,37.65011],[126.91836,37.65012],[126.91833,37.65013],[126.9183,37.65013],[126.91828,37.65012],[126.91825,37.6501],[126.91824,37.65008],[126.91823,37.65006],[126.91824,37.65004],[126.91825,37.65002],[126.91827,37.65],[126.9183,37.64999],[126.91833,37.64999],[126.91836,37.64999],[126.91838,37.65001],[126.9184,37.65002]]}},{"type":"Feature","properties":{"class":"alley","highway":"service","sidewalk":"unknown","lanes":0,"name":"","oneway":false},"geometry":{"type":"LineString","coordinates":[[126.91827,37.65],[126.91816,37.64984]]}},{"type":"Feature","properties":{"class":"alley","highway":"service","sidewalk":"unknown","lanes":0,"name":"","oneway":false},"geometry":{"type":"LineString","coordinates":[[126.9184,37.65002],[126.91849,37.64996]]}},{"type":"Feature","properties":{"class":"alley","highway":"service","sidewalk":"unknown","lanes":0,"name":"","oneway":false},"geometry":{"type":"LineString","coordinates":[[126.91849,37.64996],[126.91853,37.64983]]}},{"type":"Feature","properties":{"class":"alley","highway":"service","sidewalk":"unknown","lanes":0,"name":"","oneway":false},"geometry":{"type":"LineString","coordinates":[[126.90034,37.65279],[126.90036,37.65284],[126.90037,37.65286],[126.90039,37.65289]]}},{"type":"Feature","properties":{"class":"alley","highway":"service","sidewalk":"unknown","lanes":0,"name":"","oneway":false},"geometry":{"type":"LineString","coordinates":[[126.90034,37.65279],[126.90033,37.65274],[126.90032,37.65273],[126.90031,37.6527]]}},{"type":"Feature","properties":{"class":"alley","highway":"service","sidewalk":"unknown","lanes":0,"name":"","oneway":false},"geometry":{"type":"LineString","coordinates":[[126.90096,37.65265],[126.90098,37.6527],[126.90099,37.65272],[126.901,37.65276]]}},{"type":"Feature","properties":{"class":"alley","highway":"service","sidewalk":"unknown","lanes":0,"name":"","oneway":false},"geometry":{"type":"LineString","coordinates":[[126.90096,37.65265],[126.90094,37.65261],[126.90094,37.65259],[126.90092,37.65255]]}},{"type":"Feature","properties":{"class":"minor","highway":"residential","sidewalk":"unknown","lanes":0,"name":"","oneway":false},"geometry":{"type":"LineString","coordinates":[[126.90156,37.65184],[126.90176,37.65241],[126.90177,37.65246],[126.90179,37.65252],[126.90213,37.65345],[126.90218,37.65358]]}},{"type":"Feature","properties":{"class":"minor","highway":"residential","sidewalk":"unknown","lanes":0,"name":"","oneway":false},"geometry":{"type":"LineString","coordinates":[[126.90126,37.64591],[126.90029,37.64576]]}},{"type":"Feature","properties":{"class":"minor","highway":"residential","sidewalk":"unknown","lanes":0,"name":"","oneway":false},"geometry":{"type":"LineString","coordinates":[[126.90123,37.65936],[126.90121,37.65932],[126.90126,37.65895],[126.90129,37.65891],[126.90166,37.65879],[126.90209,37.65818]]}},{"type":"Feature","properties":{"class":"minor","highway":"residential","sidewalk":"unknown","lanes":0,"name":"","oneway":false},"geometry":{"type":"LineString","coordinates":[[126.90727,37.64648],[126.90719,37.64639],[126.90714,37.64617],[126.90709,37.64613]]}},{"type":"Feature","properties":{"class":"minor","highway":"residential","sidewalk":"unknown","lanes":0,"name":"","oneway":false},"geometry":{"type":"LineString","coordinates":[[126.90991,37.64548],[126.90996,37.64553],[126.91018,37.64582]]}},{"type":"Feature","properties":{"class":"major","highway":"primary","sidewalk":"likely","lanes":3,"name":"통일로","oneway":true},"geometry":{"type":"LineString","coordinates":[[126.91245,37.64414],[126.91426,37.64331],[126.91454,37.64318]]}},{"type":"Feature","properties":{"class":"major","highway":"primary","sidewalk":"likely","lanes":3,"name":"통일로","oneway":true},"geometry":{"type":"LineString","coordinates":[[126.91466,37.64332],[126.91444,37.64343],[126.91424,37.64352],[126.9137,37.64378],[126.91262,37.64422],[126.91255,37.64425],[126.91246,37.64429]]}},{"type":"Feature","properties":{"class":"minor","highway":"residential","sidewalk":"unknown","lanes":0,"name":"","oneway":false},"geometry":{"type":"LineString","coordinates":[[126.90776,37.65314],[126.90753,37.65324]]}},{"type":"Feature","properties":{"class":"minor","highway":"residential","sidewalk":"unknown","lanes":0,"name":"","oneway":false},"geometry":{"type":"LineString","coordinates":[[126.90767,37.65299],[126.90816,37.65286],[126.90817,37.65306]]}},{"type":"Feature","properties":{"class":"minor","highway":"residential","sidewalk":"unknown","lanes":0,"name":"고양대로2002번길","oneway":false},"geometry":{"type":"LineString","coordinates":[[126.90054,37.64518],[126.90026,37.64502],[126.90041,37.64474],[126.89979,37.64441]]}},{"type":"Feature","properties":{"class":"alley","highway":"service","sidewalk":"unknown","lanes":0,"name":"","oneway":false},"geometry":{"type":"LineString","coordinates":[[126.91147,37.64506],[126.91208,37.64481],[126.91223,37.64502],[126.9116,37.64523]]}},{"type":"Feature","properties":{"class":"alley","highway":"service","sidewalk":"unknown","lanes":0,"name":"","oneway":false},"geometry":{"type":"LineString","coordinates":[[126.91156,37.64518],[126.91108,37.6454]]}},{"type":"Feature","properties":{"class":"major","highway":"primary","sidewalk":"likely","lanes":6,"name":"북한산로","oneway":false},"geometry":{"type":"LineString","coordinates":[[126.915,37.64397],[126.9151,37.6442],[126.91525,37.64454]]}},{"type":"Feature","properties":{"class":"major","highway":"primary","sidewalk":"likely","lanes":3,"name":"통일로","oneway":true},"geometry":{"type":"LineString","coordinates":[[126.90513,37.64721],[126.90471,37.64725],[126.90443,37.64728],[126.90422,37.64732],[126.90399,37.64736],[126.90377,37.64742],[126.90357,37.64747],[126.90328,37.64757],[126.90288,37.64773],[126.9025,37.6479]]}},{"type":"Feature","properties":{"class":"major","highway":"primary","sidewalk":"likely","lanes":3,"name":"통일로","oneway":true},"geometry":{"type":"LineString","coordinates":[[126.9025,37.6479],[126.8993,37.64983]]}},{"type":"Feature","properties":{"class":"alley","highway":"service","sidewalk":"unknown","lanes":0,"name":"","oneway":false},"geometry":{"type":"LineString","coordinates":[[126.91536,37.65345],[126.91537,37.65352],[126.91541,37.65357],[126.91556,37.65377]]}},{"type":"Feature","properties":{"class":"alley","highway":"service","sidewalk":"unknown","lanes":0,"name":"","oneway":false},"geometry":{"type":"LineString","coordinates":[[126.91565,37.6539],[126.91561,37.65389],[126.91558,37.65387],[126.91556,37.65384],[126.91555,37.6538],[126.91556,37.65377],[126.91558,37.65374],[126.91561,37.65372],[126.91564,37.65371],[126.91568,37.65371],[126.91572,37.65372],[126.91575,37.65373],[126.91578,37.65375],[126.91579,37.65378],[126.9158,37.65381],[126.91579,37.65384],[126.91576,37.65387],[126.91573,37.65389],[126.91569,37.6539],[126.91565,37.6539]]}},{"type":"Feature","properties":{"class":"alley","highway":"service","sidewalk":"unknown","lanes":0,"name":"","oneway":false},"geometry":{"type":"LineString","coordinates":[[126.91576,37.65387],[126.91581,37.6539]]}},{"type":"Feature","properties":{"class":"alley","highway":"service","sidewalk":"unknown","lanes":0,"name":"","oneway":false},"geometry":{"type":"LineString","coordinates":[[126.91581,37.6539],[126.91586,37.65394]]}},{"type":"Feature","properties":{"class":"alley","highway":"service","sidewalk":"unknown","lanes":0,"name":"","oneway":false},"geometry":{"type":"LineString","coordinates":[[126.91301,37.645],[126.91298,37.64497],[126.91253,37.64486],[126.91239,37.64464]]}},{"type":"Feature","properties":{"class":"minor","highway":"residential","sidewalk":"unknown","lanes":1,"name":"오금3로","oneway":false},"geometry":{"type":"LineString","coordinates":[[126.89984,37.65833],[126.90036,37.65894],[126.90078,37.65938],[126.90082,37.65944],[126.90089,37.65954],[126.90095,37.65965]]}}]}