{"type":"FeatureCollection","features":[{"type":"Feature","properties":{"class":"minor","highway":"residential","sidewalk":"unknown","lanes":2,"name":"삼양로173길","oneway":false},"geometry":{"type":"LineString","coordinates":[[126.99027,37.65573],[126.99036,37.65588],[126.99062,37.65602],[126.99091,37.65607],[126.99112,37.65615],[126.99162,37.6565],[126.99158,37.65659],[126.99157,37.65676],[126.99156,37.6569],[126.99156,37.65701],[126.99155,37.6571],[126.99142,37.65738],[126.99128,37.65766],[126.99127,37.6577],[126.99127,37.65778],[126.99135,37.65781],[126.99138,37.65782],[126.99142,37.65785],[126.99149,37.65776],[126.99162,37.65759],[126.99166,37.65753],[126.99185,37.65734],[126.99204,37.65718],[126.99229,37.65699],[126.99249,37.65684],[126.99266,37.65672],[126.99292,37.65628],[126.99302,37.65612],[126.9931,37.65604],[126.9932,37.65597],[126.99347,37.6559],[126.99381,37.65578],[126.99411,37.65567],[126.99438,37.65561],[126.99468,37.65557],[126.99479,37.65554],[126.99494,37.65549],[126.99515,37.65542],[126.9953,37.65542],[126.99539,37.65543],[126.99579,37.65556],[126.9961,37.65562],[126.99623,37.65566],[126.99639,37.65574],[126.99657,37.65582],[126.99673,37.65591],[126.99712,37.65601],[126.99731,37.65606],[126.99744,37.65608],[126.99772,37.65609],[126.99835,37.65605],[126.99886,37.656],[126.99933,37.65608],[126.99957,37.65614],[126.99967,37.65617],[126.99975,37.65619],[127.00025,37.65645],[127.00054,37.65671],[127.00073,37.65707],[127.00092,37.65757],[127.00096,37.65762],[127.00102,37.65765],[127.00135,37.65783],[127.00164,37.65798],[127.0018,37.65803],[127.00197,37.65805],[127.00211,37.65801],[127.0022,37.65806],[127.0023,37.65811],[127.00259,37.65822],[127.00284,37.65834],[127.00297,37.65838],[127.00316,37.65837],[127.00337,37.65835],[127.00346,37.65835],[127.00356,37.65839],[127.00378,37.65849],[127.00409,37.65874],[127.00413,37.65878],[127.00423,37.65895],[127.00447,37.65942],[127.0047,37.65966],[127.005,37.65994],[127.00561,37.66047],[127.00575,37.66056],[127.00595,37.66065],[127.00628,37.66076],[127.00667,37.66087]]}},{"type":"Feature","properties":{"class":"alley","highway":"service","sidewalk":"unknown","lanes":0,"name":"","oneway":false},"geometry":{"type":"LineString","coordinates":[[127.00211,37.65801],[127.0021,37.65787],[127.00202,37.65773],[127.00179,37.65754],[127.00148,37.6574],[127.00116,37.65725],[127.00098,37.65716],[127.00088,37.65701],[127.00075,37.6568],[127.00065,37.65656],[127.00049,37.65627],[127.00045,37.65604],[127.00033,37.65596],[127.00031,37.65592],[127.00028,37.65581],[127.00021,37.65569],[127.00014,37.65552],[127.00008,37.65543],[126.99999,37.6554],[126.99992,37.65542],[126.99983,37.65546],[126.99976,37.65546],[126.9997,37.65547],[126.99963,37.65546],[126.99959,37.65545],[126.99951,37.65544],[126.99927,37.65542],[126.99906,37.65542],[126.99888,37.65545],[126.99875,37.6555]]}},{"type":"Feature","properties":{"class":"alley","highway":"service","sidewalk":"unknown","lanes":0,"name":"","oneway":false},"geometry":{"type":"LineString","coordinates":[[126.99142,37.65785],[126.99133,37.65797],[126.99122,37.65811]]}},{"type":"Feature","properties":{"class":"alley","highway":"service","sidewalk":"unknown","lanes":0,"name":"","oneway":false},"geometry":{"type":"LineString","coordinates":[[126.99133,37.65797],[126.9914,37.65801],[126.99147,37.65803],[126.99154,37.65799],[126.99155,37.65793],[126.99152,37.65787],[126.99142,37.65785]]}}]}