{"type":"FeatureCollection","features":[{"type":"Feature","properties":{"class":"major","highway":"secondary","sidewalk":"likely","lanes":2,"name":"방학로","oneway":false},"geometry":{"type":"LineString","coordinates":[[127.01688,37.66226],[127.01695,37.66231],[127.01702,37.66236],[127.01714,37.6624],[127.0174,37.66247],[127.0188,37.66265],[127.01933,37.66275],[127.01972,37.66282],[127.02019,37.66287],[127.02057,37.66287],[127.02087,37.66285],[127.02117,37.6628],[127.02138,37.66274],[127.02152,37.66268],[127.02209,37.66241],[127.02272,37.6621],[127.0234,37.66174],[127.02354,37.66169],[127.02377,37.6616],[127.02394,37.66154],[127.02414,37.6615],[127.0243,37.66149],[127.02446,37.66147],[127.02468,37.66147],[127.02538,37.66151],[127.02587,37.66155],[127.02641,37.66161],[127.02683,37.66166],[127.02756,37.66177]]}},{"type":"Feature","properties":{"class":"minor","highway":"residential","sidewalk":"unknown","lanes":0,"name":"삼양로181길","oneway":false},"geometry":{"type":"LineString","coordinates":[[127.00752,37.67043],[127.00765,37.67018],[127.00775,37.66986],[127.00781,37.66964],[127.00798,37.66939],[127.00814,37.66913],[127.00845,37.66886],[127.00864,37.66869],[127.00878,37.66856],[127.00885,37.66833],[127.00885,37.66814],[127.00875,37.66797],[127.00867,37.66784],[127.00877,37.66765],[127.00897,37.66739],[127.0091,37.6672],[127.00933,37.66695],[127.00973,37.66682],[127.01029,37.66671],[127.01059,37.66642],[127.01069,37.66621]]}},{"type":"Feature","properties":{"class":"minor","highway":"residential","sidewalk":"unknown","lanes":2,"name":"삼양로173길","oneway":false},"geometry":{"type":"LineString","coordinates":[[126.99027,37.65573],[126.99036,37.65588],[126.99062,37.65602],[126.99091,37.65607],[126.99112,37.65615],[126.99162,37.6565],[126.99158,37.65659],[126.99157,37.65676],[126.99156,37.6569],[126.99156,37.65701],[126.99155,37.6571],[126.99142,37.65738],[126.99128,37.65766],[126.99127,37.6577],[126.99127,37.65778],[126.99135,37.65781],[126.99138,37.65782],[126.99142,37.65785],[126.99149,37.65776],[126.99162,37.65759],[126.99166,37.65753],[126.99185,37.65734],[126.99204,37.65718],[126.99229,37.65699],[126.99249,37.65684],[126.99266,37.65672],[126.99292,37.65628],[126.99302,37.65612],[126.9931,37.65604],[126.9932,37.65597],[126.99347,37.6559],[126.99381,37.65578],[126.99411,37.65567],[126.99438,37.65561],[126.99468,37.65557],[126.99479,37.65554],[126.99494,37.65549],[126.99515,37.65542],[126.9953,37.65542],[126.99539,37.65543],[126.99579,37.65556],[126.9961,37.65562],[126.99623,37.65566],[126.99639,37.65574],[126.99657,37.65582],[126.99673,37.65591],[126.99712,37.65601],[126.99731,37.65606],[126.99744,37.65608],[126.99772,37.65609],[126.99835,37.65605],[126.99886,37.656],[126.99933,37.65608],[126.99957,37.65614],[126.99967,37.65617],[126.99975,37.65619],[127.00025,37.65645],[127.00054,37.65671],[127.00073,37.65707],[127.00092,37.65757],[127.00096,37.65762],[127.00102,37.65765],[127.00135,37.65783],[127.00164,37.65798],[127.0018,37.65803],[127.00197,37.65805],[127.00211,37.65801],[127.0022,37.65806],[127.0023,37.65811],[127.00259,37.65822],[127.00284,37.65834],[127.00297,37.65838],[127.00316,37.65837],[127.00337,37.65835],[127.00346,37.65835],[127.00356,37.65839],[127.00378,37.65849],[127.00409,37.65874],[127.00413,37.65878],[127.00423,37.65895],[127.00447,37.65942],[127.0047,37.65966],[127.005,37.65994],[127.00561,37.66047],[127.00575,37.66056],[127.00595,37.66065],[127.00628,37.66076],[127.00667,37.66087]]}},{"type":"Feature","properties":{"class":"major","highway":"secondary","sidewalk":"likely","lanes":0,"name":"삼양로","oneway":false},"geometry":{"type":"LineString","coordinates":[[127.01257,37.66318],[127.01249,37.66332],[127.01206,37.66401],[127.01204,37.66404],[127.01197,37.66414]]}},{"type":"Feature","properties":{"class":"alley","highway":"service","sidewalk":"unknown","lanes":0,"name":"삼양로181길","oneway":false},"geometry":{"type":"LineString","coordinates":[[127.00522,37.67406],[127.00512,37.67424],[127.00499,37.67441],[127.00431,37.67527],[127.00394,37.67569],[127.00381,37.67586]]}},{"type":"Feature","properties":{"class":"minor","highway":"residential","sidewalk":"unknown","lanes":0,"name":"삼양로163나길","oneway":false},"geometry":{"type":"LineString","coordinates":[[127.01149,37.66121],[127.01158,37.66098],[127.01166,37.66083],[127.01176,37.66067],[127.01185,37.66055],[127.01195,37.66039],[127.01206,37.66023],[127.0121,37.66009],[127.01214,37.65998],[127.01225,37.65978],[127.01227,37.65966],[127.01237,37.65956],[127.01243,37.65934],[127.01247,37.65913],[127.01248,37.65897],[127.01245,37.65891],[127.01245,37.6588],[127.01242,37.65874],[127.01243,37.65863]]}},{"type":"Feature","properties":{"class":"minor","highway":"residential","sidewalk":"unknown","lanes":0,"name":"삼양로165길","oneway":false},"geometry":{"type":"LineString","coordinates":[[127.01149,37.66121],[127.01167,37.66111],[127.01197,37.66087],[127.01221,37.66069],[127.01265,37.66049],[127.0129,37.66033],[127.01297,37.66026],[127.01267,37.66021],[127.01249,37.66017],[127.01238,37.66015],[127.0121,37.66009]]}},{"type":"Feature","properties":{"class":"minor","highway":"residential","sidewalk":"unknown","lanes":0,"name":"삼양로163가길","oneway":false},"geometry":{"type":"LineString","coordinates":[[127.01249,37.66017],[127.0127,37.65957],[127.01302,37.65962]]}},{"type":"Feature","properties":{"class":"minor","highway":"residential","sidewalk":"unknown","lanes":0,"name":"삼양로163가길","oneway":false},"geometry":{"type":"LineString","coordinates":[[127.01297,37.66026],[127.01303,37.65993],[127.01302,37.65962],[127.01303,37.65946],[127.01305,37.65936],[127.0132,37.65929],[127.01319,37.65867]]}},{"type":"Feature","properties":{"class":"minor","highway":"residential","sidewalk":"unknown","lanes":0,"name":"삼양로165길","oneway":false},"geometry":{"type":"LineString","coordinates":[[127.01297,37.66026],[127.0131,37.66015],[127.0133,37.65993],[127.01339,37.6598],[127.01351,37.65976],[127.01357,37.65974],[127.0138,37.65976]]}},{"type":"Feature","properties":{"class":"minor","highway":"residential","sidewalk":"unknown","lanes":0,"name":"삼양로169길","oneway":false},"geometry":{"type":"LineString","coordinates":[[127.01102,37.66203],[127.01104,37.66199],[127.01117,37.66176],[127.01128,37.66155],[127.01149,37.66121]]}},{"type":"Feature","properties":{"class":"minor","highway":"residential","sidewalk":"unknown","lanes":0,"name":"삼양로173길","oneway":false},"geometry":{"type":"LineString","coordinates":[[127.0106,37.66267],[127.01066,37.66258],[127.01076,37.66243],[127.01089,37.66223],[127.01102,37.66203]]}},{"type":"Feature","properties":{"class":"minor","highway":"residential","sidewalk":"unknown","lanes":0,"name":"삼양로173가길","oneway":false},"geometry":{"type":"LineString","coordinates":[[127.01102,37.66203],[127.01125,37.66214],[127.01146,37.66222],[127.01174,37.66231],[127.01185,37.66238],[127.01182,37.66246],[127.01173,37.66259],[127.01172,37.66274],[127.01174,37.66297]]}},{"type":"Feature","properties":{"class":"minor","highway":"residential","sidewalk":"unknown","lanes":1,"name":"삼양로169길","oneway":false},"geometry":{"type":"LineString","coordinates":[[127.0134,37.6612],[127.01327,37.66119],[127.013,37.66116],[127.01292,37.66117],[127.01272,37.66118],[127.01257,37.66119],[127.01231,37.66124],[127.01212,37.66129],[127.01192,37.66131],[127.01173,37.66128],[127.01149,37.66121],[127.01131,37.66119],[127.01103,37.66122],[127.011,37.66122],[127.01072,37.66127],[127.01058,37.66129],[127.01046,37.66128],[127.01038,37.66127],[127.01014,37.66124],[127.00989,37.66119],[127.0095,37.66112],[127.00912,37.66106],[127.00886,37.66101]]}},{"type":"Feature","properties":{"class":"minor","highway":"residential","sidewalk":"unknown","lanes":0,"name":"삼양로173길","oneway":false},"geometry":{"type":"LineString","coordinates":[[127.00857,37.66204],[127.00872,37.66152],[127.00886,37.66101]]}},{"type":"Feature","properties":{"class":"minor","highway":"residential","sidewalk":"unknown","lanes":0,"name":"삼양로173가길","oneway":false},"geometry":{"type":"LineString","coordinates":[[127.00872,37.66152],[127.00928,37.66161],[127.00994,37.66173],[127.01002,37.66175],[127.01038,37.66182],[127.01046,37.66184],[127.01097,37.66196],[127.01104,37.66199]]}},{"type":"Feature","properties":{"class":"minor","highway":"residential","sidewalk":"unknown","lanes":0,"name":"삼양로173길","oneway":false},"geometry":{"type":"LineString","coordinates":[[127.00982,37.66229],[127.00991,37.66212],[127.01002,37.66175]]}},{"type":"Feature","properties":{"class":"minor","highway":"residential","sidewalk":"unknown","lanes":0,"name":"삼양로169길","oneway":false},"geometry":{"type":"LineString","coordinates":[[127.01002,37.66175],[127.01014,37.66124]]}},{"type":"Feature","properties":{"class":"minor","highway":"residential","sidewalk":"unknown","lanes":0,"name":"삼양로169길","oneway":false},"geometry":{"type":"LineString","coordinates":[[127.01038,37.66182],[127.01053,37.66169],[127.01046,37.66128]]}},{"type":"Feature","properties":{"class":"minor","highway":"residential","sidewalk":"unknown","lanes":0,"name":"삼양로169길","oneway":false},"geometry":{"type":"LineString","coordinates":[[127.01053,37.66169],[127.01075,37.66169],[127.01096,37.66165],[127.01102,37.66155],[127.01101,37.66142],[127.01103,37.66122]]}},{"type":"Feature","properties":{"class":"minor","highway":"residential","sidewalk":"unknown","lanes":0,"name":"삼양로173길","oneway":false},"geometry":{"type":"LineString","coordinates":[[127.00991,37.66212],[127.01006,37.66219],[127.01032,37.66229],[127.01033,37.66235],[127.01019,37.66248]]}},{"type":"Feature","properties":{"class":"minor","highway":"residential","sidewalk":"unknown","lanes":0,"name":"삼양로171길","oneway":false},"geometry":{"type":"LineString","coordinates":[[127.01185,37.66238],[127.01231,37.6622],[127.01242,37.66216],[127.01264,37.66209],[127.01276,37.66206],[127.01288,37.66196],[127.01304,37.66195],[127.01319,37.66193]]}},{"type":"Feature","properties":{"class":"minor","highway":"residential","sidewalk":"unknown","lanes":0,"name":"삼양로169길","oneway":false},"geometry":{"type":"LineString","coordinates":[[127.01192,37.66131],[127.01188,37.66142],[127.01191,37.66156],[127.01196,37.66169],[127.01199,37.6619]]}},{"type":"Feature","properties":{"class":"minor","highway":"residential","sidewalk":"unknown","lanes":0,"name":"삼양로169길","oneway":false},"geometry":{"type":"LineString","coordinates":[[127.01242,37.66216],[127.01252,37.66188],[127.01257,37.66163],[127.01265,37.66134],[127.01272,37.66118]]}},{"type":"Feature","properties":{"class":"minor","highway":"residential","sidewalk":"unknown","lanes":0,"name":"삼양로169길","oneway":false},"geometry":{"type":"LineString","coordinates":[[127.01292,37.66117],[127.01282,37.66152]]}},{"type":"Feature","properties":{"class":"minor","highway":"residential","sidewalk":"unknown","lanes":0,"name":"삼양로170길","oneway":false},"geometry":{"type":"LineString","coordinates":[[127.0134,37.6612],[127.01358,37.66111],[127.01397,37.66113],[127.01451,37.66114],[127.01452,37.66125],[127.01454,37.6614],[127.01451,37.66152],[127.01437,37.66189],[127.01418,37.66221],[127.014,37.66237],[127.0138,37.66253],[127.01328,37.66297],[127.0132,37.66303]]}},{"type":"Feature","properties":{"class":"minor","highway":"residential","sidewalk":"unknown","lanes":0,"name":"","oneway":false},"geometry":{"type":"LineString","coordinates":[[127.01276,37.66284],[127.01293,37.66288],[127.013,37.66291],[127.01305,37.66299],[127.0132,37.66303]]}},{"type":"Feature","properties":{"class":"alley","highway":"service","sidewalk":"unknown","lanes":0,"name":"해등로32가길","oneway":false},"geometry":{"type":"LineString","coordinates":[[127.02178,37.66055],[127.02168,37.66058],[127.0216,37.66062],[127.02152,37.6607],[127.02146,37.66086],[127.02137,37.66091],[127.02126,37.66094],[127.02119,37.66098],[127.0211,37.66102],[127.02109,37.66111],[127.0211,37.66116],[127.02106,37.66134],[127.02094,37.66141],[127.02085,37.66149],[127.02072,37.66152],[127.02062,37.66151],[127.0205,37.66149],[127.02038,37.66145],[127.02034,37.66141],[127.02026,37.66137],[127.02021,37.6613],[127.02016,37.66128],[127.02007,37.66126],[127.01982,37.66123],[127.01962,37.66121],[127.0195,37.66117],[127.0194,37.66112],[127.01924,37.66101],[127.01915,37.66092]]}},{"type":"Feature","properties":{"class":"minor","highway":"residential","sidewalk":"unknown","lanes":0,"name":"삼양로181길","oneway":false},"geometry":{"type":"LineString","coordinates":[[127.00752,37.67043],[127.00712,37.67084],[127.00625,37.67146],[127.00605,37.67165],[127.00603,37.67184],[127.00592,37.6723],[127.00583,37.67254],[127.00571,37.67266],[127.00557,37.6728],[127.00552,37.67296],[127.00542,37.67343],[127.00528,37.67379],[127.00522,37.67406]]}},{"type":"Feature","properties":{"class":"major","highway":"secondary","sidewalk":"likely","lanes":0,"name":"삼양로","oneway":false},"geometry":{"type":"LineString","coordinates":[[127.0134,37.6612],[127.01319,37.66193],[127.01317,37.662],[127.01308,37.66222],[127.01276,37.66284],[127.01264,37.66304],[127.01257,37.66318]]}},{"type":"Feature","properties":{"class":"major","highway":"secondary","sidewalk":"likely","lanes":0,"name":"삼양로","oneway":false},"geometry":{"type":"LineString","coordinates":[[127.0137,37.65784],[127.01377,37.65823],[127.01381,37.65849],[127.01388,37.6589],[127.01389,37.65935],[127.01381,37.65973],[127.0138,37.65976],[127.01374,37.66006],[127.01355,37.66067],[127.01346,37.66098],[127.0134,37.6612]]}},{"type":"Feature","properties":{"class":"major","highway":"secondary","sidewalk":"likely","lanes":1,"name":"우이역 회전교차로","oneway":true},"geometry":{"type":"LineString","coordinates":[[127.01194,37.66444],[127.01187,37.66444],[127.01181,37.66442],[127.01176,37.66439],[127.01172,37.66435],[127.01171,37.6643],[127.01171,37.66424],[127.01172,37.66423],[127.01174,37.6642],[127.01179,37.66416],[127.01184,37.66414],[127.01191,37.66413],[127.01197,37.66414],[127.01202,37.66417],[127.01206,37.6642],[127.01209,37.66424],[127.01209,37.66429],[127.01208,37.66434],[127.01205,37.66438],[127.012,37.66442],[127.01194,37.66444]]}},{"type":"Feature","properties":{"class":"minor","highway":"residential","sidewalk":"unknown","lanes":0,"name":"삼양로162가길","oneway":false},"geometry":{"type":"LineString","coordinates":[[127.01474,37.65811],[127.01474,37.65816],[127.01477,37.65846],[127.01496,37.65932],[127.01481,37.65982],[127.01473,37.66006],[127.01473,37.66014],[127.01474,37.66034],[127.01479,37.66095],[127.01483,37.66126],[127.01493,37.66148],[127.01504,37.66159],[127.01507,37.66163]]}},{"type":"Feature","properties":{"class":"minor","highway":"residential","sidewalk":"unknown","lanes":0,"name":"삼양로181길","oneway":false},"geometry":{"type":"LineString","coordinates":[[127.01078,37.66601],[127.01087,37.66584],[127.01107,37.66555]]}},{"type":"Feature","properties":{"class":"minor","highway":"residential","sidewalk":"unknown","lanes":0,"name":"","oneway":false},"geometry":{"type":"LineString","coordinates":[[127.01069,37.66621],[127.01078,37.66601]]}},{"type":"Feature","properties":{"class":"minor","highway":"residential","sidewalk":"unknown","lanes":0,"name":"삼양로181길","oneway":false},"geometry":{"type":"LineString","coordinates":[[127.01107,37.66555],[127.01127,37.66536],[127.01154,37.66489],[127.01181,37.66442]]}},{"type":"Feature","properties":{"class":"minor","highway":"residential","sidewalk":"unknown","lanes":1,"name":"삼양로179길","oneway":false},"geometry":{"type":"LineString","coordinates":[[127.01171,37.6643],[127.01162,37.6643],[127.01154,37.66434],[127.01128,37.66446],[127.01096,37.66456],[127.01077,37.66464],[127.01048,37.66478],[127.01036,37.66483],[127.01019,37.66492],[127.01011,37.66497],[127.01005,37.66501],[127.01002,37.66505],[127.00998,37.6651],[127.00995,37.66515],[127.00992,37.66521],[127.00989,37.6653],[127.00987,37.6654],[127.00986,37.66546],[127.00986,37.66552],[127.00986,37.66556],[127.00986,37.66561],[127.00987,37.66567],[127.00987,37.66572],[127.00986,37.66578],[127.00985,37.66583],[127.00981,37.66594],[127.00977,37.66609]]}},{"type":"Feature","properties":{"class":"minor","highway":"residential","sidewalk":"unknown","lanes":1,"name":"삼양로169길","oneway":false},"geometry":{"type":"LineString","coordinates":[[127.00886,37.66101],[127.00844,37.66103],[127.0081,37.66107],[127.00762,37.66125]]}},{"type":"Feature","properties":{"class":"minor","highway":"residential","sidewalk":"unknown","lanes":1,"name":"삼양로179길","oneway":false},"geometry":{"type":"LineString","coordinates":[[127.00977,37.66609],[127.00973,37.66618],[127.00956,37.66646],[127.00907,37.66695],[127.00884,37.6672],[127.00854,37.66745],[127.00846,37.66752],[127.0084,37.66756],[127.00833,37.6676],[127.00828,37.66762],[127.00818,37.66764],[127.00798,37.66766],[127.00782,37.66769],[127.00754,37.66778],[127.00744,37.66783],[127.00738,37.66787],[127.0073,37.66795],[127.00722,37.66803],[127.00705,37.66851],[127.00695,37.66873],[127.00692,37.66896],[127.00689,37.66912],[127.00683,37.66926],[127.00664,37.66959],[127.00659,37.66972],[127.00653,37.66986],[127.00647,37.66998],[127.00639,37.67014],[127.00633,37.67021],[127.00629,37.67026],[127.00624,37.6703],[127.00619,37.67033],[127.00614,37.67036],[127.00607,37.67039],[127.00559,37.67057],[127.00548,37.6706],[127.00531,37.67063],[127.00524,37.67065],[127.00518,37.67068],[127.00513,37.67071],[127.00499,37.67082],[127.00491,37.6709],[127.00488,37.67093],[127.00485,37.67097],[127.00481,37.67104],[127.00478,37.6711],[127.00473,37.67127],[127.00471,37.67134],[127.00471,37.67141],[127.00471,37.67151],[127.00469,37.67181],[127.00467,37.67193],[127.00465,37.67201],[127.00461,37.67214],[127.00457,37.67226],[127.00453,37.67236],[127.00438,37.67257],[127.00427,37.67274],[127.00421,37.67287],[127.00416,37.67299],[127.00381,37.67368],[127.00367,37.67393],[127.0036,37.67401],[127.00348,37.6741],[127.0034,37.67418],[127.00325,37.67436],[127.00317,37.67445],[127.00306,37.67462],[127.00301,37.67474],[127.00295,37.67493],[127.00288,37.67518],[127.00285,37.67541]]}},{"type":"Feature","properties":{"class":"minor","highway":"residential","sidewalk":"unknown","lanes":1,"name":"삼양로179길","oneway":false},"geometry":{"type":"LineString","coordinates":[[127.00285,37.67541],[127.00279,37.6755],[127.0027,37.67558],[127.00253,37.67571],[127.00245,37.67578],[127.00231,37.67593],[127.00229,37.676],[127.0023,37.67605],[127.00232,37.67611],[127.00234,37.67616],[127.00234,37.67621],[127.00231,37.67633],[127.00212,37.67679],[127.00211,37.67685],[127.00212,37.67689],[127.00214,37.67697],[127.0022,37.67712],[127.00224,37.67717],[127.00229,37.6772],[127.00235,37.67724],[127.0024,37.67726],[127.00246,37.6773],[127.00252,37.67732],[127.0026,37.67734],[127.00269,37.67736],[127.00281,37.67742],[127.0029,37.67746],[127.00308,37.67753],[127.0032,37.67759],[127.00331,37.67769],[127.00336,37.67776]]}},{"type":"Feature","properties":{"class":"alley","highway":"service","sidewalk":"unknown","lanes":0,"name":"삼양로181길","oneway":false},"geometry":{"type":"LineString","coordinates":[[127.00381,37.67586],[127.00349,37.67627],[127.00338,37.67649],[127.00334,37.67664],[127.00332,37.67669],[127.0033,37.67675],[127.0033,37.6768],[127.0033,37.67689],[127.00332,37.67697],[127.00334,37.67704],[127.00337,37.67708],[127.00338,37.67713],[127.0034,37.67723],[127.0034,37.67733],[127.0034,37.67743],[127.00338,37.67753],[127.00336,37.67762],[127.00336,37.67776],[127.00336,37.67777]]}},{"type":"Feature","properties":{"class":"minor","highway":"residential","sidewalk":"unknown","lanes":2,"name":"삼양로173길","oneway":false},"geometry":{"type":"LineString","coordinates":[[127.00762,37.66125],[127.00768,37.66132],[127.00769,37.66133],[127.00796,37.66162],[127.00801,37.66166],[127.00825,37.66187],[127.00832,37.66192],[127.00838,37.66196],[127.00844,37.66199],[127.00857,37.66204],[127.00899,37.66208],[127.00929,37.66214],[127.00944,37.66217],[127.00962,37.66222],[127.00982,37.66229],[127.00996,37.66235],[127.01008,37.66241],[127.01019,37.66248],[127.01027,37.66253],[127.01035,37.66258],[127.01045,37.66262],[127.0106,37.66267],[127.01118,37.66282],[127.01174,37.66297],[127.01229,37.66311],[127.01241,37.66314],[127.01257,37.66318]]}},{"type":"Feature","properties":{"class":"minor","highway":"residential","sidewalk":"unknown","lanes":2,"name":"삼양로173길","oneway":false},"geometry":{"type":"LineString","coordinates":[[127.00667,37.66087],[127.00691,37.66095],[127.00721,37.66107],[127.00749,37.66117],[127.00762,37.66125]]}},{"type":"Feature","properties":{"class":"minor","highway":"residential","sidewalk":"unknown","lanes":0,"name":"","oneway":false},"geometry":{"type":"LineString","coordinates":[[127.01076,37.66345],[127.01083,37.66311],[127.01047,37.66305],[127.01037,37.66349]]}},{"type":"Feature","properties":{"class":"minor","highway":"residential","sidewalk":"unknown","lanes":0,"name":"","oneway":false},"geometry":{"type":"LineString","coordinates":[[127.00962,37.66222],[127.0094,37.66287],[127.00949,37.6629],[127.00979,37.66294],[127.01012,37.66299],[127.01047,37.66305],[127.0106,37.66267]]}},{"type":"Feature","properties":{"class":"minor","highway":"residential","sidewalk":"unknown","lanes":0,"name":"","oneway":false},"geometry":{"type":"LineString","coordinates":[[127.0097,37.6634],[127.00979,37.66294],[127.00985,37.66266]]}},{"type":"Feature","properties":{"class":"minor","highway":"residential","sidewalk":"unknown","lanes":0,"name":"","oneway":false},"geometry":{"type":"LineString","coordinates":[[127.01,37.66351],[127.01012,37.66299],[127.01018,37.66271]]}},{"type":"Feature","properties":{"class":"alley","highway":"service","sidewalk":"unknown","lanes":0,"name":"","oneway":false},"geometry":{"type":"LineString","coordinates":[[127.00895,37.66259],[127.00933,37.66268]]}},{"type":"Feature","properties":{"class":"alley","highway":"service","sidewalk":"unknown","lanes":0,"name":"","oneway":false},"geometry":{"type":"LineString","coordinates":[[127.00901,37.66238],[127.00895,37.66259],[127.00892,37.66272]]}},{"type":"Feature","properties":{"class":"alley","highway":"service","sidewalk":"unknown","lanes":0,"name":"","oneway":false},"geometry":{"type":"LineString","coordinates":[[127.00899,37.66208],[127.00897,37.66218],[127.00892,37.66235],[127.00901,37.66238],[127.0094,37.66248]]}},{"type":"Feature","properties":{"class":"minor","highway":"residential","sidewalk":"unknown","lanes":0,"name":"","oneway":false},"geometry":{"type":"LineString","coordinates":[[127.00949,37.6629],[127.00941,37.6632]]}},{"type":"Feature","properties":{"class":"minor","highway":"residential","sidewalk":"unknown","lanes":0,"name":"","oneway":false},"geometry":{"type":"LineString","coordinates":[[127.00941,37.6632],[127.0097,37.6634],[127.00975,37.66344],[127.00991,37.6635],[127.00996,37.66351],[127.01,37.66351],[127.01037,37.66349],[127.01059,37.66348],[127.01076,37.66345]]}},{"type":"Feature","properties":{"class":"minor","highway":"residential","sidewalk":"unknown","lanes":0,"name":"","oneway":false},"geometry":{"type":"LineString","coordinates":[[127.01323,37.66069],[127.01337,37.66031]]}},{"type":"Feature","properties":{"class":"minor","highway":"residential","sidewalk":"unknown","lanes":0,"name":"","oneway":false},"geometry":{"type":"LineString","coordinates":[[127.01281,37.66089],[127.01324,37.66094],[127.01346,37.66098]]}},{"type":"Feature","properties":{"class":"minor","highway":"residential","sidewalk":"unknown","lanes":0,"name":"","oneway":false},"geometry":{"type":"LineString","coordinates":[[127.01324,37.66094],[127.01323,37.66069],[127.01293,37.66064],[127.01289,37.66064],[127.01287,37.66065],[127.01286,37.66067],[127.01281,37.66089],[127.01272,37.66118]]}},{"type":"Feature","properties":{"class":"minor","highway":"residential","sidewalk":"unknown","lanes":0,"name":"","oneway":false},"geometry":{"type":"LineString","coordinates":[[127.01374,37.66006],[127.01428,37.66014],[127.01438,37.66018],[127.01444,37.6605],[127.01451,37.66114]]}},{"type":"Feature","properties":{"class":"minor","highway":"residential","sidewalk":"unknown","lanes":0,"name":"","oneway":false},"geometry":{"type":"LineString","coordinates":[[127.0152,37.66157],[127.01523,37.66151],[127.01526,37.66146],[127.01528,37.66143],[127.01531,37.66142],[127.01544,37.66137],[127.01557,37.66133],[127.01562,37.6613],[127.01576,37.66118],[127.0158,37.66113],[127.01584,37.66108],[127.01589,37.66089],[127.01591,37.66073],[127.01594,37.66025],[127.01555,37.66022],[127.01493,37.66017],[127.01481,37.66015],[127.01473,37.66014]]}},{"type":"Feature","properties":{"class":"alley","highway":"service","sidewalk":"unknown","lanes":0,"name":"","oneway":false},"geometry":{"type":"LineString","coordinates":[[127.02152,37.66268],[127.02146,37.66292],[127.02138,37.66324],[127.02134,37.66341],[127.02125,37.66349],[127.02103,37.66361],[127.02074,37.66376],[127.02058,37.66382],[127.02045,37.66386],[127.02027,37.66393],[127.02014,37.66404],[127.02,37.66423],[127.01991,37.66435],[127.0198,37.6645],[127.01968,37.66462],[127.01953,37.66477],[127.01943,37.66483],[127.01924,37.66488],[127.01904,37.66493],[127.01893,37.66496],[127.01891,37.66504],[127.01894,37.66512],[127.01895,37.66525],[127.0187,37.6655],[127.01852,37.66573],[127.01843,37.66586],[127.01839,37.66598],[127.01832,37.66604],[127.01799,37.66609]]}},{"type":"Feature","properties":{"class":"minor","highway":"residential","sidewalk":"unknown","lanes":1,"name":"삼양로179길","oneway":false},"geometry":{"type":"LineString","coordinates":[[127.0024,37.67726],[127.00334,37.67704]]}},{"type":"Feature","properties":{"class":"alley","highway":"service","sidewalk":"unknown","lanes":0,"name":"","oneway":false},"geometry":{"type":"LineString","coordinates":[[127.00653,37.66111],[127.00651,37.66115],[127.00659,37.66132],[127.00667,37.66158],[127.00667,37.66166],[127.00664,37.6617],[127.0065,37.66177],[127.00631,37.66185],[127.00612,37.66189],[127.00594,37.6619],[127.00583,37.66203],[127.00578,37.6621],[127.00563,37.66212],[127.00553,37.66223],[127.00542,37.66236],[127.00535,37.66241],[127.00509,37.66253],[127.00497,37.6626],[127.00494,37.66264],[127.00495,37.66288],[127.00492,37.66293],[127.00472,37.66315],[127.00456,37.66331],[127.00446,37.66353],[127.00437,37.6639],[127.00432,37.66397],[127.00411,37.66417],[127.004,37.66422],[127.00346,37.66434],[127.00331,37.66435],[127.00324,37.66434],[127.00316,37.66433],[127.00306,37.66435],[127.00287,37.66441],[127.00276,37.66446],[127.00265,37.66449],[127.00247,37.6645],[127.00234,37.66453],[127.00221,37.66458],[127.00204,37.66468],[127.0019,37.66482],[127.00175,37.66491],[127.00166,37.66494],[127.0015,37.665],[127.00129,37.66513],[127.00115,37.66523],[127.00111,37.66526],[127.00094,37.6653],[127.00074,37.66531],[127.00057,37.6653],[127.00043,37.66531],[127.00031,37.6653],[127.00011,37.66525],[127.00003,37.66525],[126.99972,37.66528],[126.99962,37.66526],[126.99947,37.6652],[126.99943,37.6652],[126.99936,37.66522],[126.99934,37.66523],[126.99931,37.66523],[126.99927,37.66521],[126.99923,37.66521],[126.99913,37.66525],[126.9991,37.66528],[126.99886,37.66564]]}},{"type":"Feature","properties":{"class":"minor","highway":"residential","sidewalk":"unknown","lanes":0,"name":"","oneway":false},"geometry":{"type":"LineString","coordinates":[[127.00803,37.66459],[127.00799,37.66483],[127.00807,37.66496],[127.00819,37.66504],[127.00834,37.66506],[127.00848,37.66508],[127.00862,37.66514],[127.00885,37.66524],[127.00904,37.66524],[127.0092,37.66525],[127.00932,37.66516],[127.00936,37.66511],[127.00929,37.66503],[127.00916,37.66498],[127.00912,37.66493],[127.00922,37.66469]]}},{"type":"Feature","properties":{"class":"minor","highway":"residential","sidewalk":"unknown","lanes":0,"name":"","oneway":false},"geometry":{"type":"LineString","coordinates":[[127.01071,37.66401],[127.01063,37.66429],[127.01056,37.66453],[127.01049,37.66462],[127.01029,37.66468],[127.0101,37.66472],[127.00988,37.6648],[127.00968,37.66479],[127.00945,37.66476],[127.00922,37.66469],[127.00892,37.66459],[127.00849,37.66456],[127.00818,37.66455],[127.00803,37.66459],[127.00768,37.66471],[127.00742,37.66481],[127.0068,37.66506],[127.00639,37.66519],[127.00619,37.66527],[127.00599,37.66541]]}},{"type":"Feature","properties":{"class":"minor","highway":"residential","sidewalk":"unknown","lanes":0,"name":"","oneway":false},"geometry":{"type":"LineString","coordinates":[[127.01172,37.66423],[127.0111,37.66406],[127.01071,37.66401],[127.0106,37.664],[127.00988,37.66379],[127.00929,37.6637],[127.00834,37.66354],[127.00811,37.66352],[127.00794,37.66361],[127.00791,37.66372],[127.00793,37.66386],[127.00799,37.66401],[127.00817,37.6642],[127.0085,37.6643],[127.00861,37.66425],[127.0087,37.66413],[127.00873,37.66405],[127.00873,37.66398],[127.0087,37.66394],[127.00868,37.66392]]}},{"type":"Feature","properties":{"class":"minor","highway":"residential","sidewalk":"unknown","lanes":0,"name":"","oneway":false},"geometry":{"type":"LineString","coordinates":[[127.01076,37.66345],[127.01088,37.66345],[127.01114,37.66348],[127.01122,37.66351],[127.01194,37.66394],[127.01206,37.66401]]}},{"type":"Feature","properties":{"class":"alley","highway":"service","sidewalk":"unknown","lanes":0,"name":"","oneway":false},"geometry":{"type":"LineString","coordinates":[[127.00661,37.66099],[127.00653,37.66111]]}},{"type":"Feature","properties":{"class":"alley","highway":"service","sidewalk":"unknown","lanes":0,"name":"","oneway":false},"geometry":{"type":"LineString","coordinates":[[127.01355,37.66067],[127.0143,37.66072]]}},{"type":"Feature","properties":{"class":"alley","highway":"service","sidewalk":"unknown","lanes":0,"name":"","oneway":false},"geometry":{"type":"LineString","coordinates":[[127.01106,37.66323],[127.01118,37.66282]]}},{"type":"Feature","properties":{"class":"alley","highway":"service","sidewalk":"unknown","lanes":0,"name":"","oneway":false},"geometry":{"type":"LineString","coordinates":[[127.0116,37.66336],[127.01162,37.66328],[127.01174,37.66297]]}},{"type":"Feature","properties":{"class":"alley","highway":"service","sidewalk":"unknown","lanes":0,"name":"","oneway":false},"geometry":{"type":"LineString","coordinates":[[127.01229,37.66311],[127.01226,37.66318],[127.0118,37.66324],[127.01162,37.66328]]}},{"type":"Feature","properties":{"class":"alley","highway":"service","sidewalk":"unknown","lanes":0,"name":"","oneway":false},"geometry":{"type":"LineString","coordinates":[[127.01118,37.66282],[127.01131,37.66248]]}},{"type":"Feature","properties":{"class":"alley","highway":"service","sidewalk":"unknown","lanes":0,"name":"","oneway":false},"geometry":{"type":"LineString","coordinates":[[127.00769,37.66133],[127.00771,37.66144],[127.00782,37.66156],[127.00791,37.66161],[127.00796,37.66162]]}},{"type":"Feature","properties":{"class":"minor","highway":"unclassified","sidewalk":"unknown","lanes":0,"name":"","oneway":false},"geometry":{"type":"LineString","coordinates":[[127.00605,37.67165],[127.00588,37.67168],[127.00575,37.67177]]}},{"type":"Feature","properties":{"class":"major","highway":"secondary","sidewalk":"likely","lanes":2,"name":"방학로","oneway":false},"geometry":{"type":"LineString","coordinates":[[127.01257,37.66318],[127.01274,37.66323],[127.0128,37.66324],[127.01295,37.66326],[127.01311,37.66325],[127.01329,37.66322],[127.01349,37.66315],[127.01364,37.66309],[127.01376,37.663],[127.01387,37.66289],[127.01412,37.66265],[127.0144,37.66233],[127.01477,37.6619],[127.01483,37.66182],[127.01489,37.66176],[127.01498,37.66168],[127.01507,37.66163],[127.01515,37.66159],[127.0152,37.66157],[127.01529,37.66155],[127.0156,37.66146],[127.0159,37.66141],[127.01614,37.66142],[127.01628,37.6615],[127.01636,37.66159],[127.01665,37.662]]}},{"type":"Feature","properties":{"class":"major","highway":"secondary","sidewalk":"likely","lanes":2,"name":"방학로","oneway":false},"geometry":{"type":"LineString","coordinates":[[127.01665,37.662],[127.01688,37.66226]]}},{"type":"Feature","properties":{"class":"minor","highway":"residential","sidewalk":"unknown","lanes":0,"name":"","oneway":false},"geometry":{"type":"LineString","coordinates":[[127.01438,37.66018],[127.01436,37.65994],[127.01457,37.65945],[127.01457,37.65933]]}}]}