{"type":"FeatureCollection","features":[{"type":"Feature","properties":{"class":"alley","highway":"service","sidewalk":"unknown","lanes":0,"name":"","oneway":false},"geometry":{"type":"LineString","coordinates":[[127.00653,37.66111],[127.00651,37.66115],[127.00659,37.66132],[127.00667,37.66158],[127.00667,37.66166],[127.00664,37.6617],[127.0065,37.66177],[127.00631,37.66185],[127.00612,37.66189],[127.00594,37.6619],[127.00583,37.66203],[127.00578,37.6621],[127.00563,37.66212],[127.00553,37.66223],[127.00542,37.66236],[127.00535,37.66241],[127.00509,37.66253],[127.00497,37.6626],[127.00494,37.66264],[127.00495,37.66288],[127.00492,37.66293],[127.00472,37.66315],[127.00456,37.66331],[127.00446,37.66353],[127.00437,37.6639],[127.00432,37.66397],[127.00411,37.66417],[127.004,37.66422],[127.00346,37.66434],[127.00331,37.66435],[127.00324,37.66434],[127.00316,37.66433],[127.00306,37.66435],[127.00287,37.66441],[127.00276,37.66446],[127.00265,37.66449],[127.00247,37.6645],[127.00234,37.66453],[127.00221,37.66458],[127.00204,37.66468],[127.0019,37.66482],[127.00175,37.66491],[127.00166,37.66494],[127.0015,37.665],[127.00129,37.66513],[127.00115,37.66523],[127.00111,37.66526],[127.00094,37.6653],[127.00074,37.66531],[127.00057,37.6653],[127.00043,37.66531],[127.00031,37.6653],[127.00011,37.66525],[127.00003,37.66525],[126.99972,37.66528],[126.99962,37.66526],[126.99947,37.6652],[126.99943,37.6652],[126.99936,37.66522],[126.99934,37.66523],[126.99931,37.66523],[126.99927,37.66521],[126.99923,37.66521],[126.99913,37.66525],[126.9991,37.66528],[126.99886,37.66564]]}}]}