{"type":"FeatureCollection","features":[{"type":"Feature","properties":{"class":"minor","highway":"residential","sidewalk":"unknown","lanes":0,"name":"중고개길","oneway":false},"geometry":{"type":"LineString","coordinates":[[126.9324,37.6588],[126.93233,37.65895],[126.93236,37.65907],[126.93221,37.65936],[126.93233,37.6595],[126.93246,37.65961],[126.93246,37.65991],[126.93183,37.66041],[126.93178,37.66051],[126.93187,37.6608],[126.93181,37.66126],[126.93158,37.6614],[126.93143,37.66166]]}},{"type":"Feature","properties":{"class":"minor","highway":"residential","sidewalk":"unknown","lanes":0,"name":"","oneway":false},"geometry":{"type":"LineString","coordinates":[[126.91961,37.65989],[126.91973,37.65989],[126.91984,37.65989],[126.92011,37.6599],[126.92032,37.66006],[126.92049,37.66016],[126.92082,37.66026],[126.92109,37.66027],[126.9212,37.66021]]}}]}