{"type":"FeatureCollection","features":[{"type":"Feature","properties":{"class":"minor","highway":"residential","sidewalk":"unknown","lanes":0,"name":"북한산로384번길","oneway":false},"geometry":{"type":"LineString","coordinates":[[126.94934,37.65918],[126.94928,37.65938],[126.9492,37.65967],[126.94914,37.65992],[126.94908,37.66016]]}},{"type":"Feature","properties":{"class":"major","highway":"tertiary","sidewalk":"likely","lanes":2,"name":"북한산로","oneway":false},"geometry":{"type":"LineString","coordinates":[[126.94771,37.65883],[126.9478,37.65888],[126.94794,37.65898],[126.94811,37.6591],[126.94829,37.65926],[126.94842,37.65939],[126.94857,37.65953],[126.94883,37.65986],[126.94908,37.66016],[126.94931,37.66044],[126.94958,37.6608],[126.95024,37.66164],[126.95091,37.66248]]}},{"type":"Feature","properties":{"class":"minor","highway":"residential","sidewalk":"unknown","lanes":0,"name":"북한산로387번길","oneway":false},"geometry":{"type":"LineString","coordinates":[[126.94931,37.66044],[126.94921,37.66056],[126.94925,37.66123],[126.94932,37.6619],[126.94942,37.66213],[126.94949,37.66225],[126.94952,37.66232]]}},{"type":"Feature","properties":{"class":"minor","highway":"residential","sidewalk":"unknown","lanes":0,"name":"북한산로390번길","oneway":false},"geometry":{"type":"LineString","coordinates":[[126.94931,37.66044],[126.94954,37.66034],[126.95009,37.66045],[126.95071,37.66058],[126.95113,37.66067]]}},{"type":"Feature","properties":{"class":"minor","highway":"residential","sidewalk":"unknown","lanes":0,"name":"","oneway":false},"geometry":{"type":"LineString","coordinates":[[126.94925,37.66123],[126.94883,37.66112]]}},{"type":"Feature","properties":{"class":"minor","highway":"unclassified","sidewalk":"unknown","lanes":0,"name":"흥국사길","oneway":false},"geometry":{"type":"LineString","coordinates":[[126.94109,37.65978],[126.94126,37.66014],[126.9415,37.66023],[126.94158,37.66044]]}},{"type":"Feature","properties":{"class":"minor","highway":"residential","sidewalk":"unknown","lanes":0,"name":"흥국사길","oneway":false},"geometry":{"type":"LineString","coordinates":[[126.94084,37.66007],[126.94071,37.66075],[126.9406,37.66096],[126.94044,37.66118],[126.9403,37.6614],[126.94034,37.66196],[126.9406,37.6625],[126.94057,37.66271]]}},{"type":"Feature","properties":{"class":"minor","highway":"residential","sidewalk":"unknown","lanes":0,"name":"흥국사길","oneway":false},"geometry":{"type":"LineString","coordinates":[[126.94095,37.65989],[126.94084,37.66007]]}},{"type":"Feature","properties":{"class":"minor","highway":"unclassified","sidewalk":"unknown","lanes":0,"name":"흥국사길","oneway":false},"geometry":{"type":"LineString","coordinates":[[126.94044,37.66118],[126.94033,37.66111],[126.94024,37.66098]]}},{"type":"Feature","properties":{"class":"minor","highway":"unclassified","sidewalk":"unknown","lanes":0,"name":"흥국사길","oneway":false},"geometry":{"type":"LineString","coordinates":[[126.94034,37.66093],[126.94024,37.66098],[126.94013,37.66098],[126.94008,37.66093],[126.9401,37.66083]]}},{"type":"Feature","properties":{"class":"minor","highway":"residential","sidewalk":"unknown","lanes":0,"name":"북한산로","oneway":false},"geometry":{"type":"LineString","coordinates":[[126.94842,37.65939],[126.94827,37.65946],[126.94824,37.65952],[126.94842,37.65999],[126.94855,37.66038],[126.94868,37.6607],[126.94862,37.66094]]}}]}