{"type":"FeatureCollection","features":[{"type":"Feature","properties":{"class":"major","highway":"tertiary","sidewalk":"likely","lanes":1,"name":"오금로","oneway":false},"geometry":{"type":"LineString","coordinates":[[126.89596,37.66378],[126.89609,37.66379],[126.89627,37.66379],[126.89648,37.66375],[126.89668,37.66367],[126.89718,37.66333],[126.89727,37.66326],[126.89735,37.66321],[126.89788,37.66283],[126.89845,37.66246],[126.89883,37.66222],[126.89935,37.66197],[126.90001,37.66174],[126.90154,37.66118],[126.90164,37.66114],[126.90178,37.6611],[126.90238,37.66087],[126.9028,37.66074],[126.90317,37.66066],[126.90356,37.6606],[126.90436,37.66056],[126.90442,37.66055],[126.90451,37.66055],[126.90576,37.66053],[126.90603,37.66055],[126.9065,37.66058],[126.90723,37.6607],[126.90734,37.66072],[126.90744,37.66074],[126.90879,37.6611],[126.90986,37.66138],[126.91029,37.66155],[126.91035,37.66157],[126.9113,37.66198],[126.91151,37.66205],[126.9118,37.66214],[126.91211,37.66221],[126.9122,37.66224],[126.91229,37.66227],[126.91263,37.66234],[126.91283,37.66237],[126.91301,37.66239],[126.91318,37.6624],[126.91349,37.66239],[126.91356,37.66239],[126.91361,37.66239],[126.91413,37.6624],[126.91434,37.66242],[126.91453,37.66245],[126.9151,37.66264],[126.91557,37.66278],[126.91616,37.66288],[126.91643,37.66295],[126.91659,37.66302],[126.91668,37.66309],[126.91678,37.66317],[126.9169,37.66329],[126.91705,37.6634],[126.91718,37.66347],[126.91734,37.66349],[126.91742,37.66349]]}},{"type":"Feature","properties":{"class":"minor","highway":"residential","sidewalk":"unknown","lanes":1,"name":"","oneway":false},"geometry":{"type":"LineString","coordinates":[[126.90763,37.66001],[126.90748,37.66031]]}},{"type":"Feature","properties":{"class":"minor","highway":"residential","sidewalk":"unknown","lanes":1,"name":"오금4로","oneway":false},"geometry":{"type":"LineString","coordinates":[[126.90748,37.66031],[126.90745,37.66039],[126.90736,37.66066],[126.90734,37.66072]]}},{"type":"Feature","properties":{"class":"minor","highway":"residential","sidewalk":"unknown","lanes":1,"name":"오금3로","oneway":false},"geometry":{"type":"LineString","coordinates":[[126.9011,37.65998],[126.90118,37.66016],[126.90122,37.66024],[126.90125,37.66031],[126.90161,37.66108],[126.90164,37.66114]]}},{"type":"Feature","properties":{"class":"minor","highway":"residential","sidewalk":"unknown","lanes":0,"name":"","oneway":false},"geometry":{"type":"LineString","coordinates":[[126.90238,37.66087],[126.90236,37.66081],[126.90224,37.66055],[126.90201,37.66006],[126.9016,37.66014],[126.90131,37.66021],[126.90122,37.66024]]}},{"type":"Feature","properties":{"class":"minor","highway":"residential","sidewalk":"unknown","lanes":1,"name":"오금1로","oneway":false},"geometry":{"type":"LineString","coordinates":[[126.90772,37.65982],[126.90778,37.65984],[126.90878,37.66016],[126.90921,37.66026],[126.90927,37.66028],[126.90934,37.66029],[126.91035,37.66053]]}},{"type":"Feature","properties":{"class":"minor","highway":"residential","sidewalk":"unknown","lanes":1,"name":"오금4로","oneway":false},"geometry":{"type":"LineString","coordinates":[[126.9125,37.6615],[126.91245,37.66148],[126.91131,37.66092],[126.91125,37.66089],[126.9112,37.66086],[126.91069,37.6606],[126.91035,37.66053]]}},{"type":"Feature","properties":{"class":"alley","highway":"service","sidewalk":"unknown","lanes":0,"name":"오금4로1길","oneway":false},"geometry":{"type":"LineString","coordinates":[[126.91069,37.6606],[126.91071,37.66056],[126.91078,37.66045],[126.91106,37.65995],[126.91115,37.65981],[126.91123,37.65969],[126.91158,37.65976],[126.91204,37.65983]]}},{"type":"Feature","properties":{"class":"alley","highway":"service","sidewalk":"unknown","lanes":0,"name":"","oneway":false},"geometry":{"type":"LineString","coordinates":[[126.91261,37.66129],[126.91264,37.66123],[126.91272,37.66108],[126.91282,37.66089]]}},{"type":"Feature","properties":{"class":"major","highway":"secondary","sidewalk":"likely","lanes":2,"name":"일영로","oneway":false},"geometry":{"type":"LineString","coordinates":[[126.92076,37.65624],[126.92073,37.65639],[126.92071,37.6565],[126.92067,37.65671],[126.92042,37.65738],[126.91998,37.65876],[126.91972,37.65947],[126.91961,37.65989],[126.91958,37.66002],[126.91957,37.66015],[126.91958,37.66048],[126.91963,37.66104],[126.91967,37.66159],[126.91974,37.66254],[126.91973,37.66347],[126.91974,37.6636],[126.91975,37.66378],[126.91977,37.66391],[126.91977,37.66395]]}},{"type":"Feature","properties":{"class":"alley","highway":"service","sidewalk":"unknown","lanes":0,"name":"","oneway":false},"geometry":{"type":"LineString","coordinates":[[126.90879,37.6611],[126.90876,37.66116],[126.90875,37.66118],[126.90867,37.66139],[126.90863,37.6616]]}},{"type":"Feature","properties":{"class":"alley","highway":"service","sidewalk":"unknown","lanes":0,"name":"","oneway":false},"geometry":{"type":"LineString","coordinates":[[126.9095,37.65949],[126.90965,37.65961],[126.91039,37.66041]]}},{"type":"Feature","properties":{"class":"alley","highway":"service","sidewalk":"unknown","lanes":0,"name":"","oneway":false},"geometry":{"type":"LineString","coordinates":[[126.91039,37.66041],[126.91037,37.66048],[126.91035,37.66053]]}},{"type":"Feature","properties":{"class":"alley","highway":"service","sidewalk":"unknown","lanes":0,"name":"","oneway":false},"geometry":{"type":"LineString","coordinates":[[126.90927,37.66028],[126.90929,37.66025],[126.9093,37.66023],[126.90933,37.66015],[126.90939,37.66003],[126.90947,37.65985],[126.90921,37.6596],[126.90921,37.65943],[126.90964,37.65877]]}},{"type":"Feature","properties":{"class":"minor","highway":"residential","sidewalk":"unknown","lanes":1,"name":"오금4로","oneway":false},"geometry":{"type":"LineString","coordinates":[[126.90788,37.65951],[126.90775,37.65978],[126.90772,37.65982],[126.90771,37.65985],[126.90765,37.65996],[126.90763,37.66001]]}},{"type":"Feature","properties":{"class":"alley","highway":"service","sidewalk":"unknown","lanes":0,"name":"","oneway":false},"geometry":{"type":"LineString","coordinates":[[126.90998,37.66013],[126.90939,37.66003],[126.9085,37.65981],[126.90799,37.65964],[126.90804,37.65953],[126.90879,37.65916],[126.90877,37.65896],[126.90881,37.65881],[126.90926,37.65888]]}},{"type":"Feature","properties":{"class":"alley","highway":"service","sidewalk":"unknown","lanes":0,"name":"","oneway":false},"geometry":{"type":"LineString","coordinates":[[126.91204,37.65983],[126.91213,37.65999],[126.91221,37.66012]]}},{"type":"Feature","properties":{"class":"alley","highway":"service","sidewalk":"unknown","lanes":0,"name":"","oneway":false},"geometry":{"type":"LineString","coordinates":[[126.91125,37.66089],[126.91128,37.66086],[126.91129,37.66084],[126.91145,37.66063],[126.91187,37.6601],[126.9118,37.66003],[126.91127,37.65996]]}},{"type":"Feature","properties":{"class":"alley","highway":"service","sidewalk":"unknown","lanes":0,"name":"","oneway":false},"geometry":{"type":"LineString","coordinates":[[126.91187,37.6601],[126.91195,37.66023]]}},{"type":"Feature","properties":{"class":"alley","highway":"service","sidewalk":"unknown","lanes":0,"name":"","oneway":false},"geometry":{"type":"LineString","coordinates":[[126.91264,37.66123],[126.9126,37.66121],[126.91227,37.66104],[126.91145,37.66063],[126.91103,37.66038]]}},{"type":"Feature","properties":{"class":"alley","highway":"service","sidewalk":"unknown","lanes":0,"name":"","oneway":false},"geometry":{"type":"LineString","coordinates":[[126.90867,37.66139],[126.90856,37.66136],[126.90791,37.6612]]}},{"type":"Feature","properties":{"class":"alley","highway":"service","sidewalk":"unknown","lanes":0,"name":"","oneway":false},"geometry":{"type":"LineString","coordinates":[[126.90791,37.6612],[126.90793,37.66114],[126.90712,37.66095]]}},{"type":"Feature","properties":{"class":"alley","highway":"service","sidewalk":"unknown","lanes":0,"name":"","oneway":false},"geometry":{"type":"LineString","coordinates":[[126.90791,37.6612],[126.90786,37.66132],[126.90785,37.66135],[126.90714,37.66119]]}},{"type":"Feature","properties":{"class":"alley","highway":"service","sidewalk":"unknown","lanes":0,"name":"","oneway":false},"geometry":{"type":"LineString","coordinates":[[126.90927,37.66028],[126.90926,37.66032],[126.90924,37.66036]]}},{"type":"Feature","properties":{"class":"alley","highway":"service","sidewalk":"unknown","lanes":0,"name":"","oneway":false},"geometry":{"type":"LineString","coordinates":[[126.90442,37.66055],[126.9044,37.6605],[126.90439,37.66047],[126.90437,37.66029]]}},{"type":"Feature","properties":{"class":"minor","highway":"residential","sidewalk":"unknown","lanes":0,"name":"오금로2길","oneway":false},"geometry":{"type":"LineString","coordinates":[[126.90442,37.66055],[126.90444,37.6606],[126.90452,37.66091],[126.90456,37.66102],[126.90459,37.66118],[126.90455,37.66128],[126.90456,37.66179],[126.9045,37.66191],[126.90437,37.66211],[126.90436,37.66222],[126.90451,37.66247],[126.90467,37.6628]]}},{"type":"Feature","properties":{"class":"alley","highway":"service","sidewalk":"unknown","lanes":0,"name":"","oneway":false},"geometry":{"type":"LineString","coordinates":[[126.90452,37.66091],[126.9046,37.6609],[126.90466,37.6609]]}},{"type":"Feature","properties":{"class":"alley","highway":"service","sidewalk":"unknown","lanes":0,"name":"","oneway":false},"geometry":{"type":"LineString","coordinates":[[126.90444,37.66089],[126.90445,37.6609],[126.90445,37.66092],[126.90445,37.66094],[126.90444,37.66095],[126.90443,37.66096],[126.90441,37.66097],[126.90439,37.66098],[126.90437,37.66097],[126.90435,37.66097],[126.90433,37.66095],[126.90432,37.66094],[126.90432,37.66092],[126.90433,37.6609],[126.90434,37.66089],[126.90435,37.66088],[126.90438,37.66087],[126.9044,37.66087],[126.90442,37.66088],[126.90444,37.66089]]}},{"type":"Feature","properties":{"class":"alley","highway":"service","sidewalk":"unknown","lanes":0,"name":"","oneway":false},"geometry":{"type":"LineString","coordinates":[[126.90452,37.66091],[126.90448,37.66091],[126.90445,37.66092]]}},{"type":"Feature","properties":{"class":"alley","highway":"service","sidewalk":"unknown","lanes":0,"name":"","oneway":false},"geometry":{"type":"LineString","coordinates":[[126.90439,37.66098],[126.9044,37.66113]]}},{"type":"Feature","properties":{"class":"minor","highway":"residential","sidewalk":"unknown","lanes":0,"name":"","oneway":false},"geometry":{"type":"LineString","coordinates":[[126.9016,37.66014],[126.90164,37.66021],[126.90171,37.66034]]}}]}