{"type":"FeatureCollection","features":[{"type":"Feature","properties":{"class":"minor","highway":"residential","sidewalk":"unknown","lanes":0,"name":"덕릉로","oneway":false},"geometry":{"type":"LineString","coordinates":[[127.08976,37.67568],[127.08928,37.67578],[127.08882,37.67603],[127.0884,37.67616],[127.088,37.67616],[127.08762,37.6761],[127.08736,37.676],[127.08709,37.67584],[127.08678,37.67551],[127.08662,37.67522],[127.08656,37.67509],[127.08646,37.67497],[127.08626,37.67485],[127.0861,37.67478],[127.08564,37.6746]]}},{"type":"Feature","properties":{"class":"major","highway":"motorway","sidewalk":"likely","lanes":4,"name":"수도권제1순환고속도로","oneway":true},"geometry":{"type":"LineString","coordinates":[[127.08996,37.67524],[127.08936,37.67547],[127.08909,37.67557],[127.08841,37.67585]]}},{"type":"Feature","properties":{"class":"major","highway":"motorway","sidewalk":"likely","lanes":4,"name":"수도권제1순환고속도로","oneway":true},"geometry":{"type":"LineString","coordinates":[[127.0897,37.67496],[127.10556,37.67041],[127.10713,37.66984]]}},{"type":"Feature","properties":{"class":"major","highway":"motorway","sidewalk":"likely","lanes":4,"name":"수도권제1순환고속도로","oneway":true},"geometry":{"type":"LineString","coordinates":[[127.05748,37.69173],[127.08497,37.6771]]}},{"type":"Feature","properties":{"class":"major","highway":"motorway","sidewalk":"likely","lanes":4,"name":"수도권제1순환고속도로","oneway":true},"geometry":{"type":"LineString","coordinates":[[127.08516,37.67743],[127.05768,37.69205]]}},{"type":"Feature","properties":{"class":"major","highway":"motorway","sidewalk":"likely","lanes":4,"name":"수도권제1순환고속도로","oneway":true},"geometry":{"type":"LineString","coordinates":[[127.08826,37.6755],[127.08832,37.67547],[127.08858,37.67537],[127.08907,37.67518],[127.08936,37.67508],[127.0897,37.67496]]}},{"type":"Feature","properties":{"class":"major","highway":"motorway","sidewalk":"likely","lanes":4,"name":"수도권제1순환고속도로","oneway":true},"geometry":{"type":"LineString","coordinates":[[127.1073,37.67018],[127.10569,37.67079],[127.08996,37.67524]]}},{"type":"Feature","properties":{"class":"minor","highway":"residential","sidewalk":"unknown","lanes":0,"name":"덕릉로","oneway":false},"geometry":{"type":"LineString","coordinates":[[127.08976,37.67568],[127.08996,37.6757],[127.0903,37.67574],[127.09069,37.67586],[127.09093,37.67603],[127.09124,37.67652],[127.09161,37.67704],[127.09208,37.67733],[127.09259,37.67758],[127.09292,37.67762],[127.09311,37.67765],[127.09411,37.6777],[127.09602,37.67774],[127.09729,37.67764],[127.0979,37.67781],[127.09849,37.67799],[127.09925,37.67912],[127.09934,37.67929],[127.09929,37.67977],[127.09931,37.67988],[127.09934,37.67996],[127.09938,37.67999]]}},{"type":"Feature","properties":{"class":"major","highway":"motorway","sidewalk":"likely","lanes":4,"name":"수도권제1순환고속도로","oneway":true},"geometry":{"type":"LineString","coordinates":[[127.08841,37.67585],[127.08701,37.67647],[127.0857,37.67716]]}},{"type":"Feature","properties":{"class":"major","highway":"motorway","sidewalk":"likely","lanes":4,"name":"수도권제1순환고속도로","oneway":true},"geometry":{"type":"LineString","coordinates":[[127.08542,37.67688],[127.08685,37.67615],[127.08826,37.6755]]}},{"type":"Feature","properties":{"class":"minor","highway":"residential","sidewalk":"unknown","lanes":0,"name":"덕릉로129길","oneway":false},"geometry":{"type":"LineString","coordinates":[[127.07893,37.67738],[127.07894,37.67726],[127.07893,37.67707],[127.07892,37.67697],[127.07899,37.67688],[127.07902,37.67681],[127.07907,37.67671],[127.07903,37.67657],[127.07919,37.67627],[127.07915,37.67616],[127.07913,37.67604],[127.07913,37.67595],[127.07921,37.67583],[127.07927,37.67571],[127.07932,37.67569],[127.0795,37.67557],[127.07954,37.6755],[127.07956,37.67541],[127.07957,37.67529],[127.07967,37.67517],[127.0798,37.675],[127.07995,37.67479],[127.08,37.67475]]}},{"type":"Feature","properties":{"class":"minor","highway":"residential","sidewalk":"unknown","lanes":0,"name":"덕릉로129길","oneway":false},"geometry":{"type":"LineString","coordinates":[[127.08149,37.67289],[127.08151,37.67285],[127.08175,37.67271],[127.08211,37.67252],[127.08229,37.67241],[127.08253,37.67227],[127.08274,37.67217],[127.08286,37.67208]]}},{"type":"Feature","properties":{"class":"major","highway":"secondary","sidewalk":"likely","lanes":4,"name":"상계로","oneway":false},"geometry":{"type":"LineString","coordinates":[[127.08128,37.67041],[127.08117,37.67043],[127.08106,37.67046],[127.08103,37.67047],[127.08085,37.6705],[127.08074,37.67052],[127.08038,37.67059],[127.08024,37.67062],[127.08011,37.67062],[127.08,37.67062],[127.07996,37.67062],[127.07992,37.67062],[127.07985,37.6706],[127.07976,37.67057],[127.07967,37.67053],[127.07959,37.67049],[127.0795,37.67044],[127.07939,37.67038]]}},{"type":"Feature","properties":{"class":"minor","highway":"residential","sidewalk":"unknown","lanes":0,"name":"덕릉로123길","oneway":false},"geometry":{"type":"LineString","coordinates":[[127.07836,37.66886],[127.07854,37.66899],[127.0787,37.66911],[127.07879,37.66918],[127.07903,37.66946],[127.0791,37.66955],[127.07926,37.66976],[127.07939,37.66993],[127.07941,37.66996],[127.07944,37.67002],[127.07949,37.67007],[127.0796,37.67012],[127.07995,37.67026],[127.08013,37.67031],[127.08022,37.67033],[127.08031,37.67032],[127.08103,37.67013]]}},{"type":"Feature","properties":{"class":"minor","highway":"residential","sidewalk":"unknown","lanes":0,"name":"덕릉로119가길","oneway":false},"geometry":{"type":"LineString","coordinates":[[127.07912,37.66863],[127.07904,37.6687],[127.07893,37.66879],[127.07938,37.6693],[127.07938,37.66931],[127.07942,37.66935],[127.07958,37.66954],[127.07961,37.66957],[127.07969,37.66967],[127.07978,37.66977],[127.07983,37.66985],[127.07989,37.66992],[127.08003,37.67011],[127.08022,37.67033]]}},{"type":"Feature","properties":{"class":"minor","highway":"residential","sidewalk":"unknown","lanes":0,"name":"","oneway":false},"geometry":{"type":"LineString","coordinates":[[127.08022,37.67033],[127.08023,37.67037],[127.08023,37.6704],[127.08024,37.67062]]}},{"type":"Feature","properties":{"class":"minor","highway":"residential","sidewalk":"unknown","lanes":0,"name":"덕릉로","oneway":false},"geometry":{"type":"LineString","coordinates":[[127.08011,37.669],[127.07942,37.66935]]}},{"type":"Feature","properties":{"class":"minor","highway":"residential","sidewalk":"unknown","lanes":0,"name":"덕릉로122길","oneway":false},"geometry":{"type":"LineString","coordinates":[[127.08022,37.66913],[127.08064,37.66896],[127.08075,37.6689],[127.08108,37.66875],[127.08135,37.66864],[127.08164,37.66851]]}},{"type":"Feature","properties":{"class":"alley","highway":"service","sidewalk":"unknown","lanes":0,"name":"","oneway":false},"geometry":{"type":"LineString","coordinates":[[127.08166,37.66839],[127.08171,37.66814],[127.08177,37.6679],[127.08063,37.66771]]}},{"type":"Feature","properties":{"class":"minor","highway":"residential","sidewalk":"unknown","lanes":0,"name":"덕릉로118길","oneway":false},"geometry":{"type":"LineString","coordinates":[[127.07884,37.66736],[127.0794,37.66748],[127.07958,37.66752],[127.08019,37.66763],[127.08063,37.66771]]}},{"type":"Feature","properties":{"class":"minor","highway":"residential","sidewalk":"unknown","lanes":0,"name":"덕릉로112길","oneway":false},"geometry":{"type":"LineString","coordinates":[[127.07874,37.66583],[127.07946,37.66619],[127.07991,37.66652],[127.08032,37.66654],[127.08037,37.66655],[127.08047,37.66656],[127.0806,37.66659],[127.08068,37.66664],[127.08077,37.66674],[127.08081,37.66679],[127.08089,37.66684],[127.08112,37.66691],[127.08131,37.66702],[127.08171,37.66718]]}},{"type":"Feature","properties":{"class":"minor","highway":"residential","sidewalk":"unknown","lanes":0,"name":"","oneway":false},"geometry":{"type":"LineString","coordinates":[[127.08064,37.66896],[127.0804,37.66867],[127.07999,37.66883]]}},{"type":"Feature","properties":{"class":"minor","highway":"residential","sidewalk":"unknown","lanes":0,"name":"","oneway":false},"geometry":{"type":"LineString","coordinates":[[127.08,37.66829],[127.08,37.66837],[127.08014,37.66846],[127.08022,37.66854],[127.0804,37.66867]]}},{"type":"Feature","properties":{"class":"major","highway":"secondary","sidewalk":"likely","lanes":0,"name":"덕릉로126길","oneway":false},"geometry":{"type":"LineString","coordinates":[[127.08128,37.67041],[127.08159,37.67037],[127.08172,37.67038],[127.08185,37.6704],[127.08203,37.67046],[127.08218,37.67055],[127.08232,37.6707],[127.08248,37.6709],[127.08252,37.67095],[127.08261,37.67109],[127.0827,37.67125],[127.08273,37.67131],[127.0828,37.67148],[127.08282,37.67152],[127.08289,37.67184],[127.08289,37.67189],[127.08298,37.67221]]}},{"type":"Feature","properties":{"class":"minor","highway":"residential","sidewalk":"unknown","lanes":0,"name":"상계로37가길","oneway":false},"geometry":{"type":"LineString","coordinates":[[127.0798,37.67247],[127.07995,37.67279],[127.0801,37.67275],[127.08025,37.67271]]}},{"type":"Feature","properties":{"class":"minor","highway":"residential","sidewalk":"unknown","lanes":0,"name":"상계로39길","oneway":false},"geometry":{"type":"LineString","coordinates":[[127.08011,37.67147],[127.08021,37.67143],[127.08033,37.67142],[127.0808,37.67147],[127.08091,37.67149],[127.08119,37.6715],[127.08175,37.67152],[127.08218,37.67139]]}},{"type":"Feature","properties":{"class":"minor","highway":"residential","sidewalk":"unknown","lanes":0,"name":"상계로39길","oneway":false},"geometry":{"type":"LineString","coordinates":[[127.08033,37.67142],[127.08037,37.67094],[127.08024,37.67062]]}},{"type":"Feature","properties":{"class":"minor","highway":"residential","sidewalk":"unknown","lanes":0,"name":"상계로41길","oneway":false},"geometry":{"type":"LineString","coordinates":[[127.08119,37.6715],[127.08123,37.67114],[127.08114,37.67103],[127.08107,37.67093],[127.08099,37.67083],[127.08074,37.67052]]}},{"type":"Feature","properties":{"class":"minor","highway":"residential","sidewalk":"unknown","lanes":0,"name":"상계로43길","oneway":false},"geometry":{"type":"LineString","coordinates":[[127.08178,37.67123],[127.08175,37.67152]]}},{"type":"Feature","properties":{"class":"minor","highway":"residential","sidewalk":"unknown","lanes":0,"name":"덕릉로127길","oneway":false},"geometry":{"type":"LineString","coordinates":[[127.08211,37.67252],[127.08193,37.67218],[127.0819,37.67211],[127.08185,37.67198],[127.08182,37.67187],[127.08175,37.67152]]}},{"type":"Feature","properties":{"class":"minor","highway":"residential","sidewalk":"unknown","lanes":0,"name":"상계로39길","oneway":false},"geometry":{"type":"LineString","coordinates":[[127.0808,37.67147],[127.0808,37.67149],[127.08074,37.67182],[127.08113,37.67225],[127.08108,37.6723]]}},{"type":"Feature","properties":{"class":"minor","highway":"residential","sidewalk":"unknown","lanes":0,"name":"상계로37나길","oneway":false},"geometry":{"type":"LineString","coordinates":[[127.08108,37.6723],[127.08136,37.67262],[127.08146,37.67276],[127.08147,37.67279],[127.08148,37.67281],[127.08151,37.67285]]}},{"type":"Feature","properties":{"class":"minor","highway":"residential","sidewalk":"unknown","lanes":0,"name":"덕릉로131길","oneway":false},"geometry":{"type":"LineString","coordinates":[[127.08182,37.67376],[127.08183,37.674],[127.08184,37.6741],[127.08185,37.67423]]}},{"type":"Feature","properties":{"class":"alley","highway":"living_street","sidewalk":"unknown","lanes":0,"name":"","oneway":false},"geometry":{"type":"LineString","coordinates":[[127.08184,37.6741],[127.08213,37.67401],[127.08233,37.67395]]}},{"type":"Feature","properties":{"class":"minor","highway":"residential","sidewalk":"unknown","lanes":0,"name":"상계로37나길","oneway":false},"geometry":{"type":"LineString","coordinates":[[127.08025,37.67271],[127.08026,37.67253],[127.08028,37.67217],[127.08031,37.6721]]}},{"type":"Feature","properties":{"class":"minor","highway":"residential","sidewalk":"unknown","lanes":0,"name":"상계로37다길","oneway":false},"geometry":{"type":"LineString","coordinates":[[127.08067,37.67226],[127.08064,37.67234],[127.08064,37.67257],[127.08063,37.67259],[127.08062,37.67265],[127.08062,37.67269],[127.08059,37.67272],[127.08054,37.67275],[127.0805,37.67278],[127.08049,37.67281],[127.08032,37.67283],[127.07967,37.67302]]}},{"type":"Feature","properties":{"class":"minor","highway":"residential","sidewalk":"unknown","lanes":0,"name":"덕릉로129길","oneway":false},"geometry":{"type":"LineString","coordinates":[[127.08049,37.67281],[127.08055,37.67285],[127.08057,37.67292],[127.08047,37.67307],[127.0803,37.67325],[127.08028,37.6733],[127.08036,37.6734]]}},{"type":"Feature","properties":{"class":"minor","highway":"residential","sidewalk":"unknown","lanes":0,"name":"상계로37나길","oneway":false},"geometry":{"type":"LineString","coordinates":[[127.08094,37.67232],[127.08095,37.6724],[127.08095,37.67246],[127.08087,37.67253],[127.08084,37.67256],[127.08076,37.67257],[127.08063,37.67259]]}},{"type":"Feature","properties":{"class":"minor","highway":"residential","sidewalk":"unknown","lanes":0,"name":"덕릉로129길","oneway":false},"geometry":{"type":"LineString","coordinates":[[127.08211,37.67252],[127.08216,37.67255],[127.08253,37.67292]]}},{"type":"Feature","properties":{"class":"minor","highway":"residential","sidewalk":"unknown","lanes":0,"name":"덕릉로131가길","oneway":false},"geometry":{"type":"LineString","coordinates":[[127.08253,37.67292],[127.08266,37.67317],[127.08272,37.67326],[127.08276,37.67333],[127.08285,37.67347],[127.08294,37.6736],[127.08298,37.67367],[127.083,37.67371],[127.08309,37.67386],[127.08315,37.67396],[127.08317,37.674],[127.08316,37.67403],[127.08304,37.67442]]}},{"type":"Feature","properties":{"class":"minor","highway":"residential","sidewalk":"unknown","lanes":0,"name":"덕릉로137길","oneway":false},"geometry":{"type":"LineString","coordinates":[[127.08304,37.67442],[127.08318,37.67447],[127.0833,37.6745],[127.08334,37.6745],[127.08337,37.67451],[127.08345,37.67452],[127.08348,37.67452],[127.08353,37.6745],[127.08356,37.67447],[127.08359,37.67441],[127.0836,37.67435],[127.08361,37.67415],[127.08361,37.67411],[127.08361,37.67405],[127.08361,37.674],[127.08364,37.67375],[127.08364,37.67364],[127.08365,37.67355],[127.08367,37.67328],[127.08381,37.67318]]}},{"type":"Feature","properties":{"class":"minor","highway":"residential","sidewalk":"unknown","lanes":0,"name":"덕릉로139길","oneway":false},"geometry":{"type":"LineString","coordinates":[[127.08356,37.67483],[127.08395,37.67439],[127.08405,37.67431],[127.08408,37.67428],[127.08422,37.67417],[127.08431,37.67411],[127.08444,37.67404],[127.08452,37.67398],[127.08464,37.67392]]}},{"type":"Feature","properties":{"class":"minor","highway":"residential","sidewalk":"unknown","lanes":0,"name":"덕릉로139길","oneway":false},"geometry":{"type":"LineString","coordinates":[[127.08319,37.67575],[127.0833,37.67567],[127.08332,37.6756],[127.08335,37.67551],[127.08335,37.67548],[127.08335,37.67544],[127.08331,37.67535],[127.08325,37.67523],[127.08325,37.67516],[127.08328,37.67513],[127.08332,37.67509],[127.08341,37.67501],[127.08349,37.67491],[127.08356,37.67483]]}},{"type":"Feature","properties":{"class":"minor","highway":"residential","sidewalk":"unknown","lanes":0,"name":"덕릉로139길","oneway":false},"geometry":{"type":"LineString","coordinates":[[127.0823,37.67661],[127.08235,37.67647],[127.08243,37.67638],[127.08253,37.6763],[127.08265,37.67613],[127.08274,37.67601],[127.08281,37.67591],[127.08297,37.67585],[127.08319,37.67575]]}},{"type":"Feature","properties":{"class":"minor","highway":"residential","sidewalk":"unknown","lanes":0,"name":"","oneway":false},"geometry":{"type":"LineString","coordinates":[[127.0822,37.67714],[127.0823,37.67661]]}},{"type":"Feature","properties":{"class":"minor","highway":"residential","sidewalk":"unknown","lanes":0,"name":"덕릉로126가길","oneway":false},"geometry":{"type":"LineString","coordinates":[[127.08218,37.67055],[127.08227,37.67048],[127.08297,37.67029]]}},{"type":"Feature","properties":{"class":"minor","highway":"residential","sidewalk":"unknown","lanes":0,"name":"덕릉로124길","oneway":false},"geometry":{"type":"LineString","coordinates":[[127.08227,37.67048],[127.08213,37.67014],[127.08211,37.67006],[127.08208,37.66994],[127.08201,37.66954],[127.082,37.66922]]}},{"type":"Feature","properties":{"class":"minor","highway":"residential","sidewalk":"unknown","lanes":0,"name":"덕릉로124길","oneway":false},"geometry":{"type":"LineString","coordinates":[[127.082,37.66922],[127.08198,37.66892],[127.08196,37.66864],[127.08193,37.66853]]}},{"type":"Feature","properties":{"class":"minor","highway":"residential","sidewalk":"unknown","lanes":0,"name":"","oneway":false},"geometry":{"type":"LineString","coordinates":[[127.08193,37.66853],[127.08199,37.66833]]}},{"type":"Feature","properties":{"class":"minor","highway":"residential","sidewalk":"unknown","lanes":0,"name":"","oneway":false},"geometry":{"type":"LineString","coordinates":[[127.08193,37.66853],[127.08164,37.66851]]}},{"type":"Feature","properties":{"class":"minor","highway":"residential","sidewalk":"unknown","lanes":0,"name":"덕릉로122길","oneway":false},"geometry":{"type":"LineString","coordinates":[[127.08198,37.66892],[127.08229,37.66892],[127.08233,37.6683]]}},{"type":"Feature","properties":{"class":"minor","highway":"residential","sidewalk":"unknown","lanes":1,"name":"덕릉로124길","oneway":false},"geometry":{"type":"LineString","coordinates":[[127.08103,37.67013],[127.08124,37.66995],[127.08128,37.66987],[127.08132,37.66977],[127.08135,37.66955],[127.08149,37.66942],[127.08168,37.66927],[127.082,37.66922],[127.08231,37.66918],[127.08254,37.66914],[127.08302,37.66909]]}},{"type":"Feature","properties":{"class":"minor","highway":"residential","sidewalk":"unknown","lanes":0,"name":"덕릉로126가길","oneway":false},"geometry":{"type":"LineString","coordinates":[[127.08297,37.67029],[127.08309,37.67027],[127.08344,37.67015],[127.08439,37.66992]]}},{"type":"Feature","properties":{"class":"minor","highway":"residential","sidewalk":"unknown","lanes":0,"name":"덕릉로122길","oneway":false},"geometry":{"type":"LineString","coordinates":[[127.08075,37.6689],[127.08104,37.66922],[127.08107,37.66925],[127.08124,37.66947],[127.08135,37.66955]]}},{"type":"Feature","properties":{"class":"minor","highway":"residential","sidewalk":"unknown","lanes":0,"name":"덕릉로122길","oneway":false},"geometry":{"type":"LineString","coordinates":[[127.08108,37.66875],[127.08144,37.66919],[127.08153,37.66918],[127.08168,37.66927]]}},{"type":"Feature","properties":{"class":"minor","highway":"residential","sidewalk":"unknown","lanes":0,"name":"덕릉로122길","oneway":false},"geometry":{"type":"LineString","coordinates":[[127.08153,37.66918],[127.0816,37.66889],[127.08135,37.66864]]}},{"type":"Feature","properties":{"class":"minor","highway":"residential","sidewalk":"unknown","lanes":0,"name":"덕릉로124길","oneway":false},"geometry":{"type":"LineString","coordinates":[[127.08168,37.66927],[127.08175,37.66899],[127.08187,37.66873],[127.08196,37.66864]]}},{"type":"Feature","properties":{"class":"minor","highway":"residential","sidewalk":"unknown","lanes":0,"name":"덕릉로","oneway":false},"geometry":{"type":"LineString","coordinates":[[127.08104,37.66922],[127.0805,37.66949]]}},{"type":"Feature","properties":{"class":"minor","highway":"residential","sidewalk":"unknown","lanes":0,"name":"덕릉로124가길","oneway":false},"geometry":{"type":"LineString","coordinates":[[127.08124,37.66995],[127.08173,37.67002],[127.08191,37.67005],[127.08211,37.67006],[127.08266,37.66999],[127.08333,37.66991]]}},{"type":"Feature","properties":{"class":"minor","highway":"residential","sidewalk":"unknown","lanes":0,"name":"덕릉로124길","oneway":false},"geometry":{"type":"LineString","coordinates":[[127.08254,37.66914],[127.08263,37.66935],[127.08255,37.66971],[127.0826,37.66986],[127.08266,37.66999]]}},{"type":"Feature","properties":{"class":"minor","highway":"residential","sidewalk":"unknown","lanes":0,"name":"덕릉로124길","oneway":false},"geometry":{"type":"LineString","coordinates":[[127.08168,37.66927],[127.08173,37.67002]]}},{"type":"Feature","properties":{"class":"minor","highway":"residential","sidewalk":"unknown","lanes":0,"name":"덕릉로119가길","oneway":false},"geometry":{"type":"LineString","coordinates":[[127.08003,37.67011],[127.08024,37.67007],[127.08085,37.66991]]}},{"type":"Feature","properties":{"class":"minor","highway":"residential","sidewalk":"unknown","lanes":0,"name":"","oneway":false},"geometry":{"type":"LineString","coordinates":[[127.08024,37.67007],[127.08015,37.66991],[127.08004,37.66974],[127.08021,37.66966],[127.08055,37.66956]]}},{"type":"Feature","properties":{"class":"minor","highway":"residential","sidewalk":"unknown","lanes":0,"name":"상계로43길","oneway":false},"geometry":{"type":"LineString","coordinates":[[127.08099,37.67083],[127.08107,37.67079],[127.0812,37.67072],[127.08129,37.67067]]}},{"type":"Feature","properties":{"class":"minor","highway":"residential","sidewalk":"unknown","lanes":0,"name":"상계로43길","oneway":false},"geometry":{"type":"LineString","coordinates":[[127.08114,37.67103],[127.08124,37.67098],[127.08136,37.67092],[127.08146,37.67087]]}},{"type":"Feature","properties":{"class":"minor","highway":"residential","sidewalk":"unknown","lanes":0,"name":"상계로43길","oneway":false},"geometry":{"type":"LineString","coordinates":[[127.08107,37.67093],[127.08116,37.67089],[127.08128,37.67083],[127.08138,37.67078]]}},{"type":"Feature","properties":{"class":"minor","highway":"residential","sidewalk":"unknown","lanes":0,"name":"상계로43길","oneway":false},"geometry":{"type":"LineString","coordinates":[[127.0812,37.67072],[127.08128,37.67083],[127.08136,37.67092],[127.08148,37.67107]]}},{"type":"Feature","properties":{"class":"minor","highway":"residential","sidewalk":"unknown","lanes":0,"name":"상계로43길","oneway":false},"geometry":{"type":"LineString","coordinates":[[127.08107,37.67079],[127.08116,37.67089],[127.08124,37.67098],[127.08133,37.67109]]}},{"type":"Feature","properties":{"class":"minor","highway":"residential","sidewalk":"unknown","lanes":0,"name":"상계로43길","oneway":false},"geometry":{"type":"LineString","coordinates":[[127.08148,37.67107],[127.08161,37.67101]]}},{"type":"Feature","properties":{"class":"minor","highway":"residential","sidewalk":"unknown","lanes":0,"name":"상계로41길","oneway":false},"geometry":{"type":"LineString","coordinates":[[127.08107,37.67079],[127.08096,37.67066]]}},{"type":"Feature","properties":{"class":"minor","highway":"residential","sidewalk":"unknown","lanes":0,"name":"덕릉로","oneway":false},"geometry":{"type":"LineString","coordinates":[[127.08248,37.6709],[127.08227,37.67097],[127.08201,37.67081],[127.08175,37.67095]]}},{"type":"Feature","properties":{"class":"minor","highway":"residential","sidewalk":"unknown","lanes":0,"name":"덕릉로","oneway":false},"geometry":{"type":"LineString","coordinates":[[127.08207,37.67128],[127.08261,37.67109]]}},{"type":"Feature","properties":{"class":"minor","highway":"residential","sidewalk":"unknown","lanes":0,"name":"덕릉로","oneway":false},"geometry":{"type":"LineString","coordinates":[[127.08218,37.67139],[127.08248,37.67131],[127.0827,37.67125]]}},{"type":"Feature","properties":{"class":"minor","highway":"residential","sidewalk":"unknown","lanes":0,"name":"","oneway":false},"geometry":{"type":"LineString","coordinates":[[127.08269,37.67189],[127.08289,37.67184]]}},{"type":"Feature","properties":{"class":"minor","highway":"residential","sidewalk":"unknown","lanes":0,"name":"덕릉로126바길","oneway":false},"geometry":{"type":"LineString","coordinates":[[127.08544,37.66993],[127.08619,37.67023],[127.08629,37.67024]]}},{"type":"Feature","properties":{"class":"minor","highway":"residential","sidewalk":"unknown","lanes":0,"name":"덕릉로126가길","oneway":false},"geometry":{"type":"LineString","coordinates":[[127.08439,37.66992],[127.0846,37.66994],[127.08468,37.6701],[127.08473,37.67021],[127.08474,37.67022],[127.08481,37.67034],[127.0849,37.67048],[127.08491,37.67047],[127.08508,37.67062],[127.08518,37.6707],[127.08529,37.67078],[127.08541,37.67088],[127.08546,37.67093],[127.08549,37.67095],[127.08552,37.67097],[127.08571,37.67116],[127.08577,37.67122]]}},{"type":"Feature","properties":{"class":"minor","highway":"residential","sidewalk":"unknown","lanes":0,"name":"덕릉로126아길","oneway":false},"geometry":{"type":"LineString","coordinates":[[127.08577,37.67122],[127.08592,37.67109],[127.08611,37.67094],[127.08636,37.67075]]}},{"type":"Feature","properties":{"class":"minor","highway":"residential","sidewalk":"unknown","lanes":0,"name":"덕릉로126가길","oneway":false},"geometry":{"type":"LineString","coordinates":[[127.08636,37.67075],[127.08625,37.67068]]}},{"type":"Feature","properties":{"class":"minor","highway":"residential","sidewalk":"unknown","lanes":0,"name":"덕릉로126아길","oneway":false},"geometry":{"type":"LineString","coordinates":[[127.08636,37.67075],[127.08641,37.67076],[127.08657,37.67084],[127.08667,37.67078],[127.08675,37.67061]]}},{"type":"Feature","properties":{"class":"minor","highway":"residential","sidewalk":"unknown","lanes":0,"name":"덕릉로130길","oneway":false},"geometry":{"type":"LineString","coordinates":[[127.08577,37.67122],[127.08576,37.67134],[127.0857,37.67149],[127.08563,37.67167]]}},{"type":"Feature","properties":{"class":"minor","highway":"residential","sidewalk":"unknown","lanes":0,"name":"덕릉로130길","oneway":false},"geometry":{"type":"LineString","coordinates":[[127.08563,37.67167],[127.08571,37.67184],[127.08572,37.67187],[127.08573,37.6719],[127.08579,37.6721]]}},{"type":"Feature","properties":{"class":"minor","highway":"residential","sidewalk":"unknown","lanes":0,"name":"덕릉로130길","oneway":false},"geometry":{"type":"LineString","coordinates":[[127.08572,37.67187],[127.08539,37.67195],[127.08514,37.672],[127.08474,37.67207]]}},{"type":"Feature","properties":{"class":"minor","highway":"residential","sidewalk":"unknown","lanes":0,"name":"덕릉로134가길","oneway":false},"geometry":{"type":"LineString","coordinates":[[127.08579,37.6721],[127.08592,37.67247]]}},{"type":"Feature","properties":{"class":"minor","highway":"residential","sidewalk":"unknown","lanes":0,"name":"덕릉로126라길","oneway":false},"geometry":{"type":"LineString","coordinates":[[127.08469,37.67187],[127.08474,37.67207],[127.08475,37.67221]]}},{"type":"Feature","properties":{"class":"minor","highway":"residential","sidewalk":"unknown","lanes":0,"name":"덕릉로134길","oneway":false},"geometry":{"type":"LineString","coordinates":[[127.08363,37.67296],[127.08414,37.67301],[127.08429,37.67302]]}},{"type":"Feature","properties":{"class":"alley","highway":"living_street","sidewalk":"unknown","lanes":0,"name":"덕릉로130길","oneway":false},"geometry":{"type":"LineString","coordinates":[[127.08376,37.67203],[127.08397,37.6719],[127.08408,37.67184],[127.08422,37.67176],[127.08434,37.67169]]}},{"type":"Feature","properties":{"class":"minor","highway":"residential","sidewalk":"unknown","lanes":0,"name":"덕릉로126라길","oneway":false},"geometry":{"type":"LineString","coordinates":[[127.08469,37.67187],[127.08457,37.67182],[127.08434,37.67169]]}},{"type":"Feature","properties":{"class":"minor","highway":"residential","sidewalk":"unknown","lanes":0,"name":"덕릉로126다길","oneway":false},"geometry":{"type":"LineString","coordinates":[[127.08424,37.67143],[127.08407,37.67144],[127.08389,37.67145],[127.08345,37.67145],[127.08325,37.67146],[127.08301,37.67147],[127.0828,37.67148]]}},{"type":"Feature","properties":{"class":"minor","highway":"residential","sidewalk":"unknown","lanes":0,"name":"덕릉로126라길","oneway":false},"geometry":{"type":"LineString","coordinates":[[127.08424,37.67143],[127.08421,37.67122],[127.08413,37.67115],[127.08405,37.67106],[127.08396,37.67101],[127.08386,37.67099],[127.08354,37.67099],[127.08341,37.67083]]}},{"type":"Feature","properties":{"class":"minor","highway":"residential","sidewalk":"unknown","lanes":0,"name":"덕릉로126라길","oneway":false},"geometry":{"type":"LineString","coordinates":[[127.08341,37.67083],[127.08322,37.67052]]}},{"type":"Feature","properties":{"class":"minor","highway":"residential","sidewalk":"unknown","lanes":0,"name":"덕릉로126나길","oneway":false},"geometry":{"type":"LineString","coordinates":[[127.08322,37.67052],[127.08333,37.6705],[127.08361,37.6705],[127.08396,37.67042],[127.08443,37.67037]]}},{"type":"Feature","properties":{"class":"minor","highway":"residential","sidewalk":"unknown","lanes":0,"name":"덕릉로126나길","oneway":false},"geometry":{"type":"LineString","coordinates":[[127.08396,37.67042],[127.08403,37.67054],[127.08416,37.67063],[127.08428,37.67063],[127.08452,37.67061],[127.0847,37.67055],[127.0849,37.67048]]}},{"type":"Feature","properties":{"class":"alley","highway":"living_street","sidewalk":"unknown","lanes":0,"name":"덕릉로126라길","oneway":false},"geometry":{"type":"LineString","coordinates":[[127.08452,37.67061],[127.08459,37.67079],[127.08438,37.67114],[127.08421,37.67122]]}},{"type":"Feature","properties":{"class":"alley","highway":"living_street","sidewalk":"unknown","lanes":0,"name":"덕릉로126마길","oneway":false},"geometry":{"type":"LineString","coordinates":[[127.08459,37.67079],[127.08482,37.671],[127.08498,37.67113],[127.08511,37.67121]]}},{"type":"Feature","properties":{"class":"alley","highway":"living_street","sidewalk":"unknown","lanes":0,"name":"덕릉로126마길","oneway":false},"geometry":{"type":"LineString","coordinates":[[127.08429,37.67157],[127.08464,37.67154],[127.08493,37.6714],[127.08488,37.67133],[127.08511,37.67121],[127.08525,37.67111],[127.08546,37.67093]]}},{"type":"Feature","properties":{"class":"alley","highway":"living_street","sidewalk":"unknown","lanes":0,"name":"덕릉로126마길","oneway":false},"geometry":{"type":"LineString","coordinates":[[127.08464,37.67154],[127.0847,37.67163],[127.0848,37.67166],[127.08501,37.67168],[127.0851,37.67169],[127.08524,37.67166],[127.08535,37.67159],[127.08547,37.67148]]}},{"type":"Feature","properties":{"class":"minor","highway":"residential","sidewalk":"unknown","lanes":0,"name":"덕릉로126바길","oneway":false},"geometry":{"type":"LineString","coordinates":[[127.0849,37.67048],[127.08501,37.67037],[127.0851,37.6703],[127.08522,37.6702],[127.08534,37.67009],[127.08544,37.66993]]}},{"type":"Feature","properties":{"class":"minor","highway":"residential","sidewalk":"unknown","lanes":0,"name":"덕릉로126가길","oneway":false},"geometry":{"type":"LineString","coordinates":[[127.08473,37.67021],[127.0849,37.67007],[127.08496,37.67003],[127.0851,37.66989],[127.08515,37.66982]]}},{"type":"Feature","properties":{"class":"minor","highway":"residential","sidewalk":"unknown","lanes":0,"name":"덕릉로126가길","oneway":false},"geometry":{"type":"LineString","coordinates":[[127.08534,37.67029],[127.0854,37.67035],[127.0855,37.67047],[127.08553,37.6705],[127.0856,37.67055],[127.08573,37.67063]]}},{"type":"Feature","properties":{"class":"minor","highway":"residential","sidewalk":"unknown","lanes":0,"name":"덕릉로126가길","oneway":false},"geometry":{"type":"LineString","coordinates":[[127.08496,37.67003],[127.08507,37.67009],[127.08508,37.6701]]}},{"type":"Feature","properties":{"class":"minor","highway":"residential","sidewalk":"unknown","lanes":0,"name":"덕릉로126가길","oneway":false},"geometry":{"type":"LineString","coordinates":[[127.08496,37.67003],[127.0849,37.66996],[127.08483,37.66985]]}},{"type":"Feature","properties":{"class":"alley","highway":"living_street","sidewalk":"unknown","lanes":0,"name":"덕릉로126가길","oneway":false},"geometry":{"type":"LineString","coordinates":[[127.08518,37.6707],[127.0853,37.67061],[127.08539,37.67054],[127.0855,37.67047]]}},{"type":"Feature","properties":{"class":"minor","highway":"residential","sidewalk":"unknown","lanes":0,"name":"덕릉로130가길","oneway":false},"geometry":{"type":"LineString","coordinates":[[127.08702,37.6723],[127.08645,37.67206],[127.08645,37.67204],[127.08648,37.67191]]}},{"type":"Feature","properties":{"class":"minor","highway":"residential","sidewalk":"unknown","lanes":0,"name":"덕릉로130나길","oneway":false},"geometry":{"type":"LineString","coordinates":[[127.08648,37.67191],[127.0865,37.67182],[127.08652,37.67163],[127.08657,37.67145],[127.0866,37.67134]]}},{"type":"Feature","properties":{"class":"minor","highway":"residential","sidewalk":"unknown","lanes":0,"name":"덕릉로130나길","oneway":false},"geometry":{"type":"LineString","coordinates":[[127.08572,37.67187],[127.08578,37.67186],[127.08596,37.67173],[127.08635,37.67179],[127.0865,37.67182]]}},{"type":"Feature","properties":{"class":"minor","highway":"residential","sidewalk":"unknown","lanes":0,"name":"덕릉로126가길","oneway":false},"geometry":{"type":"LineString","coordinates":[[127.0853,37.67061],[127.08541,37.6707],[127.08554,37.67078]]}},{"type":"Feature","properties":{"class":"minor","highway":"residential","sidewalk":"unknown","lanes":0,"name":"덕릉로126아길","oneway":false},"geometry":{"type":"LineString","coordinates":[[127.08592,37.67109],[127.08615,37.67125],[127.08627,37.67131],[127.08646,37.67131],[127.08648,37.67132],[127.0866,37.67134]]}},{"type":"Feature","properties":{"class":"minor","highway":"residential","sidewalk":"unknown","lanes":0,"name":"덕릉로126아길","oneway":false},"geometry":{"type":"LineString","coordinates":[[127.08637,37.67106],[127.08657,37.6711]]}},{"type":"Feature","properties":{"class":"minor","highway":"residential","sidewalk":"unknown","lanes":0,"name":"덕릉로126아길","oneway":false},"geometry":{"type":"LineString","coordinates":[[127.08632,37.6711],[127.08637,37.67106],[127.08642,37.67101],[127.08648,37.67097],[127.08654,37.67091],[127.08657,37.67084]]}},{"type":"Feature","properties":{"class":"minor","highway":"residential","sidewalk":"unknown","lanes":0,"name":"덕릉로130나길","oneway":false},"geometry":{"type":"LineString","coordinates":[[127.08648,37.67132],[127.0865,37.67119],[127.08657,37.6711],[127.0866,37.67097],[127.08667,37.67093],[127.08657,37.67084]]}},{"type":"Feature","properties":{"class":"minor","highway":"residential","sidewalk":"unknown","lanes":0,"name":"덕릉로130나길","oneway":false},"geometry":{"type":"LineString","coordinates":[[127.08648,37.67191],[127.0863,37.67192],[127.08623,37.67192],[127.08605,37.67195],[127.0859,37.67195],[127.0858,37.67192],[127.08573,37.6719]]}},{"type":"Feature","properties":{"class":"minor","highway":"residential","sidewalk":"unknown","lanes":0,"name":"덕릉로130나길","oneway":false},"geometry":{"type":"LineString","coordinates":[[127.08648,37.67132],[127.08644,37.67143],[127.08638,37.67165],[127.08635,37.67179]]}},{"type":"Feature","properties":{"class":"minor","highway":"residential","sidewalk":"unknown","lanes":0,"name":"","oneway":false},"geometry":{"type":"LineString","coordinates":[[127.08619,37.67023],[127.08603,37.67033]]}},{"type":"Feature","properties":{"class":"minor","highway":"residential","sidewalk":"unknown","lanes":0,"name":"덕릉로126사길","oneway":false},"geometry":{"type":"LineString","coordinates":[[127.08603,37.67033],[127.08573,37.67047],[127.0856,37.67055],[127.0855,37.67062],[127.08541,37.6707],[127.08529,37.67078]]}},{"type":"Feature","properties":{"class":"minor","highway":"residential","sidewalk":"unknown","lanes":0,"name":"덕릉로126바길","oneway":false},"geometry":{"type":"LineString","coordinates":[[127.08501,37.67037],[127.08512,37.67044]]}},{"type":"Feature","properties":{"class":"alley","highway":"living_street","sidewalk":"unknown","lanes":0,"name":"","oneway":false},"geometry":{"type":"LineString","coordinates":[[127.08453,37.67221],[127.08451,37.67247],[127.08453,37.67265]]}},{"type":"Feature","properties":{"class":"minor","highway":"residential","sidewalk":"unknown","lanes":0,"name":"덕릉로126다길","oneway":false},"geometry":{"type":"LineString","coordinates":[[127.08325,37.67146],[127.08363,37.67171],[127.0838,37.6718],[127.08397,37.6719]]}},{"type":"Feature","properties":{"class":"minor","highway":"residential","sidewalk":"unknown","lanes":0,"name":"덕릉로130길","oneway":false},"geometry":{"type":"LineString","coordinates":[[127.08579,37.6721],[127.08538,37.67215],[127.08506,37.67218],[127.08483,37.67221],[127.08475,37.67221],[127.08453,37.67221],[127.08411,37.6721],[127.08376,37.67203],[127.08363,37.67202],[127.08354,37.67202],[127.08333,37.67209],[127.08298,37.67221]]}},{"type":"Feature","properties":{"class":"alley","highway":"living_street","sidewalk":"unknown","lanes":0,"name":"덕릉로126다길","oneway":false},"geometry":{"type":"LineString","coordinates":[[127.08389,37.67145],[127.084,37.6718],[127.08408,37.67184]]}},{"type":"Feature","properties":{"class":"alley","highway":"living_street","sidewalk":"unknown","lanes":0,"name":"덕릉로126다길","oneway":false},"geometry":{"type":"LineString","coordinates":[[127.08407,37.67144],[127.08422,37.67176]]}},{"type":"Feature","properties":{"class":"alley","highway":"living_street","sidewalk":"unknown","lanes":0,"name":"덕릉로126라길","oneway":false},"geometry":{"type":"LineString","coordinates":[[127.08457,37.67182],[127.08454,37.67192],[127.08454,37.67206]]}},{"type":"Feature","properties":{"class":"alley","highway":"living_street","sidewalk":"unknown","lanes":0,"name":"","oneway":false},"geometry":{"type":"LineString","coordinates":[[127.08414,37.67301],[127.08425,37.67254]]}},{"type":"Feature","properties":{"class":"alley","highway":"living_street","sidewalk":"unknown","lanes":0,"name":"덕릉로","oneway":false},"geometry":{"type":"LineString","coordinates":[[127.08354,37.67308],[127.08339,37.67317],[127.08319,37.6733]]}},{"type":"Feature","properties":{"class":"alley","highway":"living_street","sidewalk":"unknown","lanes":0,"name":"덕릉로135길","oneway":false},"geometry":{"type":"LineString","coordinates":[[127.08285,37.67347],[127.08258,37.67358],[127.08245,37.67363],[127.08223,37.67372]]}},{"type":"Feature","properties":{"class":"minor","highway":"residential","sidewalk":"unknown","lanes":0,"name":"","oneway":false},"geometry":{"type":"LineString","coordinates":[[127.08264,37.67184],[127.08247,37.67193],[127.08221,37.67197]]}},{"type":"Feature","properties":{"class":"minor","highway":"residential","sidewalk":"unknown","lanes":0,"name":"덕릉로131길","oneway":false},"geometry":{"type":"LineString","coordinates":[[127.08219,37.67334],[127.08227,37.67325],[127.08253,37.67292],[127.08274,37.67271],[127.08281,37.67264],[127.08314,37.67242]]}},{"type":"Feature","properties":{"class":"minor","highway":"residential","sidewalk":"unknown","lanes":0,"name":"덕릉로143길","oneway":false},"geometry":{"type":"LineString","coordinates":[[127.08554,37.67455],[127.08543,37.67474],[127.08537,37.67488],[127.08531,37.67515],[127.08529,37.67522],[127.08519,37.67544],[127.08511,37.67562],[127.08506,37.67576],[127.08504,37.67585],[127.08504,37.67591],[127.08506,37.67599],[127.08511,37.67609],[127.08514,37.67613],[127.08542,37.67651]]}},{"type":"Feature","properties":{"class":"alley","highway":"living_street","sidewalk":"unknown","lanes":0,"name":"덕릉로141나길","oneway":false},"geometry":{"type":"LineString","coordinates":[[127.08405,37.67431],[127.08418,37.67442],[127.08424,37.67447],[127.08441,37.67461],[127.08455,37.67472],[127.0845,37.67476],[127.08434,37.67485],[127.08422,37.67494],[127.08409,37.67503],[127.08405,37.67507],[127.08396,37.67514],[127.08391,37.67518],[127.08368,37.67534]]}},{"type":"Feature","properties":{"class":"minor","highway":"residential","sidewalk":"unknown","lanes":0,"name":"덕릉로141길","oneway":false},"geometry":{"type":"LineString","coordinates":[[127.08335,37.67544],[127.08352,37.67527],[127.08356,37.67523],[127.08371,37.67509],[127.08375,37.67506],[127.08381,37.67498],[127.08391,37.67485]]}},{"type":"Feature","properties":{"class":"alley","highway":"living_street","sidewalk":"unknown","lanes":0,"name":"덕릉로139길","oneway":false},"geometry":{"type":"LineString","coordinates":[[127.08328,37.67513],[127.08352,37.67527]]}},{"type":"Feature","properties":{"class":"alley","highway":"living_street","sidewalk":"unknown","lanes":0,"name":"덕릉로141나길","oneway":false},"geometry":{"type":"LineString","coordinates":[[127.08368,37.67534],[127.0837,37.67535],[127.08393,37.67542],[127.08407,37.6755],[127.08418,37.67561]]}},{"type":"Feature","properties":{"class":"alley","highway":"living_street","sidewalk":"unknown","lanes":0,"name":"덕릉로141나길","oneway":false},"geometry":{"type":"LineString","coordinates":[[127.08391,37.67518],[127.08407,37.67529],[127.0841,37.67531],[127.08421,37.67536],[127.08435,37.67541]]}},{"type":"Feature","properties":{"class":"minor","highway":"residential","sidewalk":"unknown","lanes":0,"name":"덕릉로141길","oneway":false},"geometry":{"type":"LineString","coordinates":[[127.08391,37.67485],[127.08397,37.67477],[127.08407,37.67468],[127.08424,37.67447]]}},{"type":"Feature","properties":{"class":"minor","highway":"residential","sidewalk":"unknown","lanes":0,"name":"덕릉로141길","oneway":false},"geometry":{"type":"LineString","coordinates":[[127.08424,37.67447],[127.08435,37.67436],[127.08444,37.67428],[127.08451,37.67424],[127.08471,37.67417],[127.08476,37.67411],[127.08484,37.67404]]}},{"type":"Feature","properties":{"class":"alley","highway":"service","sidewalk":"unknown","lanes":0,"name":"덕릉로141가길","oneway":false},"geometry":{"type":"LineString","coordinates":[[127.08476,37.67411],[127.0849,37.67419],[127.08491,37.67429],[127.08496,37.67442],[127.08498,37.67447],[127.08505,37.67464],[127.08511,37.67476],[127.08522,37.67485],[127.08516,37.67494]]}},{"type":"Feature","properties":{"class":"alley","highway":"living_street","sidewalk":"unknown","lanes":0,"name":"덕릉로141가길","oneway":false},"geometry":{"type":"LineString","coordinates":[[127.08455,37.67472],[127.08461,37.6747],[127.08474,37.67462],[127.08483,37.67453],[127.08498,37.67447]]}},{"type":"Feature","properties":{"class":"minor","highway":"residential","sidewalk":"unknown","lanes":0,"name":"덕릉로","oneway":false},"geometry":{"type":"LineString","coordinates":[[127.08361,37.67411],[127.08389,37.67401],[127.08414,37.67392],[127.08428,37.67386]]}},{"type":"Feature","properties":{"class":"minor","highway":"residential","sidewalk":"unknown","lanes":0,"name":"덕릉로134길","oneway":false},"geometry":{"type":"LineString","coordinates":[[127.08429,37.67302],[127.08472,37.67335],[127.08488,37.67355],[127.08499,37.67367],[127.08505,37.67367],[127.08512,37.67376],[127.08521,37.67396],[127.08531,37.67407],[127.08543,37.67415],[127.08551,37.6742],[127.08553,37.67422],[127.08554,37.67425],[127.08556,37.67439]]}},{"type":"Feature","properties":{"class":"minor","highway":"residential","sidewalk":"unknown","lanes":0,"name":"덕릉로","oneway":false},"geometry":{"type":"LineString","coordinates":[[127.08499,37.67367],[127.08493,37.67375],[127.0848,37.67383],[127.08471,37.67388],[127.08464,37.67392]]}},{"type":"Feature","properties":{"class":"alley","highway":"living_street","sidewalk":"unknown","lanes":0,"name":"덕릉로134길","oneway":false},"geometry":{"type":"LineString","coordinates":[[127.08472,37.67335],[127.08492,37.67333],[127.08511,37.67342],[127.08526,37.67338]]}},{"type":"Feature","properties":{"class":"alley","highway":"living_street","sidewalk":"unknown","lanes":0,"name":"덕릉로134길","oneway":false},"geometry":{"type":"LineString","coordinates":[[127.08543,37.67415],[127.08536,37.67394],[127.08529,37.67358],[127.08527,37.67345],[127.08527,37.67343],[127.08526,37.67338]]}},{"type":"Feature","properties":{"class":"alley","highway":"living_street","sidewalk":"unknown","lanes":0,"name":"덕릉로131가길","oneway":false},"geometry":{"type":"LineString","coordinates":[[127.08298,37.67367],[127.08323,37.67357],[127.08336,37.67351]]}},{"type":"Feature","properties":{"class":"minor","highway":"residential","sidewalk":"unknown","lanes":0,"name":"덕릉로131길","oneway":false},"geometry":{"type":"LineString","coordinates":[[127.08309,37.67386],[127.08275,37.67402],[127.08253,37.67417],[127.08252,37.67418]]}},{"type":"Feature","properties":{"class":"alley","highway":"living_street","sidewalk":"unknown","lanes":0,"name":"덕릉로131가길","oneway":false},"geometry":{"type":"LineString","coordinates":[[127.08315,37.67396],[127.08291,37.67407]]}},{"type":"Feature","properties":{"class":"alley","highway":"living_street","sidewalk":"unknown","lanes":0,"name":"덕릉로131길","oneway":false},"geometry":{"type":"LineString","coordinates":[[127.08233,37.67395],[127.08246,37.67388],[127.08298,37.67367]]}},{"type":"Feature","properties":{"class":"alley","highway":"living_street","sidewalk":"unknown","lanes":0,"name":"덕릉로131길","oneway":false},"geometry":{"type":"LineString","coordinates":[[127.08227,37.67325],[127.08232,37.67332],[127.08248,37.67324],[127.08266,37.67317]]}},{"type":"Feature","properties":{"class":"alley","highway":"living_street","sidewalk":"unknown","lanes":0,"name":"덕릉로131가길","oneway":false},"geometry":{"type":"LineString","coordinates":[[127.08266,37.67317],[127.08299,37.67303]]}},{"type":"Feature","properties":{"class":"alley","highway":"living_street","sidewalk":"unknown","lanes":0,"name":"","oneway":false},"geometry":{"type":"LineString","coordinates":[[127.08213,37.67401],[127.08203,37.67368]]}},{"type":"Feature","properties":{"class":"alley","highway":"living_street","sidewalk":"unknown","lanes":0,"name":"덕릉로131길","oneway":false},"geometry":{"type":"LineString","coordinates":[[127.08203,37.67368],[127.082,37.67357],[127.08201,37.67353],[127.08216,37.67348]]}},{"type":"Feature","properties":{"class":"alley","highway":"living_street","sidewalk":"unknown","lanes":0,"name":"덕릉로131가길","oneway":false},"geometry":{"type":"LineString","coordinates":[[127.08217,37.6735],[127.08235,37.67341],[127.08272,37.67326]]}},{"type":"Feature","properties":{"class":"minor","highway":"residential","sidewalk":"unknown","lanes":0,"name":"덕릉로137길","oneway":false},"geometry":{"type":"LineString","coordinates":[[127.0833,37.6745],[127.08324,37.67463],[127.08319,37.67471],[127.08311,37.6748],[127.08307,37.67487],[127.08303,37.67497]]}},{"type":"Feature","properties":{"class":"minor","highway":"residential","sidewalk":"unknown","lanes":0,"name":"덕릉로137길","oneway":false},"geometry":{"type":"LineString","coordinates":[[127.08303,37.67497],[127.08306,37.67501],[127.08308,37.67509],[127.08306,37.67522],[127.08305,37.67536],[127.08315,37.67553],[127.08335,37.67544]]}},{"type":"Feature","properties":{"class":"minor","highway":"residential","sidewalk":"unknown","lanes":0,"name":"덕릉로137길","oneway":false},"geometry":{"type":"LineString","coordinates":[[127.08303,37.67497],[127.083,37.67507],[127.08294,37.67517],[127.08278,37.67525],[127.08274,37.67529],[127.08259,37.6758]]}},{"type":"Feature","properties":{"class":"minor","highway":"residential","sidewalk":"unknown","lanes":0,"name":"덕릉로137길","oneway":false},"geometry":{"type":"LineString","coordinates":[[127.08243,37.67638],[127.08241,37.6762],[127.08253,37.67595],[127.08258,37.67584],[127.08259,37.6758]]}},{"type":"Feature","properties":{"class":"alley","highway":"living_street","sidewalk":"unknown","lanes":0,"name":"덕릉로131길","oneway":false},"geometry":{"type":"LineString","coordinates":[[127.08287,37.67436],[127.08271,37.67448],[127.08244,37.6746],[127.08244,37.67462],[127.08246,37.67466],[127.08245,37.67467],[127.08236,37.67472],[127.0823,37.67476],[127.08222,37.6748],[127.08225,37.67483],[127.08235,37.67493],[127.08241,37.67503]]}},{"type":"Feature","properties":{"class":"alley","highway":"living_street","sidewalk":"unknown","lanes":0,"name":"덕릉로131가길","oneway":false},"geometry":{"type":"LineString","coordinates":[[127.08241,37.67503],[127.08225,37.67509],[127.08218,37.67516],[127.08212,37.67522]]}},{"type":"Feature","properties":{"class":"alley","highway":"living_street","sidewalk":"unknown","lanes":0,"name":"덕릉로131가길","oneway":false},"geometry":{"type":"LineString","coordinates":[[127.08301,37.67441],[127.08293,37.67446],[127.08279,37.67459],[127.08271,37.67464],[127.0826,37.67473],[127.08267,37.67479],[127.08247,37.67492],[127.08252,37.67496]]}},{"type":"Feature","properties":{"class":"alley","highway":"living_street","sidewalk":"unknown","lanes":0,"name":"덕릉로137길","oneway":false},"geometry":{"type":"LineString","coordinates":[[127.08252,37.67496],[127.08258,37.67501],[127.08272,37.67506],[127.08279,37.67508],[127.08283,37.67507]]}},{"type":"Feature","properties":{"class":"minor","highway":"residential","sidewalk":"unknown","lanes":0,"name":"덕릉로131길","oneway":false},"geometry":{"type":"LineString","coordinates":[[127.08207,37.67431],[127.08237,37.67423],[127.08242,37.67422],[127.08252,37.67418]]}},{"type":"Feature","properties":{"class":"minor","highway":"residential","sidewalk":"unknown","lanes":0,"name":"덕릉로141길","oneway":false},"geometry":{"type":"LineString","coordinates":[[127.08259,37.6758],[127.0827,37.67574],[127.08292,37.67565],[127.08315,37.67553]]}},{"type":"Feature","properties":{"class":"alley","highway":"living_street","sidewalk":"unknown","lanes":0,"name":"덕릉로141길","oneway":false},"geometry":{"type":"LineString","coordinates":[[127.08397,37.67477],[127.08422,37.67494]]}},{"type":"Feature","properties":{"class":"alley","highway":"living_street","sidewalk":"unknown","lanes":0,"name":"덕릉로141길","oneway":false},"geometry":{"type":"LineString","coordinates":[[127.08407,37.67468],[127.08434,37.67485]]}},{"type":"Feature","properties":{"class":"alley","highway":"service","sidewalk":"unknown","lanes":0,"name":"덕릉로141가길","oneway":false},"geometry":{"type":"LineString","coordinates":[[127.08446,37.67518],[127.08445,37.67501],[127.08443,37.67496],[127.08473,37.67483],[127.08505,37.67464]]}},{"type":"Feature","properties":{"class":"alley","highway":"service","sidewalk":"unknown","lanes":0,"name":"덕릉로141가길","oneway":false},"geometry":{"type":"LineString","coordinates":[[127.08516,37.67494],[127.08502,37.6749],[127.08495,37.67491],[127.0848,37.67494]]}},{"type":"Feature","properties":{"class":"alley","highway":"service","sidewalk":"unknown","lanes":0,"name":"덕릉로141가길","oneway":false},"geometry":{"type":"LineString","coordinates":[[127.08446,37.67518],[127.08472,37.67514],[127.08498,37.67512],[127.08501,37.67512],[127.08513,37.67512]]}},{"type":"Feature","properties":{"class":"alley","highway":"service","sidewalk":"unknown","lanes":0,"name":"덕릉로143길","oneway":false},"geometry":{"type":"LineString","coordinates":[[127.08513,37.67512],[127.08507,37.67528],[127.08503,37.67541],[127.08505,37.67541],[127.08508,37.67542],[127.08519,37.67544]]}},{"type":"Feature","properties":{"class":"alley","highway":"service","sidewalk":"unknown","lanes":0,"name":"덕릉로143길","oneway":false},"geometry":{"type":"LineString","coordinates":[[127.08513,37.67512],[127.08531,37.67515]]}},{"type":"Feature","properties":{"class":"alley","highway":"service","sidewalk":"unknown","lanes":0,"name":"덕릉로141나길","oneway":false},"geometry":{"type":"LineString","coordinates":[[127.08446,37.67518],[127.08443,37.67521],[127.08445,37.67529],[127.08437,37.67533],[127.0842,37.67521],[127.08415,37.67513],[127.08405,37.67507]]}},{"type":"Feature","properties":{"class":"alley","highway":"service","sidewalk":"unknown","lanes":0,"name":"덕릉로141가길","oneway":false},"geometry":{"type":"LineString","coordinates":[[127.0848,37.67494],[127.08473,37.67483]]}},{"type":"Feature","properties":{"class":"alley","highway":"living_street","sidewalk":"unknown","lanes":0,"name":"덕릉로141나길","oneway":false},"geometry":{"type":"LineString","coordinates":[[127.08407,37.67529],[127.08393,37.67542]]}},{"type":"Feature","properties":{"class":"minor","highway":"residential","sidewalk":"unknown","lanes":0,"name":"덕릉로131길","oneway":false},"geometry":{"type":"LineString","coordinates":[[127.08304,37.67442],[127.08301,37.67441],[127.08287,37.67436],[127.08274,37.67432],[127.08265,37.67426],[127.08255,37.67421],[127.08252,37.67418],[127.08244,37.67411],[127.08237,37.67401],[127.08233,37.67395],[127.08223,37.67372],[127.08221,37.67365],[127.08217,37.6735],[127.08216,37.67348],[127.08219,37.67334]]}},{"type":"Feature","properties":{"class":"minor","highway":"residential","sidewalk":"unknown","lanes":0,"name":"덕릉로137길","oneway":false},"geometry":{"type":"LineString","coordinates":[[127.08316,37.67403],[127.08361,37.67405]]}},{"type":"Feature","properties":{"class":"minor","highway":"residential","sidewalk":"unknown","lanes":0,"name":"상계로37나길","oneway":false},"geometry":{"type":"LineString","coordinates":[[127.08108,37.6723],[127.08094,37.67232],[127.08078,37.67229],[127.08067,37.67226],[127.08051,37.67219],[127.08031,37.6721],[127.08011,37.672]]}},{"type":"Feature","properties":{"class":"minor","highway":"residential","sidewalk":"unknown","lanes":0,"name":"덕릉로129가길","oneway":false},"geometry":{"type":"LineString","coordinates":[[127.08151,37.67285],[127.08158,37.67303],[127.08158,37.67318],[127.0816,37.67327],[127.0817,37.67338],[127.08179,37.67345],[127.08182,37.67348]]}},{"type":"Feature","properties":{"class":"minor","highway":"residential","sidewalk":"unknown","lanes":0,"name":"덕릉로126나길","oneway":false},"geometry":{"type":"LineString","coordinates":[[127.08341,37.67083],[127.0829,37.67099],[127.08261,37.67109]]}},{"type":"Feature","properties":{"class":"minor","highway":"residential","sidewalk":"unknown","lanes":0,"name":"덕릉로134가길","oneway":false},"geometry":{"type":"LineString","coordinates":[[127.08429,37.67302],[127.08483,37.67254]]}},{"type":"Feature","properties":{"class":"minor","highway":"residential","sidewalk":"unknown","lanes":0,"name":"덕릉로134가길","oneway":false},"geometry":{"type":"LineString","coordinates":[[127.08483,37.67254],[127.08592,37.67247]]}},{"type":"Feature","properties":{"class":"minor","highway":"residential","sidewalk":"unknown","lanes":0,"name":"덕릉로130가길","oneway":false},"geometry":{"type":"LineString","coordinates":[[127.08579,37.6721],[127.08645,37.67204]]}},{"type":"Feature","properties":{"class":"minor","highway":"residential","sidewalk":"unknown","lanes":0,"name":"덕릉로130길","oneway":false},"geometry":{"type":"LineString","coordinates":[[127.08475,37.67221],[127.08478,37.6723],[127.08483,37.67254]]}},{"type":"Feature","properties":{"class":"minor","highway":"residential","sidewalk":"unknown","lanes":0,"name":"덕릉로126가길","oneway":false},"geometry":{"type":"LineString","coordinates":[[127.0846,37.66994],[127.08471,37.6699],[127.08484,37.67002],[127.0849,37.67007]]}},{"type":"Feature","properties":{"class":"minor","highway":"residential","sidewalk":"unknown","lanes":0,"name":"덕릉로126사길","oneway":false},"geometry":{"type":"LineString","coordinates":[[127.08603,37.67033],[127.08618,37.6705],[127.08612,37.67055],[127.08613,37.6706]]}},{"type":"Feature","properties":{"class":"alley","highway":"living_street","sidewalk":"unknown","lanes":0,"name":"덕릉로126마길","oneway":false},"geometry":{"type":"LineString","coordinates":[[127.08493,37.6714],[127.08506,37.67136]]}},{"type":"Feature","properties":{"class":"alley","highway":"living_street","sidewalk":"unknown","lanes":0,"name":"덕릉로126마길","oneway":false},"geometry":{"type":"LineString","coordinates":[[127.08459,37.67079],[127.08474,37.67071],[127.08525,37.67111],[127.08535,37.67119]]}},{"type":"Feature","properties":{"class":"minor","highway":"residential","sidewalk":"unknown","lanes":1,"name":"덕릉로124길","oneway":false},"geometry":{"type":"LineString","coordinates":[[127.08344,37.67015],[127.08333,37.66991],[127.08318,37.66953],[127.08302,37.66909]]}},{"type":"Feature","properties":{"class":"minor","highway":"residential","sidewalk":"unknown","lanes":0,"name":"덕릉로122길","oneway":false},"geometry":{"type":"LineString","coordinates":[[127.08171,37.66718],[127.08196,37.66727],[127.08211,37.66735],[127.08238,37.66746],[127.08284,37.66755],[127.08294,37.66759],[127.08299,37.66765],[127.08304,37.66769],[127.08303,37.66779],[127.08292,37.6681],[127.08287,37.66814],[127.08268,37.66821],[127.08233,37.6683],[127.08199,37.66833],[127.08166,37.66839]]}},{"type":"Feature","properties":{"class":"minor","highway":"residential","sidewalk":"unknown","lanes":0,"name":"덕릉로112길","oneway":false},"geometry":{"type":"LineString","coordinates":[[127.08032,37.66654],[127.08094,37.66558]]}},{"type":"Feature","properties":{"class":"minor","highway":"residential","sidewalk":"unknown","lanes":0,"name":"덕릉로129길","oneway":false},"geometry":{"type":"LineString","coordinates":[[127.08076,37.67257],[127.08089,37.67284]]}},{"type":"Feature","properties":{"class":"minor","highway":"residential","sidewalk":"unknown","lanes":0,"name":"덕릉로129길","oneway":false},"geometry":{"type":"LineString","coordinates":[[127.08057,37.67292],[127.08066,37.67287],[127.08072,37.6728]]}},{"type":"Feature","properties":{"class":"minor","highway":"residential","sidewalk":"unknown","lanes":0,"name":"상계로37길","oneway":false},"geometry":{"type":"LineString","coordinates":[[127.07965,37.67216],[127.08011,37.672],[127.08012,37.67176],[127.08011,37.67147],[127.07997,37.6713],[127.07985,37.6712],[127.07975,37.67114],[127.07959,37.67106],[127.0795,37.67101],[127.07932,37.6709],[127.07921,37.67081],[127.07901,37.67065],[127.0789,37.67054],[127.07889,37.67052],[127.07888,37.67049],[127.07887,37.67047],[127.07887,37.67045],[127.07889,37.67043]]}},{"type":"Feature","properties":{"class":"major","highway":"trunk","sidewalk":"likely","lanes":0,"name":"덕내로","oneway":true},"geometry":{"type":"LineString","coordinates":[[127.09405,37.67657],[127.09983,37.67794],[127.1063,37.67948],[127.10747,37.67976]]}},{"type":"Feature","properties":{"class":"major","highway":"trunk","sidewalk":"likely","lanes":0,"name":"덕내로","oneway":true},"geometry":{"type":"LineString","coordinates":[[127.10762,37.68006],[127.09389,37.6768]]}},{"type":"Feature","properties":{"class":"major","highway":"secondary","sidewalk":"likely","lanes":4,"name":"덕릉로","oneway":false},"geometry":{"type":"LineString","coordinates":[[127.07671,37.66451],[127.07702,37.66495],[127.07709,37.66503],[127.07739,37.66543],[127.07764,37.66577],[127.07775,37.66593],[127.07817,37.66646],[127.07838,37.66674],[127.07882,37.66734],[127.07884,37.66736],[127.07915,37.66777],[127.07957,37.66833],[127.07999,37.66883],[127.08011,37.669],[127.08022,37.66913],[127.0805,37.66949],[127.08055,37.66956],[127.08085,37.66991],[127.08103,37.67013]]}},{"type":"Feature","properties":{"class":"major","highway":"trunk","sidewalk":"likely","lanes":0,"name":"덕내로","oneway":true},"geometry":{"type":"LineString","coordinates":[[127.08556,37.67439],[127.08572,37.67441],[127.08581,37.67443],[127.08597,37.67447],[127.08619,37.67453],[127.08689,37.6747],[127.08778,37.67495]]}},{"type":"Feature","properties":{"class":"major","highway":"trunk","sidewalk":"likely","lanes":0,"name":"덕내로","oneway":true},"geometry":{"type":"LineString","coordinates":[[127.08753,37.67513],[127.08686,37.67487],[127.08637,37.67469],[127.08616,37.67463],[127.08603,37.67459],[127.08587,37.67454],[127.08574,37.67448],[127.08556,37.67439]]}},{"type":"Feature","properties":{"class":"major","highway":"motorway","sidewalk":"likely","lanes":4,"name":"수도권제1순환고속도로","oneway":true},"geometry":{"type":"LineString","coordinates":[[127.0857,37.67716],[127.08516,37.67743]]}},{"type":"Feature","properties":{"class":"major","highway":"motorway","sidewalk":"likely","lanes":4,"name":"수도권제1순환고속도로","oneway":true},"geometry":{"type":"LineString","coordinates":[[127.08497,37.6771],[127.08542,37.67688]]}},{"type":"Feature","properties":{"class":"alley","highway":"service","sidewalk":"unknown","lanes":0,"name":"","oneway":false},"geometry":{"type":"LineString","coordinates":[[127.09292,37.67762],[127.0929,37.67786],[127.09295,37.67798],[127.09298,37.67804],[127.09311,37.67822],[127.09361,37.67869],[127.0941,37.67905]]}},{"type":"Feature","properties":{"class":"alley","highway":"service","sidewalk":"unknown","lanes":0,"name":"","oneway":false},"geometry":{"type":"LineString","coordinates":[[127.09419,37.68188],[127.09429,37.68179],[127.09455,37.68158],[127.0944,37.68112],[127.09386,37.67943],[127.0941,37.67905]]}},{"type":"Feature","properties":{"class":"alley","highway":"service","sidewalk":"unknown","lanes":0,"name":"","oneway":false},"geometry":{"type":"LineString","coordinates":[[127.09295,37.67798],[127.09316,37.67782],[127.09331,37.67774],[127.09345,37.67775],[127.09365,37.67778],[127.09381,37.67787],[127.09463,37.67845],[127.09509,37.67877],[127.09517,37.67882],[127.09601,37.6792]]}},{"type":"Feature","properties":{"class":"alley","highway":"service","sidewalk":"unknown","lanes":0,"name":"","oneway":false},"geometry":{"type":"LineString","coordinates":[[127.09934,37.67996],[127.0992,37.68],[127.09883,37.67993],[127.09848,37.67992],[127.09822,37.67994],[127.09804,37.67998],[127.09771,37.68005],[127.09744,37.68011],[127.09725,37.68018],[127.09702,37.6802],[127.09695,37.68021],[127.09713,37.68031],[127.09724,37.68041],[127.09726,37.68049],[127.09727,37.68062],[127.09719,37.68074],[127.09695,37.68081],[127.09673,37.68086],[127.09647,37.68098],[127.09628,37.68107],[127.09614,37.68104],[127.09589,37.68095],[127.09573,37.68093],[127.09522,37.68098],[127.09498,37.68101],[127.09469,37.68108],[127.09454,37.68112],[127.0944,37.68112]]}},{"type":"Feature","properties":{"class":"minor","highway":"residential","sidewalk":"unknown","lanes":0,"name":"","oneway":false},"geometry":{"type":"LineString","coordinates":[[127.09925,37.67912],[127.09987,37.67911],[127.10005,37.67913],[127.10023,37.67916],[127.10035,37.67927],[127.10045,37.67939],[127.10051,37.67948],[127.10062,37.67952],[127.10078,37.67953],[127.10091,37.67956],[127.1012,37.67968],[127.10137,37.67982],[127.10146,37.67993],[127.10149,37.68007],[127.10152,37.68022],[127.1015,37.68026]]}},{"type":"Feature","properties":{"class":"minor","highway":"residential","sidewalk":"unknown","lanes":0,"name":"덕릉로126라길","oneway":false},"geometry":{"type":"LineString","coordinates":[[127.08434,37.67169],[127.08429,37.67157],[127.08424,37.67143]]}},{"type":"Feature","properties":{"class":"minor","highway":"residential","sidewalk":"unknown","lanes":0,"name":"","oneway":false},"geometry":{"type":"LineString","coordinates":[[127.08322,37.67052],[127.08309,37.67027]]}},{"type":"Feature","properties":{"class":"alley","highway":"living_street","sidewalk":"unknown","lanes":0,"name":"","oneway":false},"geometry":{"type":"LineString","coordinates":[[127.08454,37.67206],[127.08453,37.67221]]}},{"type":"Feature","properties":{"class":"alley","highway":"living_street","sidewalk":"unknown","lanes":0,"name":"","oneway":false},"geometry":{"type":"LineString","coordinates":[[127.08408,37.67184],[127.08454,37.67192]]}},{"type":"Feature","properties":{"class":"minor","highway":"residential","sidewalk":"unknown","lanes":0,"name":"덕릉로126라길","oneway":false},"geometry":{"type":"LineString","coordinates":[[127.08474,37.67207],[127.08454,37.67206],[127.08397,37.6719]]}},{"type":"Feature","properties":{"class":"minor","highway":"residential","sidewalk":"unknown","lanes":0,"name":"덕릉로126가길","oneway":false},"geometry":{"type":"LineString","coordinates":[[127.08625,37.67068],[127.08613,37.6706]]}},{"type":"Feature","properties":{"class":"minor","highway":"residential","sidewalk":"unknown","lanes":0,"name":"덕릉로130나길","oneway":false},"geometry":{"type":"LineString","coordinates":[[127.08657,37.6711],[127.08671,37.67111]]}},{"type":"Feature","properties":{"class":"minor","highway":"residential","sidewalk":"unknown","lanes":0,"name":"덕릉로126아길","oneway":false},"geometry":{"type":"LineString","coordinates":[[127.08611,37.67094],[127.08632,37.6711]]}},{"type":"Feature","properties":{"class":"minor","highway":"residential","sidewalk":"unknown","lanes":0,"name":"덕릉로126바길","oneway":false},"geometry":{"type":"LineString","coordinates":[[127.08508,37.6701],[127.08522,37.6702]]}},{"type":"Feature","properties":{"class":"minor","highway":"residential","sidewalk":"unknown","lanes":0,"name":"덕릉로126바길","oneway":false},"geometry":{"type":"LineString","coordinates":[[127.08522,37.6702],[127.08529,37.67024],[127.08534,37.67029]]}},{"type":"Feature","properties":{"class":"minor","highway":"residential","sidewalk":"unknown","lanes":0,"name":"덕릉로126가길","oneway":false},"geometry":{"type":"LineString","coordinates":[[127.08515,37.66982],[127.08544,37.66993]]}},{"type":"Feature","properties":{"class":"minor","highway":"residential","sidewalk":"unknown","lanes":0,"name":"덕릉로126가길","oneway":false},"geometry":{"type":"LineString","coordinates":[[127.08512,37.67044],[127.0853,37.67061]]}},{"type":"Feature","properties":{"class":"minor","highway":"residential","sidewalk":"unknown","lanes":0,"name":"덕릉로126가길","oneway":false},"geometry":{"type":"LineString","coordinates":[[127.08581,37.6707],[127.08595,37.67081],[127.08611,37.67094]]}},{"type":"Feature","properties":{"class":"minor","highway":"residential","sidewalk":"unknown","lanes":0,"name":"덕릉로126사길","oneway":false},"geometry":{"type":"LineString","coordinates":[[127.08573,37.67063],[127.08581,37.6707]]}},{"type":"Feature","properties":{"class":"minor","highway":"residential","sidewalk":"unknown","lanes":0,"name":"덕릉로126가길","oneway":false},"geometry":{"type":"LineString","coordinates":[[127.08562,37.67085],[127.08592,37.67109]]}},{"type":"Feature","properties":{"class":"minor","highway":"residential","sidewalk":"unknown","lanes":0,"name":"덕릉로126사길","oneway":false},"geometry":{"type":"LineString","coordinates":[[127.08554,37.67078],[127.08562,37.67085]]}},{"type":"Feature","properties":{"class":"alley","highway":"living_street","sidewalk":"unknown","lanes":0,"name":"덕릉로126사길","oneway":false},"geometry":{"type":"LineString","coordinates":[[127.08541,37.67088],[127.08554,37.67078],[127.08573,37.67063]]}},{"type":"Feature","properties":{"class":"alley","highway":"service","sidewalk":"unknown","lanes":0,"name":"덕릉로143길","oneway":false},"geometry":{"type":"LineString","coordinates":[[127.08522,37.67485],[127.08533,37.67478],[127.08543,37.67474]]}},{"type":"Feature","properties":{"class":"alley","highway":"living_street","sidewalk":"unknown","lanes":0,"name":"덕릉로141길","oneway":false},"geometry":{"type":"LineString","coordinates":[[127.08375,37.67506],[127.08391,37.67518]]}},{"type":"Feature","properties":{"class":"alley","highway":"living_street","sidewalk":"unknown","lanes":0,"name":"덕릉로141나길","oneway":false},"geometry":{"type":"LineString","coordinates":[[127.08352,37.67527],[127.08368,37.67534]]}},{"type":"Feature","properties":{"class":"alley","highway":"service","sidewalk":"unknown","lanes":0,"name":"덕릉로131길","oneway":false},"geometry":{"type":"LineString","coordinates":[[127.08203,37.67368],[127.08202,37.6737],[127.08195,37.67372],[127.08188,37.67374],[127.08182,37.67376]]}},{"type":"Feature","properties":{"class":"minor","highway":"residential","sidewalk":"unknown","lanes":0,"name":"","oneway":false},"geometry":{"type":"LineString","coordinates":[[127.08182,37.67348],[127.08182,37.67376]]}},{"type":"Feature","properties":{"class":"alley","highway":"living_street","sidewalk":"unknown","lanes":0,"name":"덕릉로131가길","oneway":false},"geometry":{"type":"LineString","coordinates":[[127.08319,37.6733],[127.08285,37.67347]]}},{"type":"Feature","properties":{"class":"alley","highway":"living_street","sidewalk":"unknown","lanes":0,"name":"","oneway":false},"geometry":{"type":"LineString","coordinates":[[127.08291,37.67407],[127.083,37.6742]]}},{"type":"Feature","properties":{"class":"minor","highway":"residential","sidewalk":"unknown","lanes":0,"name":"덕릉로127길","oneway":false},"geometry":{"type":"LineString","coordinates":[[127.08221,37.67197],[127.08185,37.67198]]}},{"type":"Feature","properties":{"class":"minor","highway":"residential","sidewalk":"unknown","lanes":0,"name":"덕릉로129길","oneway":false},"geometry":{"type":"LineString","coordinates":[[127.08062,37.67269],[127.08072,37.6728],[127.08082,37.67292]]}},{"type":"Feature","properties":{"class":"minor","highway":"residential","sidewalk":"unknown","lanes":0,"name":"덕릉로","oneway":false},"geometry":{"type":"LineString","coordinates":[[127.08019,37.66763],[127.08,37.66829]]}},{"type":"Feature","properties":{"class":"major","highway":"secondary","sidewalk":"likely","lanes":4,"name":"덕릉로","oneway":false},"geometry":{"type":"LineString","coordinates":[[127.08103,37.67013],[127.08128,37.67041]]}},{"type":"Feature","properties":{"class":"major","highway":"secondary","sidewalk":"likely","lanes":4,"name":"덕릉로","oneway":false},"geometry":{"type":"LineString","coordinates":[[127.08128,37.67041],[127.08175,37.67095],[127.08207,37.67128],[127.08218,37.67139],[127.08264,37.67184],[127.08269,37.67189],[127.08286,37.67208],[127.08298,37.67221],[127.08314,37.67242],[127.08363,37.67296],[127.08381,37.67318],[127.08401,37.6734],[127.08419,37.67357],[127.08439,37.67374],[127.08464,37.67392],[127.08484,37.67404],[127.08501,37.67414],[127.08511,37.67419],[127.08556,37.67439]]}},{"type":"Feature","properties":{"class":"minor","highway":"residential","sidewalk":"unknown","lanes":1,"name":"덕릉로124길","oneway":false},"geometry":{"type":"LineString","coordinates":[[127.08302,37.66909],[127.0829,37.66883]]}},{"type":"Feature","properties":{"class":"minor","highway":"residential","sidewalk":"unknown","lanes":1,"name":"덕릉로124길","oneway":false},"geometry":{"type":"LineString","coordinates":[[127.0829,37.66883],[127.08287,37.66873],[127.0828,37.66861],[127.08267,37.66846]]}},{"type":"Feature","properties":{"class":"minor","highway":"residential","sidewalk":"unknown","lanes":0,"name":"덕릉로","oneway":true},"geometry":{"type":"LineString","coordinates":[[127.08554,37.67455],[127.08546,37.67449],[127.0853,37.67438],[127.08511,37.67419]]}},{"type":"Feature","properties":{"class":"minor","highway":"residential","sidewalk":"unknown","lanes":0,"name":"덕릉로","oneway":true},"geometry":{"type":"LineString","coordinates":[[127.08556,37.67439],[127.08559,37.67447],[127.08564,37.6746]]}},{"type":"Feature","properties":{"class":"minor","highway":"residential","sidewalk":"unknown","lanes":0,"name":"덕릉로143길","oneway":true},"geometry":{"type":"LineString","coordinates":[[127.08559,37.67447],[127.08559,37.67448],[127.08558,37.6745],[127.08557,37.67452],[127.08554,37.67455]]}},{"type":"Feature","properties":{"class":"minor","highway":"residential","sidewalk":"unknown","lanes":0,"name":"덕릉로","oneway":false},"geometry":{"type":"LineString","coordinates":[[127.08564,37.6746],[127.08554,37.67455]]}},{"type":"Feature","properties":{"class":"minor","highway":"residential","sidewalk":"unknown","lanes":0,"name":"덕릉로","oneway":false},"geometry":{"type":"LineString","coordinates":[[127.09938,37.67999],[127.09949,37.68007]]}},{"type":"Feature","properties":{"class":"alley","highway":"service","sidewalk":"unknown","lanes":0,"name":"","oneway":false},"geometry":{"type":"LineString","coordinates":[[127.08506,37.68279],[127.08514,37.68281],[127.08532,37.68291],[127.08558,37.68309],[127.08568,37.68319],[127.08571,37.68327],[127.08574,37.68342],[127.08581,37.68348],[127.08599,37.68353],[127.08609,37.68353],[127.08625,37.68355],[127.08639,37.68343],[127.08657,37.68324],[127.08685,37.68313],[127.08704,37.68303],[127.08729,37.68301],[127.08747,37.68306],[127.08758,37.68312],[127.08768,37.68312],[127.08773,37.68306],[127.08778,37.6829],[127.08782,37.68264],[127.08786,37.68253],[127.0879,37.68241],[127.08802,37.68224],[127.08808,37.68218],[127.08816,37.68212],[127.08832,37.68208],[127.08844,37.6821],[127.08845,37.6821],[127.08868,37.68213],[127.08877,37.68213],[127.08889,37.68212],[127.08901,37.68201],[127.08908,37.68189],[127.08914,37.6818],[127.08924,37.68172],[127.08932,37.68165],[127.08942,37.68156],[127.08949,37.68143],[127.08956,37.68116],[127.08958,37.681],[127.08955,37.68078],[127.08952,37.68059],[127.0894,37.68034],[127.08928,37.68004],[127.08923,37.67979],[127.08923,37.67952],[127.08923,37.6795],[127.0892,37.67945]]}},{"type":"Feature","properties":{"class":"minor","highway":"unclassified","sidewalk":"unknown","lanes":0,"name":"","oneway":false},"geometry":{"type":"LineString","coordinates":[[127.0892,37.67945],[127.08919,37.67936],[127.08913,37.67929],[127.08899,37.67913],[127.08894,37.67904],[127.0889,37.67896],[127.08871,37.67881],[127.08865,37.67874],[127.0886,37.67858],[127.08854,37.67827],[127.08835,37.67804],[127.08795,37.67761],[127.08789,37.67753],[127.08771,37.67735],[127.08752,37.67721],[127.08745,37.67715],[127.08738,37.67708],[127.08734,37.67702],[127.08733,37.6769],[127.08733,37.67681],[127.08732,37.6767],[127.08731,37.67669],[127.08728,37.67662],[127.08701,37.67622],[127.08684,37.67597],[127.08677,37.67583],[127.08668,37.67574],[127.08656,37.67565],[127.08651,37.67552],[127.08652,37.67538],[127.08661,37.67523],[127.08662,37.67522]]}},{"type":"Feature","properties":{"class":"major","highway":"trunk","sidewalk":"likely","lanes":0,"name":"덕내로","oneway":true},"geometry":{"type":"LineString","coordinates":[[127.09389,37.6768],[127.09254,37.67648],[127.08952,37.67576],[127.08855,37.67551],[127.08753,37.67513]]}},{"type":"Feature","properties":{"class":"major","highway":"trunk","sidewalk":"likely","lanes":0,"name":"덕내로","oneway":true},"geometry":{"type":"LineString","coordinates":[[127.08778,37.67495],[127.08863,37.67522],[127.09014,37.67564],[127.09405,37.67657]]}},{"type":"Feature","properties":{"class":"alley","highway":"service","sidewalk":"unknown","lanes":0,"name":"","oneway":false},"geometry":{"type":"LineString","coordinates":[[127.08171,37.66718],[127.08204,37.66688],[127.08211,37.66685],[127.08228,37.66688],[127.08259,37.66694],[127.08279,37.66696],[127.08288,37.66696],[127.083,37.6669],[127.08316,37.66678],[127.0833,37.6667],[127.08336,37.66669],[127.08343,37.66669],[127.08349,37.66668],[127.08354,37.66665],[127.08357,37.66661],[127.08364,37.66656],[127.08368,37.66653],[127.08374,37.66656],[127.08381,37.66661],[127.08387,37.66661],[127.08405,37.66656],[127.08422,37.66652],[127.08436,37.6665],[127.08453,37.66649],[127.0846,37.66651],[127.08468,37.66653],[127.08474,37.66658],[127.08475,37.66659],[127.08482,37.66665],[127.0849,37.66673]]}},{"type":"Feature","properties":{"class":"alley","highway":"service","sidewalk":"unknown","lanes":0,"name":"","oneway":false},"geometry":{"type":"LineString","coordinates":[[127.08063,37.66771],[127.08089,37.66684]]}},{"type":"Feature","properties":{"class":"minor","highway":"residential","sidewalk":"unknown","lanes":0,"name":"","oneway":false},"geometry":{"type":"LineString","coordinates":[[127.08164,37.66851],[127.08166,37.66839]]}},{"type":"Feature","properties":{"class":"alley","highway":"service","sidewalk":"unknown","lanes":0,"name":"","oneway":false},"geometry":{"type":"LineString","coordinates":[[127.08832,37.67547],[127.08936,37.67547]]}},{"type":"Feature","properties":{"class":"minor","highway":"residential","sidewalk":"unknown","lanes":0,"name":"덕릉로129길","oneway":true},"geometry":{"type":"LineString","coordinates":[[127.07982,37.67405],[127.0799,37.67418],[127.08002,37.67431],[127.08009,37.67451],[127.08011,37.67464],[127.08007,37.6747],[127.08,37.67475]]}},{"type":"Feature","properties":{"class":"minor","highway":"residential","sidewalk":"unknown","lanes":0,"name":"덕릉로129길","oneway":true},"geometry":{"type":"LineString","coordinates":[[127.08,37.67475],[127.07999,37.6747],[127.07991,37.6745],[127.07988,37.67445],[127.07984,37.67437],[127.07976,37.67424],[127.07976,37.67413],[127.07982,37.67405]]}},{"type":"Feature","properties":{"class":"minor","highway":"residential","sidewalk":"unknown","lanes":0,"name":"덕릉로129길","oneway":false},"geometry":{"type":"LineString","coordinates":[[127.07982,37.67405],[127.07988,37.6739],[127.07998,37.67383],[127.08005,37.67377],[127.08018,37.67367],[127.0802,37.67358],[127.08027,37.67348],[127.08036,37.6734],[127.08043,37.67339],[127.08048,37.67337],[127.08058,37.67331],[127.08072,37.67322],[127.08086,37.67316],[127.08109,37.67306],[127.08129,37.67298],[127.08149,37.67289]]}},{"type":"Feature","properties":{"class":"alley","highway":"service","sidewalk":"unknown","lanes":0,"name":"","oneway":false},"geometry":{"type":"LineString","coordinates":[[127.08488,37.67626],[127.08477,37.6763],[127.08469,37.67639],[127.08464,37.67643],[127.08459,37.67645]]}},{"type":"Feature","properties":{"class":"alley","highway":"service","sidewalk":"unknown","lanes":0,"name":"","oneway":false},"geometry":{"type":"LineString","coordinates":[[127.08514,37.67613],[127.08488,37.67626],[127.0849,37.67631],[127.08497,37.67639],[127.08499,37.67644],[127.08498,37.67648],[127.08495,37.67653],[127.08493,37.67656],[127.08495,37.67661]]}},{"type":"Feature","properties":{"class":"alley","highway":"service","sidewalk":"unknown","lanes":0,"name":"","oneway":false},"geometry":{"type":"LineString","coordinates":[[127.0824,37.67574],[127.08233,37.67567],[127.08228,37.67563],[127.08196,37.67554]]}},{"type":"Feature","properties":{"class":"alley","highway":"service","sidewalk":"unknown","lanes":0,"name":"","oneway":false},"geometry":{"type":"LineString","coordinates":[[127.08184,37.67565],[127.08194,37.6757],[127.08217,37.67575],[127.08223,37.67577],[127.08231,37.67575],[127.0824,37.67574],[127.08252,37.67578],[127.08259,37.6758]]}},{"type":"Feature","properties":{"class":"alley","highway":"service","sidewalk":"unknown","lanes":0,"name":"","oneway":false},"geometry":{"type":"LineString","coordinates":[[127.08516,37.67494],[127.08513,37.67504],[127.08513,37.67512]]}}]}