{"type":"FeatureCollection","features":[{"type":"Feature","properties":{"class":"major","highway":"motorway_link","sidewalk":"likely","lanes":0,"name":"","oneway":true},"geometry":{"type":"LineString","coordinates":[[127.11386,37.66391],[127.11417,37.66331],[127.11442,37.66286],[127.11453,37.66261],[127.1147,37.6624],[127.11496,37.66203]]}},{"type":"Feature","properties":{"class":"major","highway":"motorway","sidewalk":"likely","lanes":4,"name":"수도권제1순환고속도로","oneway":true},"geometry":{"type":"LineString","coordinates":[[127.0897,37.67496],[127.10556,37.67041],[127.10713,37.66984]]}},{"type":"Feature","properties":{"class":"major","highway":"motorway","sidewalk":"likely","lanes":4,"name":"수도권제1순환고속도로","oneway":true},"geometry":{"type":"LineString","coordinates":[[127.11382,37.66397],[127.11386,37.66391],[127.11441,37.66312],[127.1157,37.66127],[127.11674,37.65978]]}},{"type":"Feature","properties":{"class":"major","highway":"motorway","sidewalk":"likely","lanes":4,"name":"수도권제1순환고속도로","oneway":true},"geometry":{"type":"LineString","coordinates":[[127.1073,37.67018],[127.10569,37.67079],[127.08996,37.67524]]}},{"type":"Feature","properties":{"class":"major","highway":"motorway","sidewalk":"likely","lanes":4,"name":"수도권제1순환고속도로","oneway":true},"geometry":{"type":"LineString","coordinates":[[127.11688,37.65991],[127.1158,37.66144],[127.11456,37.66325],[127.11406,37.66399],[127.11401,37.66406]]}},{"type":"Feature","properties":{"class":"minor","highway":"residential","sidewalk":"unknown","lanes":0,"name":"덕송2로","oneway":false},"geometry":{"type":"LineString","coordinates":[[127.11739,37.66832],[127.11679,37.66806],[127.11618,37.6678],[127.1155,37.66751],[127.11473,37.66717],[127.11437,37.66702],[127.11376,37.66675],[127.11319,37.6665],[127.11315,37.66643],[127.11316,37.66635],[127.11372,37.66552],[127.11378,37.66542],[127.11392,37.66522],[127.11425,37.66472]]}},{"type":"Feature","properties":{"class":"minor","highway":"residential","sidewalk":"unknown","lanes":0,"name":"덕송3로","oneway":false},"geometry":{"type":"LineString","coordinates":[[127.11473,37.66717],[127.11398,37.66813],[127.11395,37.66817],[127.11351,37.66874],[127.11311,37.66934],[127.11306,37.66941],[127.11277,37.66983],[127.11259,37.67014],[127.11252,37.6704],[127.11248,37.67097],[127.11247,37.67104]]}},{"type":"Feature","properties":{"class":"minor","highway":"residential","sidewalk":"unknown","lanes":0,"name":"별내3로","oneway":false},"geometry":{"type":"LineString","coordinates":[[127.11425,37.67111],[127.11425,37.67109],[127.11425,37.67102],[127.11428,37.67073],[127.1143,37.67067],[127.11434,37.6705],[127.11507,37.66943],[127.11618,37.6678],[127.11684,37.66687],[127.1169,37.66679],[127.11706,37.66656],[127.1179,37.66538],[127.11855,37.6644],[127.11868,37.66415],[127.11874,37.66387],[127.11875,37.66375],[127.11876,37.66371]]}},{"type":"Feature","properties":{"class":"minor","highway":"residential","sidewalk":"unknown","lanes":0,"name":"별내3로","oneway":false},"geometry":{"type":"LineString","coordinates":[[127.11491,37.67215],[127.11449,37.672]]}},{"type":"Feature","properties":{"class":"minor","highway":"residential","sidewalk":"unknown","lanes":0,"name":"덕송3로","oneway":false},"geometry":{"type":"LineString","coordinates":[[127.11245,37.6747],[127.11275,37.67504]]}},{"type":"Feature","properties":{"class":"minor","highway":"residential","sidewalk":"unknown","lanes":0,"name":"덕송3로","oneway":false},"geometry":{"type":"LineString","coordinates":[[127.11275,37.67504],[127.11276,37.67505],[127.11277,37.67506],[127.11298,37.67523],[127.11335,37.67544],[127.11404,37.67581],[127.11418,37.67588],[127.11432,37.67595]]}},{"type":"Feature","properties":{"class":"alley","highway":"service","sidewalk":"unknown","lanes":0,"name":"","oneway":false},"geometry":{"type":"LineString","coordinates":[[127.11059,37.67126],[127.10961,37.67045],[127.10928,37.67073],[127.10869,37.67121],[127.10866,37.67126],[127.10865,37.67131],[127.10866,37.67139],[127.1087,37.67143]]}},{"type":"Feature","properties":{"class":"minor","highway":"residential","sidewalk":"unknown","lanes":0,"name":"","oneway":false},"geometry":{"type":"LineString","coordinates":[[127.11119,37.67104],[127.11116,37.67106],[127.111,37.67115],[127.11059,37.67126],[127.10966,37.67157],[127.10928,37.67182],[127.10918,37.6719],[127.10879,37.67217],[127.10866,37.67226],[127.10875,37.67233]]}},{"type":"Feature","properties":{"class":"major","highway":"motorway","sidewalk":"likely","lanes":4,"name":"수도권제1순환고속도로","oneway":true},"geometry":{"type":"LineString","coordinates":[[127.11344,37.66454],[127.11382,37.66397]]}},{"type":"Feature","properties":{"class":"major","highway":"motorway","sidewalk":"likely","lanes":4,"name":"수도권제1순환고속도로","oneway":true},"geometry":{"type":"LineString","coordinates":[[127.11363,37.66462],[127.11329,37.66513],[127.11292,37.66564],[127.11269,37.66595],[127.11247,37.66625],[127.11221,37.66657],[127.11195,37.66686],[127.11171,37.66712],[127.11154,37.66729],[127.11125,37.66756],[127.11095,37.66785],[127.11066,37.66811],[127.11034,37.66838],[127.11006,37.66857],[127.10969,37.66884],[127.10934,37.66908],[127.10897,37.66932],[127.1086,37.66956],[127.10827,37.66973],[127.10813,37.66979],[127.10765,37.67002],[127.1073,37.67018]]}},{"type":"Feature","properties":{"class":"major","highway":"motorway","sidewalk":"likely","lanes":4,"name":"수도권제1순환고속도로","oneway":true},"geometry":{"type":"LineString","coordinates":[[127.10713,37.66984],[127.10758,37.66964],[127.10792,37.66948],[127.108,37.66944],[127.10833,37.66927],[127.10873,37.66905],[127.10908,37.66883],[127.10946,37.66861],[127.10981,37.66837],[127.11013,37.66813],[127.11045,37.66788],[127.11077,37.6676],[127.11106,37.66735],[127.1114,37.66705],[127.11168,37.66678],[127.11193,37.66651],[127.11219,37.66623],[127.11245,37.66593],[127.11271,37.66562],[127.113,37.66521],[127.11326,37.66484],[127.11344,37.66454]]}},{"type":"Feature","properties":{"class":"major","highway":"motorway","sidewalk":"likely","lanes":4,"name":"수도권제1순환고속도로","oneway":true},"geometry":{"type":"LineString","coordinates":[[127.11401,37.66406],[127.11363,37.66462]]}},{"type":"Feature","properties":{"class":"minor","highway":"residential","sidewalk":"unknown","lanes":0,"name":"식송1로","oneway":false},"geometry":{"type":"LineString","coordinates":[[127.1144,37.65476],[127.11454,37.6552],[127.11457,37.65531],[127.11492,37.65621],[127.11531,37.65748],[127.11542,37.65789],[127.11554,37.65829],[127.1156,37.65848],[127.1157,37.65867],[127.11582,37.65892],[127.11593,37.65913],[127.11595,37.65932],[127.11594,37.65954],[127.11588,37.65971],[127.11576,37.65991],[127.11533,37.6606],[127.11504,37.661],[127.11475,37.66141],[127.11466,37.66153],[127.11464,37.66156],[127.11423,37.66215],[127.11408,37.66231],[127.11362,37.66272],[127.11342,37.66292],[127.11337,37.66298],[127.11266,37.66403],[127.11227,37.6646],[127.11218,37.66474],[127.11186,37.66521],[127.11184,37.66523]]}},{"type":"Feature","properties":{"class":"minor","highway":"residential","sidewalk":"unknown","lanes":0,"name":"","oneway":false},"geometry":{"type":"LineString","coordinates":[[127.1113,37.66515],[127.11129,37.66517],[127.11118,37.66529],[127.11096,37.66538],[127.11068,37.66543],[127.11038,37.66546],[127.11017,37.66543],[127.11,37.66534],[127.10942,37.66495],[127.10934,37.66482],[127.1093,37.66472],[127.10928,37.66461],[127.10929,37.66457]]}},{"type":"Feature","properties":{"class":"minor","highway":"residential","sidewalk":"unknown","lanes":0,"name":"","oneway":false},"geometry":{"type":"LineString","coordinates":[[127.11241,37.66392],[127.11316,37.66281],[127.11325,37.66266],[127.11331,37.6626],[127.11338,37.66259],[127.11346,37.66261],[127.11362,37.66272]]}},{"type":"Feature","properties":{"class":"minor","highway":"residential","sidewalk":"unknown","lanes":0,"name":"","oneway":false},"geometry":{"type":"LineString","coordinates":[[127.11533,37.6606],[127.11508,37.66049],[127.11455,37.66029],[127.11427,37.66018],[127.11429,37.65902],[127.11467,37.65892],[127.11508,37.65883],[127.11545,37.65873],[127.1157,37.65867]]}},{"type":"Feature","properties":{"class":"minor","highway":"residential","sidewalk":"unknown","lanes":0,"name":"식송2로","oneway":false},"geometry":{"type":"LineString","coordinates":[[127.11525,37.65615],[127.11492,37.65621],[127.11466,37.65626],[127.1143,37.65632],[127.11418,37.65636],[127.11409,37.65645],[127.11395,37.65664],[127.11396,37.65677],[127.11399,37.65691],[127.11423,37.65768],[127.11435,37.65808],[127.1144,37.65832],[127.11448,37.65855],[127.11467,37.65892],[127.11478,37.6592],[127.11482,37.65936],[127.11483,37.65954],[127.11469,37.65995],[127.11455,37.66029],[127.11441,37.66072],[127.11504,37.661]]}},{"type":"Feature","properties":{"class":"minor","highway":"residential","sidewalk":"unknown","lanes":0,"name":"","oneway":false},"geometry":{"type":"LineString","coordinates":[[127.1102,37.6659],[127.11022,37.66611],[127.11023,37.66617],[127.1104,37.66628],[127.11085,37.66623],[127.11137,37.66615],[127.11142,37.66607],[127.11136,37.66573]]}},{"type":"Feature","properties":{"class":"minor","highway":"residential","sidewalk":"unknown","lanes":0,"name":"","oneway":false},"geometry":{"type":"LineString","coordinates":[[127.11085,37.66623],[127.11091,37.66651]]}},{"type":"Feature","properties":{"class":"minor","highway":"residential","sidewalk":"unknown","lanes":0,"name":"","oneway":false},"geometry":{"type":"LineString","coordinates":[[127.11076,37.66582],[127.11068,37.66543]]}},{"type":"Feature","properties":{"class":"minor","highway":"residential","sidewalk":"unknown","lanes":0,"name":"","oneway":false},"geometry":{"type":"LineString","coordinates":[[127.11048,37.66436],[127.11064,37.66396],[127.11074,37.66372],[127.11075,37.66368]]}},{"type":"Feature","properties":{"class":"minor","highway":"residential","sidewalk":"unknown","lanes":0,"name":"","oneway":false},"geometry":{"type":"LineString","coordinates":[[127.10905,37.66413],[127.10941,37.6644]]}},{"type":"Feature","properties":{"class":"minor","highway":"residential","sidewalk":"unknown","lanes":0,"name":"","oneway":false},"geometry":{"type":"LineString","coordinates":[[127.11372,37.66552],[127.11402,37.66565],[127.11501,37.66608],[127.11531,37.66621],[127.1154,37.66625],[127.11655,37.66675],[127.11684,37.66687]]}},{"type":"Feature","properties":{"class":"minor","highway":"residential","sidewalk":"unknown","lanes":0,"name":"","oneway":false},"geometry":{"type":"LineString","coordinates":[[127.11392,37.66522],[127.11425,37.66536],[127.11524,37.66578],[127.11552,37.6659],[127.11562,37.66594],[127.11677,37.66643],[127.11706,37.66656]]}},{"type":"Feature","properties":{"class":"minor","highway":"residential","sidewalk":"unknown","lanes":0,"name":"","oneway":false},"geometry":{"type":"LineString","coordinates":[[127.11425,37.66536],[127.11442,37.66512],[127.11448,37.66511],[127.11497,37.6653],[127.11552,37.66535]]}},{"type":"Feature","properties":{"class":"minor","highway":"residential","sidewalk":"unknown","lanes":0,"name":"","oneway":false},"geometry":{"type":"LineString","coordinates":[[127.11437,37.66702],[127.11453,37.66678],[127.11477,37.66643],[127.11501,37.66608]]}},{"type":"Feature","properties":{"class":"minor","highway":"residential","sidewalk":"unknown","lanes":0,"name":"","oneway":false},"geometry":{"type":"LineString","coordinates":[[127.11402,37.66565],[127.11378,37.66601],[127.11356,37.66634],[127.11453,37.66678]]}},{"type":"Feature","properties":{"class":"minor","highway":"residential","sidewalk":"unknown","lanes":0,"name":"","oneway":false},"geometry":{"type":"LineString","coordinates":[[127.11378,37.66601],[127.11477,37.66643]]}},{"type":"Feature","properties":{"class":"minor","highway":"residential","sidewalk":"unknown","lanes":0,"name":"","oneway":false},"geometry":{"type":"LineString","coordinates":[[127.10942,37.66495],[127.10898,37.66517],[127.10857,37.66539]]}},{"type":"Feature","properties":{"class":"minor","highway":"residential","sidewalk":"unknown","lanes":0,"name":"","oneway":false},"geometry":{"type":"LineString","coordinates":[[127.10942,37.66552],[127.10916,37.66577],[127.10904,37.66578],[127.10889,37.6657],[127.10857,37.66539],[127.10843,37.66525],[127.10834,37.66504],[127.10828,37.66486],[127.10827,37.66467],[127.10827,37.66448],[127.10833,37.66426],[127.1088,37.66441]]}},{"type":"Feature","properties":{"class":"minor","highway":"residential","sidewalk":"unknown","lanes":0,"name":"","oneway":false},"geometry":{"type":"LineString","coordinates":[[127.10833,37.66426],[127.1081,37.66416],[127.10787,37.66403],[127.10756,37.6638],[127.10751,37.66377],[127.10737,37.6637],[127.10718,37.66368],[127.10707,37.66362],[127.10701,37.66354],[127.10688,37.66334],[127.10679,37.66327],[127.10679,37.66322]]}},{"type":"Feature","properties":{"class":"minor","highway":"residential","sidewalk":"unknown","lanes":0,"name":"","oneway":false},"geometry":{"type":"LineString","coordinates":[[127.10827,37.66467],[127.10793,37.66456],[127.10769,37.66444],[127.10749,37.66429],[127.10787,37.66403]]}},{"type":"Feature","properties":{"class":"minor","highway":"residential","sidewalk":"unknown","lanes":0,"name":"","oneway":false},"geometry":{"type":"LineString","coordinates":[[127.10793,37.66456],[127.10798,37.66496],[127.10801,37.66527],[127.10812,37.66538],[127.10833,37.66543],[127.10857,37.66539]]}},{"type":"Feature","properties":{"class":"major","highway":"trunk","sidewalk":"likely","lanes":0,"name":"덕내로","oneway":true},"geometry":{"type":"LineString","coordinates":[[127.09405,37.67657],[127.09983,37.67794],[127.1063,37.67948],[127.10747,37.67976]]}},{"type":"Feature","properties":{"class":"major","highway":"trunk","sidewalk":"likely","lanes":0,"name":"덕내로","oneway":true},"geometry":{"type":"LineString","coordinates":[[127.10747,37.67976],[127.10786,37.6799],[127.10822,37.68005],[127.10871,37.68029],[127.10883,37.68034]]}},{"type":"Feature","properties":{"class":"major","highway":"trunk","sidewalk":"likely","lanes":0,"name":"덕내로","oneway":true},"geometry":{"type":"LineString","coordinates":[[127.11111,37.68085],[127.1113,37.68083],[127.11157,37.6808],[127.11191,37.68073],[127.1122,37.68064],[127.11255,37.6805],[127.11311,37.68025],[127.11337,37.68015],[127.11384,37.67997],[127.11428,37.67981],[127.11484,37.67963],[127.11523,37.67951],[127.11558,37.67943],[127.11614,37.67939],[127.11682,37.67937],[127.11764,37.6794]]}},{"type":"Feature","properties":{"class":"major","highway":"trunk","sidewalk":"likely","lanes":0,"name":"덕내로","oneway":true},"geometry":{"type":"LineString","coordinates":[[127.11869,37.67976],[127.11796,37.6796],[127.11721,37.6795],[127.11625,37.6795],[127.1157,37.67958],[127.11513,37.67973],[127.11492,37.67979],[127.11369,37.68017],[127.11332,37.68034],[127.11277,37.68052],[127.11222,37.68072],[127.11192,37.68081],[127.11157,37.68088],[127.1112,37.68092],[127.11105,37.68094]]}},{"type":"Feature","properties":{"class":"major","highway":"motorway_link","sidewalk":"likely","lanes":0,"name":"","oneway":true},"geometry":{"type":"LineString","coordinates":[[127.11552,37.66227],[127.11527,37.66263],[127.11494,37.66305],[127.11463,37.66342],[127.11406,37.66399]]}},{"type":"Feature","properties":{"class":"minor","highway":"residential","sidewalk":"unknown","lanes":0,"name":"","oneway":false},"geometry":{"type":"LineString","coordinates":[[127.11335,37.67544],[127.11469,37.67373],[127.11511,37.6731],[127.11556,37.67234]]}},{"type":"Feature","properties":{"class":"minor","highway":"residential","sidewalk":"unknown","lanes":0,"name":"","oneway":false},"geometry":{"type":"LineString","coordinates":[[127.11281,37.67742],[127.11291,37.67748],[127.11329,37.67769],[127.11347,37.67775],[127.11361,37.67783],[127.11368,37.67795],[127.11411,37.67812],[127.11413,37.67827],[127.11463,37.67857],[127.11477,37.67871],[127.11507,37.67889],[127.11536,37.67905]]}},{"type":"Feature","properties":{"class":"minor","highway":"residential","sidewalk":"unknown","lanes":0,"name":"","oneway":false},"geometry":{"type":"LineString","coordinates":[[127.11107,37.67692],[127.11206,37.67716],[127.1121,37.67718],[127.1122,37.67721]]}},{"type":"Feature","properties":{"class":"minor","highway":"residential","sidewalk":"unknown","lanes":0,"name":"","oneway":false},"geometry":{"type":"LineString","coordinates":[[127.10871,37.67744],[127.10907,37.67743],[127.10911,37.67742],[127.10931,37.67741],[127.1097,37.67738],[127.11041,37.67728],[127.11069,37.67727],[127.11097,37.6773],[127.11107,37.67692],[127.11122,37.67646]]}},{"type":"Feature","properties":{"class":"minor","highway":"residential","sidewalk":"unknown","lanes":0,"name":"","oneway":false},"geometry":{"type":"LineString","coordinates":[[127.10593,37.67545],[127.10608,37.67551],[127.10618,37.67556],[127.10621,37.67563],[127.10623,37.67565],[127.10632,37.67582],[127.10657,37.6763],[127.1066,37.67641],[127.1066,37.67658],[127.10669,37.67674],[127.10675,37.67679],[127.10705,37.67687],[127.10731,37.67694],[127.1076,37.67703],[127.10779,37.67702],[127.108,37.67702],[127.10807,37.67705],[127.10828,37.67731],[127.10835,37.67738],[127.10844,37.67743],[127.10856,37.67745],[127.10871,37.67744]]}},{"type":"Feature","properties":{"class":"minor","highway":"residential","sidewalk":"unknown","lanes":0,"name":"","oneway":false},"geometry":{"type":"LineString","coordinates":[[127.11061,37.67886],[127.11079,37.67872],[127.11131,37.67798],[127.11175,37.67747],[127.1121,37.67718]]}},{"type":"Feature","properties":{"class":"minor","highway":"residential","sidewalk":"unknown","lanes":0,"name":"","oneway":false},"geometry":{"type":"LineString","coordinates":[[127.09925,37.67912],[127.09987,37.67911],[127.10005,37.67913],[127.10023,37.67916],[127.10035,37.67927],[127.10045,37.67939],[127.10051,37.67948],[127.10062,37.67952],[127.10078,37.67953],[127.10091,37.67956],[127.1012,37.67968],[127.10137,37.67982],[127.10146,37.67993],[127.10149,37.68007],[127.10152,37.68022],[127.1015,37.68026]]}},{"type":"Feature","properties":{"class":"minor","highway":"residential","sidewalk":"unknown","lanes":0,"name":"식송1로","oneway":false},"geometry":{"type":"LineString","coordinates":[[127.10894,37.66424],[127.10895,37.66422],[127.10905,37.66413],[127.10919,37.66403],[127.10942,37.66394],[127.10966,37.66387],[127.10995,37.66384],[127.11029,37.66388],[127.11064,37.66396],[127.1108,37.66402],[127.11179,37.6644],[127.11227,37.6646]]}},{"type":"Feature","properties":{"class":"minor","highway":"residential","sidewalk":"unknown","lanes":0,"name":"식송1로","oneway":false},"geometry":{"type":"LineString","coordinates":[[127.10885,37.66433],[127.10894,37.66424]]}},{"type":"Feature","properties":{"class":"minor","highway":"residential","sidewalk":"unknown","lanes":0,"name":"","oneway":false},"geometry":{"type":"LineString","coordinates":[[127.10935,37.66448],[127.10937,37.66445],[127.10941,37.6644],[127.10965,37.6643],[127.10996,37.66425],[127.11016,37.66427],[127.11048,37.66436],[127.11154,37.66479]]}},{"type":"Feature","properties":{"class":"minor","highway":"residential","sidewalk":"unknown","lanes":0,"name":"","oneway":false},"geometry":{"type":"LineString","coordinates":[[127.10929,37.66457],[127.10935,37.66448]]}},{"type":"Feature","properties":{"class":"minor","highway":"residential","sidewalk":"unknown","lanes":0,"name":"식송1로","oneway":false},"geometry":{"type":"LineString","coordinates":[[127.11176,37.66535],[127.11174,37.66537],[127.11155,37.66565],[127.11136,37.66573],[127.11076,37.66582],[127.1102,37.6659],[127.11005,37.66587],[127.10991,37.66581],[127.10965,37.66566],[127.10942,37.66552],[127.10908,37.6653],[127.10898,37.66517],[127.10881,37.66492],[127.10877,37.66464],[127.1088,37.66441],[127.10882,37.66436],[127.10885,37.66433]]}},{"type":"Feature","properties":{"class":"minor","highway":"residential","sidewalk":"unknown","lanes":0,"name":"식송1로","oneway":false},"geometry":{"type":"LineString","coordinates":[[127.11184,37.66523],[127.11176,37.66535]]}},{"type":"Feature","properties":{"class":"minor","highway":"residential","sidewalk":"unknown","lanes":0,"name":"","oneway":false},"geometry":{"type":"LineString","coordinates":[[127.11138,37.66503],[127.1113,37.66515]]}},{"type":"Feature","properties":{"class":"minor","highway":"residential","sidewalk":"unknown","lanes":0,"name":"","oneway":false},"geometry":{"type":"LineString","coordinates":[[127.11266,37.66403],[127.11241,37.66392],[127.11221,37.66393],[127.11208,37.66396],[127.11179,37.6644],[127.11154,37.66479],[127.1114,37.66501],[127.11138,37.66503]]}},{"type":"Feature","properties":{"class":"minor","highway":"residential","sidewalk":"unknown","lanes":0,"name":"덕송1로","oneway":false},"geometry":{"type":"LineString","coordinates":[[127.11352,37.6644],[127.11305,37.66421]]}},{"type":"Feature","properties":{"class":"minor","highway":"residential","sidewalk":"unknown","lanes":0,"name":"덕송1로","oneway":false},"geometry":{"type":"LineString","coordinates":[[127.11897,37.66587],[127.11895,37.66586],[127.11893,37.66584],[127.11847,37.66563],[127.1179,37.66538],[127.11752,37.66521],[127.11725,37.66514],[127.11615,37.66513],[127.11568,37.6651],[127.11509,37.66505],[127.11477,37.66495],[127.11425,37.66472],[127.11396,37.6646],[127.11356,37.66442],[127.11352,37.6644]]}},{"type":"Feature","properties":{"class":"alley","highway":"service","sidewalk":"unknown","lanes":0,"name":"","oneway":false},"geometry":{"type":"LineString","coordinates":[[127.11427,37.66831],[127.11413,37.66849]]}},{"type":"Feature","properties":{"class":"alley","highway":"service","sidewalk":"unknown","lanes":0,"name":"","oneway":false},"geometry":{"type":"LineString","coordinates":[[127.11392,37.66874],[127.11437,37.66895],[127.1149,37.6692]]}},{"type":"Feature","properties":{"class":"alley","highway":"service","sidewalk":"unknown","lanes":0,"name":"","oneway":false},"geometry":{"type":"LineString","coordinates":[[127.11457,37.6685],[127.11455,37.66863],[127.1145,37.66877],[127.11437,37.66895]]}},{"type":"Feature","properties":{"class":"alley","highway":"service","sidewalk":"unknown","lanes":0,"name":"","oneway":false},"geometry":{"type":"LineString","coordinates":[[127.1155,37.66751],[127.11536,37.66769],[127.11533,37.66772],[127.11512,37.66796],[127.11506,37.66806],[127.11502,37.66813],[127.11488,37.6684],[127.11477,37.66847],[127.11469,37.66849],[127.11464,37.6685],[127.11457,37.6685],[127.11448,37.66847],[127.11429,37.66834],[127.11427,37.66831],[127.11419,37.66823],[127.11398,37.66813]]}},{"type":"Feature","properties":{"class":"alley","highway":"service","sidewalk":"unknown","lanes":0,"name":"","oneway":false},"geometry":{"type":"LineString","coordinates":[[127.11395,37.66817],[127.11363,37.66802],[127.1135,37.66801],[127.11311,37.66818],[127.11304,37.6682]]}},{"type":"Feature","properties":{"class":"alley","highway":"service","sidewalk":"unknown","lanes":0,"name":"","oneway":false},"geometry":{"type":"LineString","coordinates":[[127.11284,37.66687],[127.11299,37.66696]]}},{"type":"Feature","properties":{"class":"alley","highway":"service","sidewalk":"unknown","lanes":0,"name":"","oneway":false},"geometry":{"type":"LineString","coordinates":[[127.11376,37.66675],[127.11366,37.66688],[127.11359,37.66697],[127.1135,37.66703],[127.11338,37.66704],[127.11323,37.66697],[127.11293,37.66678],[127.11284,37.66687],[127.11275,37.66696],[127.11303,37.66714],[127.11309,37.66713],[127.11323,37.66697]]}},{"type":"Feature","properties":{"class":"minor","highway":"residential","sidewalk":"unknown","lanes":0,"name":"","oneway":false},"geometry":{"type":"LineString","coordinates":[[127.11441,37.66072],[127.11402,37.66056],[127.11394,37.6605],[127.11388,37.66045]]}},{"type":"Feature","properties":{"class":"alley","highway":"service","sidewalk":"unknown","lanes":0,"name":"","oneway":false},"geometry":{"type":"LineString","coordinates":[[127.11408,37.66231],[127.11381,37.66213]]}},{"type":"Feature","properties":{"class":"minor","highway":"residential","sidewalk":"unknown","lanes":0,"name":"","oneway":false},"geometry":{"type":"LineString","coordinates":[[127.1076,37.66377],[127.10772,37.66367]]}},{"type":"Feature","properties":{"class":"minor","highway":"residential","sidewalk":"unknown","lanes":0,"name":"","oneway":false},"geometry":{"type":"LineString","coordinates":[[127.10756,37.6638],[127.10759,37.66378],[127.1076,37.66377]]}},{"type":"Feature","properties":{"class":"minor","highway":"residential","sidewalk":"unknown","lanes":0,"name":"","oneway":false},"geometry":{"type":"LineString","coordinates":[[127.10772,37.66367],[127.10773,37.66365],[127.10769,37.66357],[127.1076,37.66347],[127.1075,37.66343]]}},{"type":"Feature","properties":{"class":"alley","highway":"service","sidewalk":"unknown","lanes":0,"name":"","oneway":false},"geometry":{"type":"LineString","coordinates":[[127.11074,37.66372],[127.11041,37.66361],[127.1103,37.66352],[127.11025,37.6634],[127.1102,37.66337],[127.10968,37.66325],[127.10945,37.66318],[127.10899,37.66304],[127.1089,37.66291],[127.10871,37.66251],[127.10871,37.66237]]}},{"type":"Feature","properties":{"class":"minor","highway":"residential","sidewalk":"unknown","lanes":0,"name":"","oneway":false},"geometry":{"type":"LineString","coordinates":[[127.11316,37.66281],[127.11278,37.66264]]}},{"type":"Feature","properties":{"class":"alley","highway":"service","sidewalk":"unknown","lanes":0,"name":"","oneway":false},"geometry":{"type":"LineString","coordinates":[[127.10749,37.66429],[127.10724,37.66448],[127.10717,37.6645],[127.10707,37.66448],[127.10691,37.66439],[127.10682,37.66439],[127.10673,37.66442],[127.10664,37.66445]]}},{"type":"Feature","properties":{"class":"alley","highway":"service","sidewalk":"unknown","lanes":0,"name":"","oneway":false},"geometry":{"type":"LineString","coordinates":[[127.10744,37.66508],[127.10728,37.66516],[127.10718,37.6652],[127.10695,37.6653]]}},{"type":"Feature","properties":{"class":"alley","highway":"service","sidewalk":"unknown","lanes":0,"name":"","oneway":false},"geometry":{"type":"LineString","coordinates":[[127.10798,37.66496],[127.10779,37.66497],[127.10761,37.66506],[127.10746,37.66508],[127.10744,37.66508],[127.1073,37.66504],[127.10687,37.66497],[127.10604,37.6649]]}},{"type":"Feature","properties":{"class":"minor","highway":"residential","sidewalk":"unknown","lanes":0,"name":"","oneway":false},"geometry":{"type":"LineString","coordinates":[[127.10679,37.66327],[127.10644,37.663],[127.10619,37.66283],[127.10615,37.66274],[127.10611,37.6627]]}},{"type":"Feature","properties":{"class":"minor","highway":"residential","sidewalk":"unknown","lanes":0,"name":"","oneway":false},"geometry":{"type":"LineString","coordinates":[[127.10679,37.66322],[127.10684,37.66309]]}},{"type":"Feature","properties":{"class":"minor","highway":"residential","sidewalk":"unknown","lanes":0,"name":"","oneway":false},"geometry":{"type":"LineString","coordinates":[[127.10684,37.66309],[127.10693,37.66296],[127.10695,37.66286],[127.10694,37.66283]]}},{"type":"Feature","properties":{"class":"alley","highway":"service","sidewalk":"unknown","lanes":0,"name":"","oneway":true},"geometry":{"type":"LineString","coordinates":[[127.11369,37.67186],[127.11371,37.67161]]}},{"type":"Feature","properties":{"class":"alley","highway":"service","sidewalk":"unknown","lanes":0,"name":"","oneway":true},"geometry":{"type":"LineString","coordinates":[[127.11387,37.67162],[127.11385,37.67186]]}},{"type":"Feature","properties":{"class":"alley","highway":"service","sidewalk":"unknown","lanes":0,"name":"","oneway":false},"geometry":{"type":"LineString","coordinates":[[127.11405,37.67163],[127.11387,37.67162],[127.11371,37.67161],[127.11293,37.67157],[127.11289,37.67161],[127.11288,37.67182],[127.11285,37.67221],[127.1129,37.67231],[127.11288,37.67254],[127.11293,37.67263],[127.11292,37.67293],[127.11395,37.67297],[127.11399,37.67237],[127.11394,37.67229],[127.11397,37.67196],[127.11398,37.6719]]}},{"type":"Feature","properties":{"class":"alley","highway":"service","sidewalk":"unknown","lanes":0,"name":"","oneway":false},"geometry":{"type":"LineString","coordinates":[[127.11426,37.6719],[127.11398,37.6719],[127.11391,37.67187],[127.11385,37.67186],[127.11369,37.67186],[127.11288,37.67182]]}},{"type":"Feature","properties":{"class":"alley","highway":"service","sidewalk":"unknown","lanes":0,"name":"","oneway":true},"geometry":{"type":"LineString","coordinates":[[127.10845,37.67225],[127.1086,37.67237],[127.10862,37.6724],[127.10861,37.67242],[127.10858,37.67245],[127.10855,37.67245],[127.10851,37.67243],[127.10848,37.6724],[127.10845,37.67225]]}},{"type":"Feature","properties":{"class":"alley","highway":"service","sidewalk":"unknown","lanes":0,"name":"","oneway":false},"geometry":{"type":"LineString","coordinates":[[127.10879,37.67217],[127.10861,37.67205],[127.10855,37.67204],[127.1085,37.67204],[127.10846,37.67207],[127.10841,37.6721],[127.10837,37.67216],[127.10838,37.67219],[127.10845,37.67225]]}},{"type":"Feature","properties":{"class":"minor","highway":"residential","sidewalk":"unknown","lanes":0,"name":"","oneway":false},"geometry":{"type":"LineString","coordinates":[[127.11136,37.67093],[127.11127,37.67081],[127.11114,37.67064],[127.11096,37.67052],[127.11068,37.67034],[127.11061,37.67026],[127.11047,37.67006],[127.11027,37.66996],[127.10984,37.6697],[127.11013,37.66947],[127.11023,37.66934],[127.11035,37.66912],[127.11043,37.66893],[127.11062,37.66868]]}},{"type":"Feature","properties":{"class":"minor","highway":"residential","sidewalk":"unknown","lanes":0,"name":"덕송3로","oneway":false},"geometry":{"type":"LineString","coordinates":[[127.11247,37.67104],[127.11246,37.67121]]}},{"type":"Feature","properties":{"class":"minor","highway":"residential","sidewalk":"unknown","lanes":0,"name":"덕송3로","oneway":false},"geometry":{"type":"LineString","coordinates":[[127.11246,37.67121],[127.11237,37.67219],[127.11249,37.67262],[127.11252,37.67282],[127.11234,37.67441],[127.11237,37.67453],[127.11245,37.6747]]}},{"type":"Feature","properties":{"class":"alley","highway":"service","sidewalk":"unknown","lanes":0,"name":"","oneway":true},"geometry":{"type":"LineString","coordinates":[[127.1087,37.67143],[127.10878,37.67142],[127.10928,37.67182]]}},{"type":"Feature","properties":{"class":"alley","highway":"service","sidewalk":"unknown","lanes":0,"name":"","oneway":true},"geometry":{"type":"LineString","coordinates":[[127.10918,37.6719],[127.1087,37.67149],[127.1087,37.67143]]}},{"type":"Feature","properties":{"class":"minor","highway":"residential","sidewalk":"unknown","lanes":0,"name":"별내3로","oneway":false},"geometry":{"type":"LineString","coordinates":[[127.11425,37.67131],[127.11425,37.67111]]}},{"type":"Feature","properties":{"class":"minor","highway":"residential","sidewalk":"unknown","lanes":0,"name":"별내3로","oneway":false},"geometry":{"type":"LineString","coordinates":[[127.11449,37.672],[127.11437,37.67195],[127.11432,37.67194],[127.11426,37.6719],[127.11424,37.67184],[127.11425,37.67131]]}},{"type":"Feature","properties":{"class":"minor","highway":"residential","sidewalk":"unknown","lanes":0,"name":"","oneway":false},"geometry":{"type":"LineString","coordinates":[[127.11132,37.67096],[127.11119,37.67104]]}},{"type":"Feature","properties":{"class":"minor","highway":"residential","sidewalk":"unknown","lanes":0,"name":"","oneway":false},"geometry":{"type":"LineString","coordinates":[[127.11425,37.67102],[127.11305,37.67099],[127.11248,37.67097],[127.11136,37.67093],[127.11132,37.67096]]}},{"type":"Feature","properties":{"class":"minor","highway":"residential","sidewalk":"unknown","lanes":0,"name":"덕송1로","oneway":false},"geometry":{"type":"LineString","coordinates":[[127.11305,37.66421],[127.11266,37.66403]]}},{"type":"Feature","properties":{"class":"major","highway":"tertiary","sidewalk":"likely","lanes":0,"name":"순화궁로","oneway":true},"geometry":{"type":"LineString","coordinates":[[127.11642,37.67269],[127.1158,37.67374],[127.11571,37.67387],[127.11555,37.6741],[127.11494,37.67498],[127.11418,37.67588],[127.11361,37.67654],[127.11319,37.67703],[127.11291,37.67748],[127.11265,37.67801],[127.11202,37.67905],[127.11143,37.67999],[127.11128,37.68014]]}},{"type":"Feature","properties":{"class":"major","highway":"tertiary","sidewalk":"likely","lanes":0,"name":"순화궁로","oneway":true},"geometry":{"type":"LineString","coordinates":[[127.11128,37.68014],[127.11134,37.67996],[127.11195,37.67902],[127.11255,37.67798],[127.11281,37.67742],[127.11307,37.67697],[127.1135,37.67645],[127.11404,37.67581],[127.11482,37.67492],[127.11567,37.67369],[127.11628,37.67261]]}},{"type":"Feature","properties":{"class":"alley","highway":"service","sidewalk":"unknown","lanes":0,"name":"","oneway":false},"geometry":{"type":"LineString","coordinates":[[127.1143,37.67067],[127.11461,37.67073],[127.1149,37.67023],[127.11528,37.66974],[127.11568,37.66992],[127.11576,37.66995]]}},{"type":"Feature","properties":{"class":"alley","highway":"service","sidewalk":"unknown","lanes":0,"name":"","oneway":false},"geometry":{"type":"LineString","coordinates":[[127.11306,37.66941],[127.11333,37.66953],[127.11349,37.66973],[127.11354,37.66978],[127.11358,37.66981],[127.11364,37.66982],[127.11367,37.66981]]}},{"type":"Feature","properties":{"class":"alley","highway":"service","sidewalk":"unknown","lanes":0,"name":"","oneway":false},"geometry":{"type":"LineString","coordinates":[[127.11349,37.66973],[127.11359,37.66968],[127.11376,37.66961],[127.11394,37.66953],[127.11381,37.66933],[127.11363,37.66941],[127.11346,37.66949],[127.11359,37.66968]]}},{"type":"Feature","properties":{"class":"alley","highway":"service","sidewalk":"unknown","lanes":0,"name":"","oneway":false},"geometry":{"type":"LineString","coordinates":[[127.11376,37.66961],[127.11363,37.66941]]}},{"type":"Feature","properties":{"class":"alley","highway":"service","sidewalk":"unknown","lanes":0,"name":"","oneway":false},"geometry":{"type":"LineString","coordinates":[[127.11282,37.67017],[127.11288,37.67006],[127.11289,37.67004],[127.11315,37.66965],[127.11322,37.66963],[127.11336,37.66983]]}},{"type":"Feature","properties":{"class":"alley","highway":"service","sidewalk":"unknown","lanes":0,"name":"","oneway":false},"geometry":{"type":"LineString","coordinates":[[127.11349,37.66973],[127.11344,37.66977],[127.11336,37.66983],[127.11288,37.67006]]}},{"type":"Feature","properties":{"class":"alley","highway":"service","sidewalk":"unknown","lanes":0,"name":"","oneway":false},"geometry":{"type":"LineString","coordinates":[[127.11305,37.67099],[127.11306,37.67085],[127.11292,37.67066],[127.11282,37.67052],[127.11275,37.67056]]}},{"type":"Feature","properties":{"class":"alley","highway":"service","sidewalk":"unknown","lanes":0,"name":"","oneway":false},"geometry":{"type":"LineString","coordinates":[[127.11282,37.67052],[127.11327,37.67031],[127.11337,37.67045]]}},{"type":"Feature","properties":{"class":"alley","highway":"service","sidewalk":"unknown","lanes":0,"name":"","oneway":false},"geometry":{"type":"LineString","coordinates":[[127.11292,37.67066],[127.11305,37.6706],[127.11337,37.67045],[127.11358,37.67035],[127.11367,37.67048]]}},{"type":"Feature","properties":{"class":"alley","highway":"service","sidewalk":"unknown","lanes":0,"name":"","oneway":false},"geometry":{"type":"LineString","coordinates":[[127.11373,37.67045],[127.11367,37.67048],[127.11314,37.67074],[127.11305,37.6706]]}},{"type":"Feature","properties":{"class":"alley","highway":"service","sidewalk":"unknown","lanes":0,"name":"","oneway":false},"geometry":{"type":"LineString","coordinates":[[127.1126,37.66914],[127.11278,37.66919],[127.11298,37.66928],[127.11311,37.66934]]}},{"type":"Feature","properties":{"class":"alley","highway":"service","sidewalk":"unknown","lanes":0,"name":"","oneway":true},"geometry":{"type":"LineString","coordinates":[[127.11298,37.66928],[127.11285,37.66929],[127.11263,37.66921],[127.11256,37.66919],[127.11254,37.66917],[127.11254,37.66912],[127.11257,37.66909],[127.11262,37.66907],[127.11269,37.66909],[127.1129,37.66919],[127.11298,37.66928]]}},{"type":"Feature","properties":{"class":"alley","highway":"service","sidewalk":"unknown","lanes":0,"name":"","oneway":false},"geometry":{"type":"LineString","coordinates":[[127.10696,37.66546],[127.10673,37.66604],[127.10664,37.66619],[127.10653,37.6663],[127.10641,37.6664],[127.10502,37.66755],[127.1049,37.66784],[127.10499,37.66805],[127.10518,37.66827],[127.10528,37.66837],[127.10537,37.66848]]}},{"type":"Feature","properties":{"class":"alley","highway":"service","sidewalk":"unknown","lanes":0,"name":"","oneway":false},"geometry":{"type":"LineString","coordinates":[[127.1033,37.66896],[127.10455,37.66829],[127.10474,37.66821],[127.10489,37.66809],[127.1049,37.66784]]}},{"type":"Feature","properties":{"class":"alley","highway":"service","sidewalk":"unknown","lanes":0,"name":"","oneway":false},"geometry":{"type":"LineString","coordinates":[[127.10518,37.66827],[127.10505,37.66835],[127.10507,37.66844],[127.10519,37.66856]]}},{"type":"Feature","properties":{"class":"alley","highway":"service","sidewalk":"unknown","lanes":0,"name":"","oneway":false},"geometry":{"type":"LineString","coordinates":[[127.10718,37.6652],[127.10707,37.6653],[127.10704,37.66533],[127.10696,37.66546]]}},{"type":"Feature","properties":{"class":"alley","highway":"service","sidewalk":"unknown","lanes":0,"name":"","oneway":false},"geometry":{"type":"LineString","coordinates":[[127.10911,37.67742],[127.10894,37.67719],[127.10865,37.67688],[127.10829,37.67652],[127.1081,37.67631],[127.10807,37.67623],[127.10805,37.67612],[127.10806,37.67608],[127.10805,37.67602],[127.10803,37.67597],[127.10795,37.67584],[127.10788,37.67577],[127.10782,37.67574],[127.10745,37.67556],[127.10733,37.6755],[127.10724,37.67547],[127.10708,37.67544],[127.1069,37.67545],[127.10678,37.67548],[127.10638,37.6756],[127.10623,37.67565]]}},{"type":"Feature","properties":{"class":"alley","highway":"service","sidewalk":"unknown","lanes":0,"name":"","oneway":false},"geometry":{"type":"LineString","coordinates":[[127.11169,37.67892],[127.11195,37.67902],[127.11202,37.67905],[127.11282,37.67936],[127.11345,37.67958],[127.11397,37.67974]]}},{"type":"Feature","properties":{"class":"alley","highway":"service","sidewalk":"unknown","lanes":0,"name":"","oneway":false},"geometry":{"type":"LineString","coordinates":[[127.11397,37.67974],[127.11469,37.67997]]}},{"type":"Feature","properties":{"class":"alley","highway":"service","sidewalk":"unknown","lanes":0,"name":"","oneway":false},"geometry":{"type":"LineString","coordinates":[[127.11361,37.67654],[127.1147,37.67683],[127.11483,37.67684],[127.11499,37.67665]]}},{"type":"Feature","properties":{"class":"alley","highway":"service","sidewalk":"unknown","lanes":0,"name":"","oneway":false},"geometry":{"type":"LineString","coordinates":[[127.10689,37.67307],[127.10675,37.673],[127.10672,37.67293],[127.10727,37.67205],[127.10787,37.67115],[127.10804,37.67091],[127.10824,37.67071],[127.10865,37.6704],[127.10883,37.67036],[127.10897,37.67045],[127.10928,37.67073]]}},{"type":"Feature","properties":{"class":"minor","highway":"residential","sidewalk":"unknown","lanes":0,"name":"","oneway":false},"geometry":{"type":"LineString","coordinates":[[127.1123,37.67723],[127.1127,37.67735],[127.11281,37.67742]]}},{"type":"Feature","properties":{"class":"minor","highway":"residential","sidewalk":"unknown","lanes":0,"name":"","oneway":false},"geometry":{"type":"LineString","coordinates":[[127.1122,37.67721],[127.1123,37.67723]]}},{"type":"Feature","properties":{"class":"alley","highway":"service","sidewalk":"unknown","lanes":0,"name":"","oneway":false},"geometry":{"type":"LineString","coordinates":[[127.10813,37.66979],[127.10792,37.66948]]}}]}