{"type":"FeatureCollection","features":[{"type":"Feature","properties":{"class":"major","highway":"tertiary","sidewalk":"likely","lanes":2,"name":"신원1로","oneway":false},"geometry":{"type":"LineString","coordinates":[[126.88425,37.66017],[126.88436,37.66005],[126.88468,37.65969],[126.88502,37.65934],[126.88515,37.65921],[126.88538,37.65909],[126.88569,37.65902],[126.88602,37.659],[126.88619,37.659],[126.8865,37.659],[126.88666,37.659],[126.8868,37.65901],[126.88704,37.65903],[126.88747,37.65914],[126.88784,37.65931],[126.88823,37.65953],[126.88829,37.65957]]}},{"type":"Feature","properties":{"class":"major","highway":"tertiary","sidewalk":"likely","lanes":2,"name":"신원로","oneway":false},"geometry":{"type":"LineString","coordinates":[[126.89077,37.66095],[126.89072,37.66101],[126.8904,37.66139],[126.89001,37.66183],[126.88994,37.66191],[126.88986,37.662],[126.88939,37.66252],[126.88916,37.66277],[126.88905,37.66289],[126.88896,37.66299],[126.88813,37.66393],[126.88807,37.66399],[126.888,37.66408],[126.88794,37.66414],[126.88762,37.66447],[126.8872,37.66499],[126.88712,37.66508],[126.88706,37.66514],[126.88658,37.66566],[126.88648,37.66579],[126.88642,37.66587],[126.88635,37.66596]]}},{"type":"Feature","properties":{"class":"minor","highway":"residential","sidewalk":"unknown","lanes":1,"name":"신원1로","oneway":false},"geometry":{"type":"LineString","coordinates":[[126.88889,37.65988],[126.88882,37.65995],[126.88806,37.6608],[126.88801,37.66085],[126.88797,37.6609],[126.88729,37.66169],[126.88719,37.6618]]}},{"type":"Feature","properties":{"class":"minor","highway":"residential","sidewalk":"unknown","lanes":0,"name":"오금1길","oneway":false},"geometry":{"type":"LineString","coordinates":[[126.89664,37.66108],[126.89661,37.66103],[126.89653,37.66089],[126.89669,37.66076],[126.89704,37.66047],[126.89716,37.66038],[126.89731,37.66031],[126.89745,37.66028],[126.89757,37.66029],[126.89769,37.66034],[126.89776,37.6604],[126.89785,37.66054],[126.89788,37.66058]]}},{"type":"Feature","properties":{"class":"major","highway":"tertiary","sidewalk":"likely","lanes":2,"name":"신원1로","oneway":false},"geometry":{"type":"LineString","coordinates":[[126.88859,37.65974],[126.8888,37.65984],[126.88889,37.65988],[126.88896,37.65992],[126.89069,37.6609],[126.89077,37.66095],[126.89085,37.66099],[126.892,37.66164],[126.89208,37.66168],[126.89214,37.66172],[126.89324,37.66234],[126.89331,37.66238]]}},{"type":"Feature","properties":{"class":"major","highway":"tertiary","sidewalk":"likely","lanes":1,"name":"오금로","oneway":false},"geometry":{"type":"LineString","coordinates":[[126.89596,37.66378],[126.89609,37.66379],[126.89627,37.66379],[126.89648,37.66375],[126.89668,37.66367],[126.89718,37.66333],[126.89727,37.66326],[126.89735,37.66321],[126.89788,37.66283],[126.89845,37.66246],[126.89883,37.66222],[126.89935,37.66197],[126.90001,37.66174],[126.90154,37.66118],[126.90164,37.66114],[126.90178,37.6611],[126.90238,37.66087],[126.9028,37.66074],[126.90317,37.66066],[126.90356,37.6606],[126.90436,37.66056],[126.90442,37.66055],[126.90451,37.66055],[126.90576,37.66053],[126.90603,37.66055],[126.9065,37.66058],[126.90723,37.6607],[126.90734,37.66072],[126.90744,37.66074],[126.90879,37.6611],[126.90986,37.66138],[126.91029,37.66155],[126.91035,37.66157],[126.9113,37.66198],[126.91151,37.66205],[126.9118,37.66214],[126.91211,37.66221],[126.9122,37.66224],[126.91229,37.66227],[126.91263,37.66234],[126.91283,37.66237],[126.91301,37.66239],[126.91318,37.6624],[126.91349,37.66239],[126.91356,37.66239],[126.91361,37.66239],[126.91413,37.6624],[126.91434,37.66242],[126.91453,37.66245],[126.9151,37.66264],[126.91557,37.66278],[126.91616,37.66288],[126.91643,37.66295],[126.91659,37.66302],[126.91668,37.66309],[126.91678,37.66317],[126.9169,37.66329],[126.91705,37.6634],[126.91718,37.66347],[126.91734,37.66349],[126.91742,37.66349]]}},{"type":"Feature","properties":{"class":"minor","highway":"residential","sidewalk":"unknown","lanes":1,"name":"오금1로","oneway":false},"geometry":{"type":"LineString","coordinates":[[126.89523,37.6635],[126.89528,37.66341],[126.89556,37.66262],[126.89582,37.66211],[126.89589,37.66198],[126.89594,37.66191],[126.89599,37.66183],[126.89612,37.66164],[126.89619,37.66155],[126.89626,37.66146],[126.89637,37.66133],[126.89664,37.66108],[126.89697,37.66091],[126.89725,37.66079],[126.89752,37.66071],[126.89769,37.66066],[126.89788,37.66058],[126.89838,37.6604],[126.89923,37.65999],[126.8993,37.65996],[126.89936,37.65992],[126.89988,37.6596],[126.90003,37.65952],[126.90024,37.65946],[126.90039,37.65942],[126.90073,37.65944],[126.90082,37.65944],[126.90091,37.65943],[126.90108,37.65941],[126.90123,37.65936],[126.9015,37.65929],[126.90178,37.6592],[126.90198,37.65914],[126.90221,37.65906],[126.90226,37.65905],[126.90241,37.65896],[126.90258,37.65887],[126.90279,37.65879],[126.90298,37.65876],[126.90303,37.65876],[126.90335,37.65875],[126.90362,37.65872],[126.90378,37.65869],[126.90392,37.65865],[126.90407,37.6586],[126.90437,37.65853],[126.90459,37.65849],[126.90479,37.6585],[126.90501,37.65852],[126.90508,37.65852],[126.90541,37.65863],[126.90562,37.6587],[126.90622,37.65893],[126.90642,37.65904],[126.90653,37.65914],[126.90657,37.65917],[126.90667,37.65928],[126.90688,37.65946],[126.90767,37.65979],[126.90772,37.65982]]}},{"type":"Feature","properties":{"class":"major","highway":"primary","sidewalk":"likely","lanes":3,"name":"권율대로","oneway":false},"geometry":{"type":"LineString","coordinates":[[126.88277,37.65931],[126.88353,37.65975],[126.88415,37.66012],[126.88425,37.66017],[126.88438,37.66024],[126.8865,37.66141],[126.88661,37.66147]]}},{"type":"Feature","properties":{"class":"minor","highway":"residential","sidewalk":"yes","lanes":0,"name":"","oneway":false},"geometry":{"type":"LineString","coordinates":[[126.88994,37.66191],[126.88986,37.66187],[126.88967,37.66177],[126.88962,37.66174],[126.88958,37.66172],[126.88919,37.6615],[126.88915,37.66148],[126.88912,37.66146],[126.88877,37.66127],[126.88873,37.66125],[126.88869,37.66123],[126.88835,37.66104],[126.88831,37.66101],[126.88827,37.66099],[126.88809,37.66089],[126.88801,37.66085]]}},{"type":"Feature","properties":{"class":"minor","highway":"residential","sidewalk":"unknown","lanes":0,"name":"신원로1길","oneway":true},"geometry":{"type":"LineString","coordinates":[[126.88962,37.66174],[126.88959,37.66177],[126.88907,37.66234],[126.88862,37.66209],[126.88843,37.66199],[126.88819,37.66185],[126.88778,37.66163],[126.88829,37.66104],[126.88831,37.66101]]}},{"type":"Feature","properties":{"class":"minor","highway":"residential","sidewalk":"unknown","lanes":0,"name":"신원로2길","oneway":true},"geometry":{"type":"LineString","coordinates":[[126.88831,37.66101],[126.88832,37.661],[126.88891,37.66032],[126.88934,37.66056],[126.88958,37.66069],[126.88974,37.66078],[126.89022,37.66103],[126.88965,37.66169],[126.88962,37.66174]]}},{"type":"Feature","properties":{"class":"minor","highway":"residential","sidewalk":"unknown","lanes":0,"name":"신원로2길","oneway":true},"geometry":{"type":"LineString","coordinates":[[126.88974,37.66078],[126.88918,37.66144],[126.88915,37.66148]]}},{"type":"Feature","properties":{"class":"minor","highway":"residential","sidewalk":"unknown","lanes":0,"name":"신원로2길","oneway":true},"geometry":{"type":"LineString","coordinates":[[126.88873,37.66125],[126.88875,37.66122],[126.88934,37.66056]]}},{"type":"Feature","properties":{"class":"alley","highway":"service","sidewalk":"unknown","lanes":0,"name":"","oneway":false},"geometry":{"type":"LineString","coordinates":[[126.88971,37.65857],[126.88989,37.65885],[126.89013,37.65915],[126.89039,37.65944],[126.89046,37.65949],[126.89053,37.65953],[126.89059,37.65955],[126.8907,37.65956],[126.89097,37.65957],[126.89144,37.65957],[126.89171,37.65967],[126.89175,37.65981],[126.89175,37.6599],[126.89176,37.65999],[126.89178,37.66005],[126.89183,37.66012]]}},{"type":"Feature","properties":{"class":"alley","highway":"service","sidewalk":"unknown","lanes":0,"name":"","oneway":false},"geometry":{"type":"LineString","coordinates":[[126.89368,37.6584],[126.89366,37.65873],[126.8936,37.65905],[126.89344,37.65986],[126.89349,37.66002]]}},{"type":"Feature","properties":{"class":"alley","highway":"service","sidewalk":"unknown","lanes":0,"name":"","oneway":false},"geometry":{"type":"LineString","coordinates":[[126.89344,37.65986],[126.8934,37.65997],[126.89331,37.66004],[126.89331,37.66047],[126.89339,37.66055],[126.89343,37.66087]]}},{"type":"Feature","properties":{"class":"alley","highway":"service","sidewalk":"unknown","lanes":0,"name":"","oneway":false},"geometry":{"type":"LineString","coordinates":[[126.8924,37.65967],[126.89234,37.66001],[126.89235,37.66007],[126.89239,37.66012],[126.89245,37.66014]]}},{"type":"Feature","properties":{"class":"alley","highway":"service","sidewalk":"unknown","lanes":0,"name":"","oneway":false},"geometry":{"type":"LineString","coordinates":[[126.89235,37.66007],[126.89243,37.66021],[126.89251,37.66029],[126.89259,37.66035],[126.89266,37.6604],[126.89266,37.66047],[126.8925,37.66046],[126.89239,37.66046],[126.89232,37.66048],[126.89226,37.66052],[126.89222,37.66059],[126.89221,37.66066],[126.89226,37.66072],[126.89233,37.66074],[126.8924,37.66074],[126.89248,37.66073],[126.89255,37.66073],[126.8926,37.66074],[126.89267,37.66077],[126.89272,37.6608]]}},{"type":"Feature","properties":{"class":"alley","highway":"service","sidewalk":"unknown","lanes":0,"name":"","oneway":false},"geometry":{"type":"LineString","coordinates":[[126.89272,37.6608],[126.8927,37.66065]]}},{"type":"Feature","properties":{"class":"alley","highway":"service","sidewalk":"unknown","lanes":0,"name":"","oneway":false},"geometry":{"type":"LineString","coordinates":[[126.88425,37.66017],[126.88416,37.6603],[126.88409,37.66042],[126.88408,37.66051],[126.88411,37.66124]]}},{"type":"Feature","properties":{"class":"major","highway":"primary","sidewalk":"likely","lanes":4,"name":"통일로","oneway":true},"geometry":{"type":"LineString","coordinates":[[126.89388,37.66183],[126.89403,37.66164],[126.89436,37.66115],[126.89448,37.6609],[126.89472,37.66034],[126.89504,37.65952]]}},{"type":"Feature","properties":{"class":"major","highway":"primary","sidewalk":"likely","lanes":4,"name":"통일로","oneway":true},"geometry":{"type":"LineString","coordinates":[[126.89523,37.65959],[126.89471,37.66087],[126.89453,37.66123],[126.89429,37.66161],[126.89418,37.66176],[126.89405,37.66191]]}},{"type":"Feature","properties":{"class":"minor","highway":"residential","sidewalk":"unknown","lanes":0,"name":"삼송로193번길","oneway":true},"geometry":{"type":"LineString","coordinates":[[126.89378,37.66175],[126.89382,37.6615],[126.89386,37.66125],[126.89386,37.66116],[126.89386,37.66114]]}},{"type":"Feature","properties":{"class":"minor","highway":"residential","sidewalk":"unknown","lanes":0,"name":"삼송로193번길","oneway":true},"geometry":{"type":"LineString","coordinates":[[126.89376,37.65982],[126.89383,37.66002],[126.89394,37.66055],[126.89395,37.66091],[126.89397,37.66101],[126.89398,37.6611],[126.89397,37.66113],[126.89394,37.66115],[126.8939,37.66116],[126.89386,37.66114],[126.89386,37.66101],[126.89388,37.6609],[126.89385,37.66055],[126.89376,37.66003],[126.89376,37.65982]]}}]}