{"type":"FeatureCollection","features":[{"type":"Feature","properties":{"class":"alley","highway":"service","sidewalk":"unknown","lanes":0,"name":"","oneway":false},"geometry":{"type":"LineString","coordinates":[[127.09419,37.68188],[127.09429,37.68179],[127.09455,37.68158],[127.0944,37.68112],[127.09386,37.67943],[127.0941,37.67905]]}},{"type":"Feature","properties":{"class":"alley","highway":"service","sidewalk":"unknown","lanes":0,"name":"","oneway":false},"geometry":{"type":"LineString","coordinates":[[127.09934,37.67996],[127.0992,37.68],[127.09883,37.67993],[127.09848,37.67992],[127.09822,37.67994],[127.09804,37.67998],[127.09771,37.68005],[127.09744,37.68011],[127.09725,37.68018],[127.09702,37.6802],[127.09695,37.68021],[127.09713,37.68031],[127.09724,37.68041],[127.09726,37.68049],[127.09727,37.68062],[127.09719,37.68074],[127.09695,37.68081],[127.09673,37.68086],[127.09647,37.68098],[127.09628,37.68107],[127.09614,37.68104],[127.09589,37.68095],[127.09573,37.68093],[127.09522,37.68098],[127.09498,37.68101],[127.09469,37.68108],[127.09454,37.68112],[127.0944,37.68112]]}},{"type":"Feature","properties":{"class":"minor","highway":"residential","sidewalk":"unknown","lanes":0,"name":"","oneway":false},"geometry":{"type":"LineString","coordinates":[[127.10206,37.68069],[127.10199,37.68071],[127.10182,37.68083],[127.10175,37.68097],[127.10169,37.68113],[127.10154,37.68132],[127.10146,37.68148],[127.10141,37.68154],[127.10138,37.68165],[127.10128,37.68191],[127.10119,37.68196],[127.10115,37.682],[127.1011,37.68217],[127.10109,37.68229],[127.10109,37.68237],[127.10112,37.68249],[127.1011,37.6826],[127.10105,37.68276],[127.10099,37.68295],[127.10095,37.68309],[127.10079,37.68332],[127.10063,37.68351],[127.10046,37.68369],[127.10031,37.68385],[127.10005,37.68409],[127.0997,37.6844],[127.09955,37.68444],[127.09919,37.68434],[127.0991,37.68428]]}},{"type":"Feature","properties":{"class":"minor","highway":"residential","sidewalk":"unknown","lanes":0,"name":"덕릉로","oneway":false},"geometry":{"type":"LineString","coordinates":[[127.09949,37.68007],[127.09953,37.68009],[127.09968,37.68015],[127.09982,37.68018],[127.10116,37.68034],[127.1014,37.68039],[127.10163,37.6805],[127.10206,37.68069],[127.10232,37.68075],[127.10274,37.68081],[127.10322,37.68095],[127.10354,37.68104],[127.10491,37.68143],[127.10572,37.68158],[127.10625,37.68165],[127.1065,37.6817],[127.1067,37.68172],[127.10694,37.6817],[127.10767,37.68155],[127.10832,37.6814],[127.10873,37.68141],[127.10908,37.68144],[127.10936,37.68147],[127.10949,37.68148]]}},{"type":"Feature","properties":{"class":"minor","highway":"residential","sidewalk":"unknown","lanes":0,"name":"덕릉로","oneway":false},"geometry":{"type":"LineString","coordinates":[[127.09938,37.67999],[127.09949,37.68007]]}},{"type":"Feature","properties":{"class":"alley","highway":"service","sidewalk":"unknown","lanes":0,"name":"","oneway":false},"geometry":{"type":"LineString","coordinates":[[127.08506,37.68279],[127.08514,37.68281],[127.08532,37.68291],[127.08558,37.68309],[127.08568,37.68319],[127.08571,37.68327],[127.08574,37.68342],[127.08581,37.68348],[127.08599,37.68353],[127.08609,37.68353],[127.08625,37.68355],[127.08639,37.68343],[127.08657,37.68324],[127.08685,37.68313],[127.08704,37.68303],[127.08729,37.68301],[127.08747,37.68306],[127.08758,37.68312],[127.08768,37.68312],[127.08773,37.68306],[127.08778,37.6829],[127.08782,37.68264],[127.08786,37.68253],[127.0879,37.68241],[127.08802,37.68224],[127.08808,37.68218],[127.08816,37.68212],[127.08832,37.68208],[127.08844,37.6821],[127.08845,37.6821],[127.08868,37.68213],[127.08877,37.68213],[127.08889,37.68212],[127.08901,37.68201],[127.08908,37.68189],[127.08914,37.6818],[127.08924,37.68172],[127.08932,37.68165],[127.08942,37.68156],[127.08949,37.68143],[127.08956,37.68116],[127.08958,37.681],[127.08955,37.68078],[127.08952,37.68059],[127.0894,37.68034],[127.08928,37.68004],[127.08923,37.67979],[127.08923,37.67952],[127.08923,37.6795],[127.0892,37.67945]]}}]}