{"type":"FeatureCollection","features":[{"type":"Feature","properties":{"class":"alley","highway":"pedestrian","sidewalk":"unknown","lanes":1,"name":"도봉산길","oneway":false},"geometry":{"type":"LineString","coordinates":[[127.03581,37.68634],[127.03593,37.68629],[127.03601,37.68624],[127.03612,37.6862],[127.03624,37.68614],[127.03632,37.68612],[127.03641,37.68611]]}},{"type":"Feature","properties":{"class":"minor","highway":"residential","sidewalk":"unknown","lanes":1,"name":"도봉로181길","oneway":false},"geometry":{"type":"LineString","coordinates":[[127.03912,37.6873],[127.03942,37.68725],[127.03951,37.68715],[127.0395,37.68702],[127.0395,37.68698],[127.0395,37.68693],[127.03951,37.68687],[127.03951,37.68681],[127.03951,37.68675],[127.03951,37.68672],[127.03952,37.68669],[127.03953,37.68666],[127.03955,37.68664],[127.0396,37.68659],[127.03964,37.68656],[127.03967,37.68655],[127.0397,37.68653],[127.03974,37.68651],[127.0398,37.6865],[127.03986,37.68648],[127.03993,37.68647],[127.04001,37.68646],[127.04011,37.68644],[127.04024,37.68643],[127.04034,37.68642],[127.04044,37.68641],[127.04053,37.68641],[127.04063,37.68642],[127.04072,37.68641],[127.0408,37.68641],[127.04086,37.6864],[127.04092,37.6864],[127.04098,37.68638],[127.04105,37.68636],[127.0411,37.68635],[127.04114,37.68633],[127.04118,37.6863],[127.04122,37.68627],[127.04126,37.68624],[127.04129,37.68621],[127.04131,37.68618],[127.04135,37.68609],[127.04139,37.68599],[127.04143,37.68591],[127.04148,37.68579],[127.04151,37.68572],[127.04154,37.68568],[127.04157,37.68564],[127.0416,37.68561],[127.04171,37.68553],[127.04175,37.68549],[127.04209,37.68524],[127.04251,37.685],[127.04271,37.6849],[127.04292,37.68479],[127.04349,37.68446],[127.04361,37.68441],[127.04404,37.68426],[127.04442,37.68415],[127.04475,37.68406],[127.04535,37.68392],[127.04549,37.68388],[127.04579,37.68383]]}},{"type":"Feature","properties":{"class":"alley","highway":"service","sidewalk":"unknown","lanes":0,"name":"북한산둘레길 18구간 도봉옛길","oneway":false},"geometry":{"type":"LineString","coordinates":[[127.03581,37.68634],[127.03551,37.68618],[127.03531,37.68614]]}},{"type":"Feature","properties":{"class":"alley","highway":"pedestrian","sidewalk":"unknown","lanes":0,"name":"북한산둘레길 18구간 도봉옛길","oneway":false},"geometry":{"type":"LineString","coordinates":[[127.0351,37.68789],[127.03508,37.68774],[127.03509,37.68762],[127.03517,37.68751],[127.03522,37.68746],[127.03526,37.68734],[127.03529,37.68721],[127.03532,37.68707],[127.03534,37.68695],[127.03536,37.68685],[127.0354,37.68677],[127.03544,37.6867],[127.03554,37.68657],[127.0356,37.68653],[127.0357,37.68647],[127.03572,37.68645],[127.03581,37.68634]]}},{"type":"Feature","properties":{"class":"alley","highway":"service","sidewalk":"unknown","lanes":0,"name":"북한산둘레길 18구간 도봉옛길","oneway":false},"geometry":{"type":"LineString","coordinates":[[127.02995,37.68492],[127.03007,37.68503],[127.03014,37.68511],[127.03021,37.68515],[127.03031,37.68517],[127.03045,37.68516],[127.03059,37.68514]]}},{"type":"Feature","properties":{"class":"alley","highway":"service","sidewalk":"unknown","lanes":0,"name":"도봉산길","oneway":true},"geometry":{"type":"LineString","coordinates":[[127.03641,37.68611],[127.03643,37.68609],[127.03662,37.68603],[127.03674,37.68604],[127.03733,37.68628],[127.03789,37.68652],[127.03803,37.68665]]}},{"type":"Feature","properties":{"class":"minor","highway":"residential","sidewalk":"unknown","lanes":4,"name":"도봉산길","oneway":false},"geometry":{"type":"LineString","coordinates":[[127.0395,37.68698],[127.04029,37.68709],[127.04041,37.6871],[127.04057,37.68712],[127.04086,37.68715],[127.04102,37.68717],[127.04215,37.68731],[127.04247,37.68735],[127.0428,37.68737],[127.04305,37.68737],[127.04351,37.68738],[127.04431,37.68739],[127.04444,37.68739]]}},{"type":"Feature","properties":{"class":"alley","highway":"service","sidewalk":"unknown","lanes":0,"name":"","oneway":false},"geometry":{"type":"LineString","coordinates":[[127.03986,37.68776],[127.03997,37.68727],[127.04025,37.68731]]}},{"type":"Feature","properties":{"class":"alley","highway":"service","sidewalk":"unknown","lanes":1,"name":"도봉산길","oneway":false},"geometry":{"type":"LineString","coordinates":[[127.03803,37.68665],[127.03819,37.68671],[127.03835,37.68675],[127.03854,37.68679],[127.03859,37.6868],[127.03868,37.68682],[127.03882,37.68685],[127.03896,37.68688],[127.03911,37.68691]]}},{"type":"Feature","properties":{"class":"alley","highway":"service","sidewalk":"unknown","lanes":1,"name":"도봉산길","oneway":true},"geometry":{"type":"LineString","coordinates":[[127.03803,37.68665],[127.03784,37.68667],[127.03776,37.68667],[127.03764,37.68666],[127.03756,37.68663],[127.03654,37.68617],[127.03644,37.68614],[127.03641,37.68611]]}},{"type":"Feature","properties":{"class":"alley","highway":"service","sidewalk":"unknown","lanes":0,"name":"북한산둘레길 18구간 도봉옛길","oneway":false},"geometry":{"type":"LineString","coordinates":[[127.03059,37.68514],[127.03073,37.6851],[127.03092,37.68509],[127.03102,37.68509],[127.03116,37.6851],[127.03134,37.68511],[127.03148,37.68512],[127.03165,37.68515],[127.03184,37.68517],[127.03198,37.68517],[127.03211,37.68517],[127.03245,37.68522],[127.03272,37.6853],[127.03286,37.68537],[127.03293,37.68542],[127.033,37.68548],[127.03308,37.68558],[127.03315,37.68565],[127.03322,37.6857],[127.03339,37.68575],[127.03351,37.6858],[127.03367,37.6859],[127.0339,37.68599],[127.03408,37.68604],[127.03438,37.68609],[127.03478,37.68613],[127.03512,37.68613],[127.03531,37.68614]]}},{"type":"Feature","properties":{"class":"alley","highway":"service","sidewalk":"unknown","lanes":1,"name":"도봉산길","oneway":false},"geometry":{"type":"LineString","coordinates":[[127.03911,37.68691],[127.0395,37.68698]]}},{"type":"Feature","properties":{"class":"minor","highway":"residential","sidewalk":"unknown","lanes":0,"name":"도봉로191길","oneway":false},"geometry":{"type":"LineString","coordinates":[[127.04102,37.68981],[127.04074,37.68986],[127.0406,37.68994],[127.04046,37.68999],[127.04011,37.68999],[127.03964,37.69008],[127.03952,37.69005],[127.03941,37.68998],[127.03941,37.68986],[127.03941,37.68979],[127.03949,37.68971],[127.03939,37.68969],[127.03924,37.68976],[127.03913,37.68979],[127.03884,37.68983]]}},{"type":"Feature","properties":{"class":"minor","highway":"residential","sidewalk":"unknown","lanes":0,"name":"","oneway":false},"geometry":{"type":"LineString","coordinates":[[127.03949,37.68971],[127.03956,37.68965],[127.03971,37.68959],[127.0399,37.68957],[127.04004,37.68955]]}},{"type":"Feature","properties":{"class":"minor","highway":"residential","sidewalk":"unknown","lanes":1,"name":"평화로49번길","oneway":false},"geometry":{"type":"LineString","coordinates":[[127.04206,37.69647],[127.04198,37.69642],[127.04189,37.69636],[127.04181,37.69631],[127.04172,37.69626],[127.04161,37.69619],[127.04153,37.69615],[127.04147,37.69612],[127.04127,37.69606],[127.04121,37.69603],[127.0411,37.69596],[127.04104,37.69589],[127.04094,37.6958],[127.04086,37.69571],[127.0408,37.69567],[127.04074,37.69563],[127.04065,37.69558],[127.04057,37.69555],[127.04045,37.6955],[127.04033,37.69546],[127.04008,37.69539],[127.03958,37.69527],[127.03929,37.69519]]}},{"type":"Feature","properties":{"class":"minor","highway":"unclassified","sidewalk":"unknown","lanes":0,"name":"평화로49번길","oneway":false},"geometry":{"type":"LineString","coordinates":[[127.03929,37.69519],[127.03917,37.69517],[127.03908,37.69516],[127.03904,37.69516],[127.03899,37.69517],[127.03893,37.69518],[127.03888,37.69522],[127.03882,37.69526],[127.03875,37.69532],[127.03866,37.69541],[127.03856,37.69557]]}}]}