{"type":"FeatureCollection","features":[{"type":"Feature","properties":{"class":"minor","highway":"residential","sidewalk":"unknown","lanes":0,"name":"동일로122번길","oneway":false},"geometry":{"type":"LineString","coordinates":[[127.05455,37.69999],[127.0548,37.69991],[127.05493,37.69992],[127.05514,37.69992],[127.05549,37.69992],[127.05563,37.6999],[127.05578,37.69988],[127.0559,37.69981],[127.0561,37.69973],[127.05616,37.6997],[127.05651,37.69955],[127.05661,37.69951],[127.05689,37.69939],[127.05709,37.69932],[127.0573,37.69929],[127.05765,37.69928],[127.05806,37.6993],[127.05814,37.6993],[127.05825,37.6993],[127.05835,37.69929],[127.0586,37.69928],[127.05869,37.69928],[127.05917,37.69943],[127.05936,37.69952],[127.05964,37.69972],[127.05982,37.69982],[127.06006,37.69987]]}}]}