{"type":"FeatureCollection","features":[{"type":"Feature","properties":{"class":"major","highway":"trunk","sidewalk":"likely","lanes":0,"name":"덕내로","oneway":true},"geometry":{"type":"LineString","coordinates":[[127.10762,37.68006],[127.09389,37.6768]]}},{"type":"Feature","properties":{"class":"major","highway":"trunk","sidewalk":"likely","lanes":0,"name":"덕내로","oneway":true},"geometry":{"type":"LineString","coordinates":[[127.10747,37.67976],[127.10786,37.6799],[127.10822,37.68005],[127.10871,37.68029],[127.10883,37.68034]]}},{"type":"Feature","properties":{"class":"major","highway":"trunk","sidewalk":"likely","lanes":0,"name":"덕내로","oneway":true},"geometry":{"type":"LineString","coordinates":[[127.11105,37.68094],[127.11082,37.68094],[127.11056,37.68093]]}},{"type":"Feature","properties":{"class":"major","highway":"trunk","sidewalk":"likely","lanes":0,"name":"덕내로","oneway":true},"geometry":{"type":"LineString","coordinates":[[127.1101,37.68087],[127.10999,37.68083],[127.10963,37.68074],[127.10921,37.6806],[127.10874,37.68041]]}},{"type":"Feature","properties":{"class":"major","highway":"trunk","sidewalk":"likely","lanes":0,"name":"덕내로","oneway":true},"geometry":{"type":"LineString","coordinates":[[127.11111,37.68085],[127.1113,37.68083],[127.11157,37.6808],[127.11191,37.68073],[127.1122,37.68064],[127.11255,37.6805],[127.11311,37.68025],[127.11337,37.68015],[127.11384,37.67997],[127.11428,37.67981],[127.11484,37.67963],[127.11523,37.67951],[127.11558,37.67943],[127.11614,37.67939],[127.11682,37.67937],[127.11764,37.6794]]}},{"type":"Feature","properties":{"class":"major","highway":"trunk","sidewalk":"likely","lanes":0,"name":"덕내로","oneway":true},"geometry":{"type":"LineString","coordinates":[[127.11869,37.67976],[127.11796,37.6796],[127.11721,37.6795],[127.11625,37.6795],[127.1157,37.67958],[127.11513,37.67973],[127.11492,37.67979],[127.11369,37.68017],[127.11332,37.68034],[127.11277,37.68052],[127.11222,37.68072],[127.11192,37.68081],[127.11157,37.68088],[127.1112,37.68092],[127.11105,37.68094]]}},{"type":"Feature","properties":{"class":"major","highway":"trunk","sidewalk":"likely","lanes":0,"name":"덕내로","oneway":true},"geometry":{"type":"LineString","coordinates":[[127.11063,37.68084],[127.11087,37.68085],[127.11111,37.68085]]}},{"type":"Feature","properties":{"class":"major","highway":"tertiary","sidewalk":"likely","lanes":0,"name":"","oneway":true},"geometry":{"type":"LineString","coordinates":[[127.1097,37.68147],[127.10972,37.68149],[127.10973,37.68152],[127.10972,37.68156],[127.10971,37.68158],[127.10968,37.68161],[127.10964,37.68162],[127.10962,37.68163],[127.1096,37.68163],[127.10956,37.68163],[127.10953,37.68161],[127.1095,37.68158],[127.10948,37.68155],[127.10947,37.68151],[127.10949,37.68148],[127.10951,37.68146],[127.10955,37.68144],[127.10959,37.68143],[127.10963,37.68143],[127.10967,37.68144],[127.1097,37.68147]]}},{"type":"Feature","properties":{"class":"major","highway":"trunk_link","sidewalk":"likely","lanes":0,"name":"","oneway":true},"geometry":{"type":"LineString","coordinates":[[127.11021,37.68128],[127.11036,37.68119],[127.11043,37.68113],[127.11042,37.68107],[127.11039,37.68101]]}},{"type":"Feature","properties":{"class":"major","highway":"trunk_link","sidewalk":"likely","lanes":0,"name":"","oneway":true},"geometry":{"type":"LineString","coordinates":[[127.10883,37.68034],[127.10913,37.68041],[127.10953,37.68052],[127.10994,37.68063],[127.11013,37.68066]]}},{"type":"Feature","properties":{"class":"major","highway":"trunk_link","sidewalk":"likely","lanes":0,"name":"","oneway":true},"geometry":{"type":"LineString","coordinates":[[127.11046,37.6807],[127.11071,37.68069],[127.11078,37.68068],[127.11083,37.68066],[127.11104,37.68053]]}},{"type":"Feature","properties":{"class":"major","highway":"trunk_link","sidewalk":"likely","lanes":0,"name":"","oneway":true},"geometry":{"type":"LineString","coordinates":[[127.11332,37.68034],[127.11282,37.68059],[127.11251,37.68072],[127.11226,37.68082],[127.11196,37.6809],[127.11166,37.68098],[127.1114,37.68102],[127.1112,37.68104],[127.11091,37.68108],[127.11081,37.68111],[127.11065,37.68117]]}},{"type":"Feature","properties":{"class":"major","highway":"trunk_link","sidewalk":"likely","lanes":0,"name":"","oneway":true},"geometry":{"type":"LineString","coordinates":[[127.11089,37.68079],[127.11109,37.68074],[127.11125,37.68073],[127.11137,37.68071],[127.11153,37.68069],[127.11179,37.68063],[127.11207,37.68056],[127.11229,37.68049],[127.11248,37.68042],[127.11311,37.68025]]}},{"type":"Feature","properties":{"class":"major","highway":"trunk_link","sidewalk":"likely","lanes":0,"name":"","oneway":true},"geometry":{"type":"LineString","coordinates":[[127.11113,37.68039],[127.11114,37.68059],[127.11116,37.68065],[127.11122,37.68068],[127.11137,37.68071]]}},{"type":"Feature","properties":{"class":"minor","highway":"residential","sidewalk":"unknown","lanes":0,"name":"","oneway":false},"geometry":{"type":"LineString","coordinates":[[127.10206,37.68069],[127.10199,37.68071],[127.10182,37.68083],[127.10175,37.68097],[127.10169,37.68113],[127.10154,37.68132],[127.10146,37.68148],[127.10141,37.68154],[127.10138,37.68165],[127.10128,37.68191],[127.10119,37.68196],[127.10115,37.682],[127.1011,37.68217],[127.10109,37.68229],[127.10109,37.68237],[127.10112,37.68249],[127.1011,37.6826],[127.10105,37.68276],[127.10099,37.68295],[127.10095,37.68309],[127.10079,37.68332],[127.10063,37.68351],[127.10046,37.68369],[127.10031,37.68385],[127.10005,37.68409],[127.0997,37.6844],[127.09955,37.68444],[127.09919,37.68434],[127.0991,37.68428]]}},{"type":"Feature","properties":{"class":"minor","highway":"residential","sidewalk":"unknown","lanes":0,"name":"","oneway":false},"geometry":{"type":"LineString","coordinates":[[127.11034,37.68138],[127.11036,37.68145],[127.11025,37.68179],[127.11014,37.68212],[127.11008,37.6823],[127.10998,37.68244],[127.10987,37.6826],[127.10976,37.68276],[127.10973,37.68288],[127.10974,37.683],[127.10975,37.68317],[127.10976,37.68331],[127.10976,37.68343],[127.10976,37.68357],[127.10974,37.68369],[127.10965,37.68381],[127.10927,37.68418],[127.1089,37.68451]]}},{"type":"Feature","properties":{"class":"minor","highway":"residential","sidewalk":"unknown","lanes":0,"name":"","oneway":false},"geometry":{"type":"LineString","coordinates":[[127.10557,37.687],[127.1057,37.68702],[127.10593,37.68702],[127.10603,37.68698],[127.10611,37.68693],[127.10621,37.68685],[127.10627,37.6868],[127.10642,37.68679],[127.10664,37.68686],[127.10671,37.68687],[127.10706,37.68677],[127.10729,37.68668],[127.10741,37.6866],[127.10761,37.68652]]}},{"type":"Feature","properties":{"class":"minor","highway":"residential","sidewalk":"unknown","lanes":0,"name":"","oneway":false},"geometry":{"type":"LineString","coordinates":[[127.09925,37.67912],[127.09987,37.67911],[127.10005,37.67913],[127.10023,37.67916],[127.10035,37.67927],[127.10045,37.67939],[127.10051,37.67948],[127.10062,37.67952],[127.10078,37.67953],[127.10091,37.67956],[127.1012,37.67968],[127.10137,37.67982],[127.10146,37.67993],[127.10149,37.68007],[127.10152,37.68022],[127.1015,37.68026]]}},{"type":"Feature","properties":{"class":"major","highway":"trunk","sidewalk":"likely","lanes":0,"name":"덕내로","oneway":true},"geometry":{"type":"LineString","coordinates":[[127.10874,37.68041],[127.10856,37.68034],[127.10835,37.68027],[127.10814,37.6802],[127.10762,37.68006]]}},{"type":"Feature","properties":{"class":"major","highway":"trunk","sidewalk":"likely","lanes":0,"name":"덕내로","oneway":true},"geometry":{"type":"LineString","coordinates":[[127.10883,37.68034],[127.10914,37.68047],[127.1093,37.68053],[127.10965,37.68065],[127.10991,37.68072],[127.11013,37.68077]]}},{"type":"Feature","properties":{"class":"major","highway":"tertiary","sidewalk":"likely","lanes":0,"name":"순화궁로","oneway":false},"geometry":{"type":"LineString","coordinates":[[127.11076,37.68102],[127.11082,37.68091]]}},{"type":"Feature","properties":{"class":"major","highway":"tertiary","sidewalk":"likely","lanes":0,"name":"순화궁로","oneway":true},"geometry":{"type":"LineString","coordinates":[[127.11026,37.68134],[127.11057,37.68115],[127.11076,37.68102]]}},{"type":"Feature","properties":{"class":"major","highway":"tertiary","sidewalk":"likely","lanes":0,"name":"순화궁로","oneway":true},"geometry":{"type":"LineString","coordinates":[[127.11076,37.68102],[127.1107,37.68111],[127.11065,37.68117],[127.1105,37.68129],[127.11034,37.68138],[127.11015,37.68144]]}},{"type":"Feature","properties":{"class":"major","highway":"trunk_link","sidewalk":"likely","lanes":0,"name":"","oneway":true},"geometry":{"type":"LineString","coordinates":[[127.11082,37.68091],[127.11062,37.68097],[127.11049,37.68101],[127.11039,37.68101]]}},{"type":"Feature","properties":{"class":"major","highway":"trunk_link","sidewalk":"likely","lanes":0,"name":"","oneway":true},"geometry":{"type":"LineString","coordinates":[[127.1112,37.68104],[127.11099,37.68103],[127.1109,37.68099],[127.11082,37.68091]]}},{"type":"Feature","properties":{"class":"major","highway":"trunk","sidewalk":"likely","lanes":0,"name":"덕내로","oneway":true},"geometry":{"type":"LineString","coordinates":[[127.11044,37.68092],[127.1101,37.68087]]}},{"type":"Feature","properties":{"class":"major","highway":"trunk","sidewalk":"likely","lanes":0,"name":"덕내로","oneway":true},"geometry":{"type":"LineString","coordinates":[[127.11046,37.68083],[127.11063,37.68084]]}},{"type":"Feature","properties":{"class":"major","highway":"trunk","sidewalk":"likely","lanes":0,"name":"덕내로","oneway":true},"geometry":{"type":"LineString","coordinates":[[127.11056,37.68093],[127.11044,37.68092]]}},{"type":"Feature","properties":{"class":"major","highway":"trunk","sidewalk":"likely","lanes":0,"name":"덕내로","oneway":true},"geometry":{"type":"LineString","coordinates":[[127.11013,37.68077],[127.11046,37.68083]]}},{"type":"Feature","properties":{"class":"major","highway":"trunk_link","sidewalk":"likely","lanes":0,"name":"","oneway":true},"geometry":{"type":"LineString","coordinates":[[127.11013,37.68066],[127.11024,37.68068],[127.11034,37.6807]]}},{"type":"Feature","properties":{"class":"major","highway":"trunk_link","sidewalk":"likely","lanes":0,"name":"","oneway":true},"geometry":{"type":"LineString","coordinates":[[127.11034,37.6807],[127.11046,37.6807]]}},{"type":"Feature","properties":{"class":"major","highway":"trunk_link","sidewalk":"likely","lanes":0,"name":"","oneway":true},"geometry":{"type":"LineString","coordinates":[[127.11046,37.68073],[127.11078,37.68076],[127.11089,37.68079]]}},{"type":"Feature","properties":{"class":"major","highway":"tertiary","sidewalk":"likely","lanes":0,"name":"순화궁로","oneway":true},"geometry":{"type":"LineString","coordinates":[[127.1099,37.68151],[127.10981,37.68154],[127.1098,37.68154],[127.10971,37.68158]]}},{"type":"Feature","properties":{"class":"major","highway":"tertiary","sidewalk":"likely","lanes":0,"name":"순화궁로","oneway":true},"geometry":{"type":"LineString","coordinates":[[127.11015,37.68144],[127.1099,37.68151]]}},{"type":"Feature","properties":{"class":"major","highway":"tertiary","sidewalk":"likely","lanes":0,"name":"순화궁로","oneway":true},"geometry":{"type":"LineString","coordinates":[[127.10992,37.6814],[127.11004,37.68139],[127.11026,37.68134]]}},{"type":"Feature","properties":{"class":"major","highway":"trunk_link","sidewalk":"likely","lanes":0,"name":"","oneway":true},"geometry":{"type":"LineString","coordinates":[[127.10992,37.6814],[127.10998,37.68137],[127.11021,37.68128]]}},{"type":"Feature","properties":{"class":"major","highway":"tertiary","sidewalk":"likely","lanes":0,"name":"순화궁로","oneway":true},"geometry":{"type":"LineString","coordinates":[[127.10967,37.68144],[127.10992,37.6814]]}},{"type":"Feature","properties":{"class":"major","highway":"tertiary","sidewalk":"likely","lanes":0,"name":"순화궁로","oneway":false},"geometry":{"type":"LineString","coordinates":[[127.10392,37.69693],[127.10393,37.6969],[127.10398,37.69671],[127.104,37.6966],[127.10439,37.69517],[127.10457,37.69467],[127.10485,37.69414],[127.10569,37.69264],[127.10609,37.69224],[127.1066,37.69174],[127.1069,37.6913],[127.10711,37.69072],[127.10735,37.69],[127.1075,37.6896],[127.10778,37.68847],[127.10803,37.6873],[127.10825,37.6861],[127.10865,37.68512],[127.10875,37.68487],[127.1089,37.68451],[127.10917,37.68377],[127.1093,37.68315],[127.10953,37.6817],[127.10956,37.68163]]}},{"type":"Feature","properties":{"class":"major","highway":"tertiary","sidewalk":"likely","lanes":0,"name":"","oneway":false},"geometry":{"type":"LineString","coordinates":[[127.1039,37.69701],[127.10392,37.69693]]}},{"type":"Feature","properties":{"class":"major","highway":"tertiary","sidewalk":"likely","lanes":0,"name":"순화궁로","oneway":false},"geometry":{"type":"LineString","coordinates":[[127.10332,37.70036],[127.10331,37.70019],[127.10329,37.7001],[127.10328,37.70003],[127.10326,37.69957],[127.10335,37.6991],[127.10376,37.69755],[127.10388,37.69707],[127.1039,37.69701]]}},{"type":"Feature","properties":{"class":"major","highway":"tertiary","sidewalk":"likely","lanes":0,"name":"순화궁로","oneway":true},"geometry":{"type":"LineString","coordinates":[[127.11642,37.67269],[127.1158,37.67374],[127.11571,37.67387],[127.11555,37.6741],[127.11494,37.67498],[127.11418,37.67588],[127.11361,37.67654],[127.11319,37.67703],[127.11291,37.67748],[127.11265,37.67801],[127.11202,37.67905],[127.11143,37.67999],[127.11128,37.68014]]}},{"type":"Feature","properties":{"class":"major","highway":"tertiary","sidewalk":"likely","lanes":0,"name":"순화궁로","oneway":true},"geometry":{"type":"LineString","coordinates":[[127.11128,37.68014],[127.11134,37.67996],[127.11195,37.67902],[127.11255,37.67798],[127.11281,37.67742],[127.11307,37.67697],[127.1135,37.67645],[127.11404,37.67581],[127.11482,37.67492],[127.11567,37.67369],[127.11628,37.67261]]}},{"type":"Feature","properties":{"class":"major","highway":"tertiary","sidewalk":"likely","lanes":0,"name":"순화궁로","oneway":false},"geometry":{"type":"LineString","coordinates":[[127.11082,37.68091],[127.11089,37.68079],[127.11104,37.68053],[127.11113,37.68039],[127.11125,37.68018]]}},{"type":"Feature","properties":{"class":"major","highway":"trunk_link","sidewalk":"likely","lanes":0,"name":"","oneway":true},"geometry":{"type":"LineString","coordinates":[[127.11034,37.6807],[127.11046,37.68073]]}},{"type":"Feature","properties":{"class":"major","highway":"trunk_link","sidewalk":"likely","lanes":0,"name":"","oneway":true},"geometry":{"type":"LineString","coordinates":[[127.10998,37.68094],[127.10976,37.68088],[127.1095,37.68079],[127.10921,37.68068],[127.10898,37.68056],[127.10874,37.68041]]}},{"type":"Feature","properties":{"class":"major","highway":"trunk_link","sidewalk":"likely","lanes":0,"name":"","oneway":true},"geometry":{"type":"LineString","coordinates":[[127.11039,37.68101],[127.10998,37.68094]]}},{"type":"Feature","properties":{"class":"minor","highway":"residential","sidewalk":"unknown","lanes":0,"name":"덕릉로","oneway":false},"geometry":{"type":"LineString","coordinates":[[127.09949,37.68007],[127.09953,37.68009],[127.09968,37.68015],[127.09982,37.68018],[127.10116,37.68034],[127.1014,37.68039],[127.10163,37.6805],[127.10206,37.68069],[127.10232,37.68075],[127.10274,37.68081],[127.10322,37.68095],[127.10354,37.68104],[127.10491,37.68143],[127.10572,37.68158],[127.10625,37.68165],[127.1065,37.6817],[127.1067,37.68172],[127.10694,37.6817],[127.10767,37.68155],[127.10832,37.6814],[127.10873,37.68141],[127.10908,37.68144],[127.10936,37.68147],[127.10949,37.68148]]}},{"type":"Feature","properties":{"class":"alley","highway":"service","sidewalk":"unknown","lanes":0,"name":"","oneway":false},"geometry":{"type":"LineString","coordinates":[[127.11125,37.68018],[127.11175,37.68032]]}},{"type":"Feature","properties":{"class":"major","highway":"tertiary","sidewalk":"likely","lanes":0,"name":"순화궁로","oneway":false},"geometry":{"type":"LineString","coordinates":[[127.11125,37.68018],[127.11128,37.68014]]}},{"type":"Feature","properties":{"class":"minor","highway":"residential","sidewalk":"unknown","lanes":0,"name":"","oneway":false},"geometry":{"type":"LineString","coordinates":[[127.10768,37.68648],[127.10774,37.68641],[127.1079,37.68628],[127.10799,37.6862],[127.10812,37.68615],[127.10825,37.6861]]}},{"type":"Feature","properties":{"class":"minor","highway":"residential","sidewalk":"unknown","lanes":0,"name":"","oneway":false},"geometry":{"type":"LineString","coordinates":[[127.10761,37.68652],[127.10768,37.68648]]}},{"type":"Feature","properties":{"class":"alley","highway":"service","sidewalk":"unknown","lanes":0,"name":"","oneway":false},"geometry":{"type":"LineString","coordinates":[[127.10746,37.68845],[127.10735,37.68844],[127.10708,37.68854],[127.10689,37.68849],[127.10663,37.68854]]}},{"type":"Feature","properties":{"class":"alley","highway":"service","sidewalk":"unknown","lanes":0,"name":"","oneway":false},"geometry":{"type":"LineString","coordinates":[[127.10778,37.68847],[127.10757,37.68845]]}},{"type":"Feature","properties":{"class":"alley","highway":"service","sidewalk":"unknown","lanes":0,"name":"","oneway":false},"geometry":{"type":"LineString","coordinates":[[127.10757,37.68845],[127.10746,37.68845]]}},{"type":"Feature","properties":{"class":"alley","highway":"service","sidewalk":"unknown","lanes":0,"name":"","oneway":false},"geometry":{"type":"LineString","coordinates":[[127.10393,37.6969],[127.10402,37.69691],[127.10412,37.69689],[127.10419,37.69686],[127.10433,37.69672],[127.10437,37.69663],[127.10438,37.69656]]}},{"type":"Feature","properties":{"class":"minor","highway":"unclassified","sidewalk":"unknown","lanes":0,"name":"","oneway":false},"geometry":{"type":"LineString","coordinates":[[127.1065,37.6817],[127.10641,37.68183],[127.10629,37.68188],[127.10617,37.68194],[127.10613,37.68198],[127.10612,37.68203],[127.10625,37.68228],[127.10636,37.68262],[127.10645,37.68263],[127.10662,37.6826]]}},{"type":"Feature","properties":{"class":"alley","highway":"service","sidewalk":"unknown","lanes":0,"name":"","oneway":false},"geometry":{"type":"LineString","coordinates":[[127.10875,37.68487],[127.10898,37.685],[127.10903,37.68505],[127.10916,37.68511],[127.10928,37.68519],[127.10932,37.68526],[127.10945,37.68529],[127.10956,37.6853],[127.10977,37.68532]]}},{"type":"Feature","properties":{"class":"minor","highway":"residential","sidewalk":"unknown","lanes":0,"name":"","oneway":false},"geometry":{"type":"LineString","coordinates":[[127.10144,37.68035],[127.1014,37.68039]]}},{"type":"Feature","properties":{"class":"minor","highway":"residential","sidewalk":"unknown","lanes":0,"name":"","oneway":false},"geometry":{"type":"LineString","coordinates":[[127.1015,37.68026],[127.10144,37.68035]]}},{"type":"Feature","properties":{"class":"alley","highway":"service","sidewalk":"unknown","lanes":0,"name":"","oneway":false},"geometry":{"type":"LineString","coordinates":[[127.10628,37.68155],[127.10626,37.68161]]}},{"type":"Feature","properties":{"class":"alley","highway":"service","sidewalk":"unknown","lanes":0,"name":"","oneway":false},"geometry":{"type":"LineString","coordinates":[[127.10629,37.68152],[127.10628,37.68155]]}},{"type":"Feature","properties":{"class":"alley","highway":"service","sidewalk":"unknown","lanes":0,"name":"","oneway":false},"geometry":{"type":"LineString","coordinates":[[127.10626,37.68161],[127.10625,37.68165]]}}]}