{"type":"FeatureCollection","features":[{"type":"Feature","properties":{"class":"major","highway":"motorway","sidewalk":"likely","lanes":4,"name":"수도권제1순환고속도로","oneway":true},"geometry":{"type":"LineString","coordinates":[[127.04397,37.70179],[127.04423,37.70139],[127.04447,37.70105],[127.04476,37.70066],[127.04507,37.70025],[127.04547,37.69975],[127.04716,37.69799],[127.04819,37.69715]]}},{"type":"Feature","properties":{"class":"major","highway":"motorway","sidewalk":"likely","lanes":4,"name":"수도권제1순환고속도로","oneway":true},"geometry":{"type":"LineString","coordinates":[[127.04809,37.69748],[127.04765,37.69785],[127.04737,37.6981],[127.04713,37.69832],[127.04686,37.69858],[127.04656,37.69888],[127.04628,37.69917],[127.04601,37.69946],[127.04552,37.70002],[127.04536,37.7002],[127.04512,37.70049],[127.04488,37.7008],[127.04467,37.70109],[127.04445,37.70141],[127.04424,37.7017],[127.04408,37.70195],[127.04388,37.70228]]}},{"type":"Feature","properties":{"class":"major","highway":"trunk","sidewalk":"likely","lanes":2,"name":"동부간선로","oneway":true},"geometry":{"type":"LineString","coordinates":[[127.04985,37.70057],[127.04976,37.70037],[127.04959,37.69997],[127.04952,37.69963],[127.04946,37.69935],[127.04944,37.69906],[127.04943,37.69872],[127.04945,37.6983],[127.04956,37.69746],[127.04962,37.69673],[127.04962,37.69625]]}},{"type":"Feature","properties":{"class":"major","highway":"trunk","sidewalk":"likely","lanes":2,"name":"동부간선로","oneway":true},"geometry":{"type":"LineString","coordinates":[[127.05084,37.69087],[127.05079,37.69113],[127.05073,37.6914],[127.05066,37.69166],[127.0506,37.69184],[127.05051,37.69207],[127.05036,37.6924],[127.05013,37.69297],[127.05004,37.69323],[127.04999,37.69343],[127.04993,37.69372],[127.0499,37.69402],[127.04989,37.6943],[127.04989,37.69481],[127.04988,37.6951],[127.04988,37.69527],[127.04986,37.69544],[127.04974,37.69662],[127.04964,37.69763],[127.04957,37.69814],[127.04955,37.69838],[127.04953,37.69868],[127.04953,37.69898],[127.04957,37.69938],[127.04968,37.69984],[127.04983,37.70029],[127.04995,37.70053]]}},{"type":"Feature","properties":{"class":"major","highway":"secondary","sidewalk":"likely","lanes":2,"name":"평화로","oneway":true},"geometry":{"type":"LineString","coordinates":[[127.04551,37.70024],[127.04553,37.70009],[127.04554,37.69961],[127.04554,37.69927],[127.04556,37.69905],[127.04556,37.69886],[127.0455,37.69846],[127.04541,37.69801],[127.04528,37.69703],[127.04522,37.69674]]}},{"type":"Feature","properties":{"class":"major","highway":"secondary","sidewalk":"likely","lanes":3,"name":"평화로","oneway":true},"geometry":{"type":"LineString","coordinates":[[127.04556,37.6977],[127.04568,37.69797],[127.04585,37.69905],[127.04593,37.69963],[127.04598,37.69997],[127.04606,37.70014],[127.04611,37.70025],[127.04621,37.7004],[127.0463,37.7005]]}},{"type":"Feature","properties":{"class":"alley","highway":"service","sidewalk":"unknown","lanes":0,"name":"","oneway":false},"geometry":{"type":"LineString","coordinates":[[127.05287,37.70393],[127.0523,37.70276],[127.05202,37.70217],[127.05169,37.70152],[127.05121,37.70057],[127.0509,37.70066],[127.05073,37.70071],[127.04969,37.69854],[127.0497,37.6985],[127.05099,37.69814],[127.05151,37.69924],[127.05171,37.69918],[127.05175,37.69915],[127.05179,37.69914],[127.05183,37.69911],[127.05187,37.69909],[127.05193,37.69906],[127.05196,37.69904],[127.05228,37.69886]]}},{"type":"Feature","properties":{"class":"major","highway":"primary","sidewalk":"likely","lanes":8,"name":"동일로","oneway":false},"geometry":{"type":"LineString","coordinates":[[127.05439,37.69664],[127.05424,37.69764],[127.05421,37.69784],[127.05417,37.6981],[127.05416,37.6985],[127.05417,37.6986],[127.05419,37.69875],[127.05431,37.69933],[127.05438,37.69958],[127.05442,37.69969],[127.05449,37.69985],[127.05455,37.69999],[127.05473,37.70036],[127.05476,37.70044],[127.05481,37.70054]]}},{"type":"Feature","properties":{"class":"major","highway":"secondary","sidewalk":"likely","lanes":4,"name":"평화로","oneway":false},"geometry":{"type":"LineString","coordinates":[[127.04741,37.70161],[127.04743,37.70175],[127.04751,37.70219],[127.04761,37.7027],[127.04764,37.70284],[127.04785,37.70406],[127.04804,37.70505],[127.04806,37.70513],[127.04816,37.7057],[127.04819,37.70604],[127.04819,37.70624],[127.0482,37.70632]]}},{"type":"Feature","properties":{"class":"major","highway":"motorway","sidewalk":"likely","lanes":4,"name":"수도권제1순환고속도로","oneway":true},"geometry":{"type":"LineString","coordinates":[[127.04203,37.70557],[127.04217,37.70529],[127.04232,37.70495],[127.04249,37.7046],[127.04264,37.70428],[127.04279,37.70394],[127.04294,37.7036],[127.04311,37.70325],[127.04328,37.70291],[127.04344,37.70262],[127.0436,37.70233],[127.04376,37.70209],[127.04397,37.70179]]}},{"type":"Feature","properties":{"class":"major","highway":"motorway","sidewalk":"likely","lanes":4,"name":"수도권제1순환고속도로","oneway":true},"geometry":{"type":"LineString","coordinates":[[127.04388,37.70228],[127.0438,37.7024],[127.04365,37.70263],[127.04332,37.70328],[127.04313,37.70366],[127.04299,37.70398],[127.04286,37.70435],[127.04264,37.70486],[127.04249,37.70521],[127.04227,37.70567]]}},{"type":"Feature","properties":{"class":"major","highway":"trunk","sidewalk":"likely","lanes":3,"name":"서부로","oneway":true},"geometry":{"type":"LineString","coordinates":[[127.04245,37.70626],[127.04262,37.70596],[127.04292,37.70539],[127.04349,37.70431],[127.04438,37.70263]]}},{"type":"Feature","properties":{"class":"alley","highway":"service","sidewalk":"unknown","lanes":0,"name":"","oneway":false},"geometry":{"type":"LineString","coordinates":[[127.05309,37.70117],[127.05436,37.70336]]}},{"type":"Feature","properties":{"class":"alley","highway":"service","sidewalk":"unknown","lanes":0,"name":"","oneway":false},"geometry":{"type":"LineString","coordinates":[[127.05379,37.70087],[127.05336,37.70106],[127.05322,37.70112],[127.05318,37.70114],[127.05312,37.70116],[127.05309,37.70117],[127.05303,37.70119],[127.05299,37.70121],[127.05286,37.70125],[127.0528,37.70126],[127.05277,37.70126],[127.05272,37.70126],[127.0527,37.70126],[127.05264,37.70126],[127.05247,37.70128]]}},{"type":"Feature","properties":{"class":"alley","highway":"service","sidewalk":"unknown","lanes":0,"name":"","oneway":false},"geometry":{"type":"LineString","coordinates":[[127.05151,37.69924],[127.05193,37.70014],[127.05195,37.70019],[127.05247,37.70128],[127.05248,37.70129]]}},{"type":"Feature","properties":{"class":"alley","highway":"service","sidewalk":"unknown","lanes":0,"name":"","oneway":false},"geometry":{"type":"LineString","coordinates":[[127.05436,37.70336],[127.05449,37.70331],[127.05471,37.70368],[127.05458,37.70373],[127.05533,37.70498],[127.05555,37.70535],[127.05558,37.70541]]}},{"type":"Feature","properties":{"class":"alley","highway":"service","sidewalk":"unknown","lanes":0,"name":"","oneway":false},"geometry":{"type":"LineString","coordinates":[[127.05455,37.69999],[127.05446,37.70002],[127.05428,37.70009],[127.05424,37.7001]]}},{"type":"Feature","properties":{"class":"alley","highway":"service","sidewalk":"unknown","lanes":0,"name":"","oneway":false},"geometry":{"type":"LineString","coordinates":[[127.05287,37.70393],[127.05285,37.70398],[127.05336,37.70475],[127.05363,37.70514],[127.05383,37.70531],[127.05401,37.70544],[127.05429,37.70554],[127.05459,37.70559],[127.05483,37.7056],[127.05508,37.70557],[127.05558,37.70541],[127.05629,37.70518],[127.05643,37.7051],[127.05649,37.705],[127.0565,37.70486],[127.05635,37.70449],[127.05554,37.70283]]}},{"type":"Feature","properties":{"class":"alley","highway":"service","sidewalk":"unknown","lanes":0,"name":"","oneway":false},"geometry":{"type":"LineString","coordinates":[[127.05202,37.70217],[127.05155,37.70234],[127.05153,37.70234]]}},{"type":"Feature","properties":{"class":"alley","highway":"service","sidewalk":"unknown","lanes":0,"name":"","oneway":true},"geometry":{"type":"LineString","coordinates":[[127.05385,37.70046],[127.05401,37.70038],[127.05416,37.70031],[127.0543,37.70024],[127.0545,37.70064],[127.05446,37.70069],[127.05436,37.70084],[127.05427,37.70098],[127.05385,37.70046]]}},{"type":"Feature","properties":{"class":"alley","highway":"service","sidewalk":"unknown","lanes":0,"name":"","oneway":true},"geometry":{"type":"LineString","coordinates":[[127.05401,37.70038],[127.05436,37.70084]]}},{"type":"Feature","properties":{"class":"alley","highway":"service","sidewalk":"unknown","lanes":0,"name":"","oneway":true},"geometry":{"type":"LineString","coordinates":[[127.05416,37.70031],[127.05446,37.70069]]}},{"type":"Feature","properties":{"class":"alley","highway":"service","sidewalk":"unknown","lanes":0,"name":"","oneway":true},"geometry":{"type":"LineString","coordinates":[[127.05401,37.70018],[127.05382,37.70028],[127.05379,37.7003],[127.05378,37.70033],[127.05378,37.70037],[127.0538,37.7004],[127.05385,37.70046]]}},{"type":"Feature","properties":{"class":"alley","highway":"service","sidewalk":"unknown","lanes":0,"name":"","oneway":true},"geometry":{"type":"LineString","coordinates":[[127.05424,37.7001],[127.05401,37.70018],[127.05394,37.70019],[127.05384,37.70019],[127.0538,37.70014],[127.0535,37.69985],[127.05349,37.69982],[127.0535,37.69979],[127.05356,37.69974],[127.05366,37.69976],[127.05389,37.69995],[127.05403,37.70008],[127.0541,37.70008],[127.05424,37.7001]]}},{"type":"Feature","properties":{"class":"major","highway":"trunk","sidewalk":"likely","lanes":2,"name":"동부간선로","oneway":true},"geometry":{"type":"LineString","coordinates":[[127.05494,37.70645],[127.05485,37.70639],[127.05404,37.7058],[127.05351,37.7054],[127.0529,37.70481],[127.05273,37.70462],[127.05254,37.70434],[127.05195,37.70353],[127.0511,37.70234],[127.05026,37.70124]]}},{"type":"Feature","properties":{"class":"minor","highway":"residential","sidewalk":"unknown","lanes":0,"name":"호암로","oneway":false},"geometry":{"type":"LineString","coordinates":[[127.04711,37.70454],[127.047,37.70405],[127.0469,37.70361],[127.04689,37.70355],[127.04672,37.7028],[127.0465,37.70185]]}},{"type":"Feature","properties":{"class":"alley","highway":"living_street","sidewalk":"unknown","lanes":0,"name":"호암로23번길","oneway":false},"geometry":{"type":"LineString","coordinates":[[127.04672,37.7028],[127.04643,37.70287],[127.0463,37.7029],[127.04526,37.70306]]}},{"type":"Feature","properties":{"class":"minor","highway":"residential","sidewalk":"unknown","lanes":0,"name":"호암로","oneway":false},"geometry":{"type":"LineString","coordinates":[[127.0465,37.70185],[127.04633,37.70075],[127.04632,37.70061]]}},{"type":"Feature","properties":{"class":"major","highway":"trunk_link","sidewalk":"likely","lanes":2,"name":"","oneway":true},"geometry":{"type":"LineString","coordinates":[[127.04451,37.70229],[127.04476,37.70175],[127.04526,37.70082]]}},{"type":"Feature","properties":{"class":"major","highway":"trunk","sidewalk":"likely","lanes":2,"name":"호원고가도로","oneway":true},"geometry":{"type":"LineString","coordinates":[[127.04531,37.70095],[127.04543,37.7007],[127.04552,37.70048],[127.04558,37.70027],[127.04562,37.7001],[127.04564,37.69993],[127.04567,37.69965],[127.04567,37.69918]]}},{"type":"Feature","properties":{"class":"major","highway":"trunk_link","sidewalk":"likely","lanes":2,"name":"","oneway":true},"geometry":{"type":"LineString","coordinates":[[127.04625,37.70058],[127.04608,37.70055],[127.04595,37.70053],[127.04587,37.70054],[127.04578,37.70056],[127.0457,37.70061],[127.04561,37.7007]]}},{"type":"Feature","properties":{"class":"major","highway":"trunk_link","sidewalk":"likely","lanes":2,"name":"","oneway":true},"geometry":{"type":"LineString","coordinates":[[127.04561,37.7007],[127.04507,37.70179],[127.04483,37.70218],[127.0446,37.70252]]}},{"type":"Feature","properties":{"class":"alley","highway":"service","sidewalk":"unknown","lanes":0,"name":"","oneway":false},"geometry":{"type":"LineString","coordinates":[[127.04954,37.70482],[127.04853,37.70347]]}},{"type":"Feature","properties":{"class":"minor","highway":"residential","sidewalk":"unknown","lanes":0,"name":"평화로116번길","oneway":false},"geometry":{"type":"LineString","coordinates":[[127.04751,37.70219],[127.04762,37.70218],[127.0487,37.70206],[127.04905,37.70248],[127.04908,37.70252],[127.05026,37.70408]]}},{"type":"Feature","properties":{"class":"alley","highway":"service","sidewalk":"unknown","lanes":0,"name":"","oneway":false},"geometry":{"type":"LineString","coordinates":[[127.04853,37.70347],[127.04866,37.70318],[127.04897,37.70303]]}},{"type":"Feature","properties":{"class":"alley","highway":"service","sidewalk":"unknown","lanes":0,"name":"","oneway":false},"geometry":{"type":"LineString","coordinates":[[127.04908,37.70252],[127.04837,37.7026],[127.04776,37.70267],[127.04761,37.7027]]}},{"type":"Feature","properties":{"class":"major","highway":"secondary_link","sidewalk":"likely","lanes":1,"name":"","oneway":true},"geometry":{"type":"LineString","coordinates":[[127.04741,37.70161],[127.04726,37.70131],[127.04726,37.70131],[127.04718,37.70123],[127.04709,37.70113],[127.04702,37.70107],[127.0469,37.70101],[127.04679,37.70095],[127.04649,37.7007]]}},{"type":"Feature","properties":{"class":"major","highway":"secondary_link","sidewalk":"likely","lanes":1,"name":"","oneway":true},"geometry":{"type":"LineString","coordinates":[[127.04731,37.70042],[127.04741,37.70067],[127.04743,37.70071],[127.04752,37.70082],[127.04763,37.7009],[127.04807,37.70109]]}},{"type":"Feature","properties":{"class":"major","highway":"secondary_link","sidewalk":"likely","lanes":2,"name":"","oneway":true},"geometry":{"type":"LineString","coordinates":[[127.04657,37.70065],[127.04686,37.70071],[127.04697,37.70069],[127.04704,37.70066],[127.04712,37.70063],[127.04723,37.70049]]}},{"type":"Feature","properties":{"class":"major","highway":"secondary_link","sidewalk":"likely","lanes":1,"name":"","oneway":true},"geometry":{"type":"LineString","coordinates":[[127.04765,37.70131],[127.04763,37.70133],[127.04754,37.70141],[127.04747,37.70151],[127.04741,37.70161]]}},{"type":"Feature","properties":{"class":"major","highway":"motorway_link","sidewalk":"likely","lanes":0,"name":"","oneway":true},"geometry":{"type":"LineString","coordinates":[[127.04332,37.70328],[127.04312,37.70412],[127.04302,37.70472],[127.04291,37.70505],[127.04236,37.70607]]}},{"type":"Feature","properties":{"class":"major","highway":"trunk","sidewalk":"likely","lanes":2,"name":"동부간선로","oneway":true},"geometry":{"type":"LineString","coordinates":[[127.05036,37.70119],[127.05111,37.70216],[127.05177,37.70309],[127.05249,37.70409],[127.05282,37.70457],[127.05301,37.70478],[127.05338,37.70515],[127.05378,37.70549],[127.05436,37.70592],[127.05501,37.70639]]}},{"type":"Feature","properties":{"class":"minor","highway":"residential","sidewalk":"unknown","lanes":0,"name":"동일로128번길","oneway":false},"geometry":{"type":"LineString","coordinates":[[127.05481,37.70054],[127.05502,37.70049],[127.05515,37.70045],[127.05532,37.70042],[127.05547,37.70037],[127.05558,37.70031],[127.05574,37.70023],[127.05597,37.70012],[127.05629,37.69998],[127.05635,37.69996],[127.05651,37.6999],[127.05664,37.70002],[127.05672,37.70003],[127.05679,37.70006],[127.05688,37.70024],[127.05691,37.70029],[127.05706,37.70052],[127.05712,37.70065]]}},{"type":"Feature","properties":{"class":"minor","highway":"residential","sidewalk":"unknown","lanes":0,"name":"","oneway":false},"geometry":{"type":"LineString","coordinates":[[127.0555,37.7021],[127.05569,37.70206],[127.05618,37.70196],[127.05652,37.70188],[127.05702,37.70164],[127.0571,37.70158],[127.05715,37.70153],[127.05726,37.70133],[127.05731,37.70124],[127.05737,37.70118],[127.05744,37.70109],[127.05755,37.70102]]}},{"type":"Feature","properties":{"class":"minor","highway":"residential","sidewalk":"unknown","lanes":0,"name":"","oneway":false},"geometry":{"type":"LineString","coordinates":[[127.0571,37.70158],[127.05712,37.70167],[127.05694,37.70222],[127.05695,37.70231],[127.05699,37.70239],[127.05704,37.70243],[127.05716,37.70247],[127.05726,37.7025],[127.05765,37.70259]]}},{"type":"Feature","properties":{"class":"minor","highway":"residential","sidewalk":"unknown","lanes":0,"name":"동일로150번길","oneway":false},"geometry":{"type":"LineString","coordinates":[[127.056,37.70314],[127.05619,37.70307],[127.05626,37.70304],[127.05648,37.70297],[127.05659,37.70299],[127.05665,37.70303],[127.05667,37.70309],[127.05671,37.70317],[127.05672,37.70334],[127.05673,37.70344],[127.05676,37.70351],[127.05684,37.70357],[127.05691,37.70366],[127.05694,37.70375],[127.05696,37.70384],[127.0571,37.70387],[127.05726,37.70393],[127.05741,37.70398],[127.05748,37.70403],[127.05754,37.70417],[127.05762,37.70425],[127.05773,37.70431],[127.05781,37.70437],[127.05791,37.70439],[127.05802,37.70436],[127.0582,37.70426],[127.0583,37.70421],[127.05841,37.70422],[127.05846,37.70425],[127.05848,37.70434],[127.05851,37.70445],[127.05853,37.70454],[127.05856,37.70459],[127.05856,37.70461],[127.05862,37.70468],[127.05868,37.70475]]}},{"type":"Feature","properties":{"class":"minor","highway":"residential","sidewalk":"unknown","lanes":2,"name":"망월로","oneway":false},"geometry":{"type":"LineString","coordinates":[[127.0465,37.70185],[127.0463,37.7019]]}},{"type":"Feature","properties":{"class":"alley","highway":"living_street","sidewalk":"unknown","lanes":0,"name":"","oneway":false},"geometry":{"type":"LineString","coordinates":[[127.0463,37.7019],[127.04631,37.70202],[127.04634,37.70213],[127.04633,37.70219],[127.04632,37.70226],[127.0463,37.70237],[127.04636,37.70262],[127.04643,37.70287]]}},{"type":"Feature","properties":{"class":"alley","highway":"living_street","sidewalk":"unknown","lanes":0,"name":"","oneway":false},"geometry":{"type":"LineString","coordinates":[[127.04625,37.70362],[127.04617,37.70314],[127.04636,37.70311],[127.0464,37.70311],[127.04657,37.70309],[127.04669,37.70361]]}},{"type":"Feature","properties":{"class":"alley","highway":"living_street","sidewalk":"unknown","lanes":0,"name":"","oneway":false},"geometry":{"type":"LineString","coordinates":[[127.04651,37.70361],[127.0464,37.70311]]}},{"type":"Feature","properties":{"class":"alley","highway":"living_street","sidewalk":"unknown","lanes":0,"name":"","oneway":false},"geometry":{"type":"LineString","coordinates":[[127.0463,37.7029],[127.04636,37.70311]]}},{"type":"Feature","properties":{"class":"alley","highway":"service","sidewalk":"unknown","lanes":0,"name":"","oneway":false},"geometry":{"type":"LineString","coordinates":[[127.05481,37.70054],[127.0547,37.7006],[127.05468,37.70062],[127.05466,37.70064],[127.05434,37.70111]]}},{"type":"Feature","properties":{"class":"minor","highway":"residential","sidewalk":"unknown","lanes":0,"name":"","oneway":false},"geometry":{"type":"LineString","coordinates":[[127.05617,37.70076],[127.05608,37.7008],[127.05597,37.70088],[127.05524,37.70101],[127.05503,37.70105]]}},{"type":"Feature","properties":{"class":"alley","highway":"service","sidewalk":"unknown","lanes":0,"name":"","oneway":false},"geometry":{"type":"LineString","coordinates":[[127.05153,37.70234],[127.05152,37.70235],[127.05134,37.70242]]}},{"type":"Feature","properties":{"class":"major","highway":"secondary_link","sidewalk":"likely","lanes":1,"name":"","oneway":true},"geometry":{"type":"LineString","coordinates":[[127.04829,37.70112],[127.04791,37.7012],[127.04778,37.70124],[127.04765,37.70131]]}},{"type":"Feature","properties":{"class":"major","highway":"secondary","sidewalk":"likely","lanes":2,"name":"평화로","oneway":true},"geometry":{"type":"LineString","coordinates":[[127.04625,37.70058],[127.04619,37.70055],[127.04613,37.70053],[127.04572,37.70036],[127.04566,37.70035],[127.04563,37.70034],[127.04551,37.70024]]}},{"type":"Feature","properties":{"class":"major","highway":"secondary","sidewalk":"likely","lanes":4,"name":"평화로","oneway":false},"geometry":{"type":"LineString","coordinates":[[127.04726,37.701],[127.04729,37.70112],[127.04733,37.70127],[127.04736,37.7014],[127.04741,37.70161]]}},{"type":"Feature","properties":{"class":"major","highway":"secondary","sidewalk":"likely","lanes":3,"name":"평화로","oneway":true},"geometry":{"type":"LineString","coordinates":[[127.04551,37.70024],[127.04572,37.70026],[127.04576,37.70026],[127.04582,37.70028],[127.0459,37.70032],[127.04617,37.70042],[127.04621,37.70045],[127.04623,37.70047],[127.0463,37.7005]]}},{"type":"Feature","properties":{"class":"major","highway":"trunk","sidewalk":"likely","lanes":3,"name":"서부로","oneway":true},"geometry":{"type":"LineString","coordinates":[[127.0446,37.70252],[127.04349,37.70458],[127.04257,37.7063]]}},{"type":"Feature","properties":{"class":"major","highway":"trunk","sidewalk":"likely","lanes":2,"name":"호원고가도로","oneway":true},"geometry":{"type":"LineString","coordinates":[[127.04576,37.69918],[127.04574,37.69966],[127.04573,37.69994],[127.04571,37.70012],[127.04567,37.7003],[127.04562,37.70049],[127.04551,37.70073],[127.04538,37.70097]]}},{"type":"Feature","properties":{"class":"minor","highway":"residential","sidewalk":"unknown","lanes":2,"name":"망월로","oneway":false},"geometry":{"type":"LineString","coordinates":[[127.0463,37.7019],[127.04554,37.7021],[127.04544,37.70216],[127.04537,37.70222],[127.04532,37.7023],[127.0453,37.70238],[127.04529,37.70254],[127.04526,37.70306],[127.0452,37.70353],[127.0452,37.70387],[127.04521,37.7042],[127.04522,37.70457]]}},{"type":"Feature","properties":{"class":"alley","highway":"service","sidewalk":"unknown","lanes":0,"name":"","oneway":false},"geometry":{"type":"LineString","coordinates":[[127.05515,37.70045],[127.05523,37.70064]]}},{"type":"Feature","properties":{"class":"alley","highway":"service","sidewalk":"unknown","lanes":0,"name":"","oneway":true},"geometry":{"type":"LineString","coordinates":[[127.05148,37.70159],[127.05152,37.70168],[127.05155,37.70167],[127.0517,37.702],[127.05162,37.70202],[127.05147,37.70169],[127.0515,37.70168],[127.05146,37.70159]]}},{"type":"Feature","properties":{"class":"alley","highway":"service","sidewalk":"unknown","lanes":0,"name":"","oneway":false},"geometry":{"type":"LineString","coordinates":[[127.05205,37.70283],[127.0523,37.70276]]}},{"type":"Feature","properties":{"class":"alley","highway":"service","sidewalk":"unknown","lanes":0,"name":"","oneway":false},"geometry":{"type":"LineString","coordinates":[[127.05073,37.70071],[127.05065,37.70077],[127.05065,37.70084],[127.05085,37.70127],[127.051,37.70148],[127.0512,37.70163],[127.05126,37.70164],[127.05136,37.70162]]}},{"type":"Feature","properties":{"class":"alley","highway":"service","sidewalk":"unknown","lanes":0,"name":"","oneway":false},"geometry":{"type":"LineString","coordinates":[[127.05211,37.7014],[127.05246,37.70212]]}},{"type":"Feature","properties":{"class":"alley","highway":"service","sidewalk":"unknown","lanes":0,"name":"","oneway":false},"geometry":{"type":"LineString","coordinates":[[127.05206,37.70141],[127.05164,37.70051],[127.05154,37.70031],[127.05195,37.70019]]}},{"type":"Feature","properties":{"class":"alley","highway":"service","sidewalk":"unknown","lanes":0,"name":"","oneway":false},"geometry":{"type":"LineString","coordinates":[[127.05136,37.70162],[127.05146,37.70159],[127.05148,37.70159],[127.05169,37.70152],[127.05185,37.70148],[127.05193,37.70145],[127.05206,37.70141],[127.05211,37.7014],[127.05248,37.70129]]}},{"type":"Feature","properties":{"class":"alley","highway":"service","sidewalk":"unknown","lanes":0,"name":"","oneway":false},"geometry":{"type":"LineString","coordinates":[[127.05164,37.70051],[127.05174,37.70048]]}},{"type":"Feature","properties":{"class":"alley","highway":"service","sidewalk":"unknown","lanes":0,"name":"","oneway":false},"geometry":{"type":"LineString","coordinates":[[127.05436,37.70336],[127.05428,37.70339],[127.05422,37.70342],[127.05412,37.70345],[127.05406,37.70347],[127.05398,37.70351],[127.05392,37.70353],[127.05382,37.70356],[127.05374,37.7036],[127.05367,37.70362],[127.05357,37.70366],[127.05343,37.70372],[127.05339,37.70373],[127.05335,37.70375],[127.0533,37.70376],[127.05326,37.70378],[127.05322,37.7038],[127.05314,37.70383],[127.0531,37.70384],[127.05306,37.70386],[127.05303,37.70387],[127.05287,37.70393]]}},{"type":"Feature","properties":{"class":"alley","highway":"service","sidewalk":"unknown","lanes":0,"name":"","oneway":false},"geometry":{"type":"LineString","coordinates":[[127.05136,37.70162],[127.0509,37.70066]]}},{"type":"Feature","properties":{"class":"major","highway":"secondary_link","sidewalk":"likely","lanes":1,"name":"","oneway":true},"geometry":{"type":"LineString","coordinates":[[127.04613,37.70053],[127.04606,37.70048],[127.04604,37.70045],[127.04605,37.70042],[127.0461,37.70041],[127.04617,37.70042]]}},{"type":"Feature","properties":{"class":"major","highway":"secondary","sidewalk":"likely","lanes":4,"name":"평화로","oneway":true},"geometry":{"type":"LineString","coordinates":[[127.04649,37.7007],[127.04639,37.70065],[127.04632,37.70061],[127.04628,37.70059],[127.04625,37.70058]]}},{"type":"Feature","properties":{"class":"major","highway":"tertiary","sidewalk":"likely","lanes":4,"name":"창포원로","oneway":true},"geometry":{"type":"LineString","coordinates":[[127.04743,37.69934],[127.04737,37.69985],[127.04735,37.70003],[127.04733,37.70024],[127.04731,37.70042],[127.0473,37.70076],[127.0473,37.70082],[127.04726,37.701]]}},{"type":"Feature","properties":{"class":"major","highway":"tertiary","sidewalk":"likely","lanes":2,"name":"창포원로","oneway":true},"geometry":{"type":"LineString","coordinates":[[127.04726,37.701],[127.04721,37.7008],[127.04723,37.70049],[127.04725,37.69994],[127.04727,37.69974]]}},{"type":"Feature","properties":{"class":"major","highway":"trunk_link","sidewalk":"likely","lanes":3,"name":"","oneway":true},"geometry":{"type":"LineString","coordinates":[[127.04526,37.70082],[127.04533,37.70065],[127.04536,37.70058],[127.04542,37.70044],[127.04544,37.70041],[127.04551,37.70024]]}},{"type":"Feature","properties":{"class":"major","highway":"trunk_link","sidewalk":"likely","lanes":1,"name":"","oneway":true},"geometry":{"type":"LineString","coordinates":[[127.04438,37.70263],[127.04451,37.70229]]}},{"type":"Feature","properties":{"class":"major","highway":"trunk","sidewalk":"likely","lanes":2,"name":"호원고가도로","oneway":true},"geometry":{"type":"LineString","coordinates":[[127.04438,37.70263],[127.04468,37.70211],[127.04531,37.70095]]}},{"type":"Feature","properties":{"class":"major","highway":"trunk","sidewalk":"likely","lanes":2,"name":"호원고가도로","oneway":true},"geometry":{"type":"LineString","coordinates":[[127.04538,37.70097],[127.04476,37.70213],[127.0446,37.70252]]}},{"type":"Feature","properties":{"class":"major","highway":"secondary","sidewalk":"likely","lanes":7,"name":"서계로","oneway":false},"geometry":{"type":"LineString","coordinates":[[127.05262,37.70426],[127.05147,37.70259],[127.05134,37.70242],[127.05122,37.70224],[127.05104,37.702],[127.05093,37.70184],[127.05085,37.70177],[127.05066,37.70162],[127.05056,37.70157],[127.05035,37.70148],[127.05021,37.70145]]}},{"type":"Feature","properties":{"class":"major","highway":"secondary","sidewalk":"likely","lanes":7,"name":"서계로","oneway":false},"geometry":{"type":"LineString","coordinates":[[127.05021,37.70145],[127.0499,37.70139],[127.04829,37.70112],[127.04812,37.70109]]}},{"type":"Feature","properties":{"class":"major","highway":"secondary","sidewalk":"likely","lanes":7,"name":"서계로","oneway":false},"geometry":{"type":"LineString","coordinates":[[127.04812,37.70109],[127.04807,37.70109],[127.04746,37.70103],[127.04726,37.701]]}},{"type":"Feature","properties":{"class":"major","highway":"secondary","sidewalk":"likely","lanes":4,"name":"평화로","oneway":true},"geometry":{"type":"LineString","coordinates":[[127.0463,37.7005],[127.04651,37.70061],[127.04657,37.70065],[127.0467,37.70078]]}},{"type":"Feature","properties":{"class":"major","highway":"secondary","sidewalk":"likely","lanes":4,"name":"평화로","oneway":true},"geometry":{"type":"LineString","coordinates":[[127.0467,37.70078],[127.04649,37.7007]]}},{"type":"Feature","properties":{"class":"minor","highway":"unclassified","sidewalk":"unknown","lanes":0,"name":"","oneway":false},"geometry":{"type":"LineString","coordinates":[[127.04477,37.70044],[127.04528,37.70041],[127.04536,37.70042]]}},{"type":"Feature","properties":{"class":"minor","highway":"unclassified","sidewalk":"unknown","lanes":0,"name":"","oneway":false},"geometry":{"type":"LineString","coordinates":[[127.04536,37.70042],[127.04542,37.70044]]}},{"type":"Feature","properties":{"class":"minor","highway":"unclassified","sidewalk":"unknown","lanes":0,"name":"","oneway":false},"geometry":{"type":"LineString","coordinates":[[127.04477,37.70044],[127.04487,37.70021],[127.04488,37.70013],[127.04496,37.69998],[127.045,37.6999],[127.04521,37.69961],[127.04529,37.6995]]}},{"type":"Feature","properties":{"class":"minor","highway":"unclassified","sidewalk":"unknown","lanes":0,"name":"","oneway":false},"geometry":{"type":"LineString","coordinates":[[127.04477,37.70044],[127.04433,37.70086]]}},{"type":"Feature","properties":{"class":"major","highway":"primary","sidewalk":"likely","lanes":7,"name":"동일로","oneway":false},"geometry":{"type":"LineString","coordinates":[[127.05481,37.70054],[127.05486,37.70066],[127.05491,37.70076],[127.05503,37.70105],[127.0555,37.7021],[127.05581,37.70281],[127.056,37.70314],[127.05661,37.7044],[127.05675,37.70472]]}},{"type":"Feature","properties":{"class":"major","highway":"secondary","sidewalk":"likely","lanes":7,"name":"평화로","oneway":false},"geometry":{"type":"LineString","coordinates":[[127.04726,37.701],[127.04708,37.70096],[127.04689,37.70088],[127.0467,37.70078]]}},{"type":"Feature","properties":{"class":"major","highway":"trunk","sidewalk":"likely","lanes":2,"name":"동부간선로","oneway":true},"geometry":{"type":"LineString","coordinates":[[127.04995,37.70053],[127.05005,37.70073],[127.05036,37.70119]]}},{"type":"Feature","properties":{"class":"major","highway":"trunk","sidewalk":"likely","lanes":2,"name":"동부간선로","oneway":true},"geometry":{"type":"LineString","coordinates":[[127.05026,37.70124],[127.05013,37.70105],[127.04995,37.70075],[127.04985,37.70057]]}},{"type":"Feature","properties":{"class":"alley","highway":"service","sidewalk":"unknown","lanes":0,"name":"","oneway":true},"geometry":{"type":"LineString","coordinates":[[127.05385,37.70046],[127.05374,37.70038],[127.05371,37.70033],[127.05369,37.7003],[127.0538,37.70023],[127.05381,37.70021],[127.0538,37.70014]]}},{"type":"Feature","properties":{"class":"alley","highway":"service","sidewalk":"unknown","lanes":0,"name":"","oneway":false},"geometry":{"type":"LineString","coordinates":[[127.0575,37.70074],[127.05751,37.70061],[127.05748,37.70054],[127.05747,37.70048],[127.05742,37.70042],[127.05737,37.70035],[127.05734,37.70031]]}},{"type":"Feature","properties":{"class":"alley","highway":"service","sidewalk":"unknown","lanes":0,"name":"","oneway":false},"geometry":{"type":"LineString","coordinates":[[127.05679,37.70006],[127.0569,37.69998],[127.05693,37.69993],[127.05695,37.69987],[127.057,37.69983],[127.05708,37.69979],[127.05712,37.69978],[127.05723,37.69976],[127.05731,37.69975],[127.05736,37.69975],[127.05739,37.69979],[127.05742,37.69981],[127.05745,37.69983],[127.0575,37.69985]]}},{"type":"Feature","properties":{"class":"alley","highway":"service","sidewalk":"unknown","lanes":0,"name":"","oneway":false},"geometry":{"type":"LineString","coordinates":[[127.05688,37.70024],[127.05692,37.70023],[127.05696,37.70022],[127.057,37.70021],[127.05705,37.70019],[127.05715,37.70018],[127.05724,37.70017],[127.0573,37.70017],[127.05736,37.70019]]}},{"type":"Feature","properties":{"class":"alley","highway":"service","sidewalk":"unknown","lanes":0,"name":"동일로128번길","oneway":false},"geometry":{"type":"LineString","coordinates":[[127.05712,37.70065],[127.05716,37.70066],[127.0575,37.70074],[127.05754,37.70075]]}},{"type":"Feature","properties":{"class":"alley","highway":"service","sidewalk":"unknown","lanes":0,"name":"","oneway":false},"geometry":{"type":"LineString","coordinates":[[127.05755,37.70102],[127.05754,37.70075]]}},{"type":"Feature","properties":{"class":"alley","highway":"service","sidewalk":"unknown","lanes":0,"name":"","oneway":false},"geometry":{"type":"LineString","coordinates":[[127.05712,37.70065],[127.05713,37.70069],[127.05716,37.70079]]}},{"type":"Feature","properties":{"class":"alley","highway":"service","sidewalk":"unknown","lanes":0,"name":"","oneway":false},"geometry":{"type":"LineString","coordinates":[[127.05712,37.70065],[127.05707,37.70069],[127.05701,37.70074]]}},{"type":"Feature","properties":{"class":"alley","highway":"service","sidewalk":"unknown","lanes":0,"name":"","oneway":false},"geometry":{"type":"LineString","coordinates":[[127.05696,37.70022],[127.05699,37.70026],[127.05701,37.70027],[127.05708,37.70029],[127.05716,37.70032],[127.05718,37.70035],[127.05718,37.70039],[127.05718,37.70042],[127.05717,37.70044]]}},{"type":"Feature","properties":{"class":"alley","highway":"service","sidewalk":"unknown","lanes":0,"name":"","oneway":false},"geometry":{"type":"LineString","coordinates":[[127.04837,37.7026],[127.04837,37.70265],[127.04838,37.70271],[127.04842,37.7028],[127.04848,37.70284],[127.04866,37.70283]]}},{"type":"Feature","properties":{"class":"major","highway":"trunk_link","sidewalk":"likely","lanes":0,"name":"","oneway":true},"geometry":{"type":"LineString","coordinates":[[127.04533,37.70065],[127.04539,37.70061],[127.04545,37.7006],[127.04552,37.70062],[127.04558,37.70065],[127.04561,37.7007]]}}]}